{
  "type": "FeatureCollection",
  "metadata": {
    "schema_version": "0.2.4",
    "year": 2026,
    "month": 5,
    "wfo": "PDT",
    "start_utc": "2026-05-01T00:00:00Z",
    "end_utc": "2026-06-01T00:00:00Z",
    "generated_utc": "2026-05-28T12:45:24Z",
    "mode": "storm_data_prep",
    "public_release_status": "public-source-derived",
    "time_note": "Storm Data entry times should be reviewed in local Standard Time (ST), not daylight time. Candidate reports include standard_time_display.",
    "tornado_track_policy": "Tornado tracks must come from DAT. NCEI begin/end coordinates are not used as a tornado track substitute.",
    "source": "https://mesonet.agron.iastate.edu/cgi-bin/request/gis/lsr.py?wfo=PDT&sts=2026-05-01T00%3A00%3A00Z&ets=2026-06-01T00%3A00%3A00Z&fmt=csv"
  },
  "features": [
    {
      "type": "Feature",
      "id": "iem-lsr-PDT-1",
      "properties": {
        "report_id": "iem-lsr-PDT-1",
        "report_type": "RAIN",
        "event_category": "other",
        "valid_utc": "202605131300",
        "standard_time_display": "2026-05-13 05:00 PST",
        "wfo": "PDT",
        "county_or_zone": "Kittitas",
        "city": "17 NW Roslyn",
        "state": "WA",
        "magnitude": 0.38,
        "magnitude_units": null,
        "source": "CO-OP Observer",
        "event_narrative": "CO-OP Observer station HYAW1 Hyak."
      },
      "geometry": {
        "type": "Point",
        "coordinates": [
          -121.39,
          47.39
        ]
      }
    },
    {
      "type": "Feature",
      "id": "iem-lsr-PDT-2",
      "properties": {
        "report_id": "iem-lsr-PDT-2",
        "report_type": "RAIN",
        "event_category": "other",
        "valid_utc": "202605131400",
        "standard_time_display": "2026-05-13 06:00 PST",
        "wfo": "PDT",
        "county_or_zone": "Klickitat",
        "city": "1 WNW White Salmon",
        "state": "WA",
        "magnitude": 0.22,
        "magnitude_units": null,
        "source": "Cocorahs",
        "event_narrative": "Cocorahs station WA-KL-6 White Salmon 0.7 WNW."
      },
      "geometry": {
        "type": "Point",
        "coordinates": [
          -121.5,
          45.73
        ]
      }
    },
    {
      "type": "Feature",
      "id": "iem-lsr-PDT-3",
      "properties": {
        "report_id": "iem-lsr-PDT-3",
        "report_type": "RAIN",
        "event_category": "other",
        "valid_utc": "202605131400",
        "standard_time_display": "2026-05-13 06:00 PST",
        "wfo": "PDT",
        "county_or_zone": "Klickitat",
        "city": "18 N White Salmon",
        "state": "WA",
        "magnitude": 0.25,
        "magnitude_units": null,
        "source": "Cocorahs",
        "event_narrative": "Cocorahs station WA-KL-7 0.8 SSW Trout Lake."
      },
      "geometry": {
        "type": "Point",
        "coordinates": [
          -121.54,
          45.99
        ]
      }
    },
    {
      "type": "Feature",
      "id": "iem-lsr-PDT-4",
      "properties": {
        "report_id": "iem-lsr-PDT-4",
        "report_type": "RAIN",
        "event_category": "other",
        "valid_utc": "202605131500",
        "standard_time_display": "2026-05-13 07:00 PST",
        "wfo": "PDT",
        "county_or_zone": "Morrow",
        "city": "1 NW Heppner",
        "state": "OR",
        "magnitude": 0.28,
        "magnitude_units": null,
        "source": "CO-OP Observer",
        "event_narrative": "CO-OP Observer station HEPO3 0.9 NW Heppner."
      },
      "geometry": {
        "type": "Point",
        "coordinates": [
          -119.56,
          45.37
        ]
      }
    },
    {
      "type": "Feature",
      "id": "iem-lsr-PDT-5",
      "properties": {
        "report_id": "iem-lsr-PDT-5",
        "report_type": "RAIN",
        "event_category": "other",
        "valid_utc": "202605131753",
        "standard_time_display": "2026-05-13 09:53 PST",
        "wfo": "PDT",
        "county_or_zone": "Kittitas",
        "city": "3 NNE Ellensburg",
        "state": "WA",
        "magnitude": 0.23,
        "magnitude_units": null,
        "source": "ASOS",
        "event_narrative": "ASOS station KELN Ellensburg Airport."
      },
      "geometry": {
        "type": "Point",
        "coordinates": [
          -120.53,
          47.03
        ]
      }
    },
    {
      "type": "Feature",
      "id": "iem-lsr-PDT-6",
      "properties": {
        "report_id": "iem-lsr-PDT-6",
        "report_type": "RAIN",
        "event_category": "other",
        "valid_utc": "202605131756",
        "standard_time_display": "2026-05-13 09:56 PST",
        "wfo": "PDT",
        "county_or_zone": "Kittitas",
        "city": "11 WNW Roslyn",
        "state": "WA",
        "magnitude": 0.72,
        "magnitude_units": null,
        "source": "ASOS",
        "event_narrative": "ASOS station KSMP Stampede Pass."
      },
      "geometry": {
        "type": "Point",
        "coordinates": [
          -121.33,
          47.28
        ]
      }
    }
  ]
}