{
  "type": "FeatureCollection",
  "name": "cwa",
  "crs": {
    "type": "name",
    "properties": {
      "name": "urn:ogc:def:crs:OGC:1.3:CRS84"
    }
  },
  "features": [
    {
      "type": "Feature",
      "properties": {
        "WFO": "RAH",
        "CWA": "RAH",
        "STATE": "North Carolina",
        "ST": "NC",
        "CITYSTATE": "Raleigh NC"
      },
      "geometry": {
        "type": "Polygon",
        "coordinates": [
          [
            [
              -77.90019989031265,
              36.544712067208195
            ],
            [
              -77.8977966311096,
              36.50741195689636
            ],
            [
              -77.8918991091565,
              36.512012481990496
            ],
            [
              -77.8835983280004,
              36.50621032684518
            ],
            [
              -77.87719726574119,
              36.50631332440048
            ],
            [
              -77.870994567845,
              36.50391387922218
            ],
            [
              -77.8657989505611,
              36.50351333557205
            ],
            [
              -77.85909271235874,
              36.50651168786413
            ],
            [
              -77.83189392126741,
              36.50101089463715
            ],
            [
              -77.81889343328527,
              36.50081253117344
            ],
            [
              -77.79029846180453,
              36.49181366027227
            ],
            [
              -77.77529907229433,
              36.48251342835209
            ],
            [
              -77.76789856017035,
              36.48061370765652
            ],
            [
              -77.76239776604405,
              36.48201370207073
            ],
            [
              -77.7540969848879,
              36.47901153575384
            ],
            [
              -77.74269866880849,
              36.47981262215484
            ],
            [
              -77.72959899909449,
              36.486911774159125
            ],
            [
              -77.72529602099456,
              36.48761367792895
            ],
            [
              -77.7097930911782,
              36.48721313517808
            ],
            [
              -77.69409942594768,
              36.48181152278357
            ],
            [
              -77.68059539855875,
              36.47921371504094
            ],
            [
              -77.66109466658554,
              36.47961044286768
            ],
            [
              -77.64859771711093,
              36.48161315931992
            ],
            [
              -77.64539337240615,
              36.48071289118701
            ],
            [
              -77.64049530031781,
              36.47671127320672
            ],
            [
              -77.6309967040346,
              36.45141220101232
            ],
            [
              -77.62559509343879,
              36.44541168240329
            ],
            [
              -77.62169647211448,
              36.44341278087518
            ],
            [
              -77.61609649715558,
              36.44371032697006
            ],
            [
              -77.60959625226519,
              36.43701171861596
            ],
            [
              -77.59519958479297,
              36.43311309819097
            ],
            [
              -77.59159851136218,
              36.430812835643906
            ],
            [
              -77.59029388375569,
              36.42541122414872
            ],
            [
              -77.58629608159885,
              36.422111510837624
            ],
            [
              -77.58099365183551,
              36.424110413265
            ],
            [
              -77.57659912095261,
              36.42361068698369
            ],
            [
              -77.55649566694143,
              36.41841125477566
            ],
            [
              -77.54939270001307,
              36.41171264642156
            ],
            [
              -77.54470062303528,
              36.39521408076524
            ],
            [
              -77.54689788802705,
              36.37571334789277
            ],
            [
              -77.54869842519213,
              36.371410369792784
            ],
            [
              -77.55509948655202,
              36.36881256115083
            ],
            [
              -77.56329345702738,
              36.36201095614075
            ],
            [
              -77.57659912095261,
              36.35451126138565
            ],
            [
              -77.57989502023895,
              36.350410460774185
            ],
            [
              -77.5855941769297,
              36.33571243318232
            ],
            [
              -77.5771942140417,
              36.328113555795994
            ],
            [
              -77.57179260344583,
              36.31451034487657
            ],
            [
              -77.55749511680614,
              36.30581283589373
            ],
            [
              -77.54359435979183,
              36.303012847964624
            ],
            [
              -77.52409362781862,
              36.30681228575844
            ],
            [
              -77.49479675256805,
              36.30831146190451
            ],
            [
              -77.48369598438211,
              36.31651306222807
            ],
            [
              -77.47619628872769,
              36.31721115107382
            ],
            [
              -77.46749877884554,
              36.321510315149
            ],
            [
              -77.44279479974017,
              36.32441329973403
            ],
            [
              -77.43849945058912,
              36.32141113341714
            ],
            [
              -77.43399810812616,
              36.31351089501186
            ],
            [
              -77.42099762014402,
              36.298713683889446
            ],
            [
              -77.41489410397969,
              36.2938117977763
            ],
            [
              -77.41269683808855,
              36.284011841373456
            ],
            [
              -77.41299438508275,
              36.2739105221529
            ],
            [
              -77.40989685105882,
              36.26391220138703
            ],
            [
              -77.3825988773363,
              36.25031280539173
            ],
            [
              -77.37809753397397,
              36.24621200567958
            ],
            [
              -77.37659454290377,
              36.238712310924484
            ],
            [
              -77.38569641136024,
              36.21681213377303
            ],
            [
              -77.38659668039247,
              36.212711334060884
            ],
            [
              -77.38459777796504,
              36.20951080338091
            ],
            [
              -77.35879516636379,
              36.19791030891366
            ],
            [
              -77.35129547070937,
              36.191513061578576
            ],
            [
              -77.34189605705734,
              36.18971252441355
            ],
            [
              -77.32979583720811,
              36.19241332971143
            ],
            [
              -77.31990051309816,
              36.182010651270616
            ],
            [
              -77.3092956535715,
              36.18051147512455
            ],
            [
              -77.31289672880098,
              36.17341232312026
            ],
            [
              -77.31119537426707,
              36.1697120670583
            ],
            [
              -77.30269622784857,
              36.16541290298312
            ],
            [
              -77.29560089076847,
              36.165710449078006
            ],
            [
              -77.28839874300752,
              36.16951370179595
            ],
            [
              -77.2858963011733,
              36.16911315904508
            ],
            [
              -77.28049469057748,
              36.164913176701816
            ],
            [
              -77.27749633828535,
              36.15871047970495
            ],
            [
              -77.27459716772506,
              36.15741348284598
            ],
            [
              -77.2634964004385,
              36.15871047970495
            ],
            [
              -77.26689911040557,
              36.15061187693664
            ],
            [
              -77.26569366543026,
              36.14091110226559
            ],
            [
              -77.25090026923198,
              36.1351127620444
            ],
            [
              -77.25049591155704,
              36.13231277501461
            ],
            [
              -77.25429534935085,
              36.1251106263544
            ],
            [
              -77.25379943799362,
              36.12271118207542
            ],
            [
              -77.24069976827963,
              36.12121200592941
            ],
            [
              -77.23989868187863,
              36.119411468764326
            ],
            [
              -77.24969482425672,
              36.117412567236215
            ],
            [
              -77.25099945096383,
              36.11561203007119
            ],
            [
              -77.24299621590262,
              36.112010955741084
            ],
            [
              -77.23449707038344,
              36.111110686708855
            ],
            [
              -77.23089599605333,
              36.109012604348266
            ],
            [
              -77.22999572792048,
              36.10481262200494
            ],
            [
              -77.24299621590262,
              36.09671402013595
            ],
            [
              -77.27029418872581,
              36.0993118287779
            ],
            [
              -77.28099822998428,
              36.09701156623083
            ],
            [
              -77.29119873003731,
              36.09111404427779
            ],
            [
              -77.31259918180677,
              36.08861160334288
            ],
            [
              -77.31609344455677,
              36.08531189003173
            ],
            [
              -77.31849670375982,
              36.079311371422705
            ],
            [
              -77.32559204083998,
              36.076511382594276
            ],
            [
              -77.33149719174196,
              36.07161331230458
            ],
            [
              -77.3971939091715,
              36.01011276229417
            ],
            [
              -77.4042968752006,
              36.00541305456886
            ],
            [
              -77.40909576375844,
              35.998710632189955
            ],
            [
              -77.34259796082722,
              35.90551376265006
            ],
            [
              -77.34519958529256,
              35.87451171884078
            ],
            [
              -77.34929657008058,
              35.867511748568404
            ],
            [
              -77.35059356693955,
              35.819213866726614
            ],
            [
              -77.39049529991814,
              35.83211135895209
            ],
            [
              -77.39199829098828,
              35.82861328127797
            ],
            [
              -77.39669799781433,
              35.82541274969867
            ],
            [
              -77.40959930406461,
              35.826213836999045
            ],
            [
              -77.41220092942933,
              35.825111388679716
            ],
            [
              -77.41709899881971,
              35.81171035794671
            ],
            [
              -77.42419433589987,
              35.80591201772546
            ],
            [
              -77.428794860994,
              35.8053131097123
            ],
            [
              -77.44629669233842,
              35.808212280272585
            ],
            [
              -77.45129394525935,
              35.8014106752625
            ],
            [
              -77.4722976683027,
              35.80111312916762
            ],
            [
              -77.51619720523678,
              35.76111221265853
            ],
            [
              -77.55619811994723,
              35.73981094441962
            ],
            [
              -77.67759704626661,
              35.6677131647308
            ],
            [
              -77.69919586239911,
              35.65171051043177
            ],
            [
              -77.70299530019292,
              35.65051269530471
            ],
            [
              -77.75369262721296,
              35.61581039363483
            ],
            [
              -77.82359314011131,
              35.57271194490039
            ],
            [
              -77.82429504388114,
              35.499214171696735
            ],
            [
              -77.82679748481604,
              35.46931076038334
            ],
            [
              -77.82659912135233,
              35.42981338507968
            ],
            [
              -77.82439422741163,
              35.42331314108867
            ],
            [
              -77.8194961553233,
              35.41771316523045
            ],
            [
              -77.80619812034695,
              35.40781402619638
            ],
            [
              -77.80059814538805,
              35.383510589841876
            ],
            [
              -77.80399322640625,
              35.3717117310116
            ],
            [
              -77.81699371258975,
              35.35891342231662
            ],
            [
              -77.82439422741163,
              35.343914031907104
            ],
            [
              -77.83429717957114,
              35.177810669127155
            ],
            [
              -77.88469695959697,
              35.162014008140034
            ],
            [
              -77.89249420224559,
              35.156612395745526
            ],
            [
              -77.89399719241646,
              35.15371322608456
            ],
            [
              -77.89259338397744,
              35.14721298209349
            ],
            [
              -77.89999389610136,
              35.15051269540464
            ],
            [
              -77.90969848659586,
              35.15821075362345
            ],
            [
              -77.90989685095889,
              35.161811828852876
            ],
            [
              -77.91489410387976,
              35.16681289669788
            ],
            [
              -77.92559814513822,
              35.172412871656775
            ],
            [
              -77.92969512902692,
              35.17341232332012
            ],
            [
              -77.93569946256014,
              35.171310425136085
            ],
            [
              -77.94389343303544,
              35.172412871656775
            ],
            [
              -77.95379638699364,
              35.16561126664669
            ],
            [
              -77.96909332259872,
              35.166110992028734
            ],
            [
              -77.97869872956267,
              35.17101287814188
            ],
            [
              -77.98410034195717,
              35.183212279722966
            ],
            [
              -77.99469757073626,
              35.183212279722966
            ],
            [
              -77.99969482455646,
              35.18811035181136
            ],
            [
              -78.00579833982147,
              35.190612792746265
            ],
            [
              -78.01579284656259,
              35.19091033884109
            ],
            [
              -78.02029418902555,
              35.193611145038346
            ],
            [
              -78.03730010991211,
              35.191913605428624
            ],
            [
              -78.04389953743367,
              35.192710876006174
            ],
            [
              -78.0762939449096,
              35.17571258496787
            ],
            [
              -78.16349768556972,
              35.18941112492354
            ],
            [
              -78.16479492344695,
              35.17841339116512
            ],
            [
              -78.16289520275137,
              35.13701248204046
            ],
            [
              -78.17109680217567,
              35.115013123157155
            ],
            [
              -78.17160034158246,
              35.093612671387746
            ],
            [
              -78.15959930436435,
              35.07981109610523
            ],
            [
              -78.15539550799627,
              35.037712097235556
            ],
            [
              -78.14689636157777,
              34.902111052882844
            ],
            [
              -78.2001953130632,
              34.73721313507815
            ],
            [
              -78.1496963504062,
              34.721714020185914
            ],
            [
              -78.13389587359563,
              34.70981216380039
            ],
            [
              -78.12509918198162,
              34.71311187711149
            ],
            [
              -78.11298370423452,
              34.72151184089881
            ],
            [
              -78.11298370423452,
              34.713310242373836
            ],
            [
              -78.11508178659511,
              34.70651245138856
            ],
            [
              -78.15628051823131,
              34.67841339126505
            ],
            [
              -78.2546844480288,
              34.553512573246735
            ],
            [
              -78.25989532500921,
              34.55631256117579
            ],
            [
              -78.252693176349,
              34.56201171876586
            ],
            [
              -78.25529479991502,
              34.56821060173792
            ],
            [
              -78.25739288317499,
              34.56851196275693
            ],
            [
              -78.26149749781126,
              34.57301330611921
            ],
            [
              -78.26679992757454,
              34.5836105348983
            ],
            [
              -78.2742004387992,
              34.58231353803939
            ],
            [
              -78.28099822978442,
              34.59061050427141
            ],
            [
              -78.29189300555771,
              34.59791183466348
            ],
            [
              -78.29249572759574,
              34.60081100522376
            ],
            [
              -78.30049896175763,
              34.60071182259259
            ],
            [
              -78.30379486104397,
              34.6029129034078
            ],
            [
              -78.30469512917682,
              34.610210418875795
            ],
            [
              -78.3079986574121,
              34.61311340256151
            ],
            [
              -78.31079864534115,
              34.6121139526968
            ],
            [
              -78.31349945243772,
              34.61831283566886
            ],
            [
              -78.31329345732718,
              34.62501144402296
            ],
            [
              -78.31949615522336,
              34.62761306758904
            ],
            [
              -78.32129669238839,
              34.63021087623099
            ],
            [
              -78.31459808313497,
              34.63351059044146
            ],
            [
              -78.31579589826208,
              34.636413574127175
            ],
            [
              -78.31159973084289,
              34.64091110166606
            ],
            [
              -78.31430053704014,
              34.64471054125852
            ],
            [
              -78.31699371338914,
              34.645111084009386
            ],
            [
              -78.32379913332329,
              34.65071105986755
            ],
            [
              -78.32249450841482,
              34.65361022862919
            ],
            [
              -78.3257980348514,
              34.657413483145774
            ],
            [
              -78.3257980348514,
              34.66881179832586
            ],
            [
              -78.34679412804655,
              34.68121337919416
            ],
            [
              -78.34479522741776,
              34.683612822573764
            ],
            [
              -78.34579467818179,
              34.68651199313405
            ],
            [
              -78.35099792531395,
              34.69211196899221
            ],
            [
              -78.35509491010197,
              34.690711974577994
            ],
            [
              -78.3577957153999,
              34.69291305539326
            ],
            [
              -78.3610992427358,
              34.69151306187837
            ],
            [
              -78.36229705786292,
              34.69311141975629
            ],
            [
              -78.3610992427358,
              34.694511414170506
            ],
            [
              -78.36569976783,
              34.6942138671763
            ],
            [
              -78.37309265100498,
              34.700710297142564
            ],
            [
              -78.3695983891543,
              34.70061111541071
            ],
            [
              -78.37089538601322,
              34.702713012695426
            ],
            [
              -78.36889648358579,
              34.70381164609063
            ],
            [
              -78.37689972044569,
              34.71021270834984
            ],
            [
              -78.37709808301008,
              34.71381378178063
            ],
            [
              -78.38169860810422,
              34.71801376322463
            ],
            [
              -78.37989807093919,
              34.723911285177735
            ],
            [
              -78.3826980588683,
              34.72381210344588
            ],
            [
              -78.3837966922635,
              34.72661209137499
            ],
            [
              -78.39199829078848,
              34.72981262205491
            ],
            [
              -78.39029693625457,
              34.73611068675882
            ],
            [
              -78.38769531358781,
              34.73781204219205
            ],
            [
              -78.3923950204138,
              34.74281311003705
            ],
            [
              -78.39019775542204,
              34.7461128233482
            ],
            [
              -78.3923950204138,
              34.75041198742332
            ],
            [
              -78.3987960817737,
              34.751010895436536
            ],
            [
              -78.40299987814183,
              34.754013061753426
            ],
            [
              -78.41159820629213,
              34.76561355622067
            ],
            [
              -78.4208984382123,
              34.767211914098596
            ],
            [
              -78.43000030487013,
              34.7772140497886
            ],
            [
              -78.42919921936846,
              34.78101348938111
            ],
            [
              -78.4370956419503,
              34.78451156615591
            ],
            [
              -78.4381942753455,
              34.79201126091101
            ],
            [
              -78.44479370106842,
              34.797813416056385
            ],
            [
              -78.44209289577049,
              34.80001068104815
            ],
            [
              -78.44329833984648,
              34.802513122882374
            ],
            [
              -78.44939422616255,
              34.80861282322326
            ],
            [
              -78.44839477539853,
              34.81151199288422
            ],
            [
              -78.4498977655694,
              34.81321334831745
            ],
            [
              -78.4592971801207,
              34.813510895311595
            ],
            [
              -78.45909881575773,
              34.81971359320784
            ],
            [
              -78.46129608344745,
              34.8219108581996
            ],
            [
              -78.46489715597892,
              34.82151413037286
            ],
            [
              -78.46689605840635,
              34.8234138492698
            ],
            [
              -78.4651947020738,
              34.82671356168157
            ],
            [
              -78.47480010993706,
              34.83291244465363
            ],
            [
              -78.48159790002302,
              34.836112976232926
            ],
            [
              -78.48559570307918,
              34.83581161521391
            ],
            [
              -78.4881973284439,
              34.838012695129805
            ],
            [
              -78.49249267579631,
              34.84401321373889
            ],
            [
              -78.49250030474525,
              34.849514007865196
            ],
            [
              -78.49519348109425,
              34.855812072569165
            ],
            [
              -78.50519561858289,
              34.852710723621044
            ],
            [
              -78.5156936647308,
              34.846012115266944
            ],
            [
              -78.53339386043825,
              34.85091018735534
            ],
            [
              -78.8002929692451,
              34.85001373324724
            ],
            [
              -78.84289550842095,
              34.84741210878184
            ],
            [
              -78.90129852440731,
              34.834312439067844
            ],
            [
              -78.90459442099569,
              34.83581161521391
            ],
            [
              -78.92649841307127,
              34.86411285372526
            ],
            [
              -78.92179870624528,
              34.86951065119564
            ],
            [
              -78.92630004870824,
              34.88531112710689
            ],
            [
              -78.93009948740138,
              34.89081192033393
            ],
            [
              -78.93969726631576,
              34.89871215783984
            ],
            [
              -78.93969726631576,
              34.90101242128628
            ],
            [
              -78.94289398207155,
              34.90441131632923
            ],
            [
              -78.94769287242809,
              34.90571212811227
            ],
            [
              -78.95569610658998,
              34.9134101872304
            ],
            [
              -79.03489685140852,
              34.95401382397887
            ],
            [
              -79.19059753394902,
              34.83401107804889
            ],
            [
              -79.348800659223,
              34.83831024212401
            ],
            [
              -79.35359954778085,
              34.82351303100165
            ],
            [
              -79.35679626533533,
              34.81881332417561
            ],
            [
              -79.351493835572,
              34.81261062627942
            ],
            [
              -79.3460006712939,
              34.79751205413805
            ],
            [
              -79.33110046441487,
              34.77471160885369
            ],
            [
              -79.33159637487279,
              34.77291107168867
            ],
            [
              -79.46159362844315,
              34.63031387288697
            ],
            [
              -79.67529296929507,
              34.80471038787414
            ],
            [
              -79.76059722937862,
              34.80601119965718
            ],
            [
              -79.87479400613842,
              34.80541229164402
            ],
            [
              -80.32039642295649,
              34.81401061979432
            ],
            [
              -80.29850006072917,
              35.01331329317401
            ],
            [
              -80.2762985225587,
              35.196212768604425
            ],
            [
              -80.28209686277995,
              35.195110321184416
            ],
            [
              -80.28419494603992,
              35.192314148179435
            ],
            [
              -80.2873992934426,
              35.19181060787332
            ],
            [
              -80.29179382342619,
              35.19411087042039
            ],
            [
              -80.29570007280006,
              35.19411087042039
            ],
            [
              -80.30359649718054,
              35.18811035181136
            ],
            [
              -80.30499267577136,
              35.183013916259256
            ],
            [
              -80.31859588579147,
              35.17991256731119
            ],
            [
              -80.32179260334595,
              35.17351150505198
            ],
            [
              -80.3290939328387,
              35.17681121836307
            ],
            [
              -80.33589935277286,
              35.173713684339134
            ],
            [
              -80.33999633756088,
              35.17411041306514
            ],
            [
              -80.34529876732421,
              35.169612884626986
            ],
            [
              -80.35159301800331,
              35.169113159244944
            ],
            [
              -80.35529327406533,
              35.16561126664669
            ],
            [
              -80.3584976205687,
              35.16551208491484
            ],
            [
              -80.36399841289642,
              35.170310974372
            ],
            [
              -80.36599731442448,
              35.175613403236014
            ],
            [
              -80.37019348094435,
              35.17961120629218
            ],
            [
              -80.37709808440906,
              35.17711257938208
            ],
            [
              -80.38059997610799,
              35.17211151063776
            ],
            [
              -80.38990020802817,
              35.16581344593385
            ],
            [
              -80.40439605723219,
              35.16681289669788
            ],
            [
              -80.40799713156235,
              35.164413452418955
            ],
            [
              -80.41269683838834,
              35.16401290876877
            ],
            [
              -80.41629791271845,
              35.17071151712287
            ],
            [
              -80.41969299283733,
              35.17251205428795
            ],
            [
              -80.42939758333176,
              35.16671371496602
            ],
            [
              -80.43639373778075,
              35.16471099941316
            ],
            [
              -80.4385986344194,
              35.162212371603744
            ],
            [
              -80.44179534927594,
              35.161811828852876
            ],
            [
              -80.44849395942867,
              35.165210723895825
            ],
            [
              -80.45889282204604,
              35.16531372055181
            ],
            [
              -80.46419525091005,
              35.170310974372
            ],
            [
              -80.46829986644565,
              35.16701126106091
            ],
            [
              -80.47619628902748,
              35.17221069326894
            ],
            [
              -80.47859954823053,
              35.179313660197295
            ],
            [
              -80.48309326174461,
              35.17961120629218
            ],
            [
              -80.48529815658463,
              35.17681121836307
            ],
            [
              -80.48899841444523,
              35.17581176759904
            ],
            [
              -80.49339294442882,
              35.17901229917834
            ],
            [
              -80.50359344538117,
              35.182113647227084
            ],
            [
              -80.50549316427805,
              35.18511200041854
            ],
            [
              -80.504295349151,
              35.18811035181136
            ],
            [
              -80.50619506804793,
              35.19231033325531
            ],
            [
              -80.49249267629591,
              35.20761108378451
            ],
            [
              -80.48389434814561,
              35.21241378816586
            ],
            [
              -80.47779846182954,
              35.224811554109976
            ],
            [
              -80.29539489685698,
              35.503112793021046
            ],
            [
              -80.18199920739744,
              35.5043106081481
            ],
            [
              -80.18439483585297,
              35.507213592733194
            ],
            [
              -80.18409728975809,
              35.51661300728449
            ],
            [
              -80.19079589811219,
              35.52591323920467
            ],
            [
              -80.19699859600837,
              35.53091049212554
            ],
            [
              -80.19559478756935,
              35.53731155438476
            ],
            [
              -80.19960021957445,
              35.54621124265475
            ],
            [
              -80.20929718022063,
              35.55191040024482
            ],
            [
              -80.21049499534774,
              35.557010650721
            ],
            [
              -80.2072982795919,
              35.57071304337228
            ],
            [
              -80.20789337178167,
              35.57951354991047
            ],
            [
              -80.2141952514097,
              35.585613251150676
            ],
            [
              -80.23159790012295,
              35.59661102268058
            ],
            [
              -80.24079895031127,
              35.612010955841015
            ],
            [
              -80.24669647226432,
              35.617210388049045
            ],
            [
              -80.25740051442216,
              35.62311172492622
            ],
            [
              -80.26200103771765,
              35.62811279277122
            ],
            [
              -80.26889801043478,
              35.631313324350515
            ],
            [
              -80.28149414074198,
              35.63311386061622
            ],
            [
              -80.28820037804496,
              35.63591384944465
            ],
            [
              -80.29439544699227,
              35.64471054105866
            ],
            [
              -80.30539703434562,
              35.65591049187577
            ],
            [
              -80.30780029444799,
              35.66711044269283
            ],
            [
              -80.31419372595963,
              35.67141342169214
            ],
            [
              -80.32849883974961,
              35.67701339665098
            ],
            [
              -80.33329772920678,
              35.68421173128644
            ],
            [
              -80.33389282229587,
              35.693210602187605
            ],
            [
              -80.32439422601266,
              35.70431137127281
            ],
            [
              -80.32399749818597,
              35.70721054093377
            ],
            [
              -80.32489776631883,
              35.71041107161369
            ],
            [
              -80.33229827934207,
              35.71911239642003
            ],
            [
              -80.3408966065931,
              35.72121047967994
            ],
            [
              -80.35649871814127,
              35.71781158373767
            ],
            [
              -80.37319946308469,
              35.71681213387291
            ],
            [
              -80.38249969500487,
              35.71951293917084
            ],
            [
              -80.38819885259494,
              35.719211578151885
            ],
            [
              -80.39629364043913,
              35.72511291502906
            ],
            [
              -80.40459442159522,
              35.72231292709995
            ],
            [
              -80.41329956132563,
              35.722412108831804
            ],
            [
              -80.44229888958205,
              35.73451232868109
            ],
            [
              -80.45330047603608,
              35.734611511312266
            ],
            [
              -80.45800018286212,
              35.740612029921294
            ],
            [
              -80.46009826702135,
              35.74861145005843
            ],
            [
              -80.45249939143372,
              35.758811951010784
            ],
            [
              -80.45109558119606,
              35.76731109563059
            ],
            [
              -80.45549774192722,
              35.773311615138994
            ],
            [
              -80.47349548283023,
              35.78461074768791
            ],
            [
              -80.47679901106545,
              35.78961181643223
            ],
            [
              -80.47639465339051,
              35.79381179787623
            ],
            [
              -80.47279357906041,
              35.79881286572123
            ],
            [
              -80.46509551994228,
              35.80251312268251
            ],
            [
              -80.46540069588536,
              35.808612823023395
            ],
            [
              -80.47209930423946,
              35.825111388679716
            ],
            [
              -80.47839355491857,
              35.83101272555689
            ],
            [
              -80.48600006125378,
              35.83121108991992
            ],
            [
              -80.48759460420757,
              35.83381271438532
            ],
            [
              -80.48169708315385,
              35.841114043878065
            ],
            [
              -80.47659301775354,
              35.843711853419336
            ],
            [
              -80.47389984140455,
              35.84251403829228
            ],
            [
              -80.46450042685319,
              35.828311920258955
            ],
            [
              -80.46029663138438,
              35.826610564825785
            ],
            [
              -80.45529937756419,
              35.8274116521261
            ],
            [
              -80.44580078128098,
              35.83641052212795
            ],
            [
              -80.43509674092184,
              35.828113555895925
            ],
            [
              -80.43009948710159,
              35.82951355031014
            ],
            [
              -80.42720031744068,
              35.834613799886995
            ],
            [
              -80.42559814643727,
              35.84841156024538
            ],
            [
              -80.42339324979861,
              35.8516120909253
            ],
            [
              -80.4155960080493,
              35.85211181630734
            ],
            [
              -80.40839386028836,
              35.84601211506708
            ],
            [
              -80.39939880431132,
              35.84161377015943
            ],
            [
              -80.3914947509819,
              35.84271240175599
            ],
            [
              -80.38839721695797,
              35.84571075404813
            ],
            [
              -80.38559722902886,
              35.85471343987342
            ],
            [
              -80.38949585035317,
              35.86771392785556
            ],
            [
              -80.39579772908189,
              35.87201309193068
            ],
            [
              -80.41299438538255,
              35.877910613883785
            ],
            [
              -80.41609954835542,
              35.881412505582716
            ],
            [
              -80.41439819292225,
              35.885513306194184
            ],
            [
              -80.40849304202021,
              35.891311646415375
            ],
            [
              -80.39649963375103,
              35.892810821662124
            ],
            [
              -80.38890075726408,
              35.89141082814723
            ],
            [
              -80.37779235833062,
              35.88521194517517
            ],
            [
              -80.37199401900875,
              35.884811400625665
            ],
            [
              -80.36529540975533,
              35.89411163344516
            ],
            [
              -80.37490081941723,
              35.91241073626651
            ],
            [
              -80.37339782744772,
              35.91821289141188
            ],
            [
              -80.36879730235358,
              35.925312041617474
            ],
            [
              -80.36879730235358,
              35.9295120239608
            ],
            [
              -80.37549591070768,
              35.94101333579687
            ],
            [
              -80.37479400603848,
              35.95561218255625
            ],
            [
              -80.37799835344123,
              35.962211609178496
            ],
            [
              -80.38129425002955,
              35.9648132318452
            ],
            [
              -80.3903961175867,
              35.96751403804245
            ],
            [
              -80.39509582531207,
              35.9733123782637
            ],
            [
              -80.41179657025549,
              35.98061370775645
            ],
            [
              -80.42179870594549,
              35.98841095040507
            ],
            [
              -80.42189788857667,
              35.99411392201995
            ],
            [
              -80.41359710742051,
              36.00171279940622
            ],
            [
              -80.41879272470442,
              36.016513823654066
            ],
            [
              -80.44149780318105,
              36.03031158401245
            ],
            [
              -80.4473953251341,
              36.039012908818734
            ],
            [
              -80.45589446975396,
              36.04761123696909
            ],
            [
              -80.45909881625732,
              36.05801391630922
            ],
            [
              -80.4632949827772,
              36.0623130803844
            ],
            [
              -80.47219848597132,
              36.0608100893142
            ],
            [
              -80.47499847390043,
              36.05671310362686
            ],
            [
              -80.47429657013055,
              36.05091095028018
            ],
            [
              -80.48639678997984,
              36.04351043725694
            ],
            [
              -80.491600037112,
              36.04341125462577
            ],
            [
              -80.50419616741914,
              36.051612854050006
            ],
            [
              -80.50829315220716,
              36.057712555290266
            ],
            [
              -80.5093994145513,
              36.07181167576829
            ],
            [
              -80.51629638726843,
              36.082813263121636
            ],
            [
              -80.51609802200608,
              36.09191131575466
            ],
            [
              -80.51039886531532,
              36.09761047424405
            ],
            [
              -80.50740051302324,
              36.107410430646894
            ],
            [
              -80.48690033028595,
              36.11601257282206
            ],
            [
              -80.47449493359426,
              36.1184120180003
            ],
            [
              -80.46389770481517,
              36.11751174896807
            ],
            [
              -80.46029663138438,
              36.118911743382284
            ],
            [
              -80.45369720476214,
              36.12251281681307
            ],
            [
              -80.43929290834103,
              36.13811111523586
            ],
            [
              -80.44309997598305,
              36.15521240203077
            ],
            [
              -80.436798096355,
              36.16901016238916
            ],
            [
              -80.44369506817281,
              36.17991256711133
            ],
            [
              -80.44339752207793,
              36.18301391605945
            ],
            [
              -80.4395980833848,
              36.18791198724847
            ],
            [
              -80.43979644774782,
              36.19181060767346
            ],
            [
              -80.44619751000704,
              36.20821380562268
            ],
            [
              -80.44119262723791,
              36.21361160309306
            ],
            [
              -80.4328994750307,
              36.21561050372185
            ],
            [
              -80.43209839042834,
              36.21821212818719
            ],
            [
              -80.43799591058274,
              36.23031234713716
            ],
            [
              -80.45240020790322,
              36.241512298853536
            ],
            [
              -80.45199585022829,
              36.26151275620879
            ],
            [
              -80.02629852305836,
              36.257511139127814
            ],
            [
              -79.74979400638824,
              36.24721145644361
            ],
            [
              -79.53450012258253,
              36.24141311622236
            ],
            [
              -79.53239440857504,
              36.241512298853536
            ],
            [
              -79.5319976807483,
              36.25001144437272
            ],
            [
              -79.1533966062683,
              36.24211120596743
            ],
            [
              -79.14649963355123,
              36.3895111082511
            ],
            [
              -79.1371002198992,
              36.54171371491606
            ],
            [
              -78.79629516618894,
              36.5415115356289
            ],
            [
              -78.73329925495659,
              36.54291153004311
            ],
            [
              -78.51059722917876,
              36.541011810246914
            ],
            [
              -78.25759887738627,
              36.54441070618918
            ],
            [
              -77.90019989031265,
              36.544712067208195
            ]
          ]
        ]
      }
    }
  ],
  "metadata": {
    "schema_version": "0.1.0",
    "wfo": "RAH",
    "layer": "cwa",
    "source": "https://www.weather.gov/source/gis/Shapefiles/WSOM/w_16ap26.zip",
    "public_release_status": "public-source-derived"
  }
}