{
  "type": "FeatureCollection",
  "metadata": {
    "schema_version": "0.2.4",
    "year": 2026,
    "month": 5,
    "wfo": "EPZ",
    "start_utc": "2026-05-01T00:00:00Z",
    "end_utc": "2026-06-01T00:00:00Z",
    "generated_utc": "2026-06-11T12:56:15Z",
    "mode": "storm_data_prep",
    "public_release_status": "public-source-derived",
    "time_note": "Storm Data entry times should be reviewed in local Standard Time (ST), not daylight time. Candidate reports include standard_time_display.",
    "tornado_track_policy": "Tornado tracks must come from DAT. NCEI begin/end coordinates are not used as a tornado track substitute.",
    "source": "https://mesonet.agron.iastate.edu/cgi-bin/request/gis/lsr.py?wfo=EPZ&sts=2026-05-01T00%3A00%3A00Z&ets=2026-06-01T00%3A00%3A00Z&fmt=csv"
  },
  "features": [
    {
      "type": "Feature",
      "id": "iem-lsr-EPZ-1",
      "properties": {
        "report_id": "iem-lsr-EPZ-1",
        "report_type": "DUST STORM",
        "event_category": "other",
        "valid_utc": "202605132255",
        "standard_time_display": "2026-05-13 15:55 MST",
        "wfo": "EPZ",
        "county_or_zone": "Hidalgo",
        "city": "8 ENE Road Forks",
        "state": "NM",
        "magnitude": null,
        "magnitude_units": null,
        "source": "Official NWS Obs",
        "event_narrative": "Recorded wind gust of 80 mph and near zero visibility. NMDOT I-10 WB MP 11."
      },
      "geometry": {
        "type": "Point",
        "coordinates": [
          -108.88,
          32.28
        ]
      }
    },
    {
      "type": "Feature",
      "id": "iem-lsr-EPZ-2",
      "properties": {
        "report_id": "iem-lsr-EPZ-2",
        "report_type": "BLOWING DUST",
        "event_category": "other",
        "valid_utc": "202605210051",
        "standard_time_display": "2026-05-20 17:51 MST",
        "wfo": "EPZ",
        "county_or_zone": "El Paso",
        "city": "2 ENE Fort Bliss",
        "state": "TX",
        "magnitude": null,
        "magnitude_units": null,
        "source": "Official NWS Obs",
        "event_narrative": "Delayed report. ASOS observation of 1 mile visibility due to blowing dust. KELP El Paso International Airport."
      },
      "geometry": {
        "type": "Point",
        "coordinates": [
          -106.39,
          31.81
        ]
      }
    },
    {
      "type": "Feature",
      "id": "iem-lsr-EPZ-3",
      "properties": {
        "report_id": "iem-lsr-EPZ-3",
        "report_type": "TSTM WND GST",
        "event_category": "thunderstorm_wind",
        "valid_utc": "202605251945",
        "standard_time_display": "2026-05-25 12:45 MST",
        "wfo": "EPZ",
        "county_or_zone": "Dona Ana",
        "city": "18 NNE White Sands",
        "state": "NM",
        "magnitude": 60.0,
        "magnitude_units": null,
        "source": "Mesonet",
        "event_narrative": "Mesonet station WSM02 WSMR Apache."
      },
      "geometry": {
        "type": "Point",
        "coordinates": [
          -106.39,
          32.63
        ]
      }
    },
    {
      "type": "Feature",
      "id": "iem-lsr-EPZ-4",
      "properties": {
        "report_id": "iem-lsr-EPZ-4",
        "report_type": "TSTM WND DMG",
        "event_category": "thunderstorm_wind",
        "valid_utc": "202605252230",
        "standard_time_display": "2026-05-25 15:30 MST",
        "wfo": "EPZ",
        "county_or_zone": "Dona Ana",
        "city": "White Sands",
        "state": "NM",
        "magnitude": null,
        "magnitude_units": null,
        "source": "Other Federal",
        "event_narrative": "Downed Tree at WSMR HQ."
      },
      "geometry": {
        "type": "Point",
        "coordinates": [
          -106.49,
          32.38
        ]
      }
    },
    {
      "type": "Feature",
      "id": "iem-lsr-EPZ-5",
      "properties": {
        "report_id": "iem-lsr-EPZ-5",
        "report_type": "TSTM WND GST",
        "event_category": "thunderstorm_wind",
        "valid_utc": "202605252235",
        "standard_time_display": "2026-05-25 15:35 MST",
        "wfo": "EPZ",
        "county_or_zone": "Dona Ana",
        "city": "1 SSE White Sands",
        "state": "NM",
        "magnitude": 59.0,
        "magnitude_units": null,
        "source": "Mesonet",
        "event_narrative": "Mesonet station WSM03 WSMR Main Post."
      },
      "geometry": {
        "type": "Point",
        "coordinates": [
          -106.49,
          32.37
        ]
      }
    }
  ]
}