{
  "type": "FeatureCollection",
  "metadata": {
    "schema_version": "0.2.4",
    "year": 2026,
    "month": 9,
    "wfo": "APX",
    "start_utc": "2026-09-01T00:00:00Z",
    "end_utc": "2026-10-01T00:00:00Z",
    "generated_utc": "2026-09-19T13:06:48Z",
    "mode": "storm_data_prep",
    "public_release_status": "public-source-derived",
    "time_note": "Storm Data entry times should be reviewed in local Standard Time (ST), not daylight time. Candidate reports include standard_time_display.",
    "tornado_track_policy": "Tornado tracks must come from DAT. NCEI begin/end coordinates are not used as a tornado track substitute.",
    "source": "https://mesonet.agron.iastate.edu/cgi-bin/request/gis/lsr.py?wfo=APX&sts=2026-09-01T00%3A00%3A00Z&ets=2026-10-01T00%3A00%3A00Z&fmt=csv"
  },
  "features": [
    {
      "type": "Feature",
      "id": "iem-lsr-APX-1",
      "properties": {
        "report_id": "iem-lsr-APX-1",
        "report_type": "RAIN",
        "event_category": "other",
        "valid_utc": "202609011100",
        "standard_time_display": "2026-09-01 06:00 EST",
        "wfo": "APX",
        "county_or_zone": "Roscommon",
        "city": "3 N South Higgins Lake",
        "state": "MI",
        "magnitude": 1.71,
        "magnitude_units": null,
        "source": "Cocorahs",
        "event_narrative": "Cocorahs station MI-RS-11 Roscommon 4.2 WSW."
      },
      "geometry": {
        "type": "Point",
        "coordinates": [
          -84.67,
          44.48
        ]
      }
    },
    {
      "type": "Feature",
      "id": "iem-lsr-APX-2",
      "properties": {
        "report_id": "iem-lsr-APX-2",
        "report_type": "RAIN",
        "event_category": "other",
        "valid_utc": "202609011200",
        "standard_time_display": "2026-09-01 07:00 EST",
        "wfo": "APX",
        "county_or_zone": "Arenac",
        "city": "9 NE Au Gres",
        "state": "MI",
        "magnitude": 1.03,
        "magnitude_units": null,
        "source": "Cocorahs",
        "event_narrative": "Cocorahs station MI-AR-3 Tawas City 9.3 SSW."
      },
      "geometry": {
        "type": "Point",
        "coordinates": [
          -83.57,
          44.14
        ]
      }
    },
    {
      "type": "Feature",
      "id": "iem-lsr-APX-3",
      "properties": {
        "report_id": "iem-lsr-APX-3",
        "report_type": "RAIN",
        "event_category": "other",
        "valid_utc": "202609011200",
        "standard_time_display": "2026-09-01 07:00 EST",
        "wfo": "APX",
        "county_or_zone": "Arenac",
        "city": "6 N Au Gres",
        "state": "MI",
        "magnitude": 1.6,
        "magnitude_units": null,
        "source": "Trained Spotter",
        "event_narrative": null
      },
      "geometry": {
        "type": "Point",
        "coordinates": [
          -83.69,
          44.13
        ]
      }
    },
    {
      "type": "Feature",
      "id": "iem-lsr-APX-4",
      "properties": {
        "report_id": "iem-lsr-APX-4",
        "report_type": "TSTM WND GST",
        "event_category": "thunderstorm_wind",
        "valid_utc": "202609021126",
        "standard_time_display": "2026-09-02 05:26 CST",
        "wfo": "APX",
        "county_or_zone": "LMZ346",
        "city": "1 SW Frankfort",
        "state": "MI",
        "magnitude": 44.0,
        "magnitude_units": null,
        "source": "Mesonet",
        "event_narrative": "Mesonet station XFLT Frankfort Light."
      },
      "geometry": {
        "type": "Point",
        "coordinates": [
          -86.25,
          44.63
        ]
      }
    },
    {
      "type": "Feature",
      "id": "iem-lsr-APX-5",
      "properties": {
        "report_id": "iem-lsr-APX-5",
        "report_type": "TSTM WND GST",
        "event_category": "thunderstorm_wind",
        "valid_utc": "202609021134",
        "standard_time_display": "2026-09-02 05:34 CST",
        "wfo": "APX",
        "county_or_zone": "Manistee",
        "city": "2 E Parkdale",
        "state": "MI",
        "magnitude": 43.0,
        "magnitude_units": null,
        "source": "AWOS",
        "event_narrative": "AWOS station KMBL Manistee - Blacker Airport."
      },
      "geometry": {
        "type": "Point",
        "coordinates": [
          -86.25,
          44.27
        ]
      }
    },
    {
      "type": "Feature",
      "id": "iem-lsr-APX-6",
      "properties": {
        "report_id": "iem-lsr-APX-6",
        "report_type": "TSTM WND GST",
        "event_category": "thunderstorm_wind",
        "valid_utc": "202609021135",
        "standard_time_display": "2026-09-02 05:35 CST",
        "wfo": "APX",
        "county_or_zone": "Benzie",
        "city": "2 ENE Elberta",
        "state": "MI",
        "magnitude": 43.0,
        "magnitude_units": null,
        "source": "AWOS",
        "event_narrative": "AWOS station KFKS Frankfort - Dow Memorial Field."
      },
      "geometry": {
        "type": "Point",
        "coordinates": [
          -86.2,
          44.63
        ]
      }
    },
    {
      "type": "Feature",
      "id": "iem-lsr-APX-7",
      "properties": {
        "report_id": "iem-lsr-APX-7",
        "report_type": "HAIL",
        "event_category": "hail",
        "valid_utc": "202609031453",
        "standard_time_display": "2026-09-03 08:53 CST",
        "wfo": "APX",
        "county_or_zone": "Manistee",
        "city": "Brethren",
        "state": "MI",
        "magnitude": 1.0,
        "magnitude_units": null,
        "source": "Broadcast Media",
        "event_narrative": "Time estimated by radar."
      },
      "geometry": {
        "type": "Point",
        "coordinates": [
          -86.02,
          44.3
        ]
      }
    },
    {
      "type": "Feature",
      "id": "iem-lsr-APX-8",
      "properties": {
        "report_id": "iem-lsr-APX-8",
        "report_type": "RAIN",
        "event_category": "other",
        "valid_utc": "202609032053",
        "standard_time_display": "2026-09-03 15:53 EST",
        "wfo": "APX",
        "county_or_zone": "Roscommon",
        "city": "1 ESE Roscommon County",
        "state": "MI",
        "magnitude": 1.01,
        "magnitude_units": null,
        "source": "ASOS",
        "event_narrative": "12 hour total. ASOS station KHTL Houghton Lake - Roscommon County Airport."
      },
      "geometry": {
        "type": "Point",
        "coordinates": [
          -84.67,
          44.35
        ]
      }
    },
    {
      "type": "Feature",
      "id": "iem-lsr-APX-9",
      "properties": {
        "report_id": "iem-lsr-APX-9",
        "report_type": "RAIN",
        "event_category": "other",
        "valid_utc": "202609032108",
        "standard_time_display": "2026-09-03 15:08 CST",
        "wfo": "APX",
        "county_or_zone": "Benzie",
        "city": "4 S Empire",
        "state": "MI",
        "magnitude": 1.03,
        "magnitude_units": null,
        "source": "Mesonet",
        "event_narrative": "12 hour total. Mesonet station SBDM4 Bear."
      },
      "geometry": {
        "type": "Point",
        "coordinates": [
          -86.06,
          44.76
        ]
      }
    },
    {
      "type": "Feature",
      "id": "iem-lsr-APX-10",
      "properties": {
        "report_id": "iem-lsr-APX-10",
        "report_type": "RAIN",
        "event_category": "other",
        "valid_utc": "202609032115",
        "standard_time_display": "2026-09-03 15:15 CST",
        "wfo": "APX",
        "county_or_zone": "Manistee",
        "city": "1 SSW Manistee",
        "state": "MI",
        "magnitude": 3.63,
        "magnitude_units": null,
        "source": "Mesonet",
        "event_narrative": "12 hour total. Mesonet station DW9113 Manistee."
      },
      "geometry": {
        "type": "Point",
        "coordinates": [
          -86.34,
          44.23
        ]
      }
    },
    {
      "type": "Feature",
      "id": "iem-lsr-APX-11",
      "properties": {
        "report_id": "iem-lsr-APX-11",
        "report_type": "RAIN",
        "event_category": "other",
        "valid_utc": "202609032129",
        "standard_time_display": "2026-09-03 15:29 CST",
        "wfo": "APX",
        "county_or_zone": "Benzie",
        "city": "1 SSW Lake Ann",
        "state": "MI",
        "magnitude": 0.99,
        "magnitude_units": null,
        "source": "Mesonet",
        "event_narrative": "12 hour total. Mesonet station GW6471 LAKE ANN."
      },
      "geometry": {
        "type": "Point",
        "coordinates": [
          -85.85,
          44.71
        ]
      }
    },
    {
      "type": "Feature",
      "id": "iem-lsr-APX-12",
      "properties": {
        "report_id": "iem-lsr-APX-12",
        "report_type": "RAIN",
        "event_category": "other",
        "valid_utc": "202609040257",
        "standard_time_display": "2026-09-03 21:57 EST",
        "wfo": "APX",
        "county_or_zone": "Crawford",
        "city": "4 ENE Roscommon",
        "state": "MI",
        "magnitude": 1.2,
        "magnitude_units": null,
        "source": "Public",
        "event_narrative": "24 hour total."
      },
      "geometry": {
        "type": "Point",
        "coordinates": [
          -84.52,
          44.52
        ]
      }
    },
    {
      "type": "Feature",
      "id": "iem-lsr-APX-13",
      "properties": {
        "report_id": "iem-lsr-APX-13",
        "report_type": "RAIN",
        "event_category": "other",
        "valid_utc": "202609040400",
        "standard_time_display": "2026-09-03 22:00 CST",
        "wfo": "APX",
        "county_or_zone": "Manistee",
        "city": "2 S Eastlake",
        "state": "MI",
        "magnitude": 2.9,
        "magnitude_units": null,
        "source": "Cocorahs",
        "event_narrative": "24 hour total. Cocorahs station MI-MN-12 Filer City 0.4 SW."
      },
      "geometry": {
        "type": "Point",
        "coordinates": [
          -86.29,
          44.21
        ]
      }
    },
    {
      "type": "Feature",
      "id": "iem-lsr-APX-14",
      "properties": {
        "report_id": "iem-lsr-APX-14",
        "report_type": "RAIN",
        "event_category": "other",
        "valid_utc": "202609041200",
        "standard_time_display": "2026-09-04 07:00 EST",
        "wfo": "APX",
        "county_or_zone": "Ogemaw",
        "city": "2 SSW West Branch",
        "state": "MI",
        "magnitude": 1.04,
        "magnitude_units": null,
        "source": "Cocorahs",
        "event_narrative": "24 hour total. Cocorahs station MI-OG-6 West Branch 2.1 SSW."
      },
      "geometry": {
        "type": "Point",
        "coordinates": [
          -84.25,
          44.25
        ]
      }
    },
    {
      "type": "Feature",
      "id": "iem-lsr-APX-15",
      "properties": {
        "report_id": "iem-lsr-APX-15",
        "report_type": "RAIN",
        "event_category": "other",
        "valid_utc": "202609041200",
        "standard_time_display": "2026-09-04 06:00 CST",
        "wfo": "APX",
        "county_or_zone": "Manistee",
        "city": "2 S Eastlake",
        "state": "MI",
        "magnitude": 4.02,
        "magnitude_units": null,
        "source": "CO-OP Observer",
        "event_narrative": "24 hour total. CO-OP Observer station MANM4 Manistee 3 SE."
      },
      "geometry": {
        "type": "Point",
        "coordinates": [
          -86.29,
          44.21
        ]
      }
    },
    {
      "type": "Feature",
      "id": "iem-lsr-APX-16",
      "properties": {
        "report_id": "iem-lsr-APX-16",
        "report_type": "RAIN",
        "event_category": "other",
        "valid_utc": "202609041315",
        "standard_time_display": "2026-09-04 07:15 CST",
        "wfo": "APX",
        "county_or_zone": "Benzie",
        "city": "1 SSW Lake Ann",
        "state": "MI",
        "magnitude": 1.18,
        "magnitude_units": null,
        "source": "Mesonet",
        "event_narrative": "24 hour total. Mesonet station GW6471 LAKE ANN."
      },
      "geometry": {
        "type": "Point",
        "coordinates": [
          -85.85,
          44.71
        ]
      }
    },
    {
      "type": "Feature",
      "id": "iem-lsr-APX-17",
      "properties": {
        "report_id": "iem-lsr-APX-17",
        "report_type": "RAIN",
        "event_category": "other",
        "valid_utc": "202609041315",
        "standard_time_display": "2026-09-04 07:15 CST",
        "wfo": "APX",
        "county_or_zone": "Manistee",
        "city": "1 SSW Manistee",
        "state": "MI",
        "magnitude": 4.24,
        "magnitude_units": null,
        "source": "Mesonet",
        "event_narrative": "24 hour total. Mesonet station DW9113 Manistee."
      },
      "geometry": {
        "type": "Point",
        "coordinates": [
          -86.34,
          44.23
        ]
      }
    },
    {
      "type": "Feature",
      "id": "iem-lsr-APX-18",
      "properties": {
        "report_id": "iem-lsr-APX-18",
        "report_type": "NON-TSTM WND GST",
        "event_category": "thunderstorm_wind",
        "valid_utc": "202609092144",
        "standard_time_display": "2026-09-09 16:44 EST",
        "wfo": "APX",
        "county_or_zone": "Chippewa",
        "city": "1 S Sault Ste. Marie",
        "state": "MI",
        "magnitude": 43.0,
        "magnitude_units": null,
        "source": "AWOS",
        "event_narrative": "AWOS station KANJ Sault Ste Marie - Municipal Airport."
      },
      "geometry": {
        "type": "Point",
        "coordinates": [
          -84.37,
          46.47
        ]
      }
    },
    {
      "type": "Feature",
      "id": "iem-lsr-APX-19",
      "properties": {
        "report_id": "iem-lsr-APX-19",
        "report_type": "NON-TSTM WND GST",
        "event_category": "thunderstorm_wind",
        "valid_utc": "202609092224",
        "standard_time_display": "2026-09-09 17:24 EST",
        "wfo": "APX",
        "county_or_zone": "Chippewa",
        "city": "1 NNW Sault Ste. Marie",
        "state": "MI",
        "magnitude": 41.0,
        "magnitude_units": null,
        "source": "Buoy",
        "event_narrative": "Buoy station SWPM4 S.W. Pier_ MI."
      },
      "geometry": {
        "type": "Point",
        "coordinates": [
          -84.37,
          46.5
        ]
      }
    },
    {
      "type": "Feature",
      "id": "iem-lsr-APX-20",
      "properties": {
        "report_id": "iem-lsr-APX-20",
        "report_type": "NON-TSTM WND GST",
        "event_category": "thunderstorm_wind",
        "valid_utc": "202609150808",
        "standard_time_display": "2026-09-15 03:08 EST",
        "wfo": "APX",
        "county_or_zone": "Otsego",
        "city": "1 SSW Gaylord",
        "state": "MI",
        "magnitude": 41.0,
        "magnitude_units": null,
        "source": "ASOS",
        "event_narrative": "ASOS station KGLR Gaylord - Otsego County Airport."
      },
      "geometry": {
        "type": "Point",
        "coordinates": [
          -84.68,
          45.02
        ]
      }
    },
    {
      "type": "Feature",
      "id": "iem-lsr-APX-21",
      "properties": {
        "report_id": "iem-lsr-APX-21",
        "report_type": "NON-TSTM WND GST",
        "event_category": "thunderstorm_wind",
        "valid_utc": "202609150841",
        "standard_time_display": "2026-09-15 02:41 CST",
        "wfo": "APX",
        "county_or_zone": "LMZ346",
        "city": "1 SW Frankfort",
        "state": "MI",
        "magnitude": 42.0,
        "magnitude_units": null,
        "source": "Mesonet",
        "event_narrative": "Mesonet station XFLT Frankfort Light."
      },
      "geometry": {
        "type": "Point",
        "coordinates": [
          -86.25,
          44.63
        ]
      }
    },
    {
      "type": "Feature",
      "id": "iem-lsr-APX-22",
      "properties": {
        "report_id": "iem-lsr-APX-22",
        "report_type": "RAIN",
        "event_category": "other",
        "valid_utc": "202609150900",
        "standard_time_display": "2026-09-15 03:00 CST",
        "wfo": "APX",
        "county_or_zone": "Grand Traverse",
        "city": "4 S Traverse City",
        "state": "MI",
        "magnitude": 1.35,
        "magnitude_units": null,
        "source": "Cocorahs",
        "event_narrative": "Cocorahs station MI-GT-32 Traverse City 3.7 S."
      },
      "geometry": {
        "type": "Point",
        "coordinates": [
          -85.6,
          44.7
        ]
      }
    },
    {
      "type": "Feature",
      "id": "iem-lsr-APX-23",
      "properties": {
        "report_id": "iem-lsr-APX-23",
        "report_type": "NON-TSTM WND GST",
        "event_category": "thunderstorm_wind",
        "valid_utc": "202609151030",
        "standard_time_display": "2026-09-15 04:30 CST",
        "wfo": "APX",
        "county_or_zone": "LMZ341",
        "city": "2 S Naubinway",
        "state": "MI",
        "magnitude": 40.0,
        "magnitude_units": null,
        "source": "Public",
        "event_narrative": "Naubinway Marina."
      },
      "geometry": {
        "type": "Point",
        "coordinates": [
          -85.45,
          46.09
        ]
      }
    },
    {
      "type": "Feature",
      "id": "iem-lsr-APX-24",
      "properties": {
        "report_id": "iem-lsr-APX-24",
        "report_type": "RAIN",
        "event_category": "other",
        "valid_utc": "202609151100",
        "standard_time_display": "2026-09-15 06:00 EST",
        "wfo": "APX",
        "county_or_zone": "Montmorency",
        "city": "1 SW Atlanta",
        "state": "MI",
        "magnitude": 1.13,
        "magnitude_units": null,
        "source": "CO-OP Observer",
        "event_narrative": "CO-OP Observer station ATLM4 Atlanta 1 SW."
      },
      "geometry": {
        "type": "Point",
        "coordinates": [
          -84.16,
          44.99
        ]
      }
    },
    {
      "type": "Feature",
      "id": "iem-lsr-APX-25",
      "properties": {
        "report_id": "iem-lsr-APX-25",
        "report_type": "RAIN",
        "event_category": "other",
        "valid_utc": "202609151100",
        "standard_time_display": "2026-09-15 05:00 CST",
        "wfo": "APX",
        "county_or_zone": "Antrim",
        "city": "3 SSW Norwood",
        "state": "MI",
        "magnitude": 1.15,
        "magnitude_units": null,
        "source": "Cocorahs",
        "event_narrative": "Cocorahs station MI-AT-8 Charlevoix 9.8 SW."
      },
      "geometry": {
        "type": "Point",
        "coordinates": [
          -85.37,
          45.2
        ]
      }
    },
    {
      "type": "Feature",
      "id": "iem-lsr-APX-26",
      "properties": {
        "report_id": "iem-lsr-APX-26",
        "report_type": "RAIN",
        "event_category": "other",
        "valid_utc": "202609151100",
        "standard_time_display": "2026-09-15 05:00 CST",
        "wfo": "APX",
        "county_or_zone": "Grand Traverse",
        "city": "4 WSW Bates",
        "state": "MI",
        "magnitude": 1.2,
        "magnitude_units": null,
        "source": "CO-OP Observer",
        "event_narrative": "CO-OP Observer station TCEM4 Traverse City 4.7 ESE."
      },
      "geometry": {
        "type": "Point",
        "coordinates": [
          -85.51,
          44.73
        ]
      }
    },
    {
      "type": "Feature",
      "id": "iem-lsr-APX-27",
      "properties": {
        "report_id": "iem-lsr-APX-27",
        "report_type": "RAIN",
        "event_category": "other",
        "valid_utc": "202609151100",
        "standard_time_display": "2026-09-15 06:00 EST",
        "wfo": "APX",
        "county_or_zone": "Montmorency",
        "city": "1 WSW Atlanta",
        "state": "MI",
        "magnitude": 1.24,
        "magnitude_units": null,
        "source": "Cocorahs",
        "event_narrative": "Cocorahs station MI-MY-2 Atlanta 0.9 SW."
      },
      "geometry": {
        "type": "Point",
        "coordinates": [
          -84.16,
          45.0
        ]
      }
    },
    {
      "type": "Feature",
      "id": "iem-lsr-APX-28",
      "properties": {
        "report_id": "iem-lsr-APX-28",
        "report_type": "RAIN",
        "event_category": "other",
        "valid_utc": "202609151100",
        "standard_time_display": "2026-09-15 06:00 EST",
        "wfo": "APX",
        "county_or_zone": "Oscoda",
        "city": "2 NE Luzerne",
        "state": "MI",
        "magnitude": 1.25,
        "magnitude_units": null,
        "source": "Cocorahs",
        "event_narrative": "Cocorahs station MI-OD-3 Luzerne 2.4 NE."
      },
      "geometry": {
        "type": "Point",
        "coordinates": [
          -84.24,
          44.64
        ]
      }
    },
    {
      "type": "Feature",
      "id": "iem-lsr-APX-29",
      "properties": {
        "report_id": "iem-lsr-APX-29",
        "report_type": "RAIN",
        "event_category": "other",
        "valid_utc": "202609151100",
        "standard_time_display": "2026-09-15 06:00 EST",
        "wfo": "APX",
        "county_or_zone": "Roscommon",
        "city": "3 N South Higgins Lake",
        "state": "MI",
        "magnitude": 1.25,
        "magnitude_units": null,
        "source": "Cocorahs",
        "event_narrative": "Cocorahs station MI-RS-11 Roscommon 4.2 WSW."
      },
      "geometry": {
        "type": "Point",
        "coordinates": [
          -84.67,
          44.48
        ]
      }
    },
    {
      "type": "Feature",
      "id": "iem-lsr-APX-30",
      "properties": {
        "report_id": "iem-lsr-APX-30",
        "report_type": "RAIN",
        "event_category": "other",
        "valid_utc": "202609151100",
        "standard_time_display": "2026-09-15 05:00 CST",
        "wfo": "APX",
        "county_or_zone": "Missaukee",
        "city": "4 NNE Lucas",
        "state": "MI",
        "magnitude": 1.31,
        "magnitude_units": null,
        "source": "Cocorahs",
        "event_narrative": "Cocorahs station MI-MK-1 Lake City 5.0 SSW."
      },
      "geometry": {
        "type": "Point",
        "coordinates": [
          -85.26,
          44.27
        ]
      }
    },
    {
      "type": "Feature",
      "id": "iem-lsr-APX-31",
      "properties": {
        "report_id": "iem-lsr-APX-31",
        "report_type": "RAIN",
        "event_category": "other",
        "valid_utc": "202609151100",
        "standard_time_display": "2026-09-15 05:00 CST",
        "wfo": "APX",
        "county_or_zone": "Grand Traverse",
        "city": "1 NNE Grawn",
        "state": "MI",
        "magnitude": 1.35,
        "magnitude_units": null,
        "source": "Cocorahs",
        "event_narrative": "Cocorahs station MI-GT-30 Traverse City 6.1 SW."
      },
      "geometry": {
        "type": "Point",
        "coordinates": [
          -85.68,
          44.68
        ]
      }
    },
    {
      "type": "Feature",
      "id": "iem-lsr-APX-32",
      "properties": {
        "report_id": "iem-lsr-APX-32",
        "report_type": "RAIN",
        "event_category": "other",
        "valid_utc": "202609151100",
        "standard_time_display": "2026-09-15 05:00 CST",
        "wfo": "APX",
        "county_or_zone": "Grand Traverse",
        "city": "1 NW Fife Lake",
        "state": "MI",
        "magnitude": 1.36,
        "magnitude_units": null,
        "source": "CO-OP Observer",
        "event_narrative": "CO-OP Observer station FLAM4 Fife Lake 2 WNW."
      },
      "geometry": {
        "type": "Point",
        "coordinates": [
          -85.37,
          44.58
        ]
      }
    },
    {
      "type": "Feature",
      "id": "iem-lsr-APX-33",
      "properties": {
        "report_id": "iem-lsr-APX-33",
        "report_type": "RAIN",
        "event_category": "other",
        "valid_utc": "202609151100",
        "standard_time_display": "2026-09-15 05:00 CST",
        "wfo": "APX",
        "county_or_zone": "Grand Traverse",
        "city": "4 WSW Bates",
        "state": "MI",
        "magnitude": 1.39,
        "magnitude_units": null,
        "source": "Cocorahs",
        "event_narrative": "Cocorahs station MI-GT-1 Traverse City 4.1 E."
      },
      "geometry": {
        "type": "Point",
        "coordinates": [
          -85.52,
          44.75
        ]
      }
    },
    {
      "type": "Feature",
      "id": "iem-lsr-APX-34",
      "properties": {
        "report_id": "iem-lsr-APX-34",
        "report_type": "RAIN",
        "event_category": "other",
        "valid_utc": "202609151100",
        "standard_time_display": "2026-09-15 05:00 CST",
        "wfo": "APX",
        "county_or_zone": "Benzie",
        "city": "4 NNE Honor",
        "state": "MI",
        "magnitude": 1.43,
        "magnitude_units": null,
        "source": "Trained Spotter",
        "event_narrative": "9 hour rain total from 10pm - 7am."
      },
      "geometry": {
        "type": "Point",
        "coordinates": [
          -85.99,
          44.72
        ]
      }
    },
    {
      "type": "Feature",
      "id": "iem-lsr-APX-35",
      "properties": {
        "report_id": "iem-lsr-APX-35",
        "report_type": "RAIN",
        "event_category": "other",
        "valid_utc": "202609151100",
        "standard_time_display": "2026-09-15 05:00 CST",
        "wfo": "APX",
        "county_or_zone": "Grand Traverse",
        "city": "2 SW Grawn",
        "state": "MI",
        "magnitude": 1.44,
        "magnitude_units": null,
        "source": "Cocorahs",
        "event_narrative": "Cocorahs station MI-GT-28 1 SW Grawn."
      },
      "geometry": {
        "type": "Point",
        "coordinates": [
          -85.7,
          44.65
        ]
      }
    },
    {
      "type": "Feature",
      "id": "iem-lsr-APX-36",
      "properties": {
        "report_id": "iem-lsr-APX-36",
        "report_type": "RAIN",
        "event_category": "other",
        "valid_utc": "202609151100",
        "standard_time_display": "2026-09-15 05:00 CST",
        "wfo": "APX",
        "county_or_zone": "Manistee",
        "city": "2 NNW Onekama",
        "state": "MI",
        "magnitude": 1.65,
        "magnitude_units": null,
        "source": "Cocorahs",
        "event_narrative": "Cocorahs station MI-MN-7 Onekama 1.8 NNW."
      },
      "geometry": {
        "type": "Point",
        "coordinates": [
          -86.22,
          44.39
        ]
      }
    },
    {
      "type": "Feature",
      "id": "iem-lsr-APX-37",
      "properties": {
        "report_id": "iem-lsr-APX-37",
        "report_type": "RAIN",
        "event_category": "other",
        "valid_utc": "202609151100",
        "standard_time_display": "2026-09-15 06:00 EST",
        "wfo": "APX",
        "county_or_zone": "Otsego",
        "city": "2 NNE Otsego Lake State",
        "state": "MI",
        "magnitude": 1.75,
        "magnitude_units": null,
        "source": "Cocorahs",
        "event_narrative": "Cocorahs station MI-OT-17 Gaylord 4.1 S."
      },
      "geometry": {
        "type": "Point",
        "coordinates": [
          -84.68,
          44.96
        ]
      }
    },
    {
      "type": "Feature",
      "id": "iem-lsr-APX-38",
      "properties": {
        "report_id": "iem-lsr-APX-38",
        "report_type": "RAIN",
        "event_category": "other",
        "valid_utc": "202609151100",
        "standard_time_display": "2026-09-15 05:00 CST",
        "wfo": "APX",
        "county_or_zone": "Antrim",
        "city": "4 NW Mancelona",
        "state": "MI",
        "magnitude": 1.9,
        "magnitude_units": null,
        "source": "Cocorahs",
        "event_narrative": "Cocorahs station MI-AT-19 Bellaire 4.6 ESE."
      },
      "geometry": {
        "type": "Point",
        "coordinates": [
          -85.12,
          44.95
        ]
      }
    },
    {
      "type": "Feature",
      "id": "iem-lsr-APX-39",
      "properties": {
        "report_id": "iem-lsr-APX-39",
        "report_type": "RAIN",
        "event_category": "other",
        "valid_utc": "202609151100",
        "standard_time_display": "2026-09-15 05:00 CST",
        "wfo": "APX",
        "county_or_zone": "Leelanau",
        "city": "2 N Suttons Bay",
        "state": "MI",
        "magnitude": 1.96,
        "magnitude_units": null,
        "source": "Cocorahs",
        "event_narrative": "Cocorahs station MI-LL-8 1 NNE Suttons Bay."
      },
      "geometry": {
        "type": "Point",
        "coordinates": [
          -85.65,
          45.0
        ]
      }
    },
    {
      "type": "Feature",
      "id": "iem-lsr-APX-40",
      "properties": {
        "report_id": "iem-lsr-APX-40",
        "report_type": "RAIN",
        "event_category": "other",
        "valid_utc": "202609151100",
        "standard_time_display": "2026-09-15 05:00 CST",
        "wfo": "APX",
        "county_or_zone": "Antrim",
        "city": "3 N Bellaire",
        "state": "MI",
        "magnitude": 1.96,
        "magnitude_units": null,
        "source": "Cocorahs",
        "event_narrative": "Cocorahs station MI-AT-9 3 N Bellaire."
      },
      "geometry": {
        "type": "Point",
        "coordinates": [
          -85.21,
          45.02
        ]
      }
    },
    {
      "type": "Feature",
      "id": "iem-lsr-APX-41",
      "properties": {
        "report_id": "iem-lsr-APX-41",
        "report_type": "RAIN",
        "event_category": "other",
        "valid_utc": "202609151108",
        "standard_time_display": "2026-09-15 05:08 CST",
        "wfo": "APX",
        "county_or_zone": "Benzie",
        "city": "4 S Empire",
        "state": "MI",
        "magnitude": 1.33,
        "magnitude_units": null,
        "source": "Mesonet",
        "event_narrative": "Mesonet station SBDM4 Bear."
      },
      "geometry": {
        "type": "Point",
        "coordinates": [
          -86.06,
          44.76
        ]
      }
    },
    {
      "type": "Feature",
      "id": "iem-lsr-APX-42",
      "properties": {
        "report_id": "iem-lsr-APX-42",
        "report_type": "RAIN",
        "event_category": "other",
        "valid_utc": "202609151110",
        "standard_time_display": "2026-09-15 06:10 EST",
        "wfo": "APX",
        "county_or_zone": "Roscommon",
        "city": "2 SSE Roscommon",
        "state": "MI",
        "magnitude": 1.0,
        "magnitude_units": null,
        "source": "Mesonet",
        "event_narrative": "Mesonet station RSCM4 Roscommon."
      },
      "geometry": {
        "type": "Point",
        "coordinates": [
          -84.57,
          44.47
        ]
      }
    },
    {
      "type": "Feature",
      "id": "iem-lsr-APX-43",
      "properties": {
        "report_id": "iem-lsr-APX-43",
        "report_type": "RAIN",
        "event_category": "other",
        "valid_utc": "202609151112",
        "standard_time_display": "2026-09-15 06:12 EST",
        "wfo": "APX",
        "county_or_zone": "Crawford",
        "city": "3 SSW Hartwick Pines St",
        "state": "MI",
        "magnitude": 1.28,
        "magnitude_units": null,
        "source": "Mesonet",
        "event_narrative": "Mesonet station GYGM4 Grayling."
      },
      "geometry": {
        "type": "Point",
        "coordinates": [
          -84.71,
          44.72
        ]
      }
    },
    {
      "type": "Feature",
      "id": "iem-lsr-APX-44",
      "properties": {
        "report_id": "iem-lsr-APX-44",
        "report_type": "RAIN",
        "event_category": "other",
        "valid_utc": "202609151130",
        "standard_time_display": "2026-09-15 05:30 CST",
        "wfo": "APX",
        "county_or_zone": "Manistee",
        "city": "1 SSW Manistee",
        "state": "MI",
        "magnitude": 1.27,
        "magnitude_units": null,
        "source": "Mesonet",
        "event_narrative": "Mesonet station DW9113 Manistee."
      },
      "geometry": {
        "type": "Point",
        "coordinates": [
          -86.34,
          44.23
        ]
      }
    },
    {
      "type": "Feature",
      "id": "iem-lsr-APX-45",
      "properties": {
        "report_id": "iem-lsr-APX-45",
        "report_type": "RAIN",
        "event_category": "other",
        "valid_utc": "202609151130",
        "standard_time_display": "2026-09-15 05:30 CST",
        "wfo": "APX",
        "county_or_zone": "Antrim",
        "city": "2 ENE Central Lake",
        "state": "MI",
        "magnitude": 1.62,
        "magnitude_units": null,
        "source": "Cocorahs",
        "event_narrative": "Cocorahs station MI-AT-13 Central Lake 2.4 ENE."
      },
      "geometry": {
        "type": "Point",
        "coordinates": [
          -85.22,
          45.08
        ]
      }
    },
    {
      "type": "Feature",
      "id": "iem-lsr-APX-46",
      "properties": {
        "report_id": "iem-lsr-APX-46",
        "report_type": "RAIN",
        "event_category": "other",
        "valid_utc": "202609151136",
        "standard_time_display": "2026-09-15 06:36 EST",
        "wfo": "APX",
        "county_or_zone": "Alpena",
        "city": "2 SW Alpena",
        "state": "MI",
        "magnitude": 1.04,
        "magnitude_units": null,
        "source": "Mesonet",
        "event_narrative": "Mesonet station GW0478 Alpena."
      },
      "geometry": {
        "type": "Point",
        "coordinates": [
          -83.47,
          45.05
        ]
      }
    },
    {
      "type": "Feature",
      "id": "iem-lsr-APX-47",
      "properties": {
        "report_id": "iem-lsr-APX-47",
        "report_type": "RAIN",
        "event_category": "other",
        "valid_utc": "202609151136",
        "standard_time_display": "2026-09-15 05:36 CST",
        "wfo": "APX",
        "county_or_zone": "Leelanau",
        "city": "1 S Suttons Bay",
        "state": "MI",
        "magnitude": 2.16,
        "magnitude_units": null,
        "source": "Mesonet",
        "event_narrative": "Mesonet station FW9533 Suttons Bay."
      },
      "geometry": {
        "type": "Point",
        "coordinates": [
          -85.65,
          44.96
        ]
      }
    },
    {
      "type": "Feature",
      "id": "iem-lsr-APX-48",
      "properties": {
        "report_id": "iem-lsr-APX-48",
        "report_type": "RAIN",
        "event_category": "other",
        "valid_utc": "202609151138",
        "standard_time_display": "2026-09-15 06:38 EST",
        "wfo": "APX",
        "county_or_zone": "Otsego",
        "city": "Vanderbilt",
        "state": "MI",
        "magnitude": 1.26,
        "magnitude_units": null,
        "source": "Mesonet",
        "event_narrative": "Mesonet station GW5777 VANDERBILT."
      },
      "geometry": {
        "type": "Point",
        "coordinates": [
          -84.66,
          45.14
        ]
      }
    },
    {
      "type": "Feature",
      "id": "iem-lsr-APX-49",
      "properties": {
        "report_id": "iem-lsr-APX-49",
        "report_type": "RAIN",
        "event_category": "other",
        "valid_utc": "202609151139",
        "standard_time_display": "2026-09-15 05:39 CST",
        "wfo": "APX",
        "county_or_zone": "Benzie",
        "city": "1 SSW Lake Ann",
        "state": "MI",
        "magnitude": 1.76,
        "magnitude_units": null,
        "source": "Mesonet",
        "event_narrative": "Mesonet station GW6471 LAKE ANN."
      },
      "geometry": {
        "type": "Point",
        "coordinates": [
          -85.85,
          44.71
        ]
      }
    },
    {
      "type": "Feature",
      "id": "iem-lsr-APX-50",
      "properties": {
        "report_id": "iem-lsr-APX-50",
        "report_type": "RAIN",
        "event_category": "other",
        "valid_utc": "202609151140",
        "standard_time_display": "2026-09-15 05:40 CST",
        "wfo": "APX",
        "county_or_zone": "Grand Traverse",
        "city": "5 NNW Grawn",
        "state": "MI",
        "magnitude": 1.49,
        "magnitude_units": null,
        "source": "Mesonet",
        "event_narrative": "Mesonet station GW3308 Traverse City."
      },
      "geometry": {
        "type": "Point",
        "coordinates": [
          -85.71,
          44.74
        ]
      }
    },
    {
      "type": "Feature",
      "id": "iem-lsr-APX-51",
      "properties": {
        "report_id": "iem-lsr-APX-51",
        "report_type": "RAIN",
        "event_category": "other",
        "valid_utc": "202609151144",
        "standard_time_display": "2026-09-15 05:44 CST",
        "wfo": "APX",
        "county_or_zone": "Grand Traverse",
        "city": "2 SE Traverse City",
        "state": "MI",
        "magnitude": 1.1,
        "magnitude_units": null,
        "source": "ASOS",
        "event_narrative": "ASOS station KTVC Traverse City - Cherry Capital Airport."
      },
      "geometry": {
        "type": "Point",
        "coordinates": [
          -85.57,
          44.73
        ]
      }
    },
    {
      "type": "Feature",
      "id": "iem-lsr-APX-52",
      "properties": {
        "report_id": "iem-lsr-APX-52",
        "report_type": "RAIN",
        "event_category": "other",
        "valid_utc": "202609151145",
        "standard_time_display": "2026-09-15 05:45 CST",
        "wfo": "APX",
        "county_or_zone": "Grand Traverse",
        "city": "3 ENE Kingsley",
        "state": "MI",
        "magnitude": 1.44,
        "magnitude_units": null,
        "source": "Cocorahs",
        "event_narrative": "Cocorahs station MI-GT-21 Kingsley 2.7 ENE."
      },
      "geometry": {
        "type": "Point",
        "coordinates": [
          -85.48,
          44.6
        ]
      }
    },
    {
      "type": "Feature",
      "id": "iem-lsr-APX-53",
      "properties": {
        "report_id": "iem-lsr-APX-53",
        "report_type": "RAIN",
        "event_category": "other",
        "valid_utc": "202609151200",
        "standard_time_display": "2026-09-15 06:00 CST",
        "wfo": "APX",
        "county_or_zone": "Leelanau",
        "city": "1 W Northport",
        "state": "MI",
        "magnitude": 1.06,
        "magnitude_units": null,
        "source": "CO-OP Observer",
        "event_narrative": "CO-OP Observer station NPTM4 Northport 2 W."
      },
      "geometry": {
        "type": "Point",
        "coordinates": [
          -85.65,
          45.13
        ]
      }
    },
    {
      "type": "Feature",
      "id": "iem-lsr-APX-54",
      "properties": {
        "report_id": "iem-lsr-APX-54",
        "report_type": "RAIN",
        "event_category": "other",
        "valid_utc": "202609151200",
        "standard_time_display": "2026-09-15 06:00 CST",
        "wfo": "APX",
        "county_or_zone": "Manistee",
        "city": "2 S Eastlake",
        "state": "MI",
        "magnitude": 1.06,
        "magnitude_units": null,
        "source": "CO-OP Observer",
        "event_narrative": "CO-OP Observer station MANM4 Manistee 3 SE."
      },
      "geometry": {
        "type": "Point",
        "coordinates": [
          -86.29,
          44.21
        ]
      }
    },
    {
      "type": "Feature",
      "id": "iem-lsr-APX-55",
      "properties": {
        "report_id": "iem-lsr-APX-55",
        "report_type": "RAIN",
        "event_category": "other",
        "valid_utc": "202609151200",
        "standard_time_display": "2026-09-15 06:00 CST",
        "wfo": "APX",
        "county_or_zone": "Wexford",
        "city": "3 S Cadillac",
        "state": "MI",
        "magnitude": 1.1,
        "magnitude_units": null,
        "source": "CO-OP Observer",
        "event_narrative": "CO-OP Observer station CDLM4 Cadillac 9and10 News."
      },
      "geometry": {
        "type": "Point",
        "coordinates": [
          -85.41,
          44.21
        ]
      }
    },
    {
      "type": "Feature",
      "id": "iem-lsr-APX-56",
      "properties": {
        "report_id": "iem-lsr-APX-56",
        "report_type": "RAIN",
        "event_category": "other",
        "valid_utc": "202609151200",
        "standard_time_display": "2026-09-15 06:00 CST",
        "wfo": "APX",
        "county_or_zone": "Kalkaska",
        "city": "2 WNW Kalkaska",
        "state": "MI",
        "magnitude": 1.38,
        "magnitude_units": null,
        "source": "Cocorahs",
        "event_narrative": "Cocorahs station MI-KK-5 Kalkaska 1.5 WNW."
      },
      "geometry": {
        "type": "Point",
        "coordinates": [
          -85.21,
          44.75
        ]
      }
    },
    {
      "type": "Feature",
      "id": "iem-lsr-APX-57",
      "properties": {
        "report_id": "iem-lsr-APX-57",
        "report_type": "RAIN",
        "event_category": "other",
        "valid_utc": "202609151200",
        "standard_time_display": "2026-09-15 06:00 CST",
        "wfo": "APX",
        "county_or_zone": "Manistee",
        "city": "3 N Wellston",
        "state": "MI",
        "magnitude": 1.4,
        "magnitude_units": null,
        "source": "CO-OP Observer",
        "event_narrative": "CO-OP Observer station WELM4 Wellston Tippy Dam."
      },
      "geometry": {
        "type": "Point",
        "coordinates": [
          -85.94,
          44.26
        ]
      }
    },
    {
      "type": "Feature",
      "id": "iem-lsr-APX-58",
      "properties": {
        "report_id": "iem-lsr-APX-58",
        "report_type": "RAIN",
        "event_category": "other",
        "valid_utc": "202609151200",
        "standard_time_display": "2026-09-15 06:00 CST",
        "wfo": "APX",
        "county_or_zone": "Antrim",
        "city": "2 NNE Central Lake",
        "state": "MI",
        "magnitude": 1.51,
        "magnitude_units": null,
        "source": "Cocorahs",
        "event_narrative": "Cocorahs station MI-AT-10 Central Lake 2.1 NNE."
      },
      "geometry": {
        "type": "Point",
        "coordinates": [
          -85.25,
          45.1
        ]
      }
    },
    {
      "type": "Feature",
      "id": "iem-lsr-APX-59",
      "properties": {
        "report_id": "iem-lsr-APX-59",
        "report_type": "RAIN",
        "event_category": "other",
        "valid_utc": "202609151200",
        "standard_time_display": "2026-09-15 06:00 CST",
        "wfo": "APX",
        "county_or_zone": "Leelanau",
        "city": "1 NE Bingham",
        "state": "MI",
        "magnitude": 1.56,
        "magnitude_units": null,
        "source": "CO-OP Observer",
        "event_narrative": "CO-OP Observer station NWFM4 NW Michigan Research Farm."
      },
      "geometry": {
        "type": "Point",
        "coordinates": [
          -85.68,
          44.88
        ]
      }
    },
    {
      "type": "Feature",
      "id": "iem-lsr-APX-60",
      "properties": {
        "report_id": "iem-lsr-APX-60",
        "report_type": "RAIN",
        "event_category": "other",
        "valid_utc": "202609151200",
        "standard_time_display": "2026-09-15 06:00 CST",
        "wfo": "APX",
        "county_or_zone": "Antrim",
        "city": "1 NW Elk Rapids",
        "state": "MI",
        "magnitude": 1.73,
        "magnitude_units": null,
        "source": "Cocorahs",
        "event_narrative": "Cocorahs station MI-AT-14 Elk Rapids."
      },
      "geometry": {
        "type": "Point",
        "coordinates": [
          -85.41,
          44.9
        ]
      }
    },
    {
      "type": "Feature",
      "id": "iem-lsr-APX-61",
      "properties": {
        "report_id": "iem-lsr-APX-61",
        "report_type": "RAIN",
        "event_category": "other",
        "valid_utc": "202609151200",
        "standard_time_display": "2026-09-15 06:00 CST",
        "wfo": "APX",
        "county_or_zone": "Benzie",
        "city": "5 ENE Arcadia",
        "state": "MI",
        "magnitude": 1.74,
        "magnitude_units": null,
        "source": "CO-OP Observer",
        "event_narrative": "CO-OP Observer station BEUM4 Beulah 7 SSW."
      },
      "geometry": {
        "type": "Point",
        "coordinates": [
          -86.13,
          44.53
        ]
      }
    },
    {
      "type": "Feature",
      "id": "iem-lsr-APX-62",
      "properties": {
        "report_id": "iem-lsr-APX-62",
        "report_type": "RAIN",
        "event_category": "other",
        "valid_utc": "202609151200",
        "standard_time_display": "2026-09-15 06:00 CST",
        "wfo": "APX",
        "county_or_zone": "Antrim",
        "city": "1 ESE Mancelona",
        "state": "MI",
        "magnitude": 2.08,
        "magnitude_units": null,
        "source": "Cocorahs",
        "event_narrative": "Cocorahs station MI-AT-6 Mancelona 0.5 ESE."
      },
      "geometry": {
        "type": "Point",
        "coordinates": [
          -85.05,
          44.9
        ]
      }
    },
    {
      "type": "Feature",
      "id": "iem-lsr-APX-63",
      "properties": {
        "report_id": "iem-lsr-APX-63",
        "report_type": "NON-TSTM WND GST",
        "event_category": "thunderstorm_wind",
        "valid_utc": "202609151240",
        "standard_time_display": "2026-09-15 07:40 EST",
        "wfo": "APX",
        "county_or_zone": "LHZ349",
        "city": "1 ESE Au Sable",
        "state": "MI",
        "magnitude": 41.0,
        "magnitude_units": null,
        "source": "Mesonet",
        "event_narrative": "Mesonet station XOSC Oscoda Light."
      },
      "geometry": {
        "type": "Point",
        "coordinates": [
          -83.32,
          44.41
        ]
      }
    },
    {
      "type": "Feature",
      "id": "iem-lsr-APX-64",
      "properties": {
        "report_id": "iem-lsr-APX-64",
        "report_type": "RAIN",
        "event_category": "other",
        "valid_utc": "202609151245",
        "standard_time_display": "2026-09-15 06:45 CST",
        "wfo": "APX",
        "county_or_zone": "Antrim",
        "city": "3 SE Torch Lake",
        "state": "MI",
        "magnitude": 1.49,
        "magnitude_units": null,
        "source": "Cocorahs",
        "event_narrative": "Cocorahs station MI-AT-15 Central Lake 4.2 SW."
      },
      "geometry": {
        "type": "Point",
        "coordinates": [
          -85.33,
          45.03
        ]
      }
    },
    {
      "type": "Feature",
      "id": "iem-lsr-APX-65",
      "properties": {
        "report_id": "iem-lsr-APX-65",
        "report_type": "RAIN",
        "event_category": "other",
        "valid_utc": "202609151250",
        "standard_time_display": "2026-09-15 06:50 CST",
        "wfo": "APX",
        "county_or_zone": "Grand Traverse",
        "city": "1 N Mapleton",
        "state": "MI",
        "magnitude": 1.9,
        "magnitude_units": null,
        "source": "CO-OP Observer",
        "event_narrative": "CO-OP Observer station OMSM4 Old Mission 3 SSW."
      },
      "geometry": {
        "type": "Point",
        "coordinates": [
          -85.52,
          44.92
        ]
      }
    },
    {
      "type": "Feature",
      "id": "iem-lsr-APX-66",
      "properties": {
        "report_id": "iem-lsr-APX-66",
        "report_type": "RAIN",
        "event_category": "other",
        "valid_utc": "202609151300",
        "standard_time_display": "2026-09-15 07:00 CST",
        "wfo": "APX",
        "county_or_zone": "Benzie",
        "city": "5 S Benzonia",
        "state": "MI",
        "magnitude": 1.7,
        "magnitude_units": null,
        "source": "Cocorahs",
        "event_narrative": "Cocorahs station MI-BZ-1 Benzonia 5.3 S."
      },
      "geometry": {
        "type": "Point",
        "coordinates": [
          -86.11,
          44.54
        ]
      }
    },
    {
      "type": "Feature",
      "id": "iem-lsr-APX-67",
      "properties": {
        "report_id": "iem-lsr-APX-67",
        "report_type": "NON-TSTM WND GST",
        "event_category": "thunderstorm_wind",
        "valid_utc": "202609151300",
        "standard_time_display": "2026-09-15 08:00 EST",
        "wfo": "APX",
        "county_or_zone": "Alpena",
        "city": "12 ESE Alpena",
        "state": "MI",
        "magnitude": 44.0,
        "magnitude_units": null,
        "source": "Mesonet",
        "event_narrative": "Mesonet station TBIM4 12 E Alpena."
      },
      "geometry": {
        "type": "Point",
        "coordinates": [
          -83.19,
          45.03
        ]
      }
    },
    {
      "type": "Feature",
      "id": "iem-lsr-APX-68",
      "properties": {
        "report_id": "iem-lsr-APX-68",
        "report_type": "RAIN",
        "event_category": "other",
        "valid_utc": "202609151515",
        "standard_time_display": "2026-09-15 09:15 CST",
        "wfo": "APX",
        "county_or_zone": "Antrim",
        "city": "3 NW Clam River",
        "state": "MI",
        "magnitude": 1.86,
        "magnitude_units": null,
        "source": "Cocorahs",
        "event_narrative": "Cocorahs station MI-AT-18 Kewadin 3.4 NE."
      },
      "geometry": {
        "type": "Point",
        "coordinates": [
          -85.33,
          44.96
        ]
      }
    },
    {
      "type": "Feature",
      "id": "iem-lsr-APX-69",
      "properties": {
        "report_id": "iem-lsr-APX-69",
        "report_type": "RAIN",
        "event_category": "other",
        "valid_utc": "202609151800",
        "standard_time_display": "2026-09-15 13:00 EST",
        "wfo": "APX",
        "county_or_zone": "Otsego",
        "city": "1 NW Waters",
        "state": "MI",
        "magnitude": 2.01,
        "magnitude_units": null,
        "source": "Official NWS Obs",
        "event_narrative": "NWS Gaylord office. 18 hour total."
      },
      "geometry": {
        "type": "Point",
        "coordinates": [
          -84.72,
          44.91
        ]
      }
    },
    {
      "type": "Feature",
      "id": "iem-lsr-APX-70",
      "properties": {
        "report_id": "iem-lsr-APX-70",
        "report_type": "RAIN",
        "event_category": "other",
        "valid_utc": "202609151800",
        "standard_time_display": "2026-09-15 13:00 EST",
        "wfo": "APX",
        "county_or_zone": "Otsego",
        "city": "1 NW Waters",
        "state": "MI",
        "magnitude": 2.04,
        "magnitude_units": null,
        "source": "Official NWS Obs",
        "event_narrative": "NWS Gaylord office."
      },
      "geometry": {
        "type": "Point",
        "coordinates": [
          -84.72,
          44.91
        ]
      }
    },
    {
      "type": "Feature",
      "id": "iem-lsr-APX-71",
      "properties": {
        "report_id": "iem-lsr-APX-71",
        "report_type": "NON-TSTM WND GST",
        "event_category": "thunderstorm_wind",
        "valid_utc": "202609151840",
        "standard_time_display": "2026-09-15 12:40 CST",
        "wfo": "APX",
        "county_or_zone": "LMZ344",
        "city": "7 NNE Northport",
        "state": "MI",
        "magnitude": 40.0,
        "magnitude_units": null,
        "source": "Mesonet",
        "event_narrative": "Mesonet station GTLM4 6 NE Northport."
      },
      "geometry": {
        "type": "Point",
        "coordinates": [
          -85.55,
          45.21
        ]
      }
    },
    {
      "type": "Feature",
      "id": "iem-lsr-APX-72",
      "properties": {
        "report_id": "iem-lsr-APX-72",
        "report_type": "RAIN",
        "event_category": "other",
        "valid_utc": "202609151912",
        "standard_time_display": "2026-09-15 14:12 EST",
        "wfo": "APX",
        "county_or_zone": "Crawford",
        "city": "3 SSW Hartwick Pines St",
        "state": "MI",
        "magnitude": 1.6,
        "magnitude_units": null,
        "source": "Mesonet",
        "event_narrative": "Mesonet station GYGM4 Grayling."
      },
      "geometry": {
        "type": "Point",
        "coordinates": [
          -84.71,
          44.72
        ]
      }
    },
    {
      "type": "Feature",
      "id": "iem-lsr-APX-73",
      "properties": {
        "report_id": "iem-lsr-APX-73",
        "report_type": "RAIN",
        "event_category": "other",
        "valid_utc": "202609152000",
        "standard_time_display": "2026-09-15 14:00 CST",
        "wfo": "APX",
        "county_or_zone": "Charlevoix",
        "city": "2 NNW East Jordan",
        "state": "MI",
        "magnitude": 1.01,
        "magnitude_units": null,
        "source": "CO-OP Observer",
        "event_narrative": "CO-OP Observer station EJNM4 East Jordan 2 NW."
      },
      "geometry": {
        "type": "Point",
        "coordinates": [
          -85.15,
          45.19
        ]
      }
    },
    {
      "type": "Feature",
      "id": "iem-lsr-APX-74",
      "properties": {
        "report_id": "iem-lsr-APX-74",
        "report_type": "RAIN",
        "event_category": "other",
        "valid_utc": "202609152200",
        "standard_time_display": "2026-09-15 16:00 CST",
        "wfo": "APX",
        "county_or_zone": "Leelanau",
        "city": "2 ENE Maple City",
        "state": "MI",
        "magnitude": 1.53,
        "magnitude_units": null,
        "source": "CO-OP Observer",
        "event_narrative": "CO-OP Observer station MAPM4 Maple City 1 E."
      },
      "geometry": {
        "type": "Point",
        "coordinates": [
          -85.83,
          44.86
        ]
      }
    },
    {
      "type": "Feature",
      "id": "iem-lsr-APX-75",
      "properties": {
        "report_id": "iem-lsr-APX-75",
        "report_type": "RAIN",
        "event_category": "other",
        "valid_utc": "202609152200",
        "standard_time_display": "2026-09-15 16:00 CST",
        "wfo": "APX",
        "county_or_zone": "Benzie",
        "city": "1 ENE Frankfort",
        "state": "MI",
        "magnitude": 1.73,
        "magnitude_units": null,
        "source": "CO-OP Observer",
        "event_narrative": "CO-OP Observer station FRKM4 Frankfort 2 NE."
      },
      "geometry": {
        "type": "Point",
        "coordinates": [
          -86.21,
          44.65
        ]
      }
    },
    {
      "type": "Feature",
      "id": "iem-lsr-APX-76",
      "properties": {
        "report_id": "iem-lsr-APX-76",
        "report_type": "RAIN",
        "event_category": "other",
        "valid_utc": "202609152308",
        "standard_time_display": "2026-09-15 18:08 EST",
        "wfo": "APX",
        "county_or_zone": "Montmorency",
        "city": "1 E Clear Lake State Pa",
        "state": "MI",
        "magnitude": 1.3,
        "magnitude_units": null,
        "source": "Mesonet",
        "event_narrative": "Mesonet station ATAM4 Atlanta."
      },
      "geometry": {
        "type": "Point",
        "coordinates": [
          -84.19,
          45.15
        ]
      }
    },
    {
      "type": "Feature",
      "id": "iem-lsr-APX-77",
      "properties": {
        "report_id": "iem-lsr-APX-77",
        "report_type": "RAIN",
        "event_category": "other",
        "valid_utc": "202609152308",
        "standard_time_display": "2026-09-15 17:08 CST",
        "wfo": "APX",
        "county_or_zone": "Benzie",
        "city": "4 S Empire",
        "state": "MI",
        "magnitude": 1.51,
        "magnitude_units": null,
        "source": "Mesonet",
        "event_narrative": "Mesonet station SBDM4 Bear."
      },
      "geometry": {
        "type": "Point",
        "coordinates": [
          -86.06,
          44.76
        ]
      }
    },
    {
      "type": "Feature",
      "id": "iem-lsr-APX-78",
      "properties": {
        "report_id": "iem-lsr-APX-78",
        "report_type": "RAIN",
        "event_category": "other",
        "valid_utc": "202609152310",
        "standard_time_display": "2026-09-15 18:10 EST",
        "wfo": "APX",
        "county_or_zone": "Roscommon",
        "city": "2 SSE Roscommon",
        "state": "MI",
        "magnitude": 1.13,
        "magnitude_units": null,
        "source": "Mesonet",
        "event_narrative": "Mesonet station RSCM4 Roscommon."
      },
      "geometry": {
        "type": "Point",
        "coordinates": [
          -84.57,
          44.47
        ]
      }
    },
    {
      "type": "Feature",
      "id": "iem-lsr-APX-79",
      "properties": {
        "report_id": "iem-lsr-APX-79",
        "report_type": "RAIN",
        "event_category": "other",
        "valid_utc": "202609152323",
        "standard_time_display": "2026-09-15 17:23 CST",
        "wfo": "APX",
        "county_or_zone": "Manistee",
        "city": "1 NE Wellston",
        "state": "MI",
        "magnitude": 1.41,
        "magnitude_units": null,
        "source": "Mesonet",
        "event_narrative": "Mesonet station WLLM4 Wellston."
      },
      "geometry": {
        "type": "Point",
        "coordinates": [
          -85.94,
          44.22
        ]
      }
    },
    {
      "type": "Feature",
      "id": "iem-lsr-APX-80",
      "properties": {
        "report_id": "iem-lsr-APX-80",
        "report_type": "RAIN",
        "event_category": "other",
        "valid_utc": "202609152332",
        "standard_time_display": "2026-09-15 18:32 EST",
        "wfo": "APX",
        "county_or_zone": "Oscoda",
        "city": "1 NNE Mio",
        "state": "MI",
        "magnitude": 1.21,
        "magnitude_units": null,
        "source": "Mesonet",
        "event_narrative": "Mesonet station MMOM4 Mio."
      },
      "geometry": {
        "type": "Point",
        "coordinates": [
          -84.12,
          44.68
        ]
      }
    },
    {
      "type": "Feature",
      "id": "iem-lsr-APX-81",
      "properties": {
        "report_id": "iem-lsr-APX-81",
        "report_type": "RAIN",
        "event_category": "other",
        "valid_utc": "202609152353",
        "standard_time_display": "2026-09-15 17:53 CST",
        "wfo": "APX",
        "county_or_zone": "Grand Traverse",
        "city": "2 SE Traverse City",
        "state": "MI",
        "magnitude": 1.23,
        "magnitude_units": null,
        "source": "ASOS",
        "event_narrative": "ASOS station KTVC Traverse City - Cherry Capital Airport."
      },
      "geometry": {
        "type": "Point",
        "coordinates": [
          -85.57,
          44.73
        ]
      }
    },
    {
      "type": "Feature",
      "id": "iem-lsr-APX-82",
      "properties": {
        "report_id": "iem-lsr-APX-82",
        "report_type": "RAIN",
        "event_category": "other",
        "valid_utc": "202609152354",
        "standard_time_display": "2026-09-15 18:54 EST",
        "wfo": "APX",
        "county_or_zone": "Alpena",
        "city": "6 S Cathro",
        "state": "MI",
        "magnitude": 1.24,
        "magnitude_units": null,
        "source": "ASOS",
        "event_narrative": "ASOS station KAPN Alpena - Phelps Collins Field."
      },
      "geometry": {
        "type": "Point",
        "coordinates": [
          -83.57,
          45.07
        ]
      }
    },
    {
      "type": "Feature",
      "id": "iem-lsr-APX-83",
      "properties": {
        "report_id": "iem-lsr-APX-83",
        "report_type": "RAIN",
        "event_category": "other",
        "valid_utc": "202609152355",
        "standard_time_display": "2026-09-15 18:55 EST",
        "wfo": "APX",
        "county_or_zone": "Crawford",
        "city": "2 NNW Grayling",
        "state": "MI",
        "magnitude": 1.27,
        "magnitude_units": null,
        "source": "AWOS",
        "event_narrative": "AWOS station KGOV Grayling - Army Airfield."
      },
      "geometry": {
        "type": "Point",
        "coordinates": [
          -84.73,
          44.68
        ]
      }
    },
    {
      "type": "Feature",
      "id": "iem-lsr-APX-84",
      "properties": {
        "report_id": "iem-lsr-APX-84",
        "report_type": "RAIN",
        "event_category": "other",
        "valid_utc": "202609160000",
        "standard_time_display": "2026-09-15 18:00 CST",
        "wfo": "APX",
        "county_or_zone": "Manistee",
        "city": "1 SSW Manistee",
        "state": "MI",
        "magnitude": 1.32,
        "magnitude_units": null,
        "source": "Mesonet",
        "event_narrative": "Mesonet station DW9113 Manistee."
      },
      "geometry": {
        "type": "Point",
        "coordinates": [
          -86.34,
          44.23
        ]
      }
    },
    {
      "type": "Feature",
      "id": "iem-lsr-APX-85",
      "properties": {
        "report_id": "iem-lsr-APX-85",
        "report_type": "RAIN",
        "event_category": "other",
        "valid_utc": "202609160004",
        "standard_time_display": "2026-09-15 19:04 EST",
        "wfo": "APX",
        "county_or_zone": "Roscommon",
        "city": "1 ESE Roscommon County",
        "state": "MI",
        "magnitude": 1.2,
        "magnitude_units": null,
        "source": "ASOS",
        "event_narrative": "ASOS station KHTL Houghton Lake - Roscommon County Airport."
      },
      "geometry": {
        "type": "Point",
        "coordinates": [
          -84.67,
          44.35
        ]
      }
    },
    {
      "type": "Feature",
      "id": "iem-lsr-APX-86",
      "properties": {
        "report_id": "iem-lsr-APX-86",
        "report_type": "RAIN",
        "event_category": "other",
        "valid_utc": "202609160008",
        "standard_time_display": "2026-09-15 19:08 EST",
        "wfo": "APX",
        "county_or_zone": "Alpena",
        "city": "2 SW Alpena",
        "state": "MI",
        "magnitude": 1.33,
        "magnitude_units": null,
        "source": "Mesonet",
        "event_narrative": "Mesonet station GW0478 Alpena."
      },
      "geometry": {
        "type": "Point",
        "coordinates": [
          -83.47,
          45.05
        ]
      }
    },
    {
      "type": "Feature",
      "id": "iem-lsr-APX-87",
      "properties": {
        "report_id": "iem-lsr-APX-87",
        "report_type": "RAIN",
        "event_category": "other",
        "valid_utc": "202609160009",
        "standard_time_display": "2026-09-15 19:09 EST",
        "wfo": "APX",
        "county_or_zone": "Otsego",
        "city": "Vanderbilt",
        "state": "MI",
        "magnitude": 1.29,
        "magnitude_units": null,
        "source": "Mesonet",
        "event_narrative": "Mesonet station GW5777 VANDERBILT."
      },
      "geometry": {
        "type": "Point",
        "coordinates": [
          -84.66,
          45.14
        ]
      }
    },
    {
      "type": "Feature",
      "id": "iem-lsr-APX-88",
      "properties": {
        "report_id": "iem-lsr-APX-88",
        "report_type": "RAIN",
        "event_category": "other",
        "valid_utc": "202609160010",
        "standard_time_display": "2026-09-15 18:10 CST",
        "wfo": "APX",
        "county_or_zone": "Grand Traverse",
        "city": "5 NNW Grawn",
        "state": "MI",
        "magnitude": 1.58,
        "magnitude_units": null,
        "source": "Mesonet",
        "event_narrative": "Mesonet station GW3308 Traverse City."
      },
      "geometry": {
        "type": "Point",
        "coordinates": [
          -85.71,
          44.74
        ]
      }
    },
    {
      "type": "Feature",
      "id": "iem-lsr-APX-89",
      "properties": {
        "report_id": "iem-lsr-APX-89",
        "report_type": "RAIN",
        "event_category": "other",
        "valid_utc": "202609160010",
        "standard_time_display": "2026-09-15 18:10 CST",
        "wfo": "APX",
        "county_or_zone": "Benzie",
        "city": "1 SSW Lake Ann",
        "state": "MI",
        "magnitude": 1.95,
        "magnitude_units": null,
        "source": "Mesonet",
        "event_narrative": "Mesonet station GW6471 LAKE ANN."
      },
      "geometry": {
        "type": "Point",
        "coordinates": [
          -85.85,
          44.71
        ]
      }
    }
  ]
}