{
  "type": "FeatureCollection",
  "metadata": {
    "schema_version": "0.2.4",
    "year": 2026,
    "month": 4,
    "wfo": "GSP",
    "start_utc": "2026-04-01T00:00:00Z",
    "end_utc": "2026-05-01T00:00:00Z",
    "generated_utc": "2026-05-28T12:46:21Z",
    "mode": "storm_data_prep",
    "public_release_status": "public-source-derived",
    "time_note": "Storm Data entry times should be reviewed in local Standard Time (ST), not daylight time. Candidate reports include standard_time_display.",
    "tornado_track_policy": "Tornado tracks must come from DAT. NCEI begin/end coordinates are not used as a tornado track substitute.",
    "source": "https://mesonet.agron.iastate.edu/cgi-bin/request/gis/lsr.py?wfo=GSP&sts=2026-04-01T00%3A00%3A00Z&ets=2026-05-01T00%3A00%3A00Z&fmt=csv"
  },
  "features": [
    {
      "type": "Feature",
      "id": "iem-lsr-GSP-1",
      "properties": {
        "report_id": "iem-lsr-GSP-1",
        "report_type": "HAIL",
        "event_category": "hail",
        "valid_utc": "202604012003",
        "standard_time_display": "2026-04-01 15:03 EST",
        "wfo": "GSP",
        "county_or_zone": "McDowell",
        "city": "3 NW Sugar Hill",
        "state": "NC",
        "magnitude": 0.75,
        "magnitude_units": null,
        "source": "Public",
        "event_narrative": null
      },
      "geometry": {
        "type": "Point",
        "coordinates": [
          -82.08,
          35.62
        ]
      }
    },
    {
      "type": "Feature",
      "id": "iem-lsr-GSP-2",
      "properties": {
        "report_id": "iem-lsr-GSP-2",
        "report_type": "HAIL",
        "event_category": "hail",
        "valid_utc": "202604012143",
        "standard_time_display": "2026-04-01 16:43 EST",
        "wfo": "GSP",
        "county_or_zone": "Mitchell",
        "city": "4 W Bakersville",
        "state": "NC",
        "magnitude": 0.7,
        "magnitude_units": null,
        "source": "Trained Spotter",
        "event_narrative": "Dime sized hail. Location approximated."
      },
      "geometry": {
        "type": "Point",
        "coordinates": [
          -82.23,
          36.02
        ]
      }
    },
    {
      "type": "Feature",
      "id": "iem-lsr-GSP-3",
      "properties": {
        "report_id": "iem-lsr-GSP-3",
        "report_type": "NON-TSTM WND DMG",
        "event_category": "thunderstorm_wind",
        "valid_utc": "202604191310",
        "standard_time_display": "2026-04-19 08:10 EST",
        "wfo": "GSP",
        "county_or_zone": "Jackson",
        "city": "1 N Cashiers",
        "state": "NC",
        "magnitude": null,
        "magnitude_units": null,
        "source": "911 Call Center",
        "event_narrative": "Tree with trunk approx 2 ft in diameter down_ blocking whole road."
      },
      "geometry": {
        "type": "Point",
        "coordinates": [
          -83.1,
          35.12
        ]
      }
    },
    {
      "type": "Feature",
      "id": "iem-lsr-GSP-4",
      "properties": {
        "report_id": "iem-lsr-GSP-4",
        "report_type": "NON-TSTM WND DMG",
        "event_category": "thunderstorm_wind",
        "valid_utc": "202604191313",
        "standard_time_display": "2026-04-19 08:13 EST",
        "wfo": "GSP",
        "county_or_zone": "Jackson",
        "city": "3 W Cashiers",
        "state": "NC",
        "magnitude": null,
        "magnitude_units": null,
        "source": "911 Call Center",
        "event_narrative": "Tree down on US 64 near intersection of Norton Rd."
      },
      "geometry": {
        "type": "Point",
        "coordinates": [
          -83.15,
          35.11
        ]
      }
    }
  ]
}