{
  "type": "FeatureCollection",
  "metadata": {
    "schema_version": "0.2.4",
    "year": 2026,
    "month": 9,
    "wfo": "FWD",
    "start_utc": "2026-09-01T00:00:00Z",
    "end_utc": "2026-10-01T00:00:00Z",
    "generated_utc": "2026-09-11T13:32:17Z",
    "mode": "storm_data_prep",
    "public_release_status": "public-source-derived",
    "time_note": "Storm Data entry times should be reviewed in local Standard Time (ST), not daylight time. Candidate reports include standard_time_display.",
    "tornado_track_policy": "Tornado tracks must come from DAT. NCEI begin/end coordinates are not used as a tornado track substitute.",
    "source": "https://mesonet.agron.iastate.edu/cgi-bin/request/gis/lsr.py?wfo=FWD&sts=2026-09-01T00%3A00%3A00Z&ets=2026-10-01T00%3A00%3A00Z&fmt=csv"
  },
  "features": [
    {
      "type": "Feature",
      "id": "iem-lsr-FWD-1",
      "properties": {
        "report_id": "iem-lsr-FWD-1",
        "report_type": "FLASH FLOOD",
        "event_category": "flooding",
        "valid_utc": "202609031530",
        "standard_time_display": "2026-09-03 09:30 CST",
        "wfo": "FWD",
        "county_or_zone": "Freestone",
        "city": "8 SSE Teague",
        "state": "TX",
        "magnitude": null,
        "magnitude_units": null,
        "source": "Public",
        "event_narrative": "Social media report of fast moving water flowing over parts of CR 764 and CR 781 west of Buffalo and southeast of Teague."
      },
      "geometry": {
        "type": "Point",
        "coordinates": [
          -96.23,
          31.52
        ]
      }
    },
    {
      "type": "Feature",
      "id": "iem-lsr-FWD-2",
      "properties": {
        "report_id": "iem-lsr-FWD-2",
        "report_type": "FLASH FLOOD",
        "event_category": "flooding",
        "valid_utc": "202609031600",
        "standard_time_display": "2026-09-03 10:00 CST",
        "wfo": "FWD",
        "county_or_zone": "Freestone",
        "city": "8 SSE Teague",
        "state": "TX",
        "magnitude": null,
        "magnitude_units": null,
        "source": "Emergency Mngr",
        "event_narrative": "Delayed Report. CR 781 was partially washed out due to flooding caused by heavy rainfall."
      },
      "geometry": {
        "type": "Point",
        "coordinates": [
          -96.22,
          31.53
        ]
      }
    },
    {
      "type": "Feature",
      "id": "iem-lsr-FWD-3",
      "properties": {
        "report_id": "iem-lsr-FWD-3",
        "report_type": "FLASH FLOOD",
        "event_category": "flooding",
        "valid_utc": "202609031600",
        "standard_time_display": "2026-09-03 10:00 CST",
        "wfo": "FWD",
        "county_or_zone": "Leon",
        "city": "Centerville",
        "state": "TX",
        "magnitude": null,
        "magnitude_units": null,
        "source": "Public",
        "event_narrative": "Social media report of fast moving water flowing over FM 200 AKA Deer Meadows Road in eastern Centerville."
      },
      "geometry": {
        "type": "Point",
        "coordinates": [
          -95.97,
          31.26
        ]
      }
    },
    {
      "type": "Feature",
      "id": "iem-lsr-FWD-4",
      "properties": {
        "report_id": "iem-lsr-FWD-4",
        "report_type": "TSTM WND GST",
        "event_category": "thunderstorm_wind",
        "valid_utc": "202609102043",
        "standard_time_display": "2026-09-10 14:43 CST",
        "wfo": "FWD",
        "county_or_zone": "Parker",
        "city": "3 SSE Mineral Wells",
        "state": "TX",
        "magnitude": 61.0,
        "magnitude_units": null,
        "source": "ASOS",
        "event_narrative": "61 mph thunderstorm wind gust recorded by Mineral Wells ASOS (KMWL) at 3:43pm 9/10."
      },
      "geometry": {
        "type": "Point",
        "coordinates": [
          -98.06,
          32.78
        ]
      }
    },
    {
      "type": "Feature",
      "id": "iem-lsr-FWD-5",
      "properties": {
        "report_id": "iem-lsr-FWD-5",
        "report_type": "TSTM WND GST",
        "event_category": "thunderstorm_wind",
        "valid_utc": "202609102043",
        "standard_time_display": "2026-09-10 14:43 CST",
        "wfo": "FWD",
        "county_or_zone": "Parker",
        "city": "3 SSE Mineral Wells",
        "state": "TX",
        "magnitude": 61.0,
        "magnitude_units": null,
        "source": "ASOS",
        "event_narrative": "Report corrected for syntax. KMWL."
      },
      "geometry": {
        "type": "Point",
        "coordinates": [
          -98.06,
          32.78
        ]
      }
    }
  ]
}