{
  "type": "FeatureCollection",
  "metadata": {
    "schema_version": "0.2.4",
    "year": 2026,
    "month": 10,
    "wfo": "TOP",
    "start_utc": "2026-10-01T00:00:00Z",
    "end_utc": "2026-11-01T00:00:00Z",
    "generated_utc": "2026-10-01T16:24:50Z",
    "mode": "storm_data_prep",
    "public_release_status": "public-source-derived",
    "time_note": "Storm Data entry times should be reviewed in local Standard Time (ST), not daylight time. Candidate reports include standard_time_display.",
    "tornado_track_policy": "Tornado tracks must come from DAT. NCEI begin/end coordinates are not used as a tornado track substitute.",
    "source": "https://mesonet.agron.iastate.edu/cgi-bin/request/gis/lsr.py?wfo=TOP&sts=2026-10-01T00%3A00%3A00Z&ets=2026-11-01T00%3A00%3A00Z&fmt=csv"
  },
  "features": [
    {
      "type": "Feature",
      "id": "iem-lsr-TOP-1",
      "properties": {
        "report_id": "iem-lsr-TOP-1",
        "report_type": "RAIN",
        "event_category": "other",
        "valid_utc": "202610010900",
        "standard_time_display": "2026-10-01 03:00 CST",
        "wfo": "TOP",
        "county_or_zone": "Riley",
        "city": "5 E Ogden",
        "state": "KS",
        "magnitude": 1.34,
        "magnitude_units": null,
        "source": "Mesonet",
        "event_narrative": "Mesonet station MKHK1 KSU KONZA PRAIRIE MANHATTAN 6SSW KS US."
      },
      "geometry": {
        "type": "Point",
        "coordinates": [
          -96.61,
          39.1
        ]
      }
    },
    {
      "type": "Feature",
      "id": "iem-lsr-TOP-2",
      "properties": {
        "report_id": "iem-lsr-TOP-2",
        "report_type": "RAIN",
        "event_category": "other",
        "valid_utc": "202610011000",
        "standard_time_display": "2026-10-01 04:00 CST",
        "wfo": "TOP",
        "county_or_zone": "Dickinson",
        "city": "Chapman",
        "state": "KS",
        "magnitude": 1.05,
        "magnitude_units": null,
        "source": "Cocorahs",
        "event_narrative": "Cocorahs station KS-DK-65 Chapman."
      },
      "geometry": {
        "type": "Point",
        "coordinates": [
          -97.02,
          38.97
        ]
      }
    },
    {
      "type": "Feature",
      "id": "iem-lsr-TOP-3",
      "properties": {
        "report_id": "iem-lsr-TOP-3",
        "report_type": "RAIN",
        "event_category": "other",
        "valid_utc": "202610011100",
        "standard_time_display": "2026-10-01 05:00 CST",
        "wfo": "TOP",
        "county_or_zone": "Geary",
        "city": "6 WNW Volland",
        "state": "KS",
        "magnitude": 1.29,
        "magnitude_units": null,
        "source": "Cocorahs",
        "event_narrative": "Cocorahs station KS-GE-20 Alta Vista 7.2 NNW."
      },
      "geometry": {
        "type": "Point",
        "coordinates": [
          -96.52,
          38.97
        ]
      }
    },
    {
      "type": "Feature",
      "id": "iem-lsr-TOP-4",
      "properties": {
        "report_id": "iem-lsr-TOP-4",
        "report_type": "RAIN",
        "event_category": "other",
        "valid_utc": "202610011100",
        "standard_time_display": "2026-10-01 05:00 CST",
        "wfo": "TOP",
        "county_or_zone": "Marshall",
        "city": "Marysville",
        "state": "KS",
        "magnitude": 1.54,
        "magnitude_units": null,
        "source": "Cocorahs",
        "event_narrative": "Cocorahs station KS-MS-27 Marysville 0.4 S."
      },
      "geometry": {
        "type": "Point",
        "coordinates": [
          -96.64,
          39.84
        ]
      }
    },
    {
      "type": "Feature",
      "id": "iem-lsr-TOP-5",
      "properties": {
        "report_id": "iem-lsr-TOP-5",
        "report_type": "RAIN",
        "event_category": "other",
        "valid_utc": "202610011100",
        "standard_time_display": "2026-10-01 05:00 CST",
        "wfo": "TOP",
        "county_or_zone": "Cloud",
        "city": "1 S Concordia",
        "state": "KS",
        "magnitude": 1.6,
        "magnitude_units": null,
        "source": "Cocorahs",
        "event_narrative": "Cocorahs station KS-CD-9 Concordia 0.6 SW."
      },
      "geometry": {
        "type": "Point",
        "coordinates": [
          -97.66,
          39.56
        ]
      }
    },
    {
      "type": "Feature",
      "id": "iem-lsr-TOP-6",
      "properties": {
        "report_id": "iem-lsr-TOP-6",
        "report_type": "RAIN",
        "event_category": "other",
        "valid_utc": "202610011124",
        "standard_time_display": "2026-10-01 05:24 CST",
        "wfo": "TOP",
        "county_or_zone": "Jackson",
        "city": "7 W Mayetta",
        "state": "KS",
        "magnitude": 1.0,
        "magnitude_units": null,
        "source": "Mesonet",
        "event_narrative": "Mesonet station PRAK1 Potawatomi."
      },
      "geometry": {
        "type": "Point",
        "coordinates": [
          -95.85,
          39.34
        ]
      }
    },
    {
      "type": "Feature",
      "id": "iem-lsr-TOP-7",
      "properties": {
        "report_id": "iem-lsr-TOP-7",
        "report_type": "RAIN",
        "event_category": "other",
        "valid_utc": "202610011130",
        "standard_time_display": "2026-10-01 05:30 CST",
        "wfo": "TOP",
        "county_or_zone": "Clay",
        "city": "Wakefield",
        "state": "KS",
        "magnitude": 1.25,
        "magnitude_units": null,
        "source": "Cocorahs",
        "event_narrative": "Cocorahs station KS-CY-8 Wakefield 0.2 NW."
      },
      "geometry": {
        "type": "Point",
        "coordinates": [
          -97.02,
          39.22
        ]
      }
    },
    {
      "type": "Feature",
      "id": "iem-lsr-TOP-8",
      "properties": {
        "report_id": "iem-lsr-TOP-8",
        "report_type": "RAIN",
        "event_category": "other",
        "valid_utc": "202610011130",
        "standard_time_display": "2026-10-01 05:30 CST",
        "wfo": "TOP",
        "county_or_zone": "Geary",
        "city": "2 WSW Junction City",
        "state": "KS",
        "magnitude": 1.3,
        "magnitude_units": null,
        "source": "Cocorahs",
        "event_narrative": "Cocorahs station KS-GE-12 Junction City 1.5 WSW."
      },
      "geometry": {
        "type": "Point",
        "coordinates": [
          -96.87,
          39.02
        ]
      }
    },
    {
      "type": "Feature",
      "id": "iem-lsr-TOP-9",
      "properties": {
        "report_id": "iem-lsr-TOP-9",
        "report_type": "RAIN",
        "event_category": "other",
        "valid_utc": "202610011139",
        "standard_time_display": "2026-10-01 05:39 CST",
        "wfo": "TOP",
        "county_or_zone": "Marshall",
        "city": "6 WSW Beattie",
        "state": "KS",
        "magnitude": 1.5,
        "magnitude_units": null,
        "source": "Public",
        "event_narrative": "24-hour total. Relayed by emergency management."
      },
      "geometry": {
        "type": "Point",
        "coordinates": [
          -96.52,
          39.84
        ]
      }
    },
    {
      "type": "Feature",
      "id": "iem-lsr-TOP-10",
      "properties": {
        "report_id": "iem-lsr-TOP-10",
        "report_type": "RAIN",
        "event_category": "other",
        "valid_utc": "202610011139",
        "standard_time_display": "2026-10-01 05:39 CST",
        "wfo": "TOP",
        "county_or_zone": "Marshall",
        "city": "Marysville",
        "state": "KS",
        "magnitude": 1.54,
        "magnitude_units": null,
        "source": "Emergency Mngr",
        "event_narrative": null
      },
      "geometry": {
        "type": "Point",
        "coordinates": [
          -96.64,
          39.84
        ]
      }
    },
    {
      "type": "Feature",
      "id": "iem-lsr-TOP-11",
      "properties": {
        "report_id": "iem-lsr-TOP-11",
        "report_type": "RAIN",
        "event_category": "other",
        "valid_utc": "202610011139",
        "standard_time_display": "2026-10-01 05:39 CST",
        "wfo": "TOP",
        "county_or_zone": "Marshall",
        "city": "1 S Marysville",
        "state": "KS",
        "magnitude": 1.8,
        "magnitude_units": null,
        "source": "Public",
        "event_narrative": "24-hour total. Relayed by emergency management."
      },
      "geometry": {
        "type": "Point",
        "coordinates": [
          -96.65,
          39.83
        ]
      }
    },
    {
      "type": "Feature",
      "id": "iem-lsr-TOP-12",
      "properties": {
        "report_id": "iem-lsr-TOP-12",
        "report_type": "RAIN",
        "event_category": "other",
        "valid_utc": "202610011139",
        "standard_time_display": "2026-10-01 05:39 CST",
        "wfo": "TOP",
        "county_or_zone": "Marshall",
        "city": "Beattie",
        "state": "KS",
        "magnitude": 2.1,
        "magnitude_units": null,
        "source": "Public",
        "event_narrative": "24-hour total. Relayed by emergency management."
      },
      "geometry": {
        "type": "Point",
        "coordinates": [
          -96.42,
          39.86
        ]
      }
    },
    {
      "type": "Feature",
      "id": "iem-lsr-TOP-13",
      "properties": {
        "report_id": "iem-lsr-TOP-13",
        "report_type": "RAIN",
        "event_category": "other",
        "valid_utc": "202610011139",
        "standard_time_display": "2026-10-01 05:39 CST",
        "wfo": "TOP",
        "county_or_zone": "Marshall",
        "city": "4 W Vermillion",
        "state": "KS",
        "magnitude": 2.25,
        "magnitude_units": null,
        "source": "Public",
        "event_narrative": "24-hour total. Relayed by emergency management."
      },
      "geometry": {
        "type": "Point",
        "coordinates": [
          -96.33,
          39.73
        ]
      }
    },
    {
      "type": "Feature",
      "id": "iem-lsr-TOP-14",
      "properties": {
        "report_id": "iem-lsr-TOP-14",
        "report_type": "RAIN",
        "event_category": "other",
        "valid_utc": "202610011145",
        "standard_time_display": "2026-10-01 05:45 CST",
        "wfo": "TOP",
        "county_or_zone": "Osage",
        "city": "5 NNW Quenemo",
        "state": "KS",
        "magnitude": 1.0,
        "magnitude_units": null,
        "source": "Mesonet",
        "event_narrative": "Mesonet station QUEK1 4.8 NW Quenemo."
      },
      "geometry": {
        "type": "Point",
        "coordinates": [
          -95.56,
          38.65
        ]
      }
    },
    {
      "type": "Feature",
      "id": "iem-lsr-TOP-15",
      "properties": {
        "report_id": "iem-lsr-TOP-15",
        "report_type": "RAIN",
        "event_category": "other",
        "valid_utc": "202610011145",
        "standard_time_display": "2026-10-01 05:45 CST",
        "wfo": "TOP",
        "county_or_zone": "Morris",
        "city": "1 SE Parkerville",
        "state": "KS",
        "magnitude": 1.09,
        "magnitude_units": null,
        "source": "Mesonet",
        "event_narrative": "Mesonet station PKVK1 1.1 SE Parkerville."
      },
      "geometry": {
        "type": "Point",
        "coordinates": [
          -96.65,
          38.75
        ]
      }
    },
    {
      "type": "Feature",
      "id": "iem-lsr-TOP-16",
      "properties": {
        "report_id": "iem-lsr-TOP-16",
        "report_type": "RAIN",
        "event_category": "other",
        "valid_utc": "202610011155",
        "standard_time_display": "2026-10-01 05:55 CST",
        "wfo": "TOP",
        "county_or_zone": "Cloud",
        "city": "2 SSE Concordia",
        "state": "KS",
        "magnitude": 1.56,
        "magnitude_units": null,
        "source": "ASOS",
        "event_narrative": "ASOS station KCNK Concordia."
      },
      "geometry": {
        "type": "Point",
        "coordinates": [
          -97.65,
          39.55
        ]
      }
    },
    {
      "type": "Feature",
      "id": "iem-lsr-TOP-17",
      "properties": {
        "report_id": "iem-lsr-TOP-17",
        "report_type": "RAIN",
        "event_category": "other",
        "valid_utc": "202610011200",
        "standard_time_display": "2026-10-01 06:00 CST",
        "wfo": "TOP",
        "county_or_zone": "Osage",
        "city": "1 N Lyndon",
        "state": "KS",
        "magnitude": 1.03,
        "magnitude_units": null,
        "source": "Cocorahs",
        "event_narrative": "Cocorahs station KS-OS-8 Lyndon 0.7 N."
      },
      "geometry": {
        "type": "Point",
        "coordinates": [
          -95.68,
          38.62
        ]
      }
    },
    {
      "type": "Feature",
      "id": "iem-lsr-TOP-18",
      "properties": {
        "report_id": "iem-lsr-TOP-18",
        "report_type": "RAIN",
        "event_category": "other",
        "valid_utc": "202610011200",
        "standard_time_display": "2026-10-01 06:00 CST",
        "wfo": "TOP",
        "county_or_zone": "Ottawa",
        "city": "3 WSW Minneapolis",
        "state": "KS",
        "magnitude": 1.03,
        "magnitude_units": null,
        "source": "Cocorahs",
        "event_narrative": "Cocorahs station KS-OT-16 Minneapolis 3.4 WSW."
      },
      "geometry": {
        "type": "Point",
        "coordinates": [
          -97.76,
          39.1
        ]
      }
    },
    {
      "type": "Feature",
      "id": "iem-lsr-TOP-19",
      "properties": {
        "report_id": "iem-lsr-TOP-19",
        "report_type": "RAIN",
        "event_category": "other",
        "valid_utc": "202610011200",
        "standard_time_display": "2026-10-01 06:00 CST",
        "wfo": "TOP",
        "county_or_zone": "Nemaha",
        "city": "6 NE Axtell",
        "state": "KS",
        "magnitude": 1.06,
        "magnitude_units": null,
        "source": "Mesonet",
        "event_narrative": "Mesonet station DVI013781 Schmitz Farms."
      },
      "geometry": {
        "type": "Point",
        "coordinates": [
          -96.18,
          39.94
        ]
      }
    },
    {
      "type": "Feature",
      "id": "iem-lsr-TOP-20",
      "properties": {
        "report_id": "iem-lsr-TOP-20",
        "report_type": "RAIN",
        "event_category": "other",
        "valid_utc": "202610011200",
        "standard_time_display": "2026-10-01 06:00 CST",
        "wfo": "TOP",
        "county_or_zone": "Dickinson",
        "city": "2 N Enterprise",
        "state": "KS",
        "magnitude": 1.08,
        "magnitude_units": null,
        "source": "Cocorahs",
        "event_narrative": "Cocorahs station KS-DK-30 Abilene 5.4 E."
      },
      "geometry": {
        "type": "Point",
        "coordinates": [
          -97.12,
          38.93
        ]
      }
    },
    {
      "type": "Feature",
      "id": "iem-lsr-TOP-21",
      "properties": {
        "report_id": "iem-lsr-TOP-21",
        "report_type": "RAIN",
        "event_category": "other",
        "valid_utc": "202610011200",
        "standard_time_display": "2026-10-01 06:00 CST",
        "wfo": "TOP",
        "county_or_zone": "Jackson",
        "city": "5 WSW Mayetta",
        "state": "KS",
        "magnitude": 1.11,
        "magnitude_units": null,
        "source": "Cocorahs",
        "event_narrative": "Cocorahs station KS-JA-1 Mayetta 5.5 WSW."
      },
      "geometry": {
        "type": "Point",
        "coordinates": [
          -95.81,
          39.3
        ]
      }
    },
    {
      "type": "Feature",
      "id": "iem-lsr-TOP-22",
      "properties": {
        "report_id": "iem-lsr-TOP-22",
        "report_type": "RAIN",
        "event_category": "other",
        "valid_utc": "202610011200",
        "standard_time_display": "2026-10-01 06:00 CST",
        "wfo": "TOP",
        "county_or_zone": "Dickinson",
        "city": "1 W Abilene",
        "state": "KS",
        "magnitude": 1.12,
        "magnitude_units": null,
        "source": "Cocorahs",
        "event_narrative": "Cocorahs station KS-DK-49 Abilene 0.7 W."
      },
      "geometry": {
        "type": "Point",
        "coordinates": [
          -97.24,
          38.92
        ]
      }
    },
    {
      "type": "Feature",
      "id": "iem-lsr-TOP-23",
      "properties": {
        "report_id": "iem-lsr-TOP-23",
        "report_type": "RAIN",
        "event_category": "other",
        "valid_utc": "202610011200",
        "standard_time_display": "2026-10-01 06:00 CST",
        "wfo": "TOP",
        "county_or_zone": "Geary",
        "city": "3 WSW Junction City",
        "state": "KS",
        "magnitude": 1.12,
        "magnitude_units": null,
        "source": "Cocorahs",
        "event_narrative": "Cocorahs station KS-GE-19 Junction City 2.5 WSW."
      },
      "geometry": {
        "type": "Point",
        "coordinates": [
          -96.88,
          39.01
        ]
      }
    },
    {
      "type": "Feature",
      "id": "iem-lsr-TOP-24",
      "properties": {
        "report_id": "iem-lsr-TOP-24",
        "report_type": "RAIN",
        "event_category": "other",
        "valid_utc": "202610011200",
        "standard_time_display": "2026-10-01 06:00 CST",
        "wfo": "TOP",
        "county_or_zone": "Brown",
        "city": "3 NE Willis",
        "state": "KS",
        "magnitude": 1.14,
        "magnitude_units": null,
        "source": "Mesonet",
        "event_narrative": "Mesonet station DVI014260 Baker Road."
      },
      "geometry": {
        "type": "Point",
        "coordinates": [
          -95.47,
          39.75
        ]
      }
    },
    {
      "type": "Feature",
      "id": "iem-lsr-TOP-25",
      "properties": {
        "report_id": "iem-lsr-TOP-25",
        "report_type": "RAIN",
        "event_category": "other",
        "valid_utc": "202610011200",
        "standard_time_display": "2026-10-01 06:00 CST",
        "wfo": "TOP",
        "county_or_zone": "Marshall",
        "city": "5 S Frankfort",
        "state": "KS",
        "magnitude": 1.14,
        "magnitude_units": null,
        "source": "Cocorahs",
        "event_narrative": "Cocorahs station KS-MS-34 Frankfort 5.2 S."
      },
      "geometry": {
        "type": "Point",
        "coordinates": [
          -96.41,
          39.63
        ]
      }
    },
    {
      "type": "Feature",
      "id": "iem-lsr-TOP-26",
      "properties": {
        "report_id": "iem-lsr-TOP-26",
        "report_type": "RAIN",
        "event_category": "other",
        "valid_utc": "202610011200",
        "standard_time_display": "2026-10-01 06:00 CST",
        "wfo": "TOP",
        "county_or_zone": "Riley",
        "city": "8 NNE Randolph",
        "state": "KS",
        "magnitude": 1.21,
        "magnitude_units": null,
        "source": "Mesonet",
        "event_narrative": "Mesonet station DVI014131 Swede Creek Sump Ag."
      },
      "geometry": {
        "type": "Point",
        "coordinates": [
          -96.72,
          39.54
        ]
      }
    },
    {
      "type": "Feature",
      "id": "iem-lsr-TOP-27",
      "properties": {
        "report_id": "iem-lsr-TOP-27",
        "report_type": "RAIN",
        "event_category": "other",
        "valid_utc": "202610011200",
        "standard_time_display": "2026-10-01 06:00 CST",
        "wfo": "TOP",
        "county_or_zone": "Riley",
        "city": "4 ENE Ogden",
        "state": "KS",
        "magnitude": 1.25,
        "magnitude_units": null,
        "source": "Cocorahs",
        "event_narrative": "Cocorahs station KS-RL-59 Manhattan 4.5 SSW."
      },
      "geometry": {
        "type": "Point",
        "coordinates": [
          -96.63,
          39.13
        ]
      }
    },
    {
      "type": "Feature",
      "id": "iem-lsr-TOP-28",
      "properties": {
        "report_id": "iem-lsr-TOP-28",
        "report_type": "RAIN",
        "event_category": "other",
        "valid_utc": "202610011200",
        "standard_time_display": "2026-10-01 06:00 CST",
        "wfo": "TOP",
        "county_or_zone": "Republic",
        "city": "5 NW Narka",
        "state": "KS",
        "magnitude": 1.25,
        "magnitude_units": null,
        "source": "CO-OP Observer",
        "event_narrative": "CO-OP Observer station HUBN1 Hubbell."
      },
      "geometry": {
        "type": "Point",
        "coordinates": [
          -97.5,
          40.0
        ]
      }
    },
    {
      "type": "Feature",
      "id": "iem-lsr-TOP-29",
      "properties": {
        "report_id": "iem-lsr-TOP-29",
        "report_type": "RAIN",
        "event_category": "other",
        "valid_utc": "202610011200",
        "standard_time_display": "2026-10-01 06:00 CST",
        "wfo": "TOP",
        "county_or_zone": "Lyon",
        "city": "8 ESE Olpe",
        "state": "KS",
        "magnitude": 1.27,
        "magnitude_units": null,
        "source": "Cocorahs",
        "event_narrative": "Cocorahs station KS-LY-13 Hartford 8.9 SW."
      },
      "geometry": {
        "type": "Point",
        "coordinates": [
          -96.05,
          38.2
        ]
      }
    },
    {
      "type": "Feature",
      "id": "iem-lsr-TOP-30",
      "properties": {
        "report_id": "iem-lsr-TOP-30",
        "report_type": "RAIN",
        "event_category": "other",
        "valid_utc": "202610011200",
        "standard_time_display": "2026-10-01 06:00 CST",
        "wfo": "TOP",
        "county_or_zone": "Republic",
        "city": "3 NNW Belleville",
        "state": "KS",
        "magnitude": 1.31,
        "magnitude_units": null,
        "source": "Cocorahs",
        "event_narrative": "Cocorahs station KS-RP-18 Belleville 3.4 NNW."
      },
      "geometry": {
        "type": "Point",
        "coordinates": [
          -97.65,
          39.87
        ]
      }
    },
    {
      "type": "Feature",
      "id": "iem-lsr-TOP-31",
      "properties": {
        "report_id": "iem-lsr-TOP-31",
        "report_type": "RAIN",
        "event_category": "other",
        "valid_utc": "202610011200",
        "standard_time_display": "2026-10-01 06:00 CST",
        "wfo": "TOP",
        "county_or_zone": "Marshall",
        "city": "4 NW Oketo",
        "state": "KS",
        "magnitude": 1.38,
        "magnitude_units": null,
        "source": "Cocorahs",
        "event_narrative": "Cocorahs station KS-MS-29 3 NW Oketo."
      },
      "geometry": {
        "type": "Point",
        "coordinates": [
          -96.65,
          40.0
        ]
      }
    },
    {
      "type": "Feature",
      "id": "iem-lsr-TOP-32",
      "properties": {
        "report_id": "iem-lsr-TOP-32",
        "report_type": "RAIN",
        "event_category": "other",
        "valid_utc": "202610011200",
        "standard_time_display": "2026-10-01 06:00 CST",
        "wfo": "TOP",
        "county_or_zone": "Marshall",
        "city": "5 SW Barneston",
        "state": "KS",
        "magnitude": 1.38,
        "magnitude_units": null,
        "source": "Cocorahs",
        "event_narrative": "Cocorahs station KS-MS-29 3 NW Oketo."
      },
      "geometry": {
        "type": "Point",
        "coordinates": [
          -96.65,
          40.0
        ]
      }
    },
    {
      "type": "Feature",
      "id": "iem-lsr-TOP-33",
      "properties": {
        "report_id": "iem-lsr-TOP-33",
        "report_type": "RAIN",
        "event_category": "other",
        "valid_utc": "202610011200",
        "standard_time_display": "2026-10-01 06:00 CST",
        "wfo": "TOP",
        "county_or_zone": "Riley",
        "city": "4 WNW Manhattan",
        "state": "KS",
        "magnitude": 1.4,
        "magnitude_units": null,
        "source": "Cocorahs",
        "event_narrative": "Cocorahs station KS-RL-30 Manhattan 2.4 WNW."
      },
      "geometry": {
        "type": "Point",
        "coordinates": [
          -96.63,
          39.21
        ]
      }
    },
    {
      "type": "Feature",
      "id": "iem-lsr-TOP-34",
      "properties": {
        "report_id": "iem-lsr-TOP-34",
        "report_type": "RAIN",
        "event_category": "other",
        "valid_utc": "202610011200",
        "standard_time_display": "2026-10-01 06:00 CST",
        "wfo": "TOP",
        "county_or_zone": "Riley",
        "city": "2 NW Manhattan",
        "state": "KS",
        "magnitude": 1.41,
        "magnitude_units": null,
        "source": "Cocorahs",
        "event_narrative": "Cocorahs station KS-RL-43 Manhattan 1.4 NNW."
      },
      "geometry": {
        "type": "Point",
        "coordinates": [
          -96.6,
          39.21
        ]
      }
    },
    {
      "type": "Feature",
      "id": "iem-lsr-TOP-35",
      "properties": {
        "report_id": "iem-lsr-TOP-35",
        "report_type": "RAIN",
        "event_category": "other",
        "valid_utc": "202610011200",
        "standard_time_display": "2026-10-01 06:00 CST",
        "wfo": "TOP",
        "county_or_zone": "Marshall",
        "city": "Blue Rapids",
        "state": "KS",
        "magnitude": 1.42,
        "magnitude_units": null,
        "source": "Cocorahs",
        "event_narrative": "Cocorahs station KS-MS-5 Blue Rapids 0.2 WSW."
      },
      "geometry": {
        "type": "Point",
        "coordinates": [
          -96.66,
          39.68
        ]
      }
    },
    {
      "type": "Feature",
      "id": "iem-lsr-TOP-36",
      "properties": {
        "report_id": "iem-lsr-TOP-36",
        "report_type": "RAIN",
        "event_category": "other",
        "valid_utc": "202610011200",
        "standard_time_display": "2026-10-01 06:00 CST",
        "wfo": "TOP",
        "county_or_zone": "Marshall",
        "city": "Blue Rapids",
        "state": "KS",
        "magnitude": 1.42,
        "magnitude_units": null,
        "source": "CO-OP Observer",
        "event_narrative": "CO-OP Observer station BRPK1 Blue Rapids."
      },
      "geometry": {
        "type": "Point",
        "coordinates": [
          -96.66,
          39.68
        ]
      }
    },
    {
      "type": "Feature",
      "id": "iem-lsr-TOP-37",
      "properties": {
        "report_id": "iem-lsr-TOP-37",
        "report_type": "RAIN",
        "event_category": "other",
        "valid_utc": "202610011200",
        "standard_time_display": "2026-10-01 06:00 CST",
        "wfo": "TOP",
        "county_or_zone": "Riley",
        "city": "2 W Manhattan",
        "state": "KS",
        "magnitude": 1.45,
        "magnitude_units": null,
        "source": "Cocorahs",
        "event_narrative": "Cocorahs station KS-RL-64 Manhattan 1.5 SW."
      },
      "geometry": {
        "type": "Point",
        "coordinates": [
          -96.61,
          39.18
        ]
      }
    },
    {
      "type": "Feature",
      "id": "iem-lsr-TOP-38",
      "properties": {
        "report_id": "iem-lsr-TOP-38",
        "report_type": "RAIN",
        "event_category": "other",
        "valid_utc": "202610011200",
        "standard_time_display": "2026-10-01 06:00 CST",
        "wfo": "TOP",
        "county_or_zone": "Riley",
        "city": "2 SW Manhattan",
        "state": "KS",
        "magnitude": 1.46,
        "magnitude_units": null,
        "source": "Cocorahs",
        "event_narrative": "Cocorahs station KS-RL-89 Manhattan 1.9 SSW."
      },
      "geometry": {
        "type": "Point",
        "coordinates": [
          -96.6,
          39.16
        ]
      }
    },
    {
      "type": "Feature",
      "id": "iem-lsr-TOP-39",
      "properties": {
        "report_id": "iem-lsr-TOP-39",
        "report_type": "RAIN",
        "event_category": "other",
        "valid_utc": "202610011200",
        "standard_time_display": "2026-10-01 06:00 CST",
        "wfo": "TOP",
        "county_or_zone": "Washington",
        "city": "2 N Morrowville",
        "state": "KS",
        "magnitude": 1.49,
        "magnitude_units": null,
        "source": "Cocorahs",
        "event_narrative": "Cocorahs station KS-WS-18 Morrowville 2.0 N."
      },
      "geometry": {
        "type": "Point",
        "coordinates": [
          -97.17,
          39.87
        ]
      }
    },
    {
      "type": "Feature",
      "id": "iem-lsr-TOP-40",
      "properties": {
        "report_id": "iem-lsr-TOP-40",
        "report_type": "RAIN",
        "event_category": "other",
        "valid_utc": "202610011200",
        "standard_time_display": "2026-10-01 06:00 CST",
        "wfo": "TOP",
        "county_or_zone": "Riley",
        "city": "6 SSE Manhattan",
        "state": "KS",
        "magnitude": 1.54,
        "magnitude_units": null,
        "source": "Mesonet",
        "event_narrative": "Mesonet station EW7665 Manhattan."
      },
      "geometry": {
        "type": "Point",
        "coordinates": [
          -96.52,
          39.1
        ]
      }
    },
    {
      "type": "Feature",
      "id": "iem-lsr-TOP-41",
      "properties": {
        "report_id": "iem-lsr-TOP-41",
        "report_type": "RAIN",
        "event_category": "other",
        "valid_utc": "202610011200",
        "standard_time_display": "2026-10-01 06:00 CST",
        "wfo": "TOP",
        "county_or_zone": "Marshall",
        "city": "5 NE Bremen",
        "state": "KS",
        "magnitude": 1.56,
        "magnitude_units": null,
        "source": "Cocorahs",
        "event_narrative": "Cocorahs station KS-MS-33 Marysville 9.5 NNW."
      },
      "geometry": {
        "type": "Point",
        "coordinates": [
          -96.73,
          39.97
        ]
      }
    },
    {
      "type": "Feature",
      "id": "iem-lsr-TOP-42",
      "properties": {
        "report_id": "iem-lsr-TOP-42",
        "report_type": "RAIN",
        "event_category": "other",
        "valid_utc": "202610011200",
        "standard_time_display": "2026-10-01 06:00 CST",
        "wfo": "TOP",
        "county_or_zone": "Ottawa",
        "city": "5 NNW Ada",
        "state": "KS",
        "magnitude": 1.56,
        "magnitude_units": null,
        "source": "Cocorahs",
        "event_narrative": "Cocorahs station KS-OT-2 Barnard 7.5 ENE."
      },
      "geometry": {
        "type": "Point",
        "coordinates": [
          -97.91,
          39.22
        ]
      }
    },
    {
      "type": "Feature",
      "id": "iem-lsr-TOP-43",
      "properties": {
        "report_id": "iem-lsr-TOP-43",
        "report_type": "RAIN",
        "event_category": "other",
        "valid_utc": "202610011200",
        "standard_time_display": "2026-10-01 06:00 CST",
        "wfo": "TOP",
        "county_or_zone": "Riley",
        "city": "2 N Manhattan",
        "state": "KS",
        "magnitude": 1.61,
        "magnitude_units": null,
        "source": "Cocorahs",
        "event_narrative": "Cocorahs station KS-RL-61 Manhattan 1.5 NNE."
      },
      "geometry": {
        "type": "Point",
        "coordinates": [
          -96.58,
          39.21
        ]
      }
    },
    {
      "type": "Feature",
      "id": "iem-lsr-TOP-44",
      "properties": {
        "report_id": "iem-lsr-TOP-44",
        "report_type": "RAIN",
        "event_category": "other",
        "valid_utc": "202610011200",
        "standard_time_display": "2026-10-01 06:00 CST",
        "wfo": "TOP",
        "county_or_zone": "Brown",
        "city": "3 SSW Hamlin",
        "state": "KS",
        "magnitude": 1.61,
        "magnitude_units": null,
        "source": "Cocorahs",
        "event_narrative": "Cocorahs station KS-BR-4 Hiawatha 6.6 WNW."
      },
      "geometry": {
        "type": "Point",
        "coordinates": [
          -95.66,
          39.88
        ]
      }
    },
    {
      "type": "Feature",
      "id": "iem-lsr-TOP-45",
      "properties": {
        "report_id": "iem-lsr-TOP-45",
        "report_type": "RAIN",
        "event_category": "other",
        "valid_utc": "202610011200",
        "standard_time_display": "2026-10-01 06:00 CST",
        "wfo": "TOP",
        "county_or_zone": "Pottawatomie",
        "city": "8 SW Westmoreland",
        "state": "KS",
        "magnitude": 1.62,
        "magnitude_units": null,
        "source": "Cocorahs",
        "event_narrative": "Cocorahs station KS-PT-38 Manhattan 10.3 NNE."
      },
      "geometry": {
        "type": "Point",
        "coordinates": [
          -96.53,
          39.33
        ]
      }
    },
    {
      "type": "Feature",
      "id": "iem-lsr-TOP-46",
      "properties": {
        "report_id": "iem-lsr-TOP-46",
        "report_type": "RAIN",
        "event_category": "other",
        "valid_utc": "202610011200",
        "standard_time_display": "2026-10-01 06:00 CST",
        "wfo": "TOP",
        "county_or_zone": "Marshall",
        "city": "4 N Lillis",
        "state": "KS",
        "magnitude": 1.67,
        "magnitude_units": null,
        "source": "Cocorahs",
        "event_narrative": "Cocorahs station KS-MS-24 Frankfort 6.5 ESE."
      },
      "geometry": {
        "type": "Point",
        "coordinates": [
          -96.3,
          39.67
        ]
      }
    },
    {
      "type": "Feature",
      "id": "iem-lsr-TOP-47",
      "properties": {
        "report_id": "iem-lsr-TOP-47",
        "report_type": "RAIN",
        "event_category": "other",
        "valid_utc": "202610011200",
        "standard_time_display": "2026-10-01 06:00 CST",
        "wfo": "TOP",
        "county_or_zone": "Nemaha",
        "city": "4 NW Centralia",
        "state": "KS",
        "magnitude": 1.7,
        "magnitude_units": null,
        "source": "Cocorahs",
        "event_narrative": "Cocorahs station KS-NM-12 Baileyville 4.9 S."
      },
      "geometry": {
        "type": "Point",
        "coordinates": [
          -96.18,
          39.77
        ]
      }
    },
    {
      "type": "Feature",
      "id": "iem-lsr-TOP-48",
      "properties": {
        "report_id": "iem-lsr-TOP-48",
        "report_type": "RAIN",
        "event_category": "other",
        "valid_utc": "202610011200",
        "standard_time_display": "2026-10-01 06:00 CST",
        "wfo": "TOP",
        "county_or_zone": "Republic",
        "city": "6 W Agenda",
        "state": "KS",
        "magnitude": 1.7,
        "magnitude_units": null,
        "source": "Mesonet",
        "event_narrative": "Mesonet station DVI013562 Wayne Farm."
      },
      "geometry": {
        "type": "Point",
        "coordinates": [
          -97.54,
          39.72
        ]
      }
    },
    {
      "type": "Feature",
      "id": "iem-lsr-TOP-49",
      "properties": {
        "report_id": "iem-lsr-TOP-49",
        "report_type": "RAIN",
        "event_category": "other",
        "valid_utc": "202610011200",
        "standard_time_display": "2026-10-01 06:00 CST",
        "wfo": "TOP",
        "county_or_zone": "Marshall",
        "city": "Summerfield",
        "state": "KS",
        "magnitude": 1.7,
        "magnitude_units": null,
        "source": "Cocorahs",
        "event_narrative": "Cocorahs station KS-MS-15 Summerfield 0.3 NW."
      },
      "geometry": {
        "type": "Point",
        "coordinates": [
          -96.35,
          40.0
        ]
      }
    },
    {
      "type": "Feature",
      "id": "iem-lsr-TOP-50",
      "properties": {
        "report_id": "iem-lsr-TOP-50",
        "report_type": "RAIN",
        "event_category": "other",
        "valid_utc": "202610011200",
        "standard_time_display": "2026-10-01 06:00 CST",
        "wfo": "TOP",
        "county_or_zone": "Brown",
        "city": "1 SSE Fairview",
        "state": "KS",
        "magnitude": 1.74,
        "magnitude_units": null,
        "source": "CO-OP Observer",
        "event_narrative": "CO-OP Observer station FRVK1 Fairview."
      },
      "geometry": {
        "type": "Point",
        "coordinates": [
          -95.72,
          39.83
        ]
      }
    },
    {
      "type": "Feature",
      "id": "iem-lsr-TOP-51",
      "properties": {
        "report_id": "iem-lsr-TOP-51",
        "report_type": "RAIN",
        "event_category": "other",
        "valid_utc": "202610011200",
        "standard_time_display": "2026-10-01 06:00 CST",
        "wfo": "TOP",
        "county_or_zone": "Pottawatomie",
        "city": "2 W Olsburg",
        "state": "KS",
        "magnitude": 1.9,
        "magnitude_units": null,
        "source": "Trained Spotter",
        "event_narrative": null
      },
      "geometry": {
        "type": "Point",
        "coordinates": [
          -96.64,
          39.43
        ]
      }
    },
    {
      "type": "Feature",
      "id": "iem-lsr-TOP-52",
      "properties": {
        "report_id": "iem-lsr-TOP-52",
        "report_type": "RAIN",
        "event_category": "other",
        "valid_utc": "202610011200",
        "standard_time_display": "2026-10-01 06:00 CST",
        "wfo": "TOP",
        "county_or_zone": "Pottawatomie",
        "city": "3 ENE Saint George",
        "state": "KS",
        "magnitude": 1.9,
        "magnitude_units": null,
        "source": "CO-OP Observer",
        "event_narrative": "CO-OP Observer station WAMK1 3.1 NE Saint George."
      },
      "geometry": {
        "type": "Point",
        "coordinates": [
          -96.37,
          39.21
        ]
      }
    },
    {
      "type": "Feature",
      "id": "iem-lsr-TOP-53",
      "properties": {
        "report_id": "iem-lsr-TOP-53",
        "report_type": "RAIN",
        "event_category": "other",
        "valid_utc": "202610011200",
        "standard_time_display": "2026-10-01 06:00 CST",
        "wfo": "TOP",
        "county_or_zone": "Pottawatomie",
        "city": "3 ENE Saint George",
        "state": "KS",
        "magnitude": 1.97,
        "magnitude_units": null,
        "source": "Cocorahs",
        "event_narrative": "Cocorahs station KS-PT-48 Wamego 3.6 W."
      },
      "geometry": {
        "type": "Point",
        "coordinates": [
          -96.38,
          39.2
        ]
      }
    },
    {
      "type": "Feature",
      "id": "iem-lsr-TOP-54",
      "properties": {
        "report_id": "iem-lsr-TOP-54",
        "report_type": "RAIN",
        "event_category": "other",
        "valid_utc": "202610011200",
        "standard_time_display": "2026-10-01 06:00 CST",
        "wfo": "TOP",
        "county_or_zone": "Cloud",
        "city": "4 N Concordia",
        "state": "KS",
        "magnitude": 1.97,
        "magnitude_units": null,
        "source": "Mesonet",
        "event_narrative": "Mesonet station DVI014720 Waynes House."
      },
      "geometry": {
        "type": "Point",
        "coordinates": [
          -97.67,
          39.62
        ]
      }
    },
    {
      "type": "Feature",
      "id": "iem-lsr-TOP-55",
      "properties": {
        "report_id": "iem-lsr-TOP-55",
        "report_type": "RAIN",
        "event_category": "other",
        "valid_utc": "202610011200",
        "standard_time_display": "2026-10-01 06:00 CST",
        "wfo": "TOP",
        "county_or_zone": "Marshall",
        "city": "5 NNW Waterville",
        "state": "KS",
        "magnitude": 2.15,
        "magnitude_units": null,
        "source": "Cocorahs",
        "event_narrative": "Cocorahs station KS-MS-31 4 NNW Waterville."
      },
      "geometry": {
        "type": "Point",
        "coordinates": [
          -96.78,
          39.76
        ]
      }
    },
    {
      "type": "Feature",
      "id": "iem-lsr-TOP-56",
      "properties": {
        "report_id": "iem-lsr-TOP-56",
        "report_type": "RAIN",
        "event_category": "other",
        "valid_utc": "202610011200",
        "standard_time_display": "2026-10-01 06:00 CST",
        "wfo": "TOP",
        "county_or_zone": "Marshall",
        "city": "1 E Bremen",
        "state": "KS",
        "magnitude": 2.18,
        "magnitude_units": null,
        "source": "CO-OP Observer",
        "event_narrative": "CO-OP Observer station BRMK1 1.1 E Bremen."
      },
      "geometry": {
        "type": "Point",
        "coordinates": [
          -96.77,
          39.9
        ]
      }
    },
    {
      "type": "Feature",
      "id": "iem-lsr-TOP-57",
      "properties": {
        "report_id": "iem-lsr-TOP-57",
        "report_type": "RAIN",
        "event_category": "other",
        "valid_utc": "202610011200",
        "standard_time_display": "2026-10-01 06:00 CST",
        "wfo": "TOP",
        "county_or_zone": "Republic",
        "city": "9 NNE Concordia",
        "state": "KS",
        "magnitude": 2.2,
        "magnitude_units": null,
        "source": "Mesonet",
        "event_narrative": "Mesonet station DVI014325 Craig Farm."
      },
      "geometry": {
        "type": "Point",
        "coordinates": [
          -97.6,
          39.69
        ]
      }
    },
    {
      "type": "Feature",
      "id": "iem-lsr-TOP-58",
      "properties": {
        "report_id": "iem-lsr-TOP-58",
        "report_type": "RAIN",
        "event_category": "other",
        "valid_utc": "202610011200",
        "standard_time_display": "2026-10-01 06:00 CST",
        "wfo": "TOP",
        "county_or_zone": "Republic",
        "city": "Agenda",
        "state": "KS",
        "magnitude": 2.38,
        "magnitude_units": null,
        "source": "Cocorahs",
        "event_narrative": "Cocorahs station KS-RP-19 Agenda 0.1 S."
      },
      "geometry": {
        "type": "Point",
        "coordinates": [
          -97.43,
          39.71
        ]
      }
    },
    {
      "type": "Feature",
      "id": "iem-lsr-TOP-59",
      "properties": {
        "report_id": "iem-lsr-TOP-59",
        "report_type": "RAIN",
        "event_category": "other",
        "valid_utc": "202610011200",
        "standard_time_display": "2026-10-01 06:00 CST",
        "wfo": "TOP",
        "county_or_zone": "Republic",
        "city": "1 NNW Republic",
        "state": "KS",
        "magnitude": 2.67,
        "magnitude_units": null,
        "source": "Cocorahs",
        "event_narrative": "Cocorahs station KS-RP-9 Republic 1.0 NNW."
      },
      "geometry": {
        "type": "Point",
        "coordinates": [
          -97.83,
          39.94
        ]
      }
    },
    {
      "type": "Feature",
      "id": "iem-lsr-TOP-60",
      "properties": {
        "report_id": "iem-lsr-TOP-60",
        "report_type": "RAIN",
        "event_category": "other",
        "valid_utc": "202610011200",
        "standard_time_display": "2026-10-01 06:00 CST",
        "wfo": "TOP",
        "county_or_zone": "Cloud",
        "city": "3 SSE Jamestown",
        "state": "KS",
        "magnitude": 3.19,
        "magnitude_units": null,
        "source": "Mesonet",
        "event_narrative": "Mesonet station DVI014721 Barnum."
      },
      "geometry": {
        "type": "Point",
        "coordinates": [
          -97.85,
          39.56
        ]
      }
    },
    {
      "type": "Feature",
      "id": "iem-lsr-TOP-61",
      "properties": {
        "report_id": "iem-lsr-TOP-61",
        "report_type": "RAIN",
        "event_category": "other",
        "valid_utc": "202610011200",
        "standard_time_display": "2026-10-01 06:00 CST",
        "wfo": "TOP",
        "county_or_zone": "Cloud",
        "city": "2 NW Jamestown",
        "state": "KS",
        "magnitude": 4.15,
        "magnitude_units": null,
        "source": "Cocorahs",
        "event_narrative": "Cocorahs station KS-CD-1 Jamestown 2.4 NW."
      },
      "geometry": {
        "type": "Point",
        "coordinates": [
          -97.89,
          39.63
        ]
      }
    },
    {
      "type": "Feature",
      "id": "iem-lsr-TOP-62",
      "properties": {
        "report_id": "iem-lsr-TOP-62",
        "report_type": "RAIN",
        "event_category": "other",
        "valid_utc": "202610011213",
        "standard_time_display": "2026-10-01 06:13 CST",
        "wfo": "TOP",
        "county_or_zone": "Brown",
        "city": "2 ENE Everest",
        "state": "KS",
        "magnitude": 1.72,
        "magnitude_units": null,
        "source": "Mesonet",
        "event_narrative": "Mesonet station DVI021892 Debs house."
      },
      "geometry": {
        "type": "Point",
        "coordinates": [
          -95.4,
          39.68
        ]
      }
    },
    {
      "type": "Feature",
      "id": "iem-lsr-TOP-63",
      "properties": {
        "report_id": "iem-lsr-TOP-63",
        "report_type": "RAIN",
        "event_category": "other",
        "valid_utc": "202610011215",
        "standard_time_display": "2026-10-01 06:15 CST",
        "wfo": "TOP",
        "county_or_zone": "Brown",
        "city": "1 ESE Reserve",
        "state": "KS",
        "magnitude": 1.2,
        "magnitude_units": null,
        "source": "Mesonet",
        "event_narrative": "Mesonet station EW0446 Reserve."
      },
      "geometry": {
        "type": "Point",
        "coordinates": [
          -95.54,
          39.97
        ]
      }
    },
    {
      "type": "Feature",
      "id": "iem-lsr-TOP-64",
      "properties": {
        "report_id": "iem-lsr-TOP-64",
        "report_type": "RAIN",
        "event_category": "other",
        "valid_utc": "202610011215",
        "standard_time_display": "2026-10-01 06:15 CST",
        "wfo": "TOP",
        "county_or_zone": "Brown",
        "city": "2 NNE Hamlin",
        "state": "KS",
        "magnitude": 1.21,
        "magnitude_units": null,
        "source": "Mesonet",
        "event_narrative": "Mesonet station 3898D 2 NE Hamlin."
      },
      "geometry": {
        "type": "Point",
        "coordinates": [
          -95.61,
          39.94
        ]
      }
    },
    {
      "type": "Feature",
      "id": "iem-lsr-TOP-65",
      "properties": {
        "report_id": "iem-lsr-TOP-65",
        "report_type": "RAIN",
        "event_category": "other",
        "valid_utc": "202610011215",
        "standard_time_display": "2026-10-01 06:15 CST",
        "wfo": "TOP",
        "county_or_zone": "Riley",
        "city": "3 WNW Manhattan",
        "state": "KS",
        "magnitude": 1.21,
        "magnitude_units": null,
        "source": "Cocorahs",
        "event_narrative": "Cocorahs station KS-RL-97 Manhattan 2.0 WNW."
      },
      "geometry": {
        "type": "Point",
        "coordinates": [
          -96.63,
          39.2
        ]
      }
    },
    {
      "type": "Feature",
      "id": "iem-lsr-TOP-66",
      "properties": {
        "report_id": "iem-lsr-TOP-66",
        "report_type": "RAIN",
        "event_category": "other",
        "valid_utc": "202610011215",
        "standard_time_display": "2026-10-01 06:15 CST",
        "wfo": "TOP",
        "county_or_zone": "Brown",
        "city": "3 E Robinson",
        "state": "KS",
        "magnitude": 1.25,
        "magnitude_units": null,
        "source": "Mesonet",
        "event_narrative": "Mesonet station CW5466 Robinson."
      },
      "geometry": {
        "type": "Point",
        "coordinates": [
          -95.35,
          39.81
        ]
      }
    },
    {
      "type": "Feature",
      "id": "iem-lsr-TOP-67",
      "properties": {
        "report_id": "iem-lsr-TOP-67",
        "report_type": "RAIN",
        "event_category": "other",
        "valid_utc": "202610011215",
        "standard_time_display": "2026-10-01 06:15 CST",
        "wfo": "TOP",
        "county_or_zone": "Jackson",
        "city": "3 WSW Holton",
        "state": "KS",
        "magnitude": 1.25,
        "magnitude_units": null,
        "source": "Mesonet",
        "event_narrative": "Mesonet station EW3101 Holton."
      },
      "geometry": {
        "type": "Point",
        "coordinates": [
          -95.8,
          39.45
        ]
      }
    },
    {
      "type": "Feature",
      "id": "iem-lsr-TOP-68",
      "properties": {
        "report_id": "iem-lsr-TOP-68",
        "report_type": "RAIN",
        "event_category": "other",
        "valid_utc": "202610011215",
        "standard_time_display": "2026-10-01 06:15 CST",
        "wfo": "TOP",
        "county_or_zone": "Marshall",
        "city": "1 NE Bremen",
        "state": "KS",
        "magnitude": 1.68,
        "magnitude_units": null,
        "source": "Mesonet",
        "event_narrative": "Mesonet station AV057 Bremen."
      },
      "geometry": {
        "type": "Point",
        "coordinates": [
          -96.77,
          39.91
        ]
      }
    },
    {
      "type": "Feature",
      "id": "iem-lsr-TOP-69",
      "properties": {
        "report_id": "iem-lsr-TOP-69",
        "report_type": "RAIN",
        "event_category": "other",
        "valid_utc": "202610011216",
        "standard_time_display": "2026-10-01 06:16 CST",
        "wfo": "TOP",
        "county_or_zone": "Riley",
        "city": "2 W Manhattan",
        "state": "KS",
        "magnitude": 1.44,
        "magnitude_units": null,
        "source": "Mesonet",
        "event_narrative": "Mesonet station GW2223 MANHATTAN."
      },
      "geometry": {
        "type": "Point",
        "coordinates": [
          -96.61,
          39.18
        ]
      }
    },
    {
      "type": "Feature",
      "id": "iem-lsr-TOP-70",
      "properties": {
        "report_id": "iem-lsr-TOP-70",
        "report_type": "RAIN",
        "event_category": "other",
        "valid_utc": "202610011220",
        "standard_time_display": "2026-10-01 06:20 CST",
        "wfo": "TOP",
        "county_or_zone": "Nemaha",
        "city": "1 WSW Seneca",
        "state": "KS",
        "magnitude": 1.32,
        "magnitude_units": null,
        "source": "Mesonet",
        "event_narrative": "Mesonet station AV961 SENECA."
      },
      "geometry": {
        "type": "Point",
        "coordinates": [
          -96.07,
          39.83
        ]
      }
    },
    {
      "type": "Feature",
      "id": "iem-lsr-TOP-71",
      "properties": {
        "report_id": "iem-lsr-TOP-71",
        "report_type": "RAIN",
        "event_category": "other",
        "valid_utc": "202610011220",
        "standard_time_display": "2026-10-01 06:20 CST",
        "wfo": "TOP",
        "county_or_zone": "Cloud",
        "city": "Concordia",
        "state": "KS",
        "magnitude": 1.74,
        "magnitude_units": null,
        "source": "Mesonet",
        "event_narrative": "Mesonet station CORDI Concordia."
      },
      "geometry": {
        "type": "Point",
        "coordinates": [
          -97.66,
          39.57
        ]
      }
    },
    {
      "type": "Feature",
      "id": "iem-lsr-TOP-72",
      "properties": {
        "report_id": "iem-lsr-TOP-72",
        "report_type": "RAIN",
        "event_category": "other",
        "valid_utc": "202610011245",
        "standard_time_display": "2026-10-01 06:45 CST",
        "wfo": "TOP",
        "county_or_zone": "Republic",
        "city": "Norway",
        "state": "KS",
        "magnitude": 3.3,
        "magnitude_units": null,
        "source": "Public",
        "event_narrative": null
      },
      "geometry": {
        "type": "Point",
        "coordinates": [
          -97.77,
          39.7
        ]
      }
    }
  ]
}