{
  "type": "FeatureCollection",
  "name": "cwa",
  "crs": {
    "type": "name",
    "properties": {
      "name": "urn:ogc:def:crs:OGC:1.3:CRS84"
    }
  },
  "features": [
    {
      "type": "Feature",
      "properties": {
        "WFO": "BMX",
        "CWA": "BMX",
        "STATE": "Alabama",
        "ST": "AL",
        "CITYSTATE": "Birmingham AL"
      },
      "geometry": {
        "type": "Polygon",
        "coordinates": [
          [
            [
              -85.51389312706613,
              34.524711609353346
            ],
            [
              -85.47049713133748,
              34.32821273792757
            ],
            [
              -85.42949676496369,
              34.125110625854745
            ],
            [
              -85.40679931633537,
              34.002613067938796
            ],
            [
              -85.29159545896323,
              33.41721344024813
            ],
            [
              -85.23569488481104,
              33.12511062605461
            ],
            [
              -85.18459320101539,
              32.869812011715
            ],
            [
              -85.18419647228933,
              32.86111068690872
            ],
            [
              -85.17559814503835,
              32.853511810421764
            ],
            [
              -85.17159271213393,
              32.85291290330787
            ],
            [
              -85.16259765615689,
              32.85631179835087
            ],
            [
              -85.15670013420379,
              32.85101318441099
            ],
            [
              -85.15349578859974,
              32.84431076023344
            ],
            [
              -85.1543960567326,
              32.84041213980845
            ],
            [
              -85.16019439695384,
              32.838413239179715
            ],
            [
              -85.16769409170894,
              32.82971191437338
            ],
            [
              -85.1682968137469,
              32.82651138279414
            ],
            [
              -85.164993286411,
              32.81971359270818
            ],
            [
              -85.16819763201505,
              32.81291198679878
            ],
            [
              -85.16199493411887,
              32.80431366044712
            ],
            [
              -85.1512985227086,
              32.79371261584458
            ],
            [
              -85.14259338387751,
              32.79191207867956
            ],
            [
              -85.13949584985357,
              32.78551101731966
            ],
            [
              -85.12619781487723,
              32.779010773328594
            ],
            [
              -85.12229919355292,
              32.77351379412636
            ],
            [
              -85.1311950677981,
              32.76991271979625
            ],
            [
              -85.13729858396243,
              32.77021408081521
            ],
            [
              -85.14289855982065,
              32.760612487876074
            ],
            [
              -85.13539886506555,
              32.74661254912991
            ],
            [
              -85.12749481173614,
              32.742214203322874
            ],
            [
              -85.11769866935805,
              32.74041366615779
            ],
            [
              -85.11329651042558,
              32.735713959331804
            ],
            [
              -85.11409759502794,
              32.73061370795631
            ],
            [
              -85.12079620428136,
              32.72281265308152
            ],
            [
              -85.12249755881527,
              32.71591186544026
            ],
            [
              -85.12129974458753,
              32.712112426747126
            ],
            [
              -85.1184997557591,
              32.70961379983703
            ],
            [
              -85.11949920742245,
              32.705810547119086
            ],
            [
              -85.11660003686217,
              32.69141387874754
            ],
            [
              -85.11380004893306,
              32.68491363475647
            ],
            [
              -85.1035995479807,
              32.679210663141646
            ],
            [
              -85.09369659402256,
              32.66971206685844
            ],
            [
              -85.09319305371639,
              32.665710448878144
            ],
            [
              -85.0891952515596,
              32.658611297773234
            ],
            [
              -85.09089660609345,
              32.655311583562764
            ],
            [
              -85.09769439707873,
              32.65221405043815
            ],
            [
              -85.10279846157971,
              32.64761352534396
            ],
            [
              -85.10489654483962,
              32.645214081065035
            ],
            [
              -85.10449981701288,
              32.642311095580624
            ],
            [
              -85.09949493424381,
              32.63621139523974
            ],
            [
              -85.09140014639962,
              32.63411331197983
            ],
            [
              -85.0849990841404,
              32.63641357362758
            ],
            [
              -85.0828933719315,
              32.635810851589554
            ],
            [
              -85.08449554383424,
              32.63141250578258
            ],
            [
              -85.09019470232363,
              32.62701034505142
            ],
            [
              -85.09040069743418,
              32.624011992759335
            ],
            [
              -85.08300018441093,
              32.61721038774925
            ],
            [
              -85.07809448157502,
              32.598411560445186
            ],
            [
              -85.06749725279593,
              32.579612732241856
            ],
            [
              -85.05929565427101,
              32.57601165791175
            ],
            [
              -85.05539703384602,
              32.56971359320784
            ],
            [
              -85.04539489725664,
              32.56151199288422
            ],
            [
              -85.04309845143234,
              32.556213378944335
            ],
            [
              -85.03519439720361,
              32.55301284826436
            ],
            [
              -85.03119659414745,
              32.544513701845915
            ],
            [
              -85.02619934122657,
              32.544712067108264
            ],
            [
              -85.02139282192115,
              32.541713714816126
            ],
            [
              -85.02050018273718,
              32.53531265255691
            ],
            [
              -85.01549529996811,
              32.53111267111291
            ],
            [
              -85.01549529996811,
              32.52841186491571
            ],
            [
              -85.00669860835404,
              32.522010802656496
            ],
            [
              -85.00139617859071,
              32.513511658036634
            ],
            [
              -84.99979400578871,
              32.50471115059918
            ],
            [
              -84.99669647176472,
              32.502010345301244
            ],
            [
              -84.99829864456677,
              32.49431228618312
            ],
            [
              -84.99559783926884,
              32.489513396725954
            ],
            [
              -84.99489593459964,
              32.481513976588815
            ],
            [
              -84.99539947490581,
              32.47471237157873
            ],
            [
              -84.99839782719795,
              32.46611404432775
            ],
            [
              -84.99530029317395,
              32.45321273807747
            ],
            [
              -84.99349975600887,
              32.450710297142564
            ],
            [
              -84.98469543544593,
              32.44611358607318
            ],
            [
              -84.97179412829632,
              32.44281005873728
            ],
            [
              -84.96679687537545,
              32.43481063770082
            ],
            [
              -84.9632949827772,
              32.42321395905702
            ],
            [
              -84.97939300478333,
              32.41221237170362
            ],
            [
              -84.9810943602165,
              32.403312683433626
            ],
            [
              -84.97729492242269,
              32.39761352494429
            ],
            [
              -84.96899414126659,
              32.39241409273626
            ],
            [
              -84.97229766770317,
              32.39081191993421
            ],
            [
              -84.9825973512867,
              32.391811370698235
            ],
            [
              -84.98539733921581,
              32.390312194552166
            ],
            [
              -84.98829650887677,
              32.384712218694006
            ],
            [
              -84.98729705811269,
              32.381210326995074
            ],
            [
              -84.9841003423569,
              32.38001251186796
            ],
            [
              -84.97719573979151,
              32.38061141988118
            ],
            [
              -84.97139739957032,
              32.37781143195207
            ],
            [
              -84.97619628902748,
              32.37391281062776
            ],
            [
              -84.98269653301855,
              32.37411117589011
            ],
            [
              -84.98529815658463,
              32.372112274361996
            ],
            [
              -84.98619842471749,
              32.36871337931905
            ],
            [
              -84.98349762031887,
              32.36541366600795
            ],
            [
              -84.98389434814561,
              32.36251068142286
            ],
            [
              -85.00469970682599,
              32.34481048571541
            ],
            [
              -85.00809478784413,
              32.33671188384642
            ],
            [
              -85.00589752195305,
              32.32591247578017
            ],
            [
              -85.00069427482089,
              32.32161331170505
            ],
            [
              -84.9885940549716,
              32.31901168813897
            ],
            [
              -84.93549346874852,
              32.29931259180273
            ],
            [
              -84.9213943482705,
              32.28431320229248
            ],
            [
              -84.90349578909934,
              32.27321243320728
            ],
            [
              -84.88869476305285,
              32.26011276169464
            ],
            [
              -84.89089965789287,
              32.257614135683866
            ],
            [
              -84.90029907244423,
              32.25861358644789
            ],
            [
              -84.90349578909934,
              32.25511169384964
            ],
            [
              -84.90439605723219,
              32.25091171330496
            ],
            [
              -84.90739441042365,
              32.249111176139934
            ],
            [
              -84.92199707030852,
              32.250610352286
            ],
            [
              -84.92429351793146,
              32.249313353628395
            ],
            [
              -84.92379760657423,
              32.24571228019761
            ],
            [
              -84.9202957148753,
              32.24411010739561
            ],
            [
              -84.91439819292225,
              32.24541091917865
            ],
            [
              -84.91329956132563,
              32.242412566886514
            ],
            [
              -84.91699981738765,
              32.2360115046273
            ],
            [
              -84.92319488543558,
              32.230510712299576
            ],
            [
              -84.9230957028044,
              32.224811553810184
            ],
            [
              -84.92789459226157,
              32.22001266525234
            ],
            [
              -84.94089508114303,
              32.217910767068304
            ],
            [
              -84.95899963542479,
              32.21781158443713
            ],
            [
              -84.96799469140183,
              32.21931075968388
            ],
            [
              -84.97459411622543,
              32.21661377020939
            ],
            [
              -84.97989654508945,
              32.21071243333216
            ],
            [
              -84.97999572772062,
              32.20801162713491
            ],
            [
              -84.97369384809258,
              32.20361328132793
            ],
            [
              -84.96569824198025,
              32.20391082832214
            ],
            [
              -84.9624938963762,
              32.20091247603
            ],
            [
              -84.96179962155526,
              32.1984138491199
            ],
            [
              -84.9632949827772,
              32.19651031529884
            ],
            [
              -84.97570037856957,
              32.1908111568095
            ],
            [
              -85.01049804704718,
              32.18091201777543
            ],
            [
              -85.02689361604752,
              32.16561126724622
            ],
            [
              -85.04509735116181,
              32.14441299386465
            ],
            [
              -85.06060028097812,
              32.13461303656243
            ],
            [
              -85.06189727783709,
              32.132213593182826
            ],
            [
              -85.05500030511996,
              32.11371231107432
            ],
            [
              -85.05339813231791,
              32.10481262190501
            ],
            [
              -85.04479980506693,
              32.085811615313844
            ],
            [
              -85.05220031719085,
              32.08161163297052
            ],
            [
              -85.05410003698705,
              32.07791137690856
            ],
            [
              -85.05559539820905,
              32.073513031101584
            ],
            [
              -85.0541992187189,
              32.06801223787454
            ],
            [
              -85.05819702087575,
              32.04871368428917
            ],
            [
              -85.05819702087575,
              32.04491424559603
            ],
            [
              -85.05379486104397,
              32.03861236596799
            ],
            [
              -85.0541992187189,
              32.03551101701987
            ],
            [
              -85.05739593537407,
              32.0340118408738
            ],
            [
              -85.05780029304907,
              32.03181076005859
            ],
            [
              -85.04889678985495,
              32.02201080275637
            ],
            [
              -85.05509948685182,
              32.01821136496255
            ],
            [
              -85.05509948685182,
              32.010711670207456
            ],
            [
              -85.06389617936514,
              32.003311157184214
            ],
            [
              -85.06759643632643,
              31.994312286283048
            ],
            [
              -85.07029724072504,
              31.982812881009693
            ],
            [
              -85.06609344525623,
              31.971111298247877
            ],
            [
              -85.06739807106408,
              31.968212127687593
            ],
            [
              -85.07229614315247,
              31.964712142551377
            ],
            [
              -85.08459472736473,
              31.961511611871458
            ],
            [
              -85.08659362799352,
              31.95841217038543
            ],
            [
              -85.08229827884247,
              31.945312499772115
            ],
            [
              -85.08459472736473,
              31.937313079634976
            ],
            [
              -85.09119415308766,
              31.929512023860866
            ],
            [
              -85.0984954825804,
              31.925912856992795
            ],
            [
              -85.102195740441,
              31.917812346762446
            ],
            [
              -85.11299896343138,
              31.91111183184563
            ],
            [
              -85.1082000730749,
              31.904512405223386
            ],
            [
              -85.11139678973001,
              31.903211594339666
            ],
            [
              -85.1116943358249,
              31.900211333686173
            ],
            [
              -85.11789703372108,
              31.89301299995003
            ],
            [
              -85.13150024374124,
              31.89301299995003
            ],
            [
              -85.13419342009024,
              31.89171218906631
            ],
            [
              -85.12870025581213,
              31.880611419981108
            ],
            [
              -85.12870025581213,
              31.87681198128797
            ],
            [
              -85.13329315195733,
              31.870613098315914
            ],
            [
              -85.13559722942858,
              31.86301231436687
            ],
            [
              -85.14029693625457,
              31.85811233481644
            ],
            [
              -85.13769531358781,
              31.848611831970516
            ],
            [
              -85.14139556875045,
              31.83841323937952
            ],
            [
              -85.13679504455564,
              31.831211089819988
            ],
            [
              -85.13209533683028,
              31.827512741220062
            ],
            [
              -85.13389587399536,
              31.825511932229915
            ],
            [
              -85.13199615509842,
              31.811412810852573
            ],
            [
              -85.13239288292516,
              31.796411513880287
            ],
            [
              -85.1326980588683,
              31.793012618837338
            ],
            [
              -85.14109802175625,
              31.78341293336024
            ],
            [
              -85.14149475138163,
              31.781112670813172
            ],
            [
              -85.12679290796632,
              31.769412993714752
            ],
            [
              -85.1253967293755,
              31.766511916591753
            ],
            [
              -85.12769317609917,
              31.762912749723682
            ],
            [
              -85.1370925897512,
              31.768911361769995
            ],
            [
              -85.14189910905662,
              31.767412185623925
            ],
            [
              -85.14449310277445,
              31.771411896142126
            ],
            [
              -85.14739990228361,
              31.7725124361001
            ],
            [
              -85.15119934097675,
              31.773311615039063
            ],
            [
              -85.1586990357319,
              31.77161216706793
            ],
            [
              -85.16589355544318,
              31.760412216250813
            ],
            [
              -85.16939544714211,
              31.76051139798267
            ],
            [
              -85.17519378736336,
              31.755212784042783
            ],
            [
              -85.18239593512425,
              31.75251197784553
            ],
            [
              -85.18949890115334,
              31.7465114592365
            ],
            [
              -85.1921997073506,
              31.7473125456375
            ],
            [
              -85.19809723020296,
              31.74341202404571
            ],
            [
              -85.20379638689371,
              31.743011474999605
            ],
            [
              -85.20639800956047,
              31.74101257257223
            ],
            [
              -85.21069335871152,
              31.725812912136234
            ],
            [
              -85.21009826742107,
              31.709611892574856
            ],
            [
              -85.21579742411177,
              31.70281219502681
            ],
            [
              -85.41599273757475,
              31.706712722913892
            ],
            [
              -85.41639709524969,
              31.61961173969007
            ],
            [
              -85.49989318831996,
              31.62031173689718
            ],
            [
              -85.58149719234154,
              31.617612839061337
            ],
            [
              -85.9953002929741,
              31.61931228613315
            ],
            [
              -86.17949676526348,
              31.617612839061337
            ],
            [
              -86.17899322495731,
              31.626911162620104
            ],
            [
              -86.16989898724842,
              31.635011672850453
            ],
            [
              -86.1690978999481,
              31.63881111064427
            ],
            [
              -86.16339874325735,
              31.64061164870867
            ],
            [
              -86.1593933112523,
              31.647611618081783
            ],
            [
              -86.16129303014918,
              31.65361213669081
            ],
            [
              -86.15899658342556,
              31.660312653406265
            ],
            [
              -86.1475982673461,
              31.663011551242164
            ],
            [
              -86.14689636177764,
              31.674411773884287
            ],
            [
              -86.14699554440881,
              31.76201248159083
            ],
            [
              -86.14849853457969,
              31.790912628115336
            ],
            [
              -86.19939422596275,
              31.79041290273335
            ],
            [
              -86.1986999511418,
              31.80841255199772
            ],
            [
              -86.19629669193876,
              31.809011459111616
            ],
            [
              -86.19339752227779,
              31.812911986998643
            ],
            [
              -86.19319915791476,
              31.818813323875872
            ],
            [
              -86.18379974426273,
              31.830411910881026
            ],
            [
              -86.18329620395662,
              31.833312988004025
            ],
            [
              -86.18579864489152,
              31.83961296106935
            ],
            [
              -86.1835937500515,
              31.84631156942345
            ],
            [
              -86.18429565382132,
              31.85211181620741
            ],
            [
              -86.18239593492444,
              31.863712310674657
            ],
            [
              -86.18039703429565,
              31.867111205717606
            ],
            [
              -86.18159484942271,
              31.870412827390112
            ],
            [
              -86.17709350606043,
              31.885112762444066
            ],
            [
              -86.17350006157852,
              31.890712738302284
            ],
            [
              -86.17579650920152,
              31.904512405223386
            ],
            [
              -86.17499542190114,
              31.91681289689774
            ],
            [
              -86.17729950027166,
              31.92541313161081
            ],
            [
              -86.17579650920152,
              31.93091201827508
            ],
            [
              -86.1812973024285,
              31.943311690781968
            ],
            [
              -86.18190002356721,
              31.94951248211538
            ],
            [
              -86.18649291971246,
              31.96271133356123
            ],
            [
              -86.19019317577443,
              31.965112686201564
            ],
            [
              -86.20520019513287,
              31.96641159142183
            ],
            [
              -86.30220031739071,
              31.965112686201564
            ],
            [
              -86.3036956804113,
              32.05131149293112
            ],
            [
              -86.40629577582934,
              32.05111312856809
            ],
            [
              -86.40619659409748,
              32.04381179817602
            ],
            [
              -86.39649963435062,
              32.04281234741194
            ],
            [
              -86.39639282187119,
              32.03741073591681
            ],
            [
              -86.40599822973445,
              32.03611373905784
            ],
            [
              -86.40569305379137,
              31.963912963612415
            ],
            [
              -86.8575973511368,
              31.962211609078565
            ],
            [
              -86.85879516626386,
              32.035411835288016
            ],
            [
              -86.85659790037278,
              32.04831314063898
            ],
            [
              -87.17839813256774,
              32.04801177961997
            ],
            [
              -87.1745986938746,
              32.052711487345334
            ],
            [
              -87.17739868180371,
              32.0617103582465
            ],
            [
              -87.17599487336469,
              32.063312531048496
            ],
            [
              -87.17949676506362,
              32.06651306172847
            ],
            [
              -87.18809509321392,
              32.06821060223757
            ],
            [
              -87.19069671588068,
              32.07031250042161
            ],
            [
              -87.19359588644096,
              32.076511383393665
            ],
            [
              -87.18930053728991,
              32.080913544124826
            ],
            [
              -87.19049835241697,
              32.08511352466945
            ],
            [
              -87.1962966917389,
              32.085010528912846
            ],
            [
              -87.20499420341969,
              32.09291076731813
            ],
            [
              -87.20819854722515,
              32.09191131565473
            ],
            [
              -87.22469329795729,
              32.09501266460285
            ],
            [
              -87.23309326174461,
              32.10131073020608
            ],
            [
              -87.23689270043775,
              32.110313416031374
            ],
            [
              -87.23600006125378,
              32.11321258479302
            ],
            [
              -87.2428970339709,
              32.11911392167019
            ],
            [
              -87.25089263918392,
              32.12321090735753
            ],
            [
              -87.25899505597704,
              32.12141037019251
            ],
            [
              -87.26099395840441,
              32.12421035812156
            ],
            [
              -87.25349426275,
              32.13331222477939
            ],
            [
              -87.25209808325991,
              32.13661193809054
            ],
            [
              -87.25249481198597,
              32.1422119139487
            ],
            [
              -87.25819396957598,
              32.14011383068879
            ],
            [
              -87.25779724084992,
              32.143611908362914
            ],
            [
              -87.26249694857529,
              32.14661025975573
            ],
            [
              -87.26889800993519,
              32.14421081457749
            ],
            [
              -87.27239990343276,
              32.14791107243809
            ],
            [
              -87.2827987669495,
              32.14491272014595
            ],
            [
              -87.28259277273821,
              32.14811325082593
            ],
            [
              -87.2854003914149,
              32.14951324524014
            ],
            [
              -87.28369903598167,
              32.15231323226993
            ],
            [
              -87.2861938479677,
              32.15411377033428
            ],
            [
              -87.28469848584643,
              32.156414031982024
            ],
            [
              -87.28829956107586,
              32.15791320812809
            ],
            [
              -87.29189300555771,
              32.167011260761114
            ],
            [
              -87.29999542235083,
              32.16341018733033
            ],
            [
              -87.30220031719085,
              32.16501236013238
            ],
            [
              -87.30039978002577,
              32.166812897297405
            ],
            [
              -87.303993225407,
              32.16841125517533
            ],
            [
              -87.30769348056964,
              32.175010680898254
            ],
            [
              -87.31209564220006,
              32.178310394209404
            ],
            [
              -87.31279754596994,
              32.181812285908336
            ],
            [
              -87.31709289602031,
              32.181110382138456
            ],
            [
              -87.31729888933222,
              32.18421173108658
            ],
            [
              -87.32219696142062,
              32.18361282307336
            ],
            [
              -87.32159423758395,
              32.186313629270614
            ],
            [
              -87.32339477474903,
              32.188713074448856
            ],
            [
              -87.3209991462935,
              32.193012237624714
            ],
            [
              -87.32559966958905,
              32.19861221258361
            ],
            [
              -87.3257980348514,
              32.19601058991685
            ],
            [
              -87.32819366510552,
              32.19531250017178
            ],
            [
              -87.34169769339383,
              32.200210571360856
            ],
            [
              -87.35149383487254,
              32.19861221258361
            ],
            [
              -87.35449981701288,
              32.20071029674284
            ],
            [
              -87.35759735103687,
              32.19771194535002
            ],
            [
              -87.36409759502794,
              32.19761276181953
            ],
            [
              -87.36209869439921,
              32.20161056487569
            ],
            [
              -87.36399841329609,
              32.203212737677745
            ],
            [
              -87.36689758295705,
              32.20291137665873
            ],
            [
              -87.36769866935805,
              32.20551300022481
            ],
            [
              -87.37109375037625,
              32.207111359002056
            ],
            [
              -87.37329864521627,
              32.21061325070099
            ],
            [
              -87.37329864521627,
              32.21831130981917
            ],
            [
              -87.37469482380703,
              32.22111129774822
            ],
            [
              -87.37779998857854,
              32.22321319593232
            ],
            [
              -87.38739776659361,
              32.2235107420272
            ],
            [
              -87.38589477642273,
              32.226112365593224
            ],
            [
              -87.3886947625532,
              32.22841262814035
            ],
            [
              -87.38789367705152,
              32.23251342785244
            ],
            [
              -87.39189910905662,
              32.23901367184351
            ],
            [
              -87.40909576355858,
              32.237010956290646
            ],
            [
              -87.41379547128395,
              32.24191284240379
            ],
            [
              -87.42339325019827,
              32.24591064456064
            ],
            [
              -87.42859649733043,
              32.252613067838865
            ],
            [
              -87.43459320101539,
              32.255611420131004
            ],
            [
              -87.43719482458147,
              32.25861358644789
            ],
            [
              -87.43609619118621,
              32.26461410505698
            ],
            [
              -87.44549560483824,
              32.268814087400244
            ],
            [
              -87.45359802343,
              32.2681121827311
            ],
            [
              -87.4581985467255,
              32.26361084026814
            ],
            [
              -87.4655990597488,
              32.26361084026814
            ],
            [
              -87.47200012200801,
              32.26411056475081
            ],
            [
              -87.47699737492889,
              32.267513274717885
            ],
            [
              -87.48359680155113,
              32.266410828197195
            ],
            [
              -87.50219726629075,
              32.269012450863954
            ],
            [
              -87.51359558057158,
              32.26611328120299
            ],
            [
              -87.52259826729619,
              32.256011962881814
            ],
            [
              -87.52199554435884,
              32.13281250029672
            ],
            [
              -87.62329864471667,
              32.13231277491468
            ],
            [
              -87.62279510530982,
              32.01411056525046
            ],
            [
              -87.6238937378057,
              32.005512237999426
            ],
            [
              -87.66790008542057,
              32.00111389219245
            ],
            [
              -87.66819763241477,
              31.991312027428194
            ],
            [
              -88.07209777818986,
              31.98991203301398
            ],
            [
              -88.08419799803914,
              31.999311446665956
            ],
            [
              -88.08839416455902,
              32.00621032684518
            ],
            [
              -88.09239959656412,
              32.00651168786413
            ],
            [
              -88.09409332304836,
              32.00301361108933
            ],
            [
              -88.09199523888913,
              31.998712539552116
            ],
            [
              -88.09189605715727,
              31.994112015357302
            ],
            [
              -88.09509277291312,
              31.9931125636939
            ],
            [
              -88.10289764541,
              31.99641227700505
            ],
            [
              -88.11199951206777,
              32.00411224358521
            ],
            [
              -88.1173934937147,
              32.01681137144766
            ],
            [
              -88.11329650892668,
              32.03741073591681
            ],
            [
              -88.11339569155786,
              32.04131317126587
            ],
            [
              -88.11799621575273,
              32.05011367780406
            ],
            [
              -88.11779785228902,
              32.05431366014733
            ],
            [
              -88.10049438530763,
              32.06711196884231
            ],
            [
              -88.09159851106239,
              32.071113585923285
            ],
            [
              -88.08599853520423,
              32.071113585923285
            ],
            [
              -88.08069610634021,
              32.06901168773925
            ],
            [
              -88.07159423788374,
              32.06211090099731
            ],
            [
              -88.06749725309572,
              32.062911987398365
            ],
            [
              -88.05769348086943,
              32.074813842884566
            ],
            [
              -88.04449462942358,
              32.082813263021706
            ],
            [
              -88.04469299288729,
              32.09111022925373
            ],
            [
              -88.05089569078348,
              32.09871292066481
            ],
            [
              -88.05209350591053,
              32.102710723720975
            ],
            [
              -88.0430984499335,
              32.12031173679725
            ],
            [
              -88.03919983040782,
              32.141910552929744
            ],
            [
              -88.03429412757191,
              32.145214081164966
            ],
            [
              -88.0240936284182,
              32.14381408675075
            ],
            [
              -88.02139282222095,
              32.14501190187781
            ],
            [
              -88.0155944819997,
              32.15671157807691
            ],
            [
              -88.00759887678669,
              32.182212829558466
            ],
            [
              -88.00809478814392,
              32.19181060757353
            ],
            [
              -88.01269531323805,
              32.20181274416285
            ],
            [
              -88.00749969505483,
              32.21931075968388
            ],
            [
              -88.00939941395177,
              32.225513457580064
            ],
            [
              -88.01459503213499,
              32.23371124297955
            ],
            [
              -88.0150985724411,
              32.238510132436716
            ],
            [
              -88.00869751018189,
              32.24921035787179
            ],
            [
              -88.00839996318774,
              32.2552108755815
            ],
            [
              -88.00909423800863,
              32.26041030868885
            ],
            [
              -88.011497498111,
              32.26401138301895
            ],
            [
              -88.01849365255998,
              32.2689132691321
            ],
            [
              -88.02009582536203,
              32.272712707825235
            ],
            [
              -88.01939392159215,
              32.284610748387365
            ],
            [
              -88.0166931153949,
              32.28581237843855
            ],
            [
              -88.00779724114972,
              32.282512665127456
            ],
            [
              -88.00459289644499,
              32.284610748387365
            ],
            [
              -88.00669860775452,
              32.294212341326556
            ],
            [
              -88.00329589778744,
              32.29691314662449
            ],
            [
              -88.00000000029974,
              32.29711151098752
            ],
            [
              -87.99069976837956,
              32.29471206670854
            ],
            [
              -87.98169708255426,
              32.305412292143615
            ],
            [
              -87.9764938354221,
              32.308013915709694
            ],
            [
              -87.97279357936014,
              32.305912018424976
            ],
            [
              -87.96839904757792,
              32.29881286642069
            ],
            [
              -87.96449279820405,
              32.297012329255665
            ],
            [
              -87.95739746112389,
              32.29811096175155
            ],
            [
              -87.94569397000066,
              32.3051109311246
            ],
            [
              -87.94249725334555,
              32.30531311041176
            ],
            [
              -87.93739318794525,
              32.302413939851476
            ],
            [
              -87.93819427524556,
              32.293712615944514
            ],
            [
              -87.94509887691163,
              32.28581237843855
            ],
            [
              -87.94369506757329,
              32.282512665127456
            ],
            [
              -87.93359375015143,
              32.2824134833956
            ],
            [
              -87.92849731459933,
              32.28671264567214
            ],
            [
              -87.93179321298635,
              32.29731369027462
            ],
            [
              -87.92869567896236,
              32.30791091905371
            ],
            [
              -87.93029785176441,
              32.310413360887935
            ],
            [
              -88.23839569130809,
              32.307411193671726
            ],
            [
              -88.42149353020221,
              32.308712006354085
            ],
            [
              -88.36829376224728,
              32.74821090700783
            ],
            [
              -88.33349609376967,
              33.051910399845156
            ],
            [
              -88.24929809603026,
              33.74491119439614
            ],
            [
              -88.21069335901126,
              34.029212951916236
            ],
            [
              -88.17319488523572,
              34.32161331220465
            ],
            [
              -87.94059753444861,
              34.31321334841732
            ],
            [
              -87.72399902303647,
              34.310112000368576
            ],
            [
              -87.37449646034332,
              34.3008117684484
            ],
            [
              -87.25549316427805,
              34.299213408771834
            ],
            [
              -87.10989379915947,
              34.30011367780406
            ],
            [
              -87.11219787573134,
              34.125110625854745
            ],
            [
              -87.11199951226763,
              33.992412566986445
            ],
            [
              -87.15119934057708,
              33.99341201775047
            ],
            [
              -87.14369964582198,
              33.986312865746186
            ],
            [
              -87.13839721695797,
              33.978111267221266
            ],
            [
              -87.13769531318809,
              33.96781158363774
            ],
            [
              -87.13409423795866,
              33.965110779239126
            ],
            [
              -87.11679840082547,
              33.962711334060884
            ],
            [
              -87.11149597196152,
              33.95881271363589
            ],
            [
              -87.10969543479644,
              33.95641326935697
            ],
            [
              -87.11139679022966,
              33.95031356811671
            ],
            [
              -87.1058959961033,
              33.94461059560257
            ],
            [
              -87.10549926827656,
              33.93691253738376
            ],
            [
              -87.09469604528624,
              33.93011093057504
            ],
            [
              -87.08569335856163,
              33.91911315904508
            ],
            [
              -87.08209991497904,
              33.906810759908694
            ],
            [
              -87.09159851126225,
              33.902313232369806
            ],
            [
              -87.09790039089029,
              33.901412964236954
            ],
            [
              -87.1002960211444,
              33.8987121580397
            ],
            [
              -87.09129333531911,
              33.89351272583167
            ],
            [
              -87.09069824223008,
              33.8912124632846
            ],
            [
              -87.00709533757976,
              33.888912200737536
            ],
            [
              -87.00639343291056,
              33.86751174896807
            ],
            [
              -87.00219726639068,
              33.870014190802294
            ],
            [
              -86.99889373815546,
              33.87001037587822
            ],
            [
              -86.99589538586332,
              33.8684120180003
            ],
            [
              -86.99289703357118,
              33.86041259786316
            ],
            [
              -86.97879791309316,
              33.85951232883099
            ],
            [
              -86.97409820626717,
              33.86061096222619
            ],
            [
              -86.96339416500865,
              33.8583106987798
            ],
            [
              -86.95939636195249,
              33.85911178608012
            ],
            [
              -86.96279907191962,
              33.867412567236215
            ],
            [
              -86.95439910903161,
              33.86501312295729
            ],
            [
              -86.95049285875837,
              33.861812592277374
            ],
            [
              -86.94759368909746,
              33.861812592277374
            ],
            [
              -86.95229339592345,
              33.86821365363727
            ],
            [
              -86.95179748456621,
              33.870910644910396
            ],
            [
              -86.94519805884329,
              33.86751174896807
            ],
            [
              -86.93879699658407,
              33.86691284185423
            ],
            [
              -86.93169403055504,
              33.86781310998708
            ],
            [
              -86.9203948971068,
              33.87321090655814
            ],
            [
              -86.92399597233623,
              33.87681198088825
            ],
            [
              -86.92070007304989,
              33.881713867001395
            ],
            [
              -86.92070007304989,
              33.8920135496856
            ],
            [
              -86.92169952381391,
              33.89551162735978
            ],
            [
              -86.92689514199719,
              33.897113800161776
            ],
            [
              -86.9245986943742,
              33.908813477260196
            ],
            [
              -86.91569519028076,
              33.91581344573399
            ],
            [
              -86.90909576455783,
              33.91271209678587
            ],
            [
              -86.88689422638743,
              33.917011260861045
            ],
            [
              -86.88299560506306,
              33.92421340862194
            ],
            [
              -86.88549804689728,
              33.93331146215428
            ],
            [
              -86.87749481183607,
              33.93621063181524
            ],
            [
              -86.86329650872688,
              33.92961120609232
            ],
            [
              -86.85949707003374,
              33.92951202436046
            ],
            [
              -86.85989379875974,
              33.935012816688186
            ],
            [
              -86.84249877899543,
              33.94881057704657
            ],
            [
              -86.83589935327251,
              33.95061111511092
            ],
            [
              -86.82649993872116,
              33.94381332412564
            ],
            [
              -86.819694518787,
              33.94221115132365
            ],
            [
              -86.82359314011131,
              33.952911376758664
            ],
            [
              -86.82019805909312,
              33.957313538389144
            ],
            [
              -86.811294555899,
              33.95381164579089
            ],
            [
              -86.80239868255313,
              33.954910278286775
            ],
            [
              -86.79709625189048,
              33.95261383066378
            ],
            [
              -86.79189300475832,
              33.95261383066378
            ],
            [
              -86.78799438523265,
              33.95681381210778
            ],
            [
              -86.7880935669645,
              33.95891189626707
            ],
            [
              -86.79249572859499,
              33.96131133964667
            ],
            [
              -86.79029846180453,
              33.96411132757578
            ],
            [
              -86.78289794878128,
              33.969013213688925
            ],
            [
              -86.77229309105326,
              33.96581268300895
            ],
            [
              -86.77099609419435,
              33.9685134892062
            ],
            [
              -86.77610015959465,
              33.97061157156685
            ],
            [
              -86.7746963502563,
              33.97311401430039
            ],
            [
              -86.76529693570501,
              33.97391128487794
            ],
            [
              -86.76300048808201,
              33.975513457679995
            ],
            [
              -86.76269531303825,
              33.983512877817134
            ],
            [
              -86.757698059218,
              33.990612029821364
            ],
            [
              -86.76069641240946,
              33.9950103756284
            ],
            [
              -86.74219512940164,
              33.99871063169036
            ],
            [
              -86.74039459223661,
              34.00131225615576
            ],
            [
              -86.74339294542807,
              34.00801086361054
            ],
            [
              -86.72949981736264,
              34.01591110201582
            ],
            [
              -86.72369384819251,
              34.01761245744899
            ],
            [
              -86.7248992922685,
              34.0239105221529
            ],
            [
              -86.71989440860006,
              34.0321121215772
            ],
            [
              -86.7164993293805,
              34.03231048594023
            ],
            [
              -86.71009826712128,
              34.029212951916236
            ],
            [
              -86.70689392241655,
              34.03021240178094
            ],
            [
              -86.70139312739087,
              34.03611373865817
            ],
            [
              -86.70149993897098,
              34.03941345196927
            ],
            [
              -86.70689392241655,
              34.04351043675729
            ],
            [
              -86.70899963372608,
              34.047611237368756
            ],
            [
              -86.70449829126312,
              34.05771255479061
            ],
            [
              -86.69879913277373,
              34.06141281085257
            ],
            [
              -86.69599914574394,
              34.060611725350896
            ],
            [
              -86.69589996311277,
              34.0581130984408
            ],
            [
              -86.6895980825854,
              34.053012847964624
            ],
            [
              -86.68639373788068,
              34.05251312258258
            ],
            [
              -86.68439483635257,
              34.0547103875744
            ],
            [
              -86.68509674102177,
              34.05851364119167
            ],
            [
              -86.70419311531998,
              34.08041381834312
            ],
            [
              -86.70309448192478,
              34.08231353813932
            ],
            [
              -86.69629669183882,
              34.08641052202802
            ],
            [
              -86.69169616674463,
              34.09251022326822
            ],
            [
              -86.6881942750457,
              34.09221267717339
            ],
            [
              -86.68669891382376,
              34.07981109630509
            ],
            [
              -86.67609405519647,
              34.08501052941244
            ],
            [
              -86.67379760757348,
              34.0876121520792
            ],
            [
              -86.67099762144306,
              34.08741378771617
            ],
            [
              -86.66929626511052,
              34.084213257036254
            ],
            [
              -86.65679931743449,
              34.09171295179135
            ],
            [
              -86.65269470189895,
              34.10771179206563
            ],
            [
              -86.64429473901095,
              34.10841369583545
            ],
            [
              -86.64009857159175,
              34.1068115230334
            ],
            [
              -86.63869476315278,
              34.109710692694364
            ],
            [
              -86.6399993898599,
              34.11291122427366
            ],
            [
              -86.62509918208156,
              34.121711730811796
            ],
            [
              -86.62189483557819,
              34.12241363458162
            ],
            [
              -86.61299896223227,
              34.11391067503769
            ],
            [
              -86.60069274907107,
              34.11941146916405
            ],
            [
              -86.60009765598198,
              34.12131118806093
            ],
            [
              -86.60429382340118,
              34.124511718740905
            ],
            [
              -86.5998001098871,
              34.13201141439532
            ],
            [
              -86.59479522711803,
              34.135311126807096
            ],
            [
              -86.58879852343307,
              34.136611937690816
            ],
            [
              -86.58969879156592,
              34.1463127141605
            ],
            [
              -86.58539581256667,
              34.145912169610995
            ],
            [
              -86.58300018321182,
              34.15281295815157
            ],
            [
              -86.57629394500952,
              34.157413483245705
            ],
            [
              -86.57379913302356,
              34.16451263435067
            ],
            [
              -86.57009887696154,
              34.168010712024795
            ],
            [
              -86.56710052556878,
              34.170612334691555
            ],
            [
              -86.56429290779141,
              34.17071151732273
            ],
            [
              -86.55749511680614,
              34.178413391364984
            ],
            [
              -86.54639434772093,
              34.18481063780075
            ],
            [
              -86.54619598425722,
              34.18701171861596
            ],
            [
              -86.54989624031919,
              34.18651199323398
            ],
            [
              -86.55579376227229,
              34.1897125239139
            ],
            [
              -86.55609893821537,
              34.193813323626046
            ],
            [
              -86.54999542205104,
              34.19801330596937
            ],
            [
              -86.54949951159313,
              34.20011138922928
            ],
            [
              -86.55339813201812,
              34.20561218335564
            ],
            [
              -86.5500946037829,
              34.20601272610645
            ],
            [
              -86.54290008497088,
              34.21211242734671
            ],
            [
              -86.5469970697589,
              34.21581268340867
            ],
            [
              -86.54279327429015,
              34.216712952440844
            ],
            [
              -86.53839874340724,
              34.22461318994681
            ],
            [
              -86.52379608172373,
              34.22681045493857
            ],
            [
              -86.52309417705459,
              34.2335128782168
            ],
            [
              -86.5250930785827,
              34.23901367234316
            ],
            [
              -86.51859283459163,
              34.25221252378901
            ],
            [
              -86.51499939010972,
              34.254211426216386
            ],
            [
              -86.50669860805431,
              34.25371169993508
            ],
            [
              -86.50079345715227,
              34.24991226214121
            ],
            [
              -86.49759674139648,
              34.249713897778236
            ],
            [
              -86.4867935184061,
              34.26001357956312
            ],
            [
              -86.45229339602338,
              34.2595138550804
            ],
            [
              -86.44419860817919,
              34.25771331791532
            ],
            [
              -86.44489288300014,
              34.24981308040941
            ],
            [
              -86.40829467825677,
              34.20431137067328
            ],
            [
              -86.32159423778381,
              34.11581039393457
            ],
            [
              -86.31449890070365,
              34.11241149889162
            ],
            [
              -86.31099700900472,
              34.10661315867037
            ],
            [
              -86.30299377394346,
              34.09971237192849
            ],
            [
              -86.20549774212708,
              34.17311096160165
            ],
            [
              -86.19369506837268,
              34.18131256102595
            ],
            [
              -86.18779754641957,
              34.18341064518518
            ],
            [
              -86.17499542190114,
              34.18321227992283
            ],
            [
              -86.16739654541419,
              34.187511443998005
            ],
            [
              -86.10589599630316,
              34.186210632214966
            ],
            [
              -86.10609435976687,
              34.200714111267246
            ],
            [
              -85.8435974125905,
              34.199611663847236
            ],
            [
              -85.84369659432235,
              34.243412018150195
            ],
            [
              -85.82049560538786,
              34.23911285407502
            ],
            [
              -85.8085937499016,
              34.23951339682583
            ],
            [
              -85.80889892584469,
              34.25791168227835
            ],
            [
              -85.77419281015005,
              34.25921249406139
            ],
            [
              -85.67789459256136,
              34.34121322590971
            ],
            [
              -85.67559814493842,
              34.34461212185198
            ],
            [
              -85.67630004870824,
              34.347312927149915
            ],
            [
              -85.66869354237303,
              34.35491180363687
            ],
            [
              -85.66869354237303,
              34.35811233521616
            ],
            [
              -85.66419982885895,
              34.3619117739093
            ],
            [
              -85.64729309240226,
              34.36471176093909
            ],
            [
              -85.6463928215714,
              34.3686103822634
            ],
            [
              -85.64379882785357,
              34.369213104301366
            ],
            [
              -85.6414947512817,
              34.367012024385474
            ],
            [
              -85.63759612995739,
              34.36641311637226
            ],
            [
              -85.63019561783346,
              34.372211455694185
            ],
            [
              -85.6283950815677,
              34.37511062625447
            ],
            [
              -85.63009643610161,
              34.3805122377496
            ],
            [
              -85.62439727941086,
              34.38301086376043
            ],
            [
              -85.6203002928242,
              34.38791274987358
            ],
            [
              -85.62629699740847,
              34.393413543999884
            ],
            [
              -85.62739562990436,
              34.39551162725985
            ],
            [
              -85.62609863304544,
              34.397510528787905
            ],
            [
              -85.61769866925812,
              34.393611908362914
            ],
            [
              -85.61470031696604,
              34.395610808991705
            ],
            [
              -85.61109924443457,
              34.40611267096307
            ],
            [
              -85.60689544716712,
              34.4113121031711
            ],
            [
              -85.59939575241202,
              34.4157142639022
            ],
            [
              -85.60099792521402,
              34.420310974072265
            ],
            [
              -85.5890960688285,
              34.425113677554236
            ],
            [
              -85.58959960913461,
              34.43021392803041
            ],
            [
              -85.58309936514354,
              34.433712005704535
            ],
            [
              -85.57969665517646,
              34.440013885332576
            ],
            [
              -85.57959747344461,
              34.445213318439926
            ],
            [
              -85.58339691213774,
              34.45811080886676
            ],
            [
              -85.57829284673744,
              34.461212157814884
            ],
            [
              -85.58089447030352,
              34.468212128087316
            ],
            [
              -85.57959747344461,
              34.47051238973506
            ],
            [
              -85.57659912115247,
              34.47031402627135
            ],
            [
              -85.57109832792548,
              34.46741104078694
            ],
            [
              -85.57109832792548,
              34.47731399474509
            ],
            [
              -85.57649993942061,
              34.48381042471141
            ],
            [
              -85.56729888923229,
              34.49021148697062
            ],
            [
              -85.56029510493511,
              34.49011230523877
            ],
            [
              -85.55839538603817,
              34.492412566886514
            ],
            [
              -85.5585937504012,
              34.50191116316972
            ],
            [
              -85.55199432377896,
              34.50311279322091
            ],
            [
              -85.54559326241906,
              34.50011062600464
            ],
            [
              -85.53279876684957,
              34.514312744037966
            ],
            [
              -85.52330017056636,
              34.51691055267992
            ],
            [
              -85.52539825382632,
              34.522510529437454
            ],
            [
              -85.51999664323046,
              34.526210784600096
            ],
            [
              -85.51389312706613,
              34.524711609353346
            ]
          ]
        ]
      }
    }
  ],
  "metadata": {
    "schema_version": "0.1.0",
    "wfo": "BMX",
    "layer": "cwa",
    "source": "https://www.weather.gov/source/gis/Shapefiles/WSOM/w_16ap26.zip",
    "public_release_status": "public-source-derived"
  }
}