{
  "type": "FeatureCollection",
  "metadata": {
    "schema_version": "0.2.0",
    "year": 2026,
    "month": 4,
    "wfo": "BOX",
    "start_utc": "2026-04-01T00:00:00Z",
    "end_utc": "2026-05-01T00:00:00Z",
    "generated_utc": "2026-05-27T21:20:29Z",
    "mode": "storm_data_prep",
    "public_release_status": "public-source-derived",
    "source": "https://mesonet.agron.iastate.edu/cgi-bin/request/gis/lsr.py?wfo=BOX&sts=2026-04-01T00%3A00%3A00Z&ets=2026-05-01T00%3A00%3A00Z&fmt=csv"
  },
  "features": [
    {
      "type": "Feature",
      "id": "iem-lsr-BOX-1",
      "properties": {
        "report_id": "iem-lsr-BOX-1",
        "report_type": "TSTM WND DMG",
        "event_category": "thunderstorm_wind",
        "valid_utc": "202604010050",
        "county_or_zone": "Franklin",
        "city": "3 WNW Buckland",
        "state": "MA",
        "magnitude": null,
        "magnitude_units": null,
        "source": "Law Enforcement",
        "event_narrative": "Tree down blocking Route 2 around mile marker 26 near Charlemont. Relayed by amateur radio."
      },
      "geometry": {
        "type": "Point",
        "coordinates": [
          -72.83,
          42.62
        ]
      }
    },
    {
      "type": "Feature",
      "id": "iem-lsr-BOX-2",
      "properties": {
        "report_id": "iem-lsr-BOX-2",
        "report_type": "TSTM WND DMG",
        "event_category": "thunderstorm_wind",
        "valid_utc": "202604010100",
        "county_or_zone": "Franklin",
        "city": "2 SSE Buckland",
        "state": "MA",
        "magnitude": null,
        "magnitude_units": null,
        "source": "Law Enforcement",
        "event_narrative": "Corrects previous tstm wnd dmg report from 2 SSE Buckland for time. Tree downed on east buckland rd in Buckland. Relayed by amateur radio."
      },
      "geometry": {
        "type": "Point",
        "coordinates": [
          -72.78,
          42.58
        ]
      }
    },
    {
      "type": "Feature",
      "id": "iem-lsr-BOX-3",
      "properties": {
        "report_id": "iem-lsr-BOX-3",
        "report_type": "LIGHTNING",
        "event_category": "other",
        "valid_utc": "202604010106",
        "county_or_zone": "Franklin",
        "city": "1 NNE Turners Falls",
        "state": "MA",
        "magnitude": null,
        "magnitude_units": null,
        "source": "Fire Dept/Rescue",
        "event_narrative": "Lightning struck a tree which is downed on powerline wires on Main Rd in Gill. Relayed by amateur radio."
      },
      "geometry": {
        "type": "Point",
        "coordinates": [
          -72.55,
          42.61
        ]
      }
    },
    {
      "type": "Feature",
      "id": "iem-lsr-BOX-4",
      "properties": {
        "report_id": "iem-lsr-BOX-4",
        "report_type": "TSTM WND DMG",
        "event_category": "thunderstorm_wind",
        "valid_utc": "202604010110",
        "county_or_zone": "Franklin",
        "city": "2 SSE Buckland",
        "state": "MA",
        "magnitude": null,
        "magnitude_units": null,
        "source": "Law Enforcement",
        "event_narrative": "Tree downed on east buckland rd in Buckland. Relayed by amateur radio."
      },
      "geometry": {
        "type": "Point",
        "coordinates": [
          -72.78,
          42.58
        ]
      }
    },
    {
      "type": "Feature",
      "id": "iem-lsr-BOX-5",
      "properties": {
        "report_id": "iem-lsr-BOX-5",
        "report_type": "SNOW",
        "event_category": "winter",
        "valid_utc": "202604071100",
        "county_or_zone": "Franklin",
        "city": "3 NW Conway",
        "state": "MA",
        "magnitude": 1.0,
        "magnitude_units": null,
        "source": "Cocorahs",
        "event_narrative": "Cocorahs station MA-FR-13 Conway 2.9 NW."
      },
      "geometry": {
        "type": "Point",
        "coordinates": [
          -72.73,
          42.54
        ]
      }
    },
    {
      "type": "Feature",
      "id": "iem-lsr-BOX-6",
      "properties": {
        "report_id": "iem-lsr-BOX-6",
        "report_type": "SNOW",
        "event_category": "winter",
        "valid_utc": "202604071100",
        "county_or_zone": "Franklin",
        "city": "4 WNW Colrain",
        "state": "MA",
        "magnitude": 1.5,
        "magnitude_units": null,
        "source": "Cocorahs",
        "event_narrative": "Cocorahs station MA-FR-31 Colrain 3.7 WNW."
      },
      "geometry": {
        "type": "Point",
        "coordinates": [
          -72.75,
          42.69
        ]
      }
    },
    {
      "type": "Feature",
      "id": "iem-lsr-BOX-7",
      "properties": {
        "report_id": "iem-lsr-BOX-7",
        "report_type": "SNOW",
        "event_category": "winter",
        "valid_utc": "202604071200",
        "county_or_zone": "Franklin",
        "city": "2 ESE Buckland",
        "state": "MA",
        "magnitude": 1.1,
        "magnitude_units": null,
        "source": "Cocorahs",
        "event_narrative": "Cocorahs station MA-FR-17 Buckland 1.8 ESE."
      },
      "geometry": {
        "type": "Point",
        "coordinates": [
          -72.75,
          42.59
        ]
      }
    },
    {
      "type": "Feature",
      "id": "iem-lsr-BOX-8",
      "properties": {
        "report_id": "iem-lsr-BOX-8",
        "report_type": "SNOW",
        "event_category": "winter",
        "valid_utc": "202604071203",
        "county_or_zone": "Franklin",
        "city": "1 NE Ashfield",
        "state": "MA",
        "magnitude": 2.0,
        "magnitude_units": null,
        "source": "Cocorahs",
        "event_narrative": "Cocorahs station MA-FR-22 Ashfield 1.4 NE."
      },
      "geometry": {
        "type": "Point",
        "coordinates": [
          -72.76,
          42.55
        ]
      }
    },
    {
      "type": "Feature",
      "id": "iem-lsr-BOX-9",
      "properties": {
        "report_id": "iem-lsr-BOX-9",
        "report_type": "SNOW",
        "event_category": "winter",
        "valid_utc": "202604071220",
        "county_or_zone": "Franklin",
        "city": "1 SW Bernardston",
        "state": "MA",
        "magnitude": 1.0,
        "magnitude_units": null,
        "source": "Cocorahs",
        "event_narrative": "Cocorahs station MA-FR-35 Bernardston 1.0 SW."
      },
      "geometry": {
        "type": "Point",
        "coordinates": [
          -72.56,
          42.66
        ]
      }
    },
    {
      "type": "Feature",
      "id": "iem-lsr-BOX-10",
      "properties": {
        "report_id": "iem-lsr-BOX-10",
        "report_type": "SNOW",
        "event_category": "winter",
        "valid_utc": "202604071243",
        "county_or_zone": "Worcester",
        "city": "1 N Royalston",
        "state": "MA",
        "magnitude": 2.3,
        "magnitude_units": null,
        "source": "Trained Spotter",
        "event_narrative": null
      },
      "geometry": {
        "type": "Point",
        "coordinates": [
          -72.19,
          42.7
        ]
      }
    },
    {
      "type": "Feature",
      "id": "iem-lsr-BOX-11",
      "properties": {
        "report_id": "iem-lsr-BOX-11",
        "report_type": "SNOW",
        "event_category": "winter",
        "valid_utc": "202604071245",
        "county_or_zone": "Hampshire",
        "city": "2 ENE East Windsor",
        "state": "MA",
        "magnitude": 1.2,
        "magnitude_units": null,
        "source": "Cocorahs",
        "event_narrative": "Cocorahs station MA-HS-7 Plainfield 2.2 SW."
      },
      "geometry": {
        "type": "Point",
        "coordinates": [
          -72.95,
          42.49
        ]
      }
    },
    {
      "type": "Feature",
      "id": "iem-lsr-BOX-12",
      "properties": {
        "report_id": "iem-lsr-BOX-12",
        "report_type": "SNOW",
        "event_category": "winter",
        "valid_utc": "202604071301",
        "county_or_zone": "Franklin",
        "city": "3 NW Greenfield",
        "state": "MA",
        "magnitude": 1.5,
        "magnitude_units": null,
        "source": "Trained Spotter",
        "event_narrative": null
      },
      "geometry": {
        "type": "Point",
        "coordinates": [
          -72.63,
          42.63
        ]
      }
    },
    {
      "type": "Feature",
      "id": "iem-lsr-BOX-13",
      "properties": {
        "report_id": "iem-lsr-BOX-13",
        "report_type": "SNOW",
        "event_category": "winter",
        "valid_utc": "202604071345",
        "county_or_zone": "Franklin",
        "city": "2 N Leyden",
        "state": "MA",
        "magnitude": 2.3,
        "magnitude_units": null,
        "source": "NWS Employee",
        "event_narrative": null
      },
      "geometry": {
        "type": "Point",
        "coordinates": [
          -72.61,
          42.73
        ]
      }
    },
    {
      "type": "Feature",
      "id": "iem-lsr-BOX-14",
      "properties": {
        "report_id": "iem-lsr-BOX-14",
        "report_type": "SNOW",
        "event_category": "winter",
        "valid_utc": "202604071421",
        "county_or_zone": "Middlesex",
        "city": "1 W Pepperell",
        "state": "MA",
        "magnitude": 1.0,
        "magnitude_units": null,
        "source": "Trained Spotter",
        "event_narrative": "Reported by Trained Spotter."
      },
      "geometry": {
        "type": "Point",
        "coordinates": [
          -71.61,
          42.67
        ]
      }
    },
    {
      "type": "Feature",
      "id": "iem-lsr-BOX-15",
      "properties": {
        "report_id": "iem-lsr-BOX-15",
        "report_type": "SNOW",
        "event_category": "winter",
        "valid_utc": "202604071422",
        "county_or_zone": "Worcester",
        "city": "1 SE Paxton",
        "state": "MA",
        "magnitude": 1.0,
        "magnitude_units": null,
        "source": "Trained Spotter",
        "event_narrative": null
      },
      "geometry": {
        "type": "Point",
        "coordinates": [
          -71.92,
          42.31
        ]
      }
    },
    {
      "type": "Feature",
      "id": "iem-lsr-BOX-16",
      "properties": {
        "report_id": "iem-lsr-BOX-16",
        "report_type": "SNOW",
        "event_category": "winter",
        "valid_utc": "202604071423",
        "county_or_zone": "Worcester",
        "city": "1 SE Baldwinville",
        "state": "MA",
        "magnitude": 2.3,
        "magnitude_units": null,
        "source": "Public",
        "event_narrative": null
      },
      "geometry": {
        "type": "Point",
        "coordinates": [
          -72.07,
          42.58
        ]
      }
    },
    {
      "type": "Feature",
      "id": "iem-lsr-BOX-17",
      "properties": {
        "report_id": "iem-lsr-BOX-17",
        "report_type": "SNOW",
        "event_category": "winter",
        "valid_utc": "202604071445",
        "county_or_zone": "Worcester",
        "city": "2 SE Ashburnham",
        "state": "MA",
        "magnitude": 1.9,
        "magnitude_units": null,
        "source": "Public",
        "event_narrative": null
      },
      "geometry": {
        "type": "Point",
        "coordinates": [
          -71.89,
          42.61
        ]
      }
    },
    {
      "type": "Feature",
      "id": "iem-lsr-BOX-18",
      "properties": {
        "report_id": "iem-lsr-BOX-18",
        "report_type": "SNOW",
        "event_category": "winter",
        "valid_utc": "202604071725",
        "county_or_zone": "Worcester",
        "city": "1 NE Lunenburg",
        "state": "MA",
        "magnitude": 1.0,
        "magnitude_units": null,
        "source": "Public",
        "event_narrative": "Reported by Amateur Radio."
      },
      "geometry": {
        "type": "Point",
        "coordinates": [
          -71.72,
          42.6
        ]
      }
    },
    {
      "type": "Feature",
      "id": "iem-lsr-BOX-19",
      "properties": {
        "report_id": "iem-lsr-BOX-19",
        "report_type": "TSTM WND DMG",
        "event_category": "thunderstorm_wind",
        "valid_utc": "202604142327",
        "county_or_zone": "Franklin",
        "city": "3 NNW Plainfield",
        "state": "MA",
        "magnitude": null,
        "magnitude_units": null,
        "source": "Amateur Radio",
        "event_narrative": "Corrects previous tstm wnd dmg report from 3 NNW Plainfield for time. Small tree downed on Massachusetts Route 8a near Hawley."
      },
      "geometry": {
        "type": "Point",
        "coordinates": [
          -72.94,
          42.55
        ]
      }
    },
    {
      "type": "Feature",
      "id": "iem-lsr-BOX-20",
      "properties": {
        "report_id": "iem-lsr-BOX-20",
        "report_type": "TSTM WND DMG",
        "event_category": "thunderstorm_wind",
        "valid_utc": "202604142328",
        "county_or_zone": "Franklin",
        "city": "2 NW Deerfield",
        "state": "MA",
        "magnitude": null,
        "magnitude_units": null,
        "source": "Amateur Radio",
        "event_narrative": "tree downed blocking portions of upper rd in Deerfield."
      },
      "geometry": {
        "type": "Point",
        "coordinates": [
          -72.63,
          42.56
        ]
      }
    },
    {
      "type": "Feature",
      "id": "iem-lsr-BOX-21",
      "properties": {
        "report_id": "iem-lsr-BOX-21",
        "report_type": "TSTM WND DMG",
        "event_category": "thunderstorm_wind",
        "valid_utc": "202604142330",
        "county_or_zone": "Franklin",
        "city": "1 SSW Greenfield",
        "state": "MA",
        "magnitude": null,
        "magnitude_units": null,
        "source": "Fire Dept/Rescue",
        "event_narrative": "Tree downed at intersection of Meridian St and Colorado Ave in Greenfield. relayed by amateur radio."
      },
      "geometry": {
        "type": "Point",
        "coordinates": [
          -72.6,
          42.58
        ]
      }
    },
    {
      "type": "Feature",
      "id": "iem-lsr-BOX-22",
      "properties": {
        "report_id": "iem-lsr-BOX-22",
        "report_type": "TSTM WND DMG",
        "event_category": "thunderstorm_wind",
        "valid_utc": "202604142335",
        "county_or_zone": "Franklin",
        "city": "3 NNW Plainfield",
        "state": "MA",
        "magnitude": null,
        "magnitude_units": null,
        "source": "Amateur Radio",
        "event_narrative": "Small tree downed on Massachusetts Route 8a near Hawley."
      },
      "geometry": {
        "type": "Point",
        "coordinates": [
          -72.94,
          42.55
        ]
      }
    },
    {
      "type": "Feature",
      "id": "iem-lsr-BOX-23",
      "properties": {
        "report_id": "iem-lsr-BOX-23",
        "report_type": "TSTM WND DMG",
        "event_category": "thunderstorm_wind",
        "valid_utc": "202604142340",
        "county_or_zone": "Hampshire",
        "city": "3 SSE Hadley",
        "state": "MA",
        "magnitude": null,
        "magnitude_units": null,
        "source": "Amateur Radio",
        "event_narrative": "Multiple trees and powerline wires downed on Laurel Drive in Hadley."
      },
      "geometry": {
        "type": "Point",
        "coordinates": [
          -72.57,
          42.31
        ]
      }
    },
    {
      "type": "Feature",
      "id": "iem-lsr-BOX-24",
      "properties": {
        "report_id": "iem-lsr-BOX-24",
        "report_type": "TSTM WND DMG",
        "event_category": "thunderstorm_wind",
        "valid_utc": "202604142340",
        "county_or_zone": "Hampshire",
        "city": "Northampton",
        "state": "MA",
        "magnitude": null,
        "magnitude_units": null,
        "source": "Amateur Radio",
        "event_narrative": "powerline wires downed near indian hill rd."
      },
      "geometry": {
        "type": "Point",
        "coordinates": [
          -72.68,
          42.32
        ]
      }
    },
    {
      "type": "Feature",
      "id": "iem-lsr-BOX-25",
      "properties": {
        "report_id": "iem-lsr-BOX-25",
        "report_type": "TSTM WND DMG",
        "event_category": "thunderstorm_wind",
        "valid_utc": "202604142355",
        "county_or_zone": "Worcester",
        "city": "1 SW Rutland",
        "state": "MA",
        "magnitude": null,
        "magnitude_units": null,
        "source": "Fire Dept/Rescue",
        "event_narrative": "Tree downed on wires near Turkey Hill Rd. Relayed by amateur radio."
      },
      "geometry": {
        "type": "Point",
        "coordinates": [
          -71.96,
          42.35
        ]
      }
    },
    {
      "type": "Feature",
      "id": "iem-lsr-BOX-26",
      "properties": {
        "report_id": "iem-lsr-BOX-26",
        "report_type": "TSTM WND DMG",
        "event_category": "thunderstorm_wind",
        "valid_utc": "202604150000",
        "county_or_zone": "Worcester",
        "city": "3 SW Princeton",
        "state": "MA",
        "magnitude": null,
        "magnitude_units": null,
        "source": "Law Enforcement",
        "event_narrative": "Downed trees and wires near Ball Hill Rd in Princeton. Relayed by amateur radio."
      },
      "geometry": {
        "type": "Point",
        "coordinates": [
          -71.9,
          42.43
        ]
      }
    },
    {
      "type": "Feature",
      "id": "iem-lsr-BOX-27",
      "properties": {
        "report_id": "iem-lsr-BOX-27",
        "report_type": "TSTM WND DMG",
        "event_category": "thunderstorm_wind",
        "valid_utc": "202604150009",
        "county_or_zone": "Worcester",
        "city": "2 N Holden",
        "state": "MA",
        "magnitude": null,
        "magnitude_units": null,
        "source": "Amateur Radio",
        "event_narrative": "Tree downed on a house near manning street in Holden."
      },
      "geometry": {
        "type": "Point",
        "coordinates": [
          -71.85,
          42.38
        ]
      }
    },
    {
      "type": "Feature",
      "id": "iem-lsr-BOX-28",
      "properties": {
        "report_id": "iem-lsr-BOX-28",
        "report_type": "TSTM WND DMG",
        "event_category": "thunderstorm_wind",
        "valid_utc": "202604150010",
        "county_or_zone": "Worcester",
        "city": "1 N Clinton",
        "state": "MA",
        "magnitude": null,
        "magnitude_units": null,
        "source": "Fire Dept/Rescue",
        "event_narrative": "Tree down on a house near Crescent Street in Lancaster. Relayed by amateur radio."
      },
      "geometry": {
        "type": "Point",
        "coordinates": [
          -71.69,
          42.44
        ]
      }
    },
    {
      "type": "Feature",
      "id": "iem-lsr-BOX-29",
      "properties": {
        "report_id": "iem-lsr-BOX-29",
        "report_type": "TSTM WND DMG",
        "event_category": "thunderstorm_wind",
        "valid_utc": "202604160415",
        "county_or_zone": "Hartford",
        "city": "2 NW Windsor",
        "state": "CT",
        "magnitude": null,
        "magnitude_units": null,
        "source": "Law Enforcement",
        "event_narrative": "Tree down at intersection of Day Hill Rd and Old Iron Ore rd in Windsor. Relayed by amateur radio."
      },
      "geometry": {
        "type": "Point",
        "coordinates": [
          -72.68,
          41.87
        ]
      }
    },
    {
      "type": "Feature",
      "id": "iem-lsr-BOX-30",
      "properties": {
        "report_id": "iem-lsr-BOX-30",
        "report_type": "LIGHTNING",
        "event_category": "other",
        "valid_utc": "202604171934",
        "county_or_zone": "Washington",
        "city": "1 NNW Ashaway",
        "state": "RI",
        "magnitude": null,
        "magnitude_units": null,
        "source": "Fire Dept/Rescue",
        "event_narrative": "Garage fire due to lightning on Wellstown Rd in Ashaway. Relayed by amateur radio."
      },
      "geometry": {
        "type": "Point",
        "coordinates": [
          -71.79,
          41.44
        ]
      }
    }
  ]
}