{
  "type": "FeatureCollection",
  "metadata": {
    "schema_version": "0.2.4",
    "year": 2026,
    "month": 6,
    "wfo": "DLH",
    "start_utc": "2026-06-01T00:00:00Z",
    "end_utc": "2026-07-01T00:00:00Z",
    "generated_utc": "2026-06-05T12:19:35Z",
    "mode": "storm_data_prep",
    "public_release_status": "public-source-derived",
    "time_note": "Storm Data entry times should be reviewed in local Standard Time (ST), not daylight time. Candidate reports include standard_time_display.",
    "tornado_track_policy": "Tornado tracks must come from DAT. NCEI begin/end coordinates are not used as a tornado track substitute.",
    "source": "https://mesonet.agron.iastate.edu/cgi-bin/request/gis/lsr.py?wfo=DLH&sts=2026-06-01T00%3A00%3A00Z&ets=2026-07-01T00%3A00%3A00Z&fmt=csv"
  },
  "features": [
    {
      "type": "Feature",
      "id": "iem-lsr-DLH-1",
      "properties": {
        "report_id": "iem-lsr-DLH-1",
        "report_type": "RAIN",
        "event_category": "other",
        "valid_utc": "202606050015",
        "standard_time_display": "2026-06-04 18:15 CST",
        "wfo": "DLH",
        "county_or_zone": "St. Louis",
        "city": "1 SW Snake Trail",
        "state": "MN",
        "magnitude": 1.13,
        "magnitude_units": null,
        "source": "Trained Spotter",
        "event_narrative": "Heavy rain due to a thunderstorm."
      },
      "geometry": {
        "type": "Point",
        "coordinates": [
          -93.06,
          47.71
        ]
      }
    }
  ]
}