{
  "type": "FeatureCollection",
  "metadata": {
    "schema_version": "0.2.4",
    "year": 2026,
    "month": 9,
    "wfo": "TWC",
    "start_utc": "2026-09-01T00:00:00Z",
    "end_utc": "2026-10-01T00:00:00Z",
    "generated_utc": "2026-10-09T16:11:16Z",
    "mode": "storm_data_prep",
    "public_release_status": "public-source-derived",
    "time_note": "Storm Data entry times should be reviewed in local Standard Time (ST), not daylight time. Candidate reports include standard_time_display.",
    "tornado_track_policy": "Tornado tracks must come from DAT. NCEI begin/end coordinates are not used as a tornado track substitute.",
    "source": "https://mesonet.agron.iastate.edu/cgi-bin/request/gis/lsr.py?wfo=TWC&sts=2026-09-01T00%3A00%3A00Z&ets=2026-10-01T00%3A00%3A00Z&fmt=csv"
  },
  "features": [
    {
      "type": "Feature",
      "id": "iem-lsr-TWC-1",
      "properties": {
        "report_id": "iem-lsr-TWC-1",
        "report_type": "FLOOD",
        "event_category": "flooding",
        "valid_utc": "202609011540",
        "standard_time_display": "2026-09-01 08:40 MST",
        "wfo": "TWC",
        "county_or_zone": "Pima",
        "city": "4 S Picture Rocks",
        "state": "AZ",
        "magnitude": null,
        "magnitude_units": null,
        "source": "911 Call Center",
        "event_narrative": "19 children and 1 bus driver rescued from Brawley Wash after attempting to cross a low water crossing on Manville Road inundated up to the bus bumper. Three additional vehicles were stranded between two other low water crossings on Manville Road inundated with an estimated 1 to 2 feet of water. Heaviest rainfall fell in Brawley Wash and surrounding basins on the morning of 8/31 between about 0300 to 0500 MST and again from 0800 to 1100 MST."
      },
      "geometry": {
        "type": "Point",
        "coordinates": [
          -111.24,
          32.29
        ]
      }
    },
    {
      "type": "Feature",
      "id": "iem-lsr-TWC-2",
      "properties": {
        "report_id": "iem-lsr-TWC-2",
        "report_type": "RAIN",
        "event_category": "other",
        "valid_utc": "202609022115",
        "standard_time_display": "2026-09-02 14:15 MST",
        "wfo": "TWC",
        "county_or_zone": "Pima",
        "city": "4 WNW Green Valley",
        "state": "AZ",
        "magnitude": 2.44,
        "magnitude_units": null,
        "source": "Mesonet",
        "event_narrative": "Private weather station. Rain fell in about 90 minutes."
      },
      "geometry": {
        "type": "Point",
        "coordinates": [
          -111.07,
          31.86
        ]
      }
    },
    {
      "type": "Feature",
      "id": "iem-lsr-TWC-3",
      "properties": {
        "report_id": "iem-lsr-TWC-3",
        "report_type": "FLASH FLOOD",
        "event_category": "flooding",
        "valid_utc": "202609022228",
        "standard_time_display": "2026-09-02 15:28 MST",
        "wfo": "TWC",
        "county_or_zone": "Pima",
        "city": "3 WNW Green Valley",
        "state": "AZ",
        "magnitude": null,
        "magnitude_units": null,
        "source": "911 Call Center",
        "event_narrative": "Swift Water Rescue."
      },
      "geometry": {
        "type": "Point",
        "coordinates": [
          -111.06,
          31.87
        ]
      }
    },
    {
      "type": "Feature",
      "id": "iem-lsr-TWC-4",
      "properties": {
        "report_id": "iem-lsr-TWC-4",
        "report_type": "FLASH FLOOD",
        "event_category": "flooding",
        "valid_utc": "202609022230",
        "standard_time_display": "2026-09-02 15:30 MST",
        "wfo": "TWC",
        "county_or_zone": "Pima",
        "city": "10 NE Arivaca",
        "state": "AZ",
        "magnitude": null,
        "magnitude_units": null,
        "source": "Public",
        "event_narrative": "Video of water rushing across Arivaca Road shared via social media. Reported that multiple washes through Arivaca Road were flowing."
      },
      "geometry": {
        "type": "Point",
        "coordinates": [
          -111.21,
          31.68
        ]
      }
    },
    {
      "type": "Feature",
      "id": "iem-lsr-TWC-5",
      "properties": {
        "report_id": "iem-lsr-TWC-5",
        "report_type": "FLASH FLOOD",
        "event_category": "flooding",
        "valid_utc": "202609032240",
        "standard_time_display": "2026-09-03 15:40 MST",
        "wfo": "TWC",
        "county_or_zone": "Graham",
        "city": "10 S Safford",
        "state": "AZ",
        "magnitude": null,
        "magnitude_units": null,
        "source": "Trained Spotter",
        "event_narrative": "Water flowing across area roadways. 1.8 inches of rain so far."
      },
      "geometry": {
        "type": "Point",
        "coordinates": [
          -109.71,
          32.69
        ]
      }
    },
    {
      "type": "Feature",
      "id": "iem-lsr-TWC-6",
      "properties": {
        "report_id": "iem-lsr-TWC-6",
        "report_type": "RAIN",
        "event_category": "other",
        "valid_utc": "202609032254",
        "standard_time_display": "2026-09-03 15:54 MST",
        "wfo": "TWC",
        "county_or_zone": "Graham",
        "city": "10 S Safford",
        "state": "AZ",
        "magnitude": 1.82,
        "magnitude_units": null,
        "source": "Trained Spotter",
        "event_narrative": "1.82 inches in 30 mins."
      },
      "geometry": {
        "type": "Point",
        "coordinates": [
          -109.71,
          32.69
        ]
      }
    },
    {
      "type": "Feature",
      "id": "iem-lsr-TWC-7",
      "properties": {
        "report_id": "iem-lsr-TWC-7",
        "report_type": "FLASH FLOOD",
        "event_category": "flooding",
        "valid_utc": "202609040015",
        "standard_time_display": "2026-09-03 17:15 MST",
        "wfo": "TWC",
        "county_or_zone": "Graham",
        "city": "4 SSE Safford",
        "state": "AZ",
        "magnitude": null,
        "magnitude_units": null,
        "source": "Public",
        "event_narrative": "Flash flooding on Stockton Wash or Marijilda Creek at Double K Drive. At least 2 feet deep and flowing rapidly."
      },
      "geometry": {
        "type": "Point",
        "coordinates": [
          -109.68,
          32.78
        ]
      }
    },
    {
      "type": "Feature",
      "id": "iem-lsr-TWC-8",
      "properties": {
        "report_id": "iem-lsr-TWC-8",
        "report_type": "FLASH FLOOD",
        "event_category": "flooding",
        "valid_utc": "202609040130",
        "standard_time_display": "2026-09-03 18:30 MST",
        "wfo": "TWC",
        "county_or_zone": "Cochise",
        "city": "2 NW Bowie",
        "state": "AZ",
        "magnitude": null,
        "magnitude_units": null,
        "source": "Law Enforcement",
        "event_narrative": "Law enforcement reported Luzena road closed due to flooding. Mainly from rains several miles upstream to the southwest. Picture from law enforcement shows significant damage to dirt road."
      },
      "geometry": {
        "type": "Point",
        "coordinates": [
          -109.51,
          32.34
        ]
      }
    },
    {
      "type": "Feature",
      "id": "iem-lsr-TWC-9",
      "properties": {
        "report_id": "iem-lsr-TWC-9",
        "report_type": "FLASH FLOOD",
        "event_category": "flooding",
        "valid_utc": "202609090328",
        "standard_time_display": "2026-09-08 20:28 MST",
        "wfo": "TWC",
        "county_or_zone": "Cochise",
        "city": "13 NE Bisbee",
        "state": "AZ",
        "magnitude": null,
        "magnitude_units": null,
        "source": "County Official",
        "event_narrative": "Frontier Road from Double Adobe to Davis Road closed due to flooding."
      },
      "geometry": {
        "type": "Point",
        "coordinates": [
          -109.75,
          31.53
        ]
      }
    },
    {
      "type": "Feature",
      "id": "iem-lsr-TWC-10",
      "properties": {
        "report_id": "iem-lsr-TWC-10",
        "report_type": "TSTM WND GST",
        "event_category": "thunderstorm_wind",
        "valid_utc": "202609092344",
        "standard_time_display": "2026-09-09 16:44 MST",
        "wfo": "TWC",
        "county_or_zone": "Santa Cruz",
        "city": "1 N Patagonia",
        "state": "AZ",
        "magnitude": 73.0,
        "magnitude_units": null,
        "source": "Public",
        "event_narrative": "Public personal weather station recorded wind gust of 73 mph."
      },
      "geometry": {
        "type": "Point",
        "coordinates": [
          -110.75,
          31.56
        ]
      }
    },
    {
      "type": "Feature",
      "id": "iem-lsr-TWC-11",
      "properties": {
        "report_id": "iem-lsr-TWC-11",
        "report_type": "TSTM WND GST",
        "event_category": "thunderstorm_wind",
        "valid_utc": "202609100114",
        "standard_time_display": "2026-09-09 18:14 MST",
        "wfo": "TWC",
        "county_or_zone": "Cochise",
        "city": "7 ENE Huachuca City",
        "state": "AZ",
        "magnitude": 58.0,
        "magnitude_units": null,
        "source": "Public",
        "event_narrative": "Public weather station recorded 58 MPH wind gust."
      },
      "geometry": {
        "type": "Point",
        "coordinates": [
          -110.24,
          31.68
        ]
      }
    },
    {
      "type": "Feature",
      "id": "iem-lsr-TWC-12",
      "properties": {
        "report_id": "iem-lsr-TWC-12",
        "report_type": "FLASH FLOOD",
        "event_category": "flooding",
        "valid_utc": "202609100145",
        "standard_time_display": "2026-09-09 18:45 MST",
        "wfo": "TWC",
        "county_or_zone": "Cochise",
        "city": "8 NE Huachuca City",
        "state": "AZ",
        "magnitude": null,
        "magnitude_units": null,
        "source": "Other Federal",
        "event_narrative": "Corrects previous flash flood report from 8 NE Huachuca City. River gauge on the Babocomari River near Tombstone recorded a stage of 4.8 feet which exceeded bankfull."
      },
      "geometry": {
        "type": "Point",
        "coordinates": [
          -110.23,
          31.7
        ]
      }
    },
    {
      "type": "Feature",
      "id": "iem-lsr-TWC-13",
      "properties": {
        "report_id": "iem-lsr-TWC-13",
        "report_type": "FLASH FLOOD",
        "event_category": "flooding",
        "valid_utc": "202609100145",
        "standard_time_display": "2026-09-09 18:45 MST",
        "wfo": "TWC",
        "county_or_zone": "Cochise",
        "city": "8 NE Huachuca City",
        "state": "AZ",
        "magnitude": null,
        "magnitude_units": null,
        "source": "Other Federal",
        "event_narrative": "River gauge on the Baboquivari River near Tombstone recorded a stage of 4.8 feet which exceeded bankfull."
      },
      "geometry": {
        "type": "Point",
        "coordinates": [
          -110.23,
          31.7
        ]
      }
    },
    {
      "type": "Feature",
      "id": "iem-lsr-TWC-14",
      "properties": {
        "report_id": "iem-lsr-TWC-14",
        "report_type": "TSTM WND GST",
        "event_category": "thunderstorm_wind",
        "valid_utc": "202609100204",
        "standard_time_display": "2026-09-09 19:04 MST",
        "wfo": "TWC",
        "county_or_zone": "Santa Cruz",
        "city": "11 ENE Patagonia",
        "state": "AZ",
        "magnitude": 78.0,
        "magnitude_units": null,
        "source": "Public",
        "event_narrative": "Public weather station recorded wind gust of 78 mph."
      },
      "geometry": {
        "type": "Point",
        "coordinates": [
          -110.58,
          31.59
        ]
      }
    },
    {
      "type": "Feature",
      "id": "iem-lsr-TWC-15",
      "properties": {
        "report_id": "iem-lsr-TWC-15",
        "report_type": "FLASH FLOOD",
        "event_category": "flooding",
        "valid_utc": "202609100438",
        "standard_time_display": "2026-09-09 21:38 MST",
        "wfo": "TWC",
        "county_or_zone": "Cochise",
        "city": "3 NNW Benson",
        "state": "AZ",
        "magnitude": null,
        "magnitude_units": null,
        "source": "Law Enforcement",
        "event_narrative": "Delayed report. Law enforcement report of swift water rescue in wash on Ocotillo Road. Two people rescued from vehicle."
      },
      "geometry": {
        "type": "Point",
        "coordinates": [
          -110.32,
          32.01
        ]
      }
    },
    {
      "type": "Feature",
      "id": "iem-lsr-TWC-16",
      "properties": {
        "report_id": "iem-lsr-TWC-16",
        "report_type": "FLASH FLOOD",
        "event_category": "flooding",
        "valid_utc": "202609100515",
        "standard_time_display": "2026-09-09 22:15 MST",
        "wfo": "TWC",
        "county_or_zone": "Cochise",
        "city": "7 NE Huachuca City",
        "state": "AZ",
        "magnitude": null,
        "magnitude_units": null,
        "source": "County Official",
        "event_narrative": "Report of vehicle stuck in creek at Sanders Road."
      },
      "geometry": {
        "type": "Point",
        "coordinates": [
          -110.25,
          31.69
        ]
      }
    },
    {
      "type": "Feature",
      "id": "iem-lsr-TWC-17",
      "properties": {
        "report_id": "iem-lsr-TWC-17",
        "report_type": "FLASH FLOOD",
        "event_category": "flooding",
        "valid_utc": "202609100600",
        "standard_time_display": "2026-09-09 23:00 MST",
        "wfo": "TWC",
        "county_or_zone": "Cochise",
        "city": "21 N Benson",
        "state": "AZ",
        "magnitude": null,
        "magnitude_units": null,
        "source": "Law Enforcement",
        "event_narrative": "Delayed report. Law enforcement reported flooding and debris on Cascabel road prompting road closure."
      },
      "geometry": {
        "type": "Point",
        "coordinates": [
          -110.34,
          32.27
        ]
      }
    },
    {
      "type": "Feature",
      "id": "iem-lsr-TWC-18",
      "properties": {
        "report_id": "iem-lsr-TWC-18",
        "report_type": "FLASH FLOOD",
        "event_category": "flooding",
        "valid_utc": "202609100700",
        "standard_time_display": "2026-09-10 00:00 MST",
        "wfo": "TWC",
        "county_or_zone": "Cochise",
        "city": "7 NW Pirtleville",
        "state": "AZ",
        "magnitude": null,
        "magnitude_units": null,
        "source": "Law Enforcement",
        "event_narrative": "Delayed report. Flooding across Brooks road prompted road closure."
      },
      "geometry": {
        "type": "Point",
        "coordinates": [
          -109.66,
          31.42
        ]
      }
    },
    {
      "type": "Feature",
      "id": "iem-lsr-TWC-19",
      "properties": {
        "report_id": "iem-lsr-TWC-19",
        "report_type": "FLASH FLOOD",
        "event_category": "flooding",
        "valid_utc": "202609121955",
        "standard_time_display": "2026-09-12 12:55 MST",
        "wfo": "TWC",
        "county_or_zone": "Pima",
        "city": "2 S Picture Rocks",
        "state": "AZ",
        "magnitude": null,
        "magnitude_units": null,
        "source": "Fire Dept/Rescue",
        "event_narrative": "Swift water rescue on W Rudasill rd and N Chaparral Rd."
      },
      "geometry": {
        "type": "Point",
        "coordinates": [
          -111.24,
          32.31
        ]
      }
    },
    {
      "type": "Feature",
      "id": "iem-lsr-TWC-20",
      "properties": {
        "report_id": "iem-lsr-TWC-20",
        "report_type": "FLASH FLOOD",
        "event_category": "flooding",
        "valid_utc": "202609122007",
        "standard_time_display": "2026-09-12 13:07 MST",
        "wfo": "TWC",
        "county_or_zone": "Pima",
        "city": "4 SSE Picture Rocks",
        "state": "AZ",
        "magnitude": null,
        "magnitude_units": null,
        "source": "Fire Dept/Rescue",
        "event_narrative": "Swift water rescue on W Manville Rd and N Sandario Rd."
      },
      "geometry": {
        "type": "Point",
        "coordinates": [
          -111.22,
          32.29
        ]
      }
    },
    {
      "type": "Feature",
      "id": "iem-lsr-TWC-21",
      "properties": {
        "report_id": "iem-lsr-TWC-21",
        "report_type": "FLASH FLOOD",
        "event_category": "flooding",
        "valid_utc": "202609122046",
        "standard_time_display": "2026-09-12 13:46 MST",
        "wfo": "TWC",
        "county_or_zone": "Pima",
        "city": "15 SE Tucson",
        "state": "AZ",
        "magnitude": null,
        "magnitude_units": null,
        "source": "Fire Dept/Rescue",
        "event_narrative": "Swift water rescue on Wentworth near I10."
      },
      "geometry": {
        "type": "Point",
        "coordinates": [
          -110.72,
          32.03
        ]
      }
    },
    {
      "type": "Feature",
      "id": "iem-lsr-TWC-22",
      "properties": {
        "report_id": "iem-lsr-TWC-22",
        "report_type": "FLASH FLOOD",
        "event_category": "flooding",
        "valid_utc": "202609122119",
        "standard_time_display": "2026-09-12 14:19 MST",
        "wfo": "TWC",
        "county_or_zone": "Pima",
        "city": "15 SE Tucson",
        "state": "AZ",
        "magnitude": null,
        "magnitude_units": null,
        "source": "Fire Dept/Rescue",
        "event_narrative": "Swift water rescue on E Colossal Cave Rd and E Dawn Rd."
      },
      "geometry": {
        "type": "Point",
        "coordinates": [
          -110.72,
          32.03
        ]
      }
    },
    {
      "type": "Feature",
      "id": "iem-lsr-TWC-23",
      "properties": {
        "report_id": "iem-lsr-TWC-23",
        "report_type": "FLASH FLOOD",
        "event_category": "flooding",
        "valid_utc": "202609122202",
        "standard_time_display": "2026-09-12 15:02 MST",
        "wfo": "TWC",
        "county_or_zone": "Pima",
        "city": "4 SW Oro Valley",
        "state": "AZ",
        "magnitude": null,
        "magnitude_units": null,
        "source": "Law Enforcement",
        "event_narrative": "Overton road closed at the Canada Del Oro Wash due to flooding."
      },
      "geometry": {
        "type": "Point",
        "coordinates": [
          -111.01,
          32.37
        ]
      }
    },
    {
      "type": "Feature",
      "id": "iem-lsr-TWC-24",
      "properties": {
        "report_id": "iem-lsr-TWC-24",
        "report_type": "FLASH FLOOD",
        "event_category": "flooding",
        "valid_utc": "202609122210",
        "standard_time_display": "2026-09-12 15:10 MST",
        "wfo": "TWC",
        "county_or_zone": "Pima",
        "city": "9 NE Three Points",
        "state": "AZ",
        "magnitude": null,
        "magnitude_units": null,
        "source": "Law Enforcement",
        "event_narrative": "Snyder Hill drive closed due to flooding west of Desert Sunrise Tr."
      },
      "geometry": {
        "type": "Point",
        "coordinates": [
          -111.17,
          32.16
        ]
      }
    },
    {
      "type": "Feature",
      "id": "iem-lsr-TWC-25",
      "properties": {
        "report_id": "iem-lsr-TWC-25",
        "report_type": "FLASH FLOOD",
        "event_category": "flooding",
        "valid_utc": "202609122215",
        "standard_time_display": "2026-09-12 15:15 MST",
        "wfo": "TWC",
        "county_or_zone": "Pima",
        "city": "5 NNE Arivaca",
        "state": "AZ",
        "magnitude": null,
        "magnitude_units": null,
        "source": "Public",
        "event_narrative": "Deep flowing water across West Arivaca Road around mile marker 8. Reported via social media."
      },
      "geometry": {
        "type": "Point",
        "coordinates": [
          -111.29,
          31.65
        ]
      }
    },
    {
      "type": "Feature",
      "id": "iem-lsr-TWC-26",
      "properties": {
        "report_id": "iem-lsr-TWC-26",
        "report_type": "FLASH FLOOD",
        "event_category": "flooding",
        "valid_utc": "202609122240",
        "standard_time_display": "2026-09-12 15:40 MST",
        "wfo": "TWC",
        "county_or_zone": "Pima",
        "city": "1 NW Catalina",
        "state": "AZ",
        "magnitude": null,
        "magnitude_units": null,
        "source": "Law Enforcement",
        "event_narrative": "Hawser St between N Twin Lakes drive and North Coronado Forest drive closed due to flooding."
      },
      "geometry": {
        "type": "Point",
        "coordinates": [
          -110.91,
          32.48
        ]
      }
    },
    {
      "type": "Feature",
      "id": "iem-lsr-TWC-27",
      "properties": {
        "report_id": "iem-lsr-TWC-27",
        "report_type": "TSTM WND GST",
        "event_category": "thunderstorm_wind",
        "valid_utc": "202609140224",
        "standard_time_display": "2026-09-13 19:24 MST",
        "wfo": "TWC",
        "county_or_zone": "Santa Cruz",
        "city": "1 N Patagonia",
        "state": "AZ",
        "magnitude": 61.0,
        "magnitude_units": null,
        "source": "Mesonet",
        "event_narrative": "Personal weather station recorded gust of 61 mph."
      },
      "geometry": {
        "type": "Point",
        "coordinates": [
          -110.75,
          31.56
        ]
      }
    },
    {
      "type": "Feature",
      "id": "iem-lsr-TWC-28",
      "properties": {
        "report_id": "iem-lsr-TWC-28",
        "report_type": "TSTM WND DMG",
        "event_category": "thunderstorm_wind",
        "valid_utc": "202609142320",
        "standard_time_display": "2026-09-14 16:20 MST",
        "wfo": "TWC",
        "county_or_zone": "Pima",
        "city": "4 ENE Tucson",
        "state": "AZ",
        "magnitude": null,
        "magnitude_units": null,
        "source": "911 Call Center",
        "event_narrative": "Power pole knocked down with tree_ blocking road."
      },
      "geometry": {
        "type": "Point",
        "coordinates": [
          -110.82,
          32.22
        ]
      }
    },
    {
      "type": "Feature",
      "id": "iem-lsr-TWC-29",
      "properties": {
        "report_id": "iem-lsr-TWC-29",
        "report_type": "TSTM WND GST",
        "event_category": "thunderstorm_wind",
        "valid_utc": "202609142326",
        "standard_time_display": "2026-09-14 16:26 MST",
        "wfo": "TWC",
        "county_or_zone": "Pima",
        "city": "7 ENE Tucson",
        "state": "AZ",
        "magnitude": 60.0,
        "magnitude_units": null,
        "source": "Trained Spotter",
        "event_narrative": "Measured wind gust of 60 mph."
      },
      "geometry": {
        "type": "Point",
        "coordinates": [
          -110.78,
          32.24
        ]
      }
    },
    {
      "type": "Feature",
      "id": "iem-lsr-TWC-30",
      "properties": {
        "report_id": "iem-lsr-TWC-30",
        "report_type": "FLASH FLOOD",
        "event_category": "flooding",
        "valid_utc": "202609142344",
        "standard_time_display": "2026-09-14 16:44 MST",
        "wfo": "TWC",
        "county_or_zone": "Pima",
        "city": "3 E Tucson",
        "state": "AZ",
        "magnitude": null,
        "magnitude_units": null,
        "source": "911 Call Center",
        "event_narrative": "Swift water rescue in the Alamo Wash at E Calle Betelgeux and S Avenida."
      },
      "geometry": {
        "type": "Point",
        "coordinates": [
          -110.85,
          32.2
        ]
      }
    },
    {
      "type": "Feature",
      "id": "iem-lsr-TWC-31",
      "properties": {
        "report_id": "iem-lsr-TWC-31",
        "report_type": "FLASH FLOOD",
        "event_category": "flooding",
        "valid_utc": "202609150000",
        "standard_time_display": "2026-09-14 17:00 MST",
        "wfo": "TWC",
        "county_or_zone": "Pima",
        "city": "3 NE Tucson",
        "state": "AZ",
        "magnitude": null,
        "magnitude_units": null,
        "source": "911 Call Center",
        "event_narrative": "Swift water rescue_ car swept away moving down the Alamo wash."
      },
      "geometry": {
        "type": "Point",
        "coordinates": [
          -110.86,
          32.23
        ]
      }
    },
    {
      "type": "Feature",
      "id": "iem-lsr-TWC-32",
      "properties": {
        "report_id": "iem-lsr-TWC-32",
        "report_type": "FLASH FLOOD",
        "event_category": "flooding",
        "valid_utc": "202609150012",
        "standard_time_display": "2026-09-14 17:12 MST",
        "wfo": "TWC",
        "county_or_zone": "Pima",
        "city": "4 NNE Tucson",
        "state": "AZ",
        "magnitude": null,
        "magnitude_units": null,
        "source": "911 Call Center",
        "event_narrative": "Swift water rescue_ person swept into the wash near Tucson Medical Center."
      },
      "geometry": {
        "type": "Point",
        "coordinates": [
          -110.87,
          32.25
        ]
      }
    },
    {
      "type": "Feature",
      "id": "iem-lsr-TWC-33",
      "properties": {
        "report_id": "iem-lsr-TWC-33",
        "report_type": "FLASH FLOOD",
        "event_category": "flooding",
        "valid_utc": "202609150107",
        "standard_time_display": "2026-09-14 18:07 MST",
        "wfo": "TWC",
        "county_or_zone": "Pima",
        "city": "18 SE Tucson",
        "state": "AZ",
        "magnitude": null,
        "magnitude_units": null,
        "source": "911 Call Center",
        "event_narrative": "Road closed due to flooding near Andrada Rd and Calle Rinconado."
      },
      "geometry": {
        "type": "Point",
        "coordinates": [
          -110.71,
          31.99
        ]
      }
    },
    {
      "type": "Feature",
      "id": "iem-lsr-TWC-34",
      "properties": {
        "report_id": "iem-lsr-TWC-34",
        "report_type": "FLASH FLOOD",
        "event_category": "flooding",
        "valid_utc": "202609150132",
        "standard_time_display": "2026-09-14 18:32 MST",
        "wfo": "TWC",
        "county_or_zone": "Pima",
        "city": "4 SSW Picture Rocks",
        "state": "AZ",
        "magnitude": null,
        "magnitude_units": null,
        "source": "911 Call Center",
        "event_narrative": "Swift water rescue in the Brawley Wash near Manville Rd and Reservation Rd."
      },
      "geometry": {
        "type": "Point",
        "coordinates": [
          -111.26,
          32.29
        ]
      }
    },
    {
      "type": "Feature",
      "id": "iem-lsr-TWC-35",
      "properties": {
        "report_id": "iem-lsr-TWC-35",
        "report_type": "FLASH FLOOD",
        "event_category": "flooding",
        "valid_utc": "202609150155",
        "standard_time_display": "2026-09-14 18:55 MST",
        "wfo": "TWC",
        "county_or_zone": "Pima",
        "city": "9 WSW Tucson",
        "state": "AZ",
        "magnitude": null,
        "magnitude_units": null,
        "source": "911 Call Center",
        "event_narrative": "Swift water rescue near S Westover Ave and Valencia Rd."
      },
      "geometry": {
        "type": "Point",
        "coordinates": [
          -111.02,
          32.13
        ]
      }
    },
    {
      "type": "Feature",
      "id": "iem-lsr-TWC-36",
      "properties": {
        "report_id": "iem-lsr-TWC-36",
        "report_type": "FLASH FLOOD",
        "event_category": "flooding",
        "valid_utc": "202609161505",
        "standard_time_display": "2026-09-16 08:05 MST",
        "wfo": "TWC",
        "county_or_zone": "Greenlee",
        "city": "1 NNW Morenci",
        "state": "AZ",
        "magnitude": null,
        "magnitude_units": null,
        "source": "Public",
        "event_narrative": "Public video shows flash flooding around the mine."
      },
      "geometry": {
        "type": "Point",
        "coordinates": [
          -109.34,
          33.06
        ]
      }
    },
    {
      "type": "Feature",
      "id": "iem-lsr-TWC-37",
      "properties": {
        "report_id": "iem-lsr-TWC-37",
        "report_type": "FLASH FLOOD",
        "event_category": "flooding",
        "valid_utc": "202609161957",
        "standard_time_display": "2026-09-16 12:57 MST",
        "wfo": "TWC",
        "county_or_zone": "Pima",
        "city": "8 W Sells",
        "state": "AZ",
        "magnitude": null,
        "magnitude_units": null,
        "source": "911 Call Center",
        "event_narrative": "Flash Flooding RT 24 Mile post 8. Road impassable."
      },
      "geometry": {
        "type": "Point",
        "coordinates": [
          -112.02,
          31.92
        ]
      }
    },
    {
      "type": "Feature",
      "id": "iem-lsr-TWC-38",
      "properties": {
        "report_id": "iem-lsr-TWC-38",
        "report_type": "RAIN",
        "event_category": "other",
        "valid_utc": "202609162215",
        "standard_time_display": "2026-09-16 15:15 MST",
        "wfo": "TWC",
        "county_or_zone": "Cochise",
        "city": "8 ESE Saint David",
        "state": "AZ",
        "magnitude": 0.76,
        "magnitude_units": null,
        "source": "Public",
        "event_narrative": "0.76 inches of rain in 5 to 10 mins. Totaling 2.12 inches past 12 hours."
      },
      "geometry": {
        "type": "Point",
        "coordinates": [
          -110.09,
          31.87
        ]
      }
    },
    {
      "type": "Feature",
      "id": "iem-lsr-TWC-39",
      "properties": {
        "report_id": "iem-lsr-TWC-39",
        "report_type": "RAIN",
        "event_category": "other",
        "valid_utc": "202609162254",
        "standard_time_display": "2026-09-16 15:54 MST",
        "wfo": "TWC",
        "county_or_zone": "Cochise",
        "city": "9 ESE Saint David",
        "state": "AZ",
        "magnitude": 1.28,
        "magnitude_units": null,
        "source": "Public",
        "event_narrative": "1.28 inches of rain in 20 mins."
      },
      "geometry": {
        "type": "Point",
        "coordinates": [
          -110.08,
          31.86
        ]
      }
    },
    {
      "type": "Feature",
      "id": "iem-lsr-TWC-40",
      "properties": {
        "report_id": "iem-lsr-TWC-40",
        "report_type": "RAIN",
        "event_category": "other",
        "valid_utc": "202609170058",
        "standard_time_display": "2026-09-16 17:58 MST",
        "wfo": "TWC",
        "county_or_zone": "Pima",
        "city": "11 SSE Picture Rocks",
        "state": "AZ",
        "magnitude": 0.74,
        "magnitude_units": null,
        "source": "Mesonet",
        "event_narrative": "0.74 inches in 20 mins."
      },
      "geometry": {
        "type": "Point",
        "coordinates": [
          -111.17,
          32.2
        ]
      }
    },
    {
      "type": "Feature",
      "id": "iem-lsr-TWC-41",
      "properties": {
        "report_id": "iem-lsr-TWC-41",
        "report_type": "FLASH FLOOD",
        "event_category": "flooding",
        "valid_utc": "202609170100",
        "standard_time_display": "2026-09-16 18:00 MST",
        "wfo": "TWC",
        "county_or_zone": "Cochise",
        "city": "4 N Willcox",
        "state": "AZ",
        "magnitude": null,
        "magnitude_units": null,
        "source": "Law Enforcement",
        "event_narrative": "Vehicle stuck in water on Old Stewart Road near milepost 344 of Interstate 10. Time estimated."
      },
      "geometry": {
        "type": "Point",
        "coordinates": [
          -109.82,
          32.31
        ]
      }
    },
    {
      "type": "Feature",
      "id": "iem-lsr-TWC-42",
      "properties": {
        "report_id": "iem-lsr-TWC-42",
        "report_type": "RAIN",
        "event_category": "other",
        "valid_utc": "202609170111",
        "standard_time_display": "2026-09-16 18:11 MST",
        "wfo": "TWC",
        "county_or_zone": "Pima",
        "city": "8 SSW Oro Valley",
        "state": "AZ",
        "magnitude": 0.6,
        "magnitude_units": null,
        "source": "Trained Spotter",
        "event_narrative": "0.6 inches in 8 mins."
      },
      "geometry": {
        "type": "Point",
        "coordinates": [
          -111.03,
          32.33
        ]
      }
    },
    {
      "type": "Feature",
      "id": "iem-lsr-TWC-43",
      "properties": {
        "report_id": "iem-lsr-TWC-43",
        "report_type": "RAIN",
        "event_category": "other",
        "valid_utc": "202609170119",
        "standard_time_display": "2026-09-16 18:19 MST",
        "wfo": "TWC",
        "county_or_zone": "Pima",
        "city": "8 SSW Oro Valley",
        "state": "AZ",
        "magnitude": 1.35,
        "magnitude_units": null,
        "source": "Mesonet",
        "event_narrative": "1.35 inches of rain in less than 20 mins."
      },
      "geometry": {
        "type": "Point",
        "coordinates": [
          -111.03,
          32.33
        ]
      }
    },
    {
      "type": "Feature",
      "id": "iem-lsr-TWC-44",
      "properties": {
        "report_id": "iem-lsr-TWC-44",
        "report_type": "RAIN",
        "event_category": "other",
        "valid_utc": "202609170124",
        "standard_time_display": "2026-09-16 18:24 MST",
        "wfo": "TWC",
        "county_or_zone": "Pima",
        "city": "3 ENE Tucson",
        "state": "AZ",
        "magnitude": 0.25,
        "magnitude_units": null,
        "source": "Trained Spotter",
        "event_narrative": "Amount fell near 22nd street and Kolb Road intersection."
      },
      "geometry": {
        "type": "Point",
        "coordinates": [
          -110.84,
          32.21
        ]
      }
    },
    {
      "type": "Feature",
      "id": "iem-lsr-TWC-45",
      "properties": {
        "report_id": "iem-lsr-TWC-45",
        "report_type": "FLASH FLOOD",
        "event_category": "flooding",
        "valid_utc": "202609170126",
        "standard_time_display": "2026-09-16 18:26 MST",
        "wfo": "TWC",
        "county_or_zone": "Pima",
        "city": "8 SW Oro Valley",
        "state": "AZ",
        "magnitude": null,
        "magnitude_units": null,
        "source": "911 Call Center",
        "event_narrative": "Stalled vehicle due to flash flooding."
      },
      "geometry": {
        "type": "Point",
        "coordinates": [
          -111.05,
          32.32
        ]
      }
    },
    {
      "type": "Feature",
      "id": "iem-lsr-TWC-46",
      "properties": {
        "report_id": "iem-lsr-TWC-46",
        "report_type": "FLASH FLOOD",
        "event_category": "flooding",
        "valid_utc": "202609170147",
        "standard_time_display": "2026-09-16 18:47 MST",
        "wfo": "TWC",
        "county_or_zone": "Pima",
        "city": "8 NNE Three Points",
        "state": "AZ",
        "magnitude": null,
        "magnitude_units": null,
        "source": "911 Call Center",
        "event_narrative": "Swift water rescue near Snyder Hill Rd and Sandario Rd."
      },
      "geometry": {
        "type": "Point",
        "coordinates": [
          -111.21,
          32.16
        ]
      }
    },
    {
      "type": "Feature",
      "id": "iem-lsr-TWC-47",
      "properties": {
        "report_id": "iem-lsr-TWC-47",
        "report_type": "FLASH FLOOD",
        "event_category": "flooding",
        "valid_utc": "202609291530",
        "standard_time_display": "2026-09-29 08:30 MST",
        "wfo": "TWC",
        "county_or_zone": "Pima",
        "city": "11 NNW Pisinemo",
        "state": "AZ",
        "magnitude": null,
        "magnitude_units": null,
        "source": "911 Call Center",
        "event_narrative": "Washes impassable SR 86 MM 75-84."
      },
      "geometry": {
        "type": "Point",
        "coordinates": [
          -112.37,
          32.19
        ]
      }
    },
    {
      "type": "Feature",
      "id": "iem-lsr-TWC-48",
      "properties": {
        "report_id": "iem-lsr-TWC-48",
        "report_type": "FLASH FLOOD",
        "event_category": "flooding",
        "valid_utc": "202609291530",
        "standard_time_display": "2026-09-29 08:30 MST",
        "wfo": "TWC",
        "county_or_zone": "Pima",
        "city": "7 N Santa Rosa",
        "state": "AZ",
        "magnitude": null,
        "magnitude_units": null,
        "source": "911 Call Center",
        "event_narrative": "Wash impassable crossing BIA route 15 at mile marker 19."
      },
      "geometry": {
        "type": "Point",
        "coordinates": [
          -112.03,
          32.43
        ]
      }
    },
    {
      "type": "Feature",
      "id": "iem-lsr-TWC-49",
      "properties": {
        "report_id": "iem-lsr-TWC-49",
        "report_type": "FLASH FLOOD",
        "event_category": "flooding",
        "valid_utc": "202609291635",
        "standard_time_display": "2026-09-29 09:35 MST",
        "wfo": "TWC",
        "county_or_zone": "Pinal",
        "city": "6 NNE Avra Valley",
        "state": "AZ",
        "magnitude": null,
        "magnitude_units": null,
        "source": "Local Official",
        "event_narrative": "Water rescue. Reported by local official."
      },
      "geometry": {
        "type": "Point",
        "coordinates": [
          -111.28,
          32.52
        ]
      }
    },
    {
      "type": "Feature",
      "id": "iem-lsr-TWC-50",
      "properties": {
        "report_id": "iem-lsr-TWC-50",
        "report_type": "FLASH FLOOD",
        "event_category": "flooding",
        "valid_utc": "202609291736",
        "standard_time_display": "2026-09-29 10:36 MST",
        "wfo": "TWC",
        "county_or_zone": "Pinal",
        "city": "14 NNE Avra Valley",
        "state": "AZ",
        "magnitude": null,
        "magnitude_units": null,
        "source": "Dept of Highways",
        "event_narrative": "Park Link Dr. closed from Cattle Tank Road to Camino Adelante due to flooding."
      },
      "geometry": {
        "type": "Point",
        "coordinates": [
          -111.21,
          32.62
        ]
      }
    },
    {
      "type": "Feature",
      "id": "iem-lsr-TWC-51",
      "properties": {
        "report_id": "iem-lsr-TWC-51",
        "report_type": "FLASH FLOOD",
        "event_category": "flooding",
        "valid_utc": "202609291740",
        "standard_time_display": "2026-09-29 10:40 MST",
        "wfo": "TWC",
        "county_or_zone": "Pima",
        "city": "3 ESE Marana",
        "state": "AZ",
        "magnitude": null,
        "magnitude_units": null,
        "source": "Dept of Highways",
        "event_narrative": "Flooding on I-10 Westbound near E Camino Adelante (MP 228)."
      },
      "geometry": {
        "type": "Point",
        "coordinates": [
          -111.13,
          32.4
        ]
      }
    },
    {
      "type": "Feature",
      "id": "iem-lsr-TWC-52",
      "properties": {
        "report_id": "iem-lsr-TWC-52",
        "report_type": "FLASH FLOOD",
        "event_category": "flooding",
        "valid_utc": "202609291743",
        "standard_time_display": "2026-09-29 10:43 MST",
        "wfo": "TWC",
        "county_or_zone": "Pinal",
        "city": "Dudleyville",
        "state": "AZ",
        "magnitude": null,
        "magnitude_units": null,
        "source": "Dept of Highways",
        "event_narrative": "Flooded roadway on N Dudleyville Rd both from AZ77 to N Facio Rd."
      },
      "geometry": {
        "type": "Point",
        "coordinates": [
          -110.73,
          32.91
        ]
      }
    },
    {
      "type": "Feature",
      "id": "iem-lsr-TWC-53",
      "properties": {
        "report_id": "iem-lsr-TWC-53",
        "report_type": "FLASH FLOOD",
        "event_category": "flooding",
        "valid_utc": "202609291814",
        "standard_time_display": "2026-09-29 11:14 MST",
        "wfo": "TWC",
        "county_or_zone": "Pinal",
        "city": "12 SE Eloy",
        "state": "AZ",
        "magnitude": null,
        "magnitude_units": null,
        "source": "Dept of Highways",
        "event_narrative": "Camino Adelante closed from Picacho Peak Lane to Park Link Dr due to flooded roadway."
      },
      "geometry": {
        "type": "Point",
        "coordinates": [
          -111.39,
          32.65
        ]
      }
    },
    {
      "type": "Feature",
      "id": "iem-lsr-TWC-54",
      "properties": {
        "report_id": "iem-lsr-TWC-54",
        "report_type": "FLASH FLOOD",
        "event_category": "flooding",
        "valid_utc": "202609291938",
        "standard_time_display": "2026-09-29 12:38 MST",
        "wfo": "TWC",
        "county_or_zone": "Pima",
        "city": "7 S Picture Rocks",
        "state": "AZ",
        "magnitude": null,
        "magnitude_units": null,
        "source": "County Official",
        "event_narrative": "6.1 feet on Brawley Wash at Mile Wide Road. Still rising."
      },
      "geometry": {
        "type": "Point",
        "coordinates": [
          -111.25,
          32.25
        ]
      }
    },
    {
      "type": "Feature",
      "id": "iem-lsr-TWC-55",
      "properties": {
        "report_id": "iem-lsr-TWC-55",
        "report_type": "RAIN",
        "event_category": "other",
        "valid_utc": "202609292016",
        "standard_time_display": "2026-09-29 13:16 MST",
        "wfo": "TWC",
        "county_or_zone": "Pima",
        "city": "4 WNW Summerhaven",
        "state": "AZ",
        "magnitude": 4.29,
        "magnitude_units": null,
        "source": "County Official",
        "event_narrative": "4.29 inch storm total rain. Still raining."
      },
      "geometry": {
        "type": "Point",
        "coordinates": [
          -110.83,
          32.46
        ]
      }
    },
    {
      "type": "Feature",
      "id": "iem-lsr-TWC-56",
      "properties": {
        "report_id": "iem-lsr-TWC-56",
        "report_type": "FLASH FLOOD",
        "event_category": "flooding",
        "valid_utc": "202609292041",
        "standard_time_display": "2026-09-29 13:41 MST",
        "wfo": "TWC",
        "county_or_zone": "Pima",
        "city": "12 NE Green Valley",
        "state": "AZ",
        "magnitude": null,
        "magnitude_units": null,
        "source": "911 Call Center",
        "event_narrative": "Swift Water Rescue reported."
      },
      "geometry": {
        "type": "Point",
        "coordinates": [
          -110.86,
          31.96
        ]
      }
    },
    {
      "type": "Feature",
      "id": "iem-lsr-TWC-57",
      "properties": {
        "report_id": "iem-lsr-TWC-57",
        "report_type": "RAIN",
        "event_category": "other",
        "valid_utc": "202609292052",
        "standard_time_display": "2026-09-29 13:52 MST",
        "wfo": "TWC",
        "county_or_zone": "Greenlee",
        "city": "2 WNW Duncan",
        "state": "AZ",
        "magnitude": 2.05,
        "magnitude_units": null,
        "source": "Trained Spotter",
        "event_narrative": "Amount fell in one hour."
      },
      "geometry": {
        "type": "Point",
        "coordinates": [
          -109.12,
          32.75
        ]
      }
    },
    {
      "type": "Feature",
      "id": "iem-lsr-TWC-58",
      "properties": {
        "report_id": "iem-lsr-TWC-58",
        "report_type": "FLASH FLOOD",
        "event_category": "flooding",
        "valid_utc": "202609292109",
        "standard_time_display": "2026-09-29 14:09 MST",
        "wfo": "TWC",
        "county_or_zone": "Greenlee",
        "city": "4 W Duncan",
        "state": "AZ",
        "magnitude": null,
        "magnitude_units": null,
        "source": "Law Enforcement",
        "event_narrative": "Flooding and road closure on Highway 70 between mile posts 374-375."
      },
      "geometry": {
        "type": "Point",
        "coordinates": [
          -109.16,
          32.73
        ]
      }
    },
    {
      "type": "Feature",
      "id": "iem-lsr-TWC-59",
      "properties": {
        "report_id": "iem-lsr-TWC-59",
        "report_type": "FLASH FLOOD",
        "event_category": "flooding",
        "valid_utc": "202609292111",
        "standard_time_display": "2026-09-29 14:11 MST",
        "wfo": "TWC",
        "county_or_zone": "Pima",
        "city": "5 WNW Tucson",
        "state": "AZ",
        "magnitude": null,
        "magnitude_units": null,
        "source": "Public",
        "event_narrative": "Flooded on Stone south of Speedway."
      },
      "geometry": {
        "type": "Point",
        "coordinates": [
          -110.97,
          32.23
        ]
      }
    },
    {
      "type": "Feature",
      "id": "iem-lsr-TWC-60",
      "properties": {
        "report_id": "iem-lsr-TWC-60",
        "report_type": "FLASH FLOOD",
        "event_category": "flooding",
        "valid_utc": "202609292115",
        "standard_time_display": "2026-09-29 14:15 MST",
        "wfo": "TWC",
        "county_or_zone": "Pima",
        "city": "7 NNE Three Points",
        "state": "AZ",
        "magnitude": null,
        "magnitude_units": null,
        "source": "Public",
        "event_narrative": "Flooding at Sandario Rd. and Snyder Hill Road."
      },
      "geometry": {
        "type": "Point",
        "coordinates": [
          -111.22,
          32.16
        ]
      }
    },
    {
      "type": "Feature",
      "id": "iem-lsr-TWC-61",
      "properties": {
        "report_id": "iem-lsr-TWC-61",
        "report_type": "FLASH FLOOD",
        "event_category": "flooding",
        "valid_utc": "202609292118",
        "standard_time_display": "2026-09-29 14:18 MST",
        "wfo": "TWC",
        "county_or_zone": "Pima",
        "city": "16 SSE Tucson",
        "state": "AZ",
        "magnitude": null,
        "magnitude_units": null,
        "source": "Local Official",
        "event_narrative": "Road closure at S Houghton Road near Andrada Road due to flooding."
      },
      "geometry": {
        "type": "Point",
        "coordinates": [
          -110.77,
          31.99
        ]
      }
    },
    {
      "type": "Feature",
      "id": "iem-lsr-TWC-62",
      "properties": {
        "report_id": "iem-lsr-TWC-62",
        "report_type": "FLASH FLOOD",
        "event_category": "flooding",
        "valid_utc": "202609292120",
        "standard_time_display": "2026-09-29 14:20 MST",
        "wfo": "TWC",
        "county_or_zone": "Greenlee",
        "city": "6 W Duncan",
        "state": "AZ",
        "magnitude": null,
        "magnitude_units": null,
        "source": "Dept of Highways",
        "event_narrative": "Flooding on roadway on US-70 Eastbound Near Cox Ranch Rd (MP 374)."
      },
      "geometry": {
        "type": "Point",
        "coordinates": [
          -109.2,
          32.74
        ]
      }
    },
    {
      "type": "Feature",
      "id": "iem-lsr-TWC-63",
      "properties": {
        "report_id": "iem-lsr-TWC-63",
        "report_type": "FLASH FLOOD",
        "event_category": "flooding",
        "valid_utc": "202609292213",
        "standard_time_display": "2026-09-29 15:13 MST",
        "wfo": "TWC",
        "county_or_zone": "Greenlee",
        "city": "4 NW Duncan",
        "state": "AZ",
        "magnitude": null,
        "magnitude_units": null,
        "source": "Dept of Highways",
        "event_narrative": "Corrects previous flash flood report from 5 NW Duncan. Flooding on roadway on SR-75 Northbound at Sand Wash. 40 telephone poles piled up against culvert on SR-75 causing water to overtop road. (MP 385)."
      },
      "geometry": {
        "type": "Point",
        "coordinates": [
          -109.15,
          32.77
        ]
      }
    },
    {
      "type": "Feature",
      "id": "iem-lsr-TWC-64",
      "properties": {
        "report_id": "iem-lsr-TWC-64",
        "report_type": "FLASH FLOOD",
        "event_category": "flooding",
        "valid_utc": "202609292213",
        "standard_time_display": "2026-09-29 15:13 MST",
        "wfo": "TWC",
        "county_or_zone": "Greenlee",
        "city": "5 NW Duncan",
        "state": "AZ",
        "magnitude": null,
        "magnitude_units": null,
        "source": "Dept of Highways",
        "event_narrative": "Flooding on roadway on SR-75 Northbound Near Sweetwater Rd (MP 385)."
      },
      "geometry": {
        "type": "Point",
        "coordinates": [
          -109.16,
          32.78
        ]
      }
    },
    {
      "type": "Feature",
      "id": "iem-lsr-TWC-65",
      "properties": {
        "report_id": "iem-lsr-TWC-65",
        "report_type": "FLASH FLOOD",
        "event_category": "flooding",
        "valid_utc": "202609292224",
        "standard_time_display": "2026-09-29 15:24 MST",
        "wfo": "TWC",
        "county_or_zone": "Greenlee",
        "city": "2 S Duncan",
        "state": "AZ",
        "magnitude": null,
        "magnitude_units": null,
        "source": "Dept of Highways",
        "event_narrative": "Road closed due to flooding on US-70 Eastbound Near Center Ave (MP 380)."
      },
      "geometry": {
        "type": "Point",
        "coordinates": [
          -109.09,
          32.71
        ]
      }
    },
    {
      "type": "Feature",
      "id": "iem-lsr-TWC-66",
      "properties": {
        "report_id": "iem-lsr-TWC-66",
        "report_type": "FLASH FLOOD",
        "event_category": "flooding",
        "valid_utc": "202609292249",
        "standard_time_display": "2026-09-29 15:49 MST",
        "wfo": "TWC",
        "county_or_zone": "Cochise",
        "city": "21 ENE Willcox",
        "state": "AZ",
        "magnitude": null,
        "magnitude_units": null,
        "source": "911 Call Center",
        "event_narrative": "Barricades up along all of West Lawrence Avenue. Flooding reported in other areas all across Bowie."
      },
      "geometry": {
        "type": "Point",
        "coordinates": [
          -109.49,
          32.33
        ]
      }
    },
    {
      "type": "Feature",
      "id": "iem-lsr-TWC-67",
      "properties": {
        "report_id": "iem-lsr-TWC-67",
        "report_type": "FLASH FLOOD",
        "event_category": "flooding",
        "valid_utc": "202609292337",
        "standard_time_display": "2026-09-29 16:37 MST",
        "wfo": "TWC",
        "county_or_zone": "Greenlee",
        "city": "Morenci",
        "state": "AZ",
        "magnitude": null,
        "magnitude_units": null,
        "source": "Dept of Highways",
        "event_narrative": "Flooding on Highway 191 northbound at mile marker 168."
      },
      "geometry": {
        "type": "Point",
        "coordinates": [
          -109.33,
          33.06
        ]
      }
    },
    {
      "type": "Feature",
      "id": "iem-lsr-TWC-68",
      "properties": {
        "report_id": "iem-lsr-TWC-68",
        "report_type": "FLASH FLOOD",
        "event_category": "flooding",
        "valid_utc": "202609292339",
        "standard_time_display": "2026-09-29 16:39 MST",
        "wfo": "TWC",
        "county_or_zone": "Greenlee",
        "city": "2 N Clifton",
        "state": "AZ",
        "magnitude": null,
        "magnitude_units": null,
        "source": "Public",
        "event_narrative": "Street flooding in Clifton_ AZ."
      },
      "geometry": {
        "type": "Point",
        "coordinates": [
          -109.29,
          33.05
        ]
      }
    },
    {
      "type": "Feature",
      "id": "iem-lsr-TWC-69",
      "properties": {
        "report_id": "iem-lsr-TWC-69",
        "report_type": "FLASH FLOOD",
        "event_category": "flooding",
        "valid_utc": "202609300017",
        "standard_time_display": "2026-09-29 17:17 MST",
        "wfo": "TWC",
        "county_or_zone": "Greenlee",
        "city": "1 NNE Duncan",
        "state": "AZ",
        "magnitude": null,
        "magnitude_units": null,
        "source": "Law Enforcement",
        "event_narrative": "Campbell st destroyed due to significant flooding in the Carlisle wash."
      },
      "geometry": {
        "type": "Point",
        "coordinates": [
          -109.09,
          32.74
        ]
      }
    },
    {
      "type": "Feature",
      "id": "iem-lsr-TWC-70",
      "properties": {
        "report_id": "iem-lsr-TWC-70",
        "report_type": "FLOOD",
        "event_category": "flooding",
        "valid_utc": "202609301330",
        "standard_time_display": "2026-09-30 06:30 MST",
        "wfo": "TWC",
        "county_or_zone": "Graham",
        "city": "2 N Pima",
        "state": "AZ",
        "magnitude": null,
        "magnitude_units": null,
        "source": "Emergency Mngr",
        "event_narrative": "2 feet of water over 20+ yards of the east side low point near the Bryce-Edan Bridge_ resulting in bridge closure."
      },
      "geometry": {
        "type": "Point",
        "coordinates": [
          -109.83,
          32.92
        ]
      }
    },
    {
      "type": "Feature",
      "id": "iem-lsr-TWC-71",
      "properties": {
        "report_id": "iem-lsr-TWC-71",
        "report_type": "FLOOD",
        "event_category": "flooding",
        "valid_utc": "202609301720",
        "standard_time_display": "2026-09-30 10:20 MST",
        "wfo": "TWC",
        "county_or_zone": "Graham",
        "city": "4 E Safford",
        "state": "AZ",
        "magnitude": null,
        "magnitude_units": null,
        "source": "Emergency Mngr",
        "event_narrative": "Solomon Bridge had 1 foot of water overtop_ resulting in bridge & road closure."
      },
      "geometry": {
        "type": "Point",
        "coordinates": [
          -109.63,
          32.83
        ]
      }
    },
    {
      "type": "Feature",
      "id": "iem-lsr-TWC-72",
      "properties": {
        "report_id": "iem-lsr-TWC-72",
        "report_type": "FLOOD",
        "event_category": "flooding",
        "valid_utc": "202609301736",
        "standard_time_display": "2026-09-30 10:36 MST",
        "wfo": "TWC",
        "county_or_zone": "Graham",
        "city": "10 SE Bylas",
        "state": "AZ",
        "magnitude": null,
        "magnitude_units": null,
        "source": "Emergency Mngr",
        "event_narrative": "4 feet of water over the fort thomas river rd_ completely inundated and was closed. Unknown impact time_ used time of receiving report."
      },
      "geometry": {
        "type": "Point",
        "coordinates": [
          -109.97,
          33.05
        ]
      }
    }
  ]
}