{
  "type": "FeatureCollection",
  "name": "cwa",
  "crs": {
    "type": "name",
    "properties": {
      "name": "urn:ogc:def:crs:OGC:1.3:CRS84"
    }
  },
  "features": [
    {
      "type": "Feature",
      "properties": {
        "WFO": "TOP",
        "CWA": "TOP",
        "STATE": "Kansas",
        "ST": "KS",
        "CITYSTATE": "Topeka KS"
      },
      "geometry": {
        "type": "Polygon",
        "coordinates": [
          [
            [
              -97.93179321278649,
              40.001113892392254
            ],
            [
              -95.3398971564286,
              40.000011444072925
            ],
            [
              -95.34019470342281,
              39.65301132231474
            ],
            [
              -95.56419372605956,
              39.65301132231474
            ],
            [
              -95.56429290779141,
              39.565811157359065
            ],
            [
              -95.57019805959271,
              39.565410613708934
            ],
            [
              -95.57049560478828,
              39.41931152320831
            ],
            [
              -95.45979309077848,
              39.42081069935432
            ],
            [
              -95.17939758443094,
              39.41901397711342
            ],
            [
              -95.18000030556959,
              39.12891387937208
            ],
            [
              -95.18759918205654,
              39.12831115733411
            ],
            [
              -95.18789672905075,
              39.12441253690912
            ],
            [
              -95.18599700925455,
              38.96441268939418
            ],
            [
              -95.17549896220731,
              38.96401214574399
            ],
            [
              -95.16859436144057,
              38.96581268290902
            ],
            [
              -95.16669464074505,
              38.96831130981917
            ],
            [
              -95.16499328621114,
              38.97721099898848
            ],
            [
              -95.16249847422517,
              38.98061370805624
            ],
            [
              -95.1278991701106,
              38.96651077265409
            ],
            [
              -95.11909485044697,
              38.97051238973506
            ],
            [
              -95.11019897530241,
              38.9712104803794
            ],
            [
              -95.10309600837405,
              38.95931243891795
            ],
            [
              -95.097999572822,
              38.956710815351926
            ],
            [
              -95.08589935297272,
              38.954910278186844
            ],
            [
              -95.08009338380259,
              38.9576110843841
            ],
            [
              -95.07729339587348,
              38.96191406158471
            ],
            [
              -95.07740020835291,
              38.96481323214499
            ],
            [
              -95.08309936504361,
              38.97021102871605
            ],
            [
              -95.08529663093475,
              38.97721099898848
            ],
            [
              -95.08329772940664,
              38.98271179221547
            ],
            [
              -95.07289886499058,
              38.98621368391446
            ],
            [
              -95.06549835196734,
              38.986511230009285
            ],
            [
              -95.05629730177901,
              38.98171234055212
            ],
            [
              -95.05669403140439,
              38.69521331804026
            ],
            [
              -95.06579589806222,
              38.69491195702125
            ],
            [
              -95.06509399429234,
              38.26471328738836
            ],
            [
              -95.06529998940294,
              38.25921249416132
            ],
            [
              -95.0750961299824,
              38.25881195141051
            ],
            [
              -95.0776977544478,
              38.03771209663603
            ],
            [
              -95.95929718022063,
              38.040412902833225
            ],
            [
              -95.95909881585766,
              38.17111206107279
            ],
            [
              -96.35719299336193,
              38.172710418950714
            ],
            [
              -96.35379791324306,
              38.521812438892994
            ],
            [
              -96.9300003047702,
              38.522510528638065
            ],
            [
              -96.93029785176441,
              38.609710692694364
            ],
            [
              -97.37199401920856,
              38.609313964867624
            ],
            [
              -97.37209320094041,
              38.909011840623975
            ],
            [
              -97.37239837598423,
              38.91411209110015
            ],
            [
              -97.38089752240268,
              38.91501236013238
            ],
            [
              -97.38119506759824,
              38.91911315894521
            ],
            [
              -97.38019561773353,
              38.92891311624737
            ],
            [
              -97.37229919425238,
              38.92901229887855
            ],
            [
              -97.37209320094041,
              38.95791244540311
            ],
            [
              -97.92889404312558,
              38.958213806422066
            ],
            [
              -97.92829895003649,
              39.12501144402296
            ],
            [
              -97.93049621592758,
              39.13581085208921
            ],
            [
              -97.93179321278649,
              39.27731323241977
            ],
            [
              -97.92910003733681,
              39.32051086378539
            ],
            [
              -97.93000030457034,
              39.39371108999484
            ],
            [
              -97.92869567876255,
              39.566913604779074
            ],
            [
              -97.9319000243666,
              39.56701278741025
            ],
            [
              -97.93329620385668,
              39.81331253084869
            ],
            [
              -97.93179321278649,
              40.001113892392254
            ]
          ]
        ]
      }
    }
  ],
  "metadata": {
    "schema_version": "0.1.0",
    "wfo": "TOP",
    "layer": "cwa",
    "source": "https://www.weather.gov/source/gis/Shapefiles/WSOM/w_16ap26.zip",
    "public_release_status": "public-source-derived"
  }
}