{
  "type": "FeatureCollection",
  "metadata": {
    "schema_version": "0.2.4",
    "year": 2026,
    "month": 9,
    "wfo": "OTX",
    "start_utc": "2026-09-01T00:00:00Z",
    "end_utc": "2026-10-01T00:00:00Z",
    "generated_utc": "2026-09-26T13:45:07Z",
    "mode": "storm_data_prep",
    "public_release_status": "public-source-derived",
    "time_note": "Storm Data entry times should be reviewed in local Standard Time (ST), not daylight time. Candidate reports include standard_time_display.",
    "tornado_track_policy": "Tornado tracks must come from DAT. NCEI begin/end coordinates are not used as a tornado track substitute.",
    "source": "https://mesonet.agron.iastate.edu/cgi-bin/request/gis/lsr.py?wfo=OTX&sts=2026-09-01T00%3A00%3A00Z&ets=2026-10-01T00%3A00%3A00Z&fmt=csv"
  },
  "features": [
    {
      "type": "Feature",
      "id": "iem-lsr-OTX-1",
      "properties": {
        "report_id": "iem-lsr-OTX-1",
        "report_type": "FLOOD",
        "event_category": "flooding",
        "valid_utc": "202609031450",
        "standard_time_display": "2026-09-03 06:50 PST",
        "wfo": "OTX",
        "county_or_zone": "Okanogan",
        "city": "3 E Loomis",
        "state": "WA",
        "magnitude": null,
        "magnitude_units": null,
        "source": "Official NWS Obs",
        "event_narrative": "Minor road flooding/ponding was observed along the Loomis-Oroville road due to runoff from recent burned areas from the Sinlahekin Fire on the north side of Spectacle Lake. The area received moderate"
      },
      "geometry": {
        "type": "Point",
        "coordinates": [
          -119.56,
          48.81
        ]
      }
    },
    {
      "type": "Feature",
      "id": "iem-lsr-OTX-2",
      "properties": {
        "report_id": "iem-lsr-OTX-2",
        "report_type": "NON-TSTM WND GST",
        "event_category": "thunderstorm_wind",
        "valid_utc": "202609252000",
        "standard_time_display": "2026-09-25 12:00 PST",
        "wfo": "OTX",
        "county_or_zone": "Chelan",
        "city": "20 NNE Ellensburg",
        "state": "WA",
        "magnitude": 67.0,
        "magnitude_units": null,
        "source": "Mesonet",
        "event_narrative": "Mesonet station MSR67 Mission Ridge Summit."
      },
      "geometry": {
        "type": "Point",
        "coordinates": [
          -120.43,
          47.27
        ]
      }
    },
    {
      "type": "Feature",
      "id": "iem-lsr-OTX-3",
      "properties": {
        "report_id": "iem-lsr-OTX-3",
        "report_type": "FLASH FLOOD",
        "event_category": "flooding",
        "valid_utc": "202609252059",
        "standard_time_display": "2026-09-25 12:59 PST",
        "wfo": "OTX",
        "county_or_zone": "Okanogan",
        "city": "2 SSW Loomis",
        "state": "WA",
        "magnitude": null,
        "magnitude_units": null,
        "source": "Public",
        "event_narrative": "Flash flooding reported with water into the Highlands Fire Camp and Cecile Creek Road on the Sinlahekin Road."
      },
      "geometry": {
        "type": "Point",
        "coordinates": [
          -119.65,
          48.79
        ]
      }
    },
    {
      "type": "Feature",
      "id": "iem-lsr-OTX-4",
      "properties": {
        "report_id": "iem-lsr-OTX-4",
        "report_type": "FLASH FLOOD",
        "event_category": "flooding",
        "valid_utc": "202609252108",
        "standard_time_display": "2026-09-25 13:08 PST",
        "wfo": "OTX",
        "county_or_zone": "Okanogan",
        "city": "2 E Loomis",
        "state": "WA",
        "magnitude": null,
        "magnitude_units": null,
        "source": "NWS Employee",
        "event_narrative": "Loomis-Oroville Road near mile post 76 or 1/4 mile west Spectacle Lake is washing out across and is impassible. Water was 3-8 inches deep at the moment and was rising."
      },
      "geometry": {
        "type": "Point",
        "coordinates": [
          -119.59,
          48.82
        ]
      }
    },
    {
      "type": "Feature",
      "id": "iem-lsr-OTX-5",
      "properties": {
        "report_id": "iem-lsr-OTX-5",
        "report_type": "DUST STORM",
        "event_category": "other",
        "valid_utc": "202609252109",
        "standard_time_display": "2026-09-25 13:09 PST",
        "wfo": "OTX",
        "county_or_zone": "Adams",
        "city": "1 SE Ritzville",
        "state": "WA",
        "magnitude": null,
        "magnitude_units": null,
        "source": "Law Enforcement",
        "event_narrative": "Corrects previous dust storm report from 1 SE Ritzville. I-90 is closed in the Ritzville area due to zero visibility from a dust storm and multiple collisions that are blocking the roadway. SR261 is"
      },
      "geometry": {
        "type": "Point",
        "coordinates": [
          -118.37,
          47.12
        ]
      }
    },
    {
      "type": "Feature",
      "id": "iem-lsr-OTX-6",
      "properties": {
        "report_id": "iem-lsr-OTX-6",
        "report_type": "DUST STORM",
        "event_category": "other",
        "valid_utc": "202609252109",
        "standard_time_display": "2026-09-25 13:09 PST",
        "wfo": "OTX",
        "county_or_zone": "Adams",
        "city": "1 SE Ritzville",
        "state": "WA",
        "magnitude": null,
        "magnitude_units": null,
        "source": "Law Enforcement",
        "event_narrative": "I-90 is closed in the Ritzville area due to zero visibility from a dust storm and multiple collisions that are blocking the roadway. SR261 is also closed."
      },
      "geometry": {
        "type": "Point",
        "coordinates": [
          -118.37,
          47.12
        ]
      }
    },
    {
      "type": "Feature",
      "id": "iem-lsr-OTX-7",
      "properties": {
        "report_id": "iem-lsr-OTX-7",
        "report_type": "NON-TSTM WND GST",
        "event_category": "thunderstorm_wind",
        "valid_utc": "202609252300",
        "standard_time_display": "2026-09-25 15:00 PST",
        "wfo": "OTX",
        "county_or_zone": "Chelan",
        "city": "20 NNE Ellensburg",
        "state": "WA",
        "magnitude": 79.0,
        "magnitude_units": null,
        "source": "Mesonet",
        "event_narrative": "Mesonet station MSR67 Mission Ridge Summit."
      },
      "geometry": {
        "type": "Point",
        "coordinates": [
          -120.43,
          47.27
        ]
      }
    }
  ]
}