{
  "type": "FeatureCollection",
  "name": "counties_parishes",
  "crs": {
    "type": "name",
    "properties": {
      "name": "urn:ogc:def:crs:OGC:1.3:CRS84"
    }
  },
  "features": [
    {
      "type": "Feature",
      "properties": {
        "STATE": "CA",
        "CWA": "VEFSGXPSR",
        "COUNTYNAME": "San Bernardino",
        "FIPS": "06071",
        "TIME_ZONE": "P"
      },
      "geometry": {
        "type": "Polygon",
        "coordinates": [
          [
            [
              -115.64819335899995,
              35.80951309200003
            ],
            [
              -115.10289764399994,
              35.379413605000025
            ],
            [
              -114.63299560499996,
              35.00211334200003
            ],
            [
              -114.62989807099996,
              34.994712830000026
            ],
            [
              -114.62899780299995,
              34.986110687000064
            ],
            [
              -114.63520049999994,
              34.96441268900003
            ],
            [
              -114.63459777799994,
              34.95781326300005
            ],
            [
              -114.62979888899997,
              34.94391250600006
            ],
            [
              -114.63329315199996,
              34.92461395300006
            ],
            [
              -114.63089752199994,
              34.90731048600003
            ],
            [
              -114.63669586199995,
              34.88911056500007
            ],
            [
              -114.63479614299996,
              34.87401199300007
            ],
            [
              -114.63019561799996,
              34.86581039400005
            ],
            [
              -114.623893738,
              34.85971069300007
            ],
            [
              -114.60269927999997,
              34.84871292100007
            ],
            [
              -114.58699798599997,
              34.835910797000054
            ],
            [
              -114.57759857199994,
              34.81831359900008
            ],
            [
              -114.57069396999998,
              34.793811798000036
            ],
            [
              -114.55869293199999,
              34.773811340000066
            ],
            [
              -114.55269622799995,
              34.76691055300006
            ],
            [
              -114.52969360399999,
              34.75071334800003
            ],
            [
              -114.516098022,
              34.736511230000076
            ],
            [
              -114.49150085399998,
              34.72521209700005
            ],
            [
              -114.48759460399998,
              34.716812134000065
            ],
            [
              -114.47259521499996,
              34.713512421000075
            ],
            [
              -114.47069549599996,
              34.71181106600005
            ],
            [
              -114.464996338,
              34.690711975000056
            ],
            [
              -114.45599365199996,
              34.67811203000008
            ],
            [
              -114.45469665499996,
              34.67221069300007
            ],
            [
              -114.451194763,
              34.66821289100005
            ],
            [
              -114.45069885299995,
              34.66581344600007
            ],
            [
              -114.45809936499995,
              34.657913208000025
            ],
            [
              -114.44279479999994,
              34.64471054100005
            ],
            [
              -114.440994263,
              34.64131164600008
            ],
            [
              -114.44139862099996,
              34.63091278100006
            ],
            [
              -114.43879699699994,
              34.62191009500003
            ],
            [
              -114.42419433599997,
              34.61041259800004
            ],
            [
              -114.42479705799997,
              34.601512909000064
            ],
            [
              -114.42749786399997,
              34.59921264600007
            ],
            [
              -114.43659973099994,
              34.59651184100005
            ],
            [
              -114.43499755899995,
              34.59321212800006
            ],
            [
              -114.42239379899996,
              34.58071136500007
            ],
            [
              -114.40489959699994,
              34.56911087000003
            ],
            [
              -114.38050079299995,
              34.528411865000066
            ],
            [
              -114.37809753399995,
              34.50731277500006
            ],
            [
              -114.38249969499998,
              34.494712830000026
            ],
            [
              -114.38159942599998,
              34.47701263400006
            ],
            [
              -114.38689422599998,
              34.462913513000046
            ],
            [
              -114.38710021999998,
              34.459213257000044
            ],
            [
              -114.38520049999994,
              34.45621109000007
            ],
            [
              -114.37439662599996,
              34.447212179000076
            ],
            [
              -114.34349822999997,
              34.451313019000054
            ],
            [
              -114.33479309099994,
              34.44971084600007
            ],
            [
              -114.32649993899997,
              34.43761062600004
            ],
            [
              -114.31229400599995,
              34.43271255500008
            ],
            [
              -114.30079650899995,
              34.42661285400004
            ],
            [
              -114.29409789999994,
              34.42051315300006
            ],
            [
              -114.28869628899997,
              34.40661239600007
            ],
            [
              -114.28009796099997,
              34.40311050400004
            ],
            [
              -114.26359558099995,
              34.40091323900003
            ],
            [
              -114.25519561799996,
              34.39221191400003
            ],
            [
              -114.23429870599995,
              34.37661361700003
            ],
            [
              -114.22969818099995,
              34.36891174300007
            ],
            [
              -114.22609710699999,
              34.36591339100005
            ],
            [
              -114.21379852299998,
              34.362411499000075
            ],
            [
              -114.19949340799997,
              34.361412048000034
            ],
            [
              -114.17689514199998,
              34.349311829000044
            ],
            [
              -114.16880035399998,
              34.33951187100007
            ],
            [
              -114.157493591,
              34.31911087000003
            ],
            [
              -114.13769531299994,
              34.30361175500008
            ],
            [
              -114.13939666699997,
              34.296012878000056
            ],
            [
              -114.13669586199995,
              34.283912659000066
            ],
            [
              -114.13639831499995,
              34.273410797000054
            ],
            [
              -114.13119506799995,
              34.26271057100007
            ],
            [
              -114.13249969499998,
              34.258911133000026
            ],
            [
              -114.16510009799998,
              34.25911331200007
            ],
            [
              -114.16419982899998,
              34.25251388500004
            ],
            [
              -114.166297913,
              34.249813080000024
            ],
            [
              -114.17279815699999,
              34.24791336100003
            ],
            [
              -114.17579650899995,
              34.245311737000065
            ],
            [
              -114.17819976799996,
              34.239913940000065
            ],
            [
              -114.19089508099995,
              34.23081207300004
            ],
            [
              -114.21179962199994,
              34.21151351900005
            ],
            [
              -114.22339630099998,
              34.20511245700004
            ],
            [
              -114.225494385,
              34.20271301300005
            ],
            [
              -114.22489929199998,
              34.19391250600006
            ],
            [
              -114.22929382299998,
              34.18721389800004
            ],
            [
              -114.24009704599996,
              34.18351364100005
            ],
            [
              -114.244293213,
              34.179512024000076
            ],
            [
              -114.25609588599997,
              34.17311096200007
            ],
            [
              -114.26860046399997,
              34.17021179200003
            ],
            [
              -114.27519988999995,
              34.172111511000026
            ],
            [
              -114.28719329799998,
              34.17051315300006
            ],
            [
              -114.29289245599995,
              34.16651153600003
            ],
            [
              -114.31199645999999,
              34.14521408100006
            ],
            [
              -114.32079315199996,
              34.13871383700007
            ],
            [
              -114.33609771699997,
              34.134014130000025
            ],
            [
              -114.35109710699999,
              34.133911133000026
            ],
            [
              -114.35589599599996,
              34.13071060200008
            ],
            [
              -114.36079406699997,
              34.12321090700004
            ],
            [
              -114.36709594699994,
              34.11841201800007
            ],
            [
              -114.38050079299995,
              34.11541366600005
            ],
            [
              -114.38979339599996,
              34.11041259800004
            ],
            [
              -114.40639495799996,
              34.111412048000034
            ],
            [
              -114.41519927999997,
              34.10801315300006
            ],
            [
              -114.43399810799997,
              34.08741378800005
            ],
            [
              -114.43619537399996,
              34.07971191400003
            ],
            [
              -115.12579345699999,
              34.07981109600007
            ],
            [
              -115.18509674099994,
              34.07941055300006
            ],
            [
              -115.20779418899997,
              34.077812195000035
            ],
            [
              -115.31609344499998,
              34.077812195000035
            ],
            [
              -115.31619262699996,
              34.03411102300004
            ],
            [
              -115.84089660599994,
              34.03541183500005
            ],
            [
              -116.28309659999996,
              34.03431216000007
            ],
            [
              -116.30459659999997,
              34.03251216000007
            ],
            [
              -116.92959594699994,
              34.03411102300004
            ],
            [
              -116.92959594699994,
              34.00511169400005
            ],
            [
              -116.93349456799996,
              34.00491333000008
            ],
            [
              -117.13139659999996,
              34.00381216000005
            ],
            [
              -117.22539659999995,
              34.00481216000003
            ],
            [
              -117.22539659999995,
              34.018712160000064
            ],
            [
              -117.37459659999996,
              34.01941216000006
            ],
            [
              -117.37529659999996,
              34.03401216000003
            ],
            [
              -117.55089659999999,
              34.033812160000025
            ],
            [
              -117.55839659999998,
              34.03311216000003
            ],
            [
              -117.55809659999994,
              33.98921216000008
            ],
            [
              -117.61039659999994,
              33.97161216000006
            ],
            [
              -117.6108966,
              33.925112160000026
            ],
            [
              -117.65539659999996,
              33.925112160000026
            ],
            [
              -117.65489659999997,
              33.88881216000004
            ],
            [
              -117.67629659999994,
              33.88881216000004
            ],
            [
              -117.67049659999998,
              33.88361216000004
            ],
            [
              -117.66969659999995,
              33.880012160000035
            ],
            [
              -117.67319606099994,
              33.870114510000064
            ],
            [
              -117.68029785199997,
              33.87741088900003
            ],
            [
              -117.74979400599995,
              33.92261123700007
            ],
            [
              -117.79389953599997,
              33.95401382400007
            ],
            [
              -117.79379272499995,
              33.968112946000076
            ],
            [
              -117.80269622799995,
              33.969211578000056
            ],
            [
              -117.80289459199997,
              33.975612640000065
            ],
            [
              -117.78599548299997,
              34.00371170000005
            ],
            [
              -117.76839446999998,
              34.00461196900005
            ],
            [
              -117.767692566,
              34.023811340000066
            ],
            [
              -117.73669433599997,
              34.01871109000007
            ],
            [
              -117.73129272499995,
              34.02101135300006
            ],
            [
              -117.71949768099995,
              34.059612274000074
            ],
            [
              -117.69769287099996,
              34.111110687000064
            ],
            [
              -117.68719482399996,
              34.138813019000054
            ],
            [
              -117.68319702099996,
              34.15421295200008
            ],
            [
              -117.67759704599996,
              34.165210724000076
            ],
            [
              -117.64559936499995,
              34.289913177000074
            ],
            [
              -117.65939331099997,
              34.452510834000066
            ],
            [
              -117.66009521499996,
              34.55791091900005
            ],
            [
              -117.666694641,
              34.55801391600005
            ],
            [
              -117.66789245599995,
              34.790512085000046
            ],
            [
              -117.66729736299999,
              34.82251358000008
            ],
            [
              -117.63199615499997,
              34.822311401000036
            ],
            [
              -117.63319396999998,
              35.09261322000003
            ],
            [
              -117.63099670399998,
              35.10461044300007
            ],
            [
              -117.63119506799995,
              35.36161041300005
            ],
            [
              -117.63269805899995,
              35.40621185300006
            ],
            [
              -117.63129424999994,
              35.41961288500005
            ],
            [
              -117.63339996299999,
              35.434013367000034
            ],
            [
              -117.63369751,
              35.45101165800003
            ],
            [
              -117.63099670399998,
              35.45101165800003
            ],
            [
              -117.63029479999994,
              35.45821380600006
            ],
            [
              -117.62999725299994,
              35.54571151700003
            ],
            [
              -117.63009643599997,
              35.56411361700003
            ],
            [
              -117.63379669199998,
              35.56411361700003
            ],
            [
              -117.63479614299996,
              35.56981277500006
            ],
            [
              -117.63489532499995,
              35.622112274000074
            ],
            [
              -117.633094788,
              35.651313782000045
            ],
            [
              -117.61639404299996,
              35.65171051000004
            ],
            [
              -117.61619567899999,
              35.67571258500004
            ],
            [
              -117.61639404299996,
              35.68081283600003
            ],
            [
              -117.65149688699995,
              35.680713654000044
            ],
            [
              -117.65219879199998,
              35.68801116900005
            ],
            [
              -117.65139770499997,
              35.70991134600007
            ],
            [
              -117.63430023199999,
              35.70991134600007
            ],
            [
              -117.63299560499996,
              35.79721069300007
            ],
            [
              -117.37590026899994,
              35.79511261000005
            ],
            [
              -115.73590087899998,
              35.793613434000065
            ],
            [
              -115.73509979199997,
              35.809013367000034
            ],
            [
              -115.64819335899995,
              35.80951309200003
            ]
          ]
        ]
      }
    },
    {
      "type": "Feature",
      "properties": {
        "STATE": "CA",
        "CWA": "SGX",
        "COUNTYNAME": "San Diego",
        "FIPS": "06073",
        "TIME_ZONE": "P"
      },
      "geometry": {
        "type": "Polygon",
        "coordinates": [
          [
            [
              -117.50969695999999,
              33.50561142000004
            ],
            [
              -117.49249151699996,
              33.50441247100002
            ],
            [
              -117.36429659999999,
              33.505012160000035
            ],
            [
              -117.37079659999995,
              33.490712160000044
            ],
            [
              -117.242698669,
              33.449211121000076
            ],
            [
              -117.24149322499994,
              33.43301391600005
            ],
            [
              -117.23859405499996,
              33.431911469000056
            ],
            [
              -117.14079284699994,
              33.43261337300004
            ],
            [
              -117.10719299299996,
              33.430610657000045
            ],
            [
              -117.03109741199995,
              33.43011093100006
            ],
            [
              -117.03089904799998,
              33.426910400000054
            ],
            [
              -117.02529907199994,
              33.42681121800007
            ],
            [
              -116.50089263899997,
              33.42681121800007
            ],
            [
              -116.19659423799999,
              33.42921066300005
            ],
            [
              -116.12989807099996,
              33.42611312900004
            ],
            [
              -116.08519744899996,
              33.42591095000006
            ],
            [
              -116.08519744899996,
              33.34001159700006
            ],
            [
              -116.08119964599996,
              33.191013336000026
            ],
            [
              -116.08110046399997,
              33.07481384300007
            ],
            [
              -116.10329437299998,
              33.07471084600007
            ],
            [
              -116.10309600799997,
              32.73141098000008
            ],
            [
              -116.10559844999995,
              32.72161102300004
            ],
            [
              -116.10619354199997,
              32.619113922000054
            ],
            [
              -117.02860259999994,
              32.542331696000076
            ],
            [
              -117.12546199199994,
              32.535656209000024
            ],
            [
              -117.12606048599997,
              32.54405593900003
            ],
            [
              -117.129583,
              32.555057
            ],
            [
              -117.12818908699995,
              32.555755615000066
            ],
            [
              -117.126309,
              32.547967
            ],
            [
              -117.125800987,
              32.55118423000005
            ],
            [
              -117.12418365499997,
              32.54962539700006
            ],
            [
              -117.12541961699998,
              32.546905518000074
            ],
            [
              -117.123405457,
              32.547454834000064
            ],
            [
              -117.12464141799995,
              32.551338196000074
            ],
            [
              -117.123262,
              32.551856
            ],
            [
              -117.119662,
              32.550756
            ],
            [
              -117.11913299599996,
              32.54796981800007
            ],
            [
              -117.11834716799996,
              32.549167633000025
            ],
            [
              -117.120862,
              32.552356
            ],
            [
              -117.12456185199994,
              32.552056185000026
            ],
            [
              -117.123762,
              32.553056
            ],
            [
              -117.12396240199996,
              32.55465698200004
            ],
            [
              -117.125102,
              32.552011
            ],
            [
              -117.12686157199994,
              32.55225753800005
            ],
            [
              -117.12725849399999,
              32.55665563100007
            ],
            [
              -117.124862,
              32.556956
            ],
            [
              -117.12116241499996,
              32.55395507800006
            ],
            [
              -117.11606597899998,
              32.55435562100007
            ],
            [
              -117.110862,
              32.551956
            ],
            [
              -117.10805511499996,
              32.55171585100004
            ],
            [
              -117.10603332499994,
              32.553825378000056
            ],
            [
              -117.116412,
              32.555009
            ],
            [
              -117.12084197999997,
              32.554557800000055
            ],
            [
              -117.122662,
              32.55585600100005
            ],
            [
              -117.12126159699994,
              32.556957245000035
            ],
            [
              -117.123162,
              32.557656
            ],
            [
              -117.12966155999999,
              32.55735778800005
            ],
            [
              -117.127762,
              32.558456
            ],
            [
              -117.11926269499997,
              32.557754517000035
            ],
            [
              -117.12682296899999,
              32.558698151000044
            ],
            [
              -117.12586,
              32.563962
            ],
            [
              -117.127662397,
              32.55865605500003
            ],
            [
              -117.130563,
              32.559556
            ],
            [
              -117.13026428199998,
              32.557754517000035
            ],
            [
              -117.12860870399999,
              32.556415558000026
            ],
            [
              -117.12970133099998,
              32.555585507000046
            ],
            [
              -117.131863,
              32.557656
            ],
            [
              -117.133659363,
              32.565254211000024
            ],
            [
              -117.132963,
              32.597054
            ],
            [
              -117.136664,
              32.618754
            ],
            [
              -117.139464,
              32.627054
            ],
            [
              -117.159865,
              32.660652
            ],
            [
              -117.16156506399994,
              32.66105208600004
            ],
            [
              -117.169766,
              32.672752
            ],
            [
              -117.176766,
              32.678452
            ],
            [
              -117.18066399499997,
              32.678951332000054
            ],
            [
              -117.17896270799997,
              32.67965316800007
            ],
            [
              -117.180366,
              32.681652
            ],
            [
              -117.19296264599996,
              32.687751770000034
            ],
            [
              -117.196767,
              32.688851
            ],
            [
              -117.21306610099998,
              32.687751770000034
            ],
            [
              -117.22386789599994,
              32.68305307400004
            ],
            [
              -117.223768,
              32.685051
            ],
            [
              -117.228368,
              32.687251
            ],
            [
              -117.227568,
              32.697551
            ],
            [
              -117.223668,
              32.705551
            ],
            [
              -117.21746826199995,
              32.711349487000064
            ],
            [
              -117.20697021499996,
              32.71554946900005
            ],
            [
              -117.19169616699998,
              32.71568298300008
            ],
            [
              -117.187067,
              32.711351
            ],
            [
              -117.18967437699996,
              32.70693206800007
            ],
            [
              -117.188467,
              32.711651
            ],
            [
              -117.19026946999998,
              32.71224975600006
            ],
            [
              -117.19136810299995,
              32.70664978000008
            ],
            [
              -117.16826629599996,
              32.69915008500004
            ],
            [
              -117.163966,
              32.693051
            ],
            [
              -117.165866,
              32.689552
            ],
            [
              -117.16716765499996,
              32.67985160600006
            ],
            [
              -117.169266,
              32.679352
            ],
            [
              -117.17186737099996,
              32.682453156000065
            ],
            [
              -117.174366,
              32.682152
            ],
            [
              -117.17456817599998,
              32.680252075000055
            ],
            [
              -117.16865,
              32.675417
            ],
            [
              -117.16566467299998,
              32.674751282000045
            ],
            [
              -117.16016450799998,
              32.68025144600006
            ],
            [
              -117.15936279299996,
              32.679351807000046
            ],
            [
              -117.157367,
              32.680727
            ],
            [
              -117.153965,
              32.678152
            ],
            [
              -117.160365,
              32.671752
            ],
            [
              -117.160965,
              32.668352
            ],
            [
              -117.15246581999997,
              32.65685272200005
            ],
            [
              -117.14866634999998,
              32.65635295000004
            ],
            [
              -117.14756774899996,
              32.65475463900003
            ],
            [
              -117.149065,
              32.650953
            ],
            [
              -117.14566802999997,
              32.651752472000055
            ],
            [
              -117.13866426699997,
              32.63855353400004
            ],
            [
              -117.14116668699995,
              32.63705444300007
            ],
            [
              -117.138764,
              32.631153
            ],
            [
              -117.13316371999997,
              32.63305268000005
            ],
            [
              -117.13176727299998,
              32.63145446800007
            ],
            [
              -117.137268066,
              32.63015365600006
            ],
            [
              -117.13586425799997,
              32.62995147700008
            ],
            [
              -117.13536071799996,
              32.626552582000045
            ],
            [
              -117.13526153599997,
              32.629852295000035
            ],
            [
              -117.13136392999996,
              32.63055386000008
            ],
            [
              -117.13446807899999,
              32.62925338700006
            ],
            [
              -117.131664522,
              32.62925295500003
            ],
            [
              -117.13456726099997,
              32.628154755000025
            ],
            [
              -117.133264,
              32.62795247200006
            ],
            [
              -117.13456726099997,
              32.626655579000044
            ],
            [
              -117.132164419,
              32.627054
            ],
            [
              -117.132064819,
              32.62585449200003
            ],
            [
              -117.13586425799997,
              32.62605285600006
            ],
            [
              -117.133764,
              32.623154
            ],
            [
              -117.13346094299999,
              32.625354204000075
            ],
            [
              -117.13085937499994,
              32.624153137000064
            ],
            [
              -117.129963,
              32.627554
            ],
            [
              -117.12876326299994,
              32.62205520500004
            ],
            [
              -117.13086700399998,
              32.62365341200007
            ],
            [
              -117.13216310499996,
              32.62085415800004
            ],
            [
              -117.13356780999999,
              32.622455597000055
            ],
            [
              -117.133464,
              32.618954
            ],
            [
              -117.13056182899999,
              32.62145233200005
            ],
            [
              -117.132064819,
              32.618652344000054
            ],
            [
              -117.129863,
              32.619454
            ],
            [
              -117.131163,
              32.617954
            ],
            [
              -117.129263,
              32.619654
            ],
            [
              -117.12906344899994,
              32.62065355100003
            ],
            [
              -117.12826538099995,
              32.61965560900006
            ],
            [
              -117.132363,
              32.615654
            ],
            [
              -117.132965088,
              32.61025238000008
            ],
            [
              -117.13016509999994,
              32.60695266700003
            ],
            [
              -117.123063,
              32.604054
            ],
            [
              -117.121463,
              32.592855
            ],
            [
              -117.106753,
              32.588465
            ],
            [
              -117.098821,
              32.594402
            ],
            [
              -117.097464,
              32.604458
            ],
            [
              -117.10526275599995,
              32.60295486500007
            ],
            [
              -117.118560791,
              32.606269836000024
            ],
            [
              -117.131964,
              32.676352
            ],
            [
              -117.135962926,
              32.67895130200003
            ],
            [
              -117.12506103499999,
              32.679351807000046
            ],
            [
              -117.12866210899995,
              32.68414306600005
            ],
            [
              -117.132514174,
              32.68180517300004
            ],
            [
              -117.13516235399999,
              32.684452057000044
            ],
            [
              -117.13236236599994,
              32.68605041500007
            ],
            [
              -117.13396315499995,
              32.68735131400007
            ],
            [
              -117.129164,
              32.688352
            ],
            [
              -117.138665,
              32.686952
            ],
            [
              -117.136265,
              32.688852
            ],
            [
              -117.14196661399995,
              32.69035361400006
            ],
            [
              -117.152372,
              32.697551
            ],
            [
              -117.15369443599997,
              32.69685382400007
            ],
            [
              -117.16055081399998,
              32.701365072000044
            ],
            [
              -117.157995,
              32.70216
            ],
            [
              -117.163598,
              32.705865
            ],
            [
              -117.16488647499995,
              32.70438003500004
            ],
            [
              -117.16664,
              32.705497
            ],
            [
              -117.16702087399995,
              32.70668047600003
            ],
            [
              -117.164395,
              32.706425
            ],
            [
              -117.16756439199997,
              32.70865249600007
            ],
            [
              -117.16893768299997,
              32.708568573000036
            ],
            [
              -117.168,
              32.707001
            ],
            [
              -117.16973876999998,
              32.708518982000044
            ],
            [
              -117.17206572899994,
              32.70785140700008
            ],
            [
              -117.173466,
              32.712451
            ],
            [
              -117.17586517299998,
              32.711750031000065
            ],
            [
              -117.173666,
              32.714251
            ],
            [
              -117.17706693199995,
              32.714351547000035
            ],
            [
              -117.173666,
              32.714951
            ],
            [
              -117.17696380599995,
              32.715551
            ],
            [
              -117.17686462399996,
              32.718151
            ],
            [
              -117.173666,
              32.718151
            ],
            [
              -117.174467,
              32.72585
            ],
            [
              -117.17586517299998,
              32.727149963000045
            ],
            [
              -117.179967,
              32.72735
            ],
            [
              -117.180867,
              32.72585
            ],
            [
              -117.185493469,
              32.726600647000055
            ],
            [
              -117.18506622299998,
              32.72835159300007
            ],
            [
              -117.18656921399997,
              32.728450775000056
            ],
            [
              -117.19596862799995,
              32.726848602000075
            ],
            [
              -117.189067,
              32.72395
            ],
            [
              -117.197667,
              32.72535
            ],
            [
              -117.21336879699999,
              32.72465159400008
            ],
            [
              -117.197667,
              32.72735
            ],
            [
              -117.198868,
              32.72905
            ],
            [
              -117.213939,
              32.728619
            ],
            [
              -117.21527099599996,
              32.72834396400003
            ],
            [
              -117.21515702299996,
              32.72174461000003
            ],
            [
              -117.226969,
              32.72495
            ],
            [
              -117.228069,
              32.72155
            ],
            [
              -117.22286987299998,
              32.71844863900003
            ],
            [
              -117.220468,
              32.71935
            ],
            [
              -117.232469,
              32.708351
            ],
            [
              -117.23496884099995,
              32.70825123900005
            ],
            [
              -117.223668,
              32.71815
            ],
            [
              -117.227669,
              32.72025
            ],
            [
              -117.22936996499999,
              32.71825042900008
            ],
            [
              -117.23387145999999,
              32.71825027500006
            ],
            [
              -117.236469,
              32.71465
            ],
            [
              -117.23316960999995,
              32.715149146000044
            ],
            [
              -117.237169,
              32.71155
            ],
            [
              -117.236369,
              32.704151
            ],
            [
              -117.23957061799996,
              32.69915008500004
            ],
            [
              -117.239869,
              32.693251
            ],
            [
              -117.238169,
              32.687651
            ],
            [
              -117.235369,
              32.685351
            ],
            [
              -117.233268738,
              32.685951233000026
            ],
            [
              -117.23857116699998,
              32.681049347000055
            ],
            [
              -117.236268,
              32.671352
            ],
            [
              -117.238068,
              32.666752
            ],
            [
              -117.24316986399998,
              32.664852576000044
            ],
            [
              -117.245269,
              32.666652
            ],
            [
              -117.245969,
              32.673951
            ],
            [
              -117.247869,
              32.679751
            ],
            [
              -117.249267337,
              32.680149812000025
            ],
            [
              -117.248869,
              32.682351
            ],
            [
              -117.25036450299996,
              32.68275199900006
            ],
            [
              -117.25036621099997,
              32.68955230700004
            ],
            [
              -117.25306701699998,
              32.69245147700008
            ],
            [
              -117.25566856199998,
              32.69955070800006
            ],
            [
              -117.25537,
              32.70825
            ],
            [
              -117.25707,
              32.71535
            ],
            [
              -117.25596618699996,
              32.71604919400005
            ],
            [
              -117.25836851099996,
              32.72605
            ],
            [
              -117.25576782199994,
              32.72795105000006
            ],
            [
              -117.25726895199995,
              32.73345
            ],
            [
              -117.25517,
              32.73785
            ],
            [
              -117.25537,
              32.745649
            ],
            [
              -117.25257,
              32.752949
            ],
            [
              -117.252341,
              32.756827
            ],
            [
              -117.25344685299996,
              32.757118293000076
            ],
            [
              -117.24276733399995,
              32.758949280000024
            ],
            [
              -117.241169,
              32.766749
            ],
            [
              -117.24367,
              32.768749
            ],
            [
              -117.24617004399994,
              32.76345062300004
            ],
            [
              -117.24636840799997,
              32.76914978000008
            ],
            [
              -117.25037383999995,
              32.77064895600006
            ],
            [
              -117.250473022,
              32.768749237000065
            ],
            [
              -117.24907,
              32.76894819800003
            ],
            [
              -117.25057220499997,
              32.76474762000004
            ],
            [
              -117.24967193599997,
              32.76184845000006
            ],
            [
              -117.24816894499997,
              32.76044845600006
            ],
            [
              -117.24597167999997,
              32.76094818100006
            ],
            [
              -117.24666964,
              32.759349823000036
            ],
            [
              -117.25386801899998,
              32.759149078000064
            ],
            [
              -117.25407,
              32.781248
            ],
            [
              -117.25737,
              32.795548
            ],
            [
              -117.26426696799996,
              32.80704879800004
            ],
            [
              -117.26786945999999,
              32.807848
            ],
            [
              -117.27366638199999,
              32.81444931000004
            ],
            [
              -117.27317,
              32.817047
            ],
            [
              -117.28096771199995,
              32.822246552000024
            ],
            [
              -117.28027,
              32.826347
            ],
            [
              -117.282171,
              32.832147
            ],
            [
              -117.28217,
              32.839547
            ],
            [
              -117.27896881099997,
              32.847446442000034
            ],
            [
              -117.27387,
              32.851447
            ],
            [
              -117.26747131299999,
              32.84894561800007
            ],
            [
              -117.26387023899997,
              32.84944534300007
            ],
            [
              -117.25617,
              32.859447
            ],
            [
              -117.25167,
              32.874346
            ],
            [
              -117.25447,
              32.900146
            ],
            [
              -117.25946807899999,
              32.914546967000035
            ],
            [
              -117.26046752899998,
              32.93124389600007
            ],
            [
              -117.26866912799994,
              32.95944213900003
            ],
            [
              -117.27036163999998,
              32.97573781700004
            ],
            [
              -117.264841,
              32.971646
            ],
            [
              -117.26127,
              32.970344
            ],
            [
              -117.26036834699994,
              32.971244812000066
            ],
            [
              -117.26486968999995,
              32.97264480600006
            ],
            [
              -117.26696777299998,
              32.97584533700007
            ],
            [
              -117.26697685599999,
              32.974389237000025
            ],
            [
              -117.27086639399994,
              32.97644424400005
            ],
            [
              -117.27227,
              32.979244
            ],
            [
              -117.28047,
              33.011943
            ],
            [
              -117.29047,
              33.031142
            ],
            [
              -117.29666900599995,
              33.03744125400004
            ],
            [
              -117.29866790799997,
              33.04724121100003
            ],
            [
              -117.30976867699997,
              33.07453918500005
            ],
            [
              -117.31527709999995,
              33.09350585900006
            ],
            [
              -117.328359,
              33.121842
            ],
            [
              -117.33686065699999,
              33.13097000100004
            ],
            [
              -117.34354400599995,
              33.145309448000035
            ],
            [
              -117.34507047599999,
              33.14523779000007
            ],
            [
              -117.359808,
              33.164755
            ],
            [
              -117.35481262199994,
              33.16598510700004
            ],
            [
              -117.35686492899998,
              33.168811798000036
            ],
            [
              -117.352253,
              33.166346
            ],
            [
              -117.349448,
              33.169658
            ],
            [
              -117.349548,
              33.174061
            ],
            [
              -117.35197448699995,
              33.17513656600005
            ],
            [
              -117.356913,
              33.168878
            ],
            [
              -117.35867309599996,
              33.16883850100004
            ],
            [
              -117.35694086499996,
              33.16632518800003
            ],
            [
              -117.35967254599996,
              33.16793823200004
            ],
            [
              -117.35991024099997,
              33.16489186500007
            ],
            [
              -117.36917114299996,
              33.17603683500005
            ],
            [
              -117.367672,
              33.178736
            ],
            [
              -117.369672,
              33.176936
            ],
            [
              -117.39527893099995,
              33.20674514800004
            ],
            [
              -117.391583,
              33.203764
            ],
            [
              -117.38923644999994,
              33.20520019500003
            ],
            [
              -117.389648438,
              33.206676483000024
            ],
            [
              -117.394478,
              33.2082
            ],
            [
              -117.394438,
              33.212772
            ],
            [
              -117.395704,
              33.213449
            ],
            [
              -117.39801025399998,
              33.21100616500007
            ],
            [
              -117.396492,
              33.208275
            ],
            [
              -117.402149,
              33.213732
            ],
            [
              -117.40605926499995,
              33.21261978100006
            ],
            [
              -117.40473174999994,
              33.216213226000036
            ],
            [
              -117.40626525899995,
              33.21943283100006
            ],
            [
              -117.44557952899999,
              33.268516541000054
            ],
            [
              -117.49152374299996,
              33.32019805900006
            ],
            [
              -117.509198,
              33.337193
            ],
            [
              -117.547693,
              33.365491
            ],
            [
              -117.563688,
              33.372621
            ],
            [
              -117.573217,
              33.379955
            ],
            [
              -117.589634,
              33.383637
            ],
            [
              -117.59559580399997,
              33.38647117000005
            ],
            [
              -117.578598022,
              33.453514099000074
            ],
            [
              -117.55939483599997,
              33.45191192600004
            ],
            [
              -117.53869628899997,
              33.45571136500007
            ],
            [
              -117.50859832799995,
              33.47061157200005
            ],
            [
              -117.50969695999999,
              33.50561142000004
            ]
          ]
        ]
      }
    },
    {
      "type": "Feature",
      "properties": {
        "STATE": "CA",
        "CWA": "SGXPSR",
        "COUNTYNAME": "Riverside",
        "FIPS": "06065",
        "TIME_ZONE": "P"
      },
      "geometry": {
        "type": "Polygon",
        "coordinates": [
          [
            [
              -115.12579345699999,
              34.07981109600007
            ],
            [
              -114.43619537399996,
              34.07971191400003
            ],
            [
              -114.439399719,
              34.05381393400006
            ],
            [
              -114.43499755899995,
              34.03781127900004
            ],
            [
              -114.43829345699999,
              34.022613525000054
            ],
            [
              -114.44379424999994,
              34.016212463000045
            ],
            [
              -114.45479583699995,
              34.01101303100006
            ],
            [
              -114.46389770499997,
              34.01211166400003
            ],
            [
              -114.46630096399997,
              34.01021194500004
            ],
            [
              -114.46679687499994,
              34.00461196900005
            ],
            [
              -114.45989990199996,
              34.00051116900005
            ],
            [
              -114.45819854699994,
              33.99791336100003
            ],
            [
              -114.45969390899995,
              33.994411469000056
            ],
            [
              -114.46839904799998,
              33.99241256700003
            ],
            [
              -114.47269439699994,
              33.986812592000035
            ],
            [
              -114.48169708299997,
              33.981010437000066
            ],
            [
              -114.48419952399996,
              33.97631073000008
            ],
            [
              -114.49989318799999,
              33.96201324500004
            ],
            [
              -114.51079559299995,
              33.957111359000066
            ],
            [
              -114.51549529999994,
              33.958011627000076
            ],
            [
              -114.521995544,
              33.95541381800007
            ],
            [
              -114.52890014599996,
              33.947113037000065
            ],
            [
              -114.53509521499996,
              33.935211182000046
            ],
            [
              -114.535797119,
              33.92801284800004
            ],
            [
              -114.53439331099997,
              33.92571258500004
            ],
            [
              -114.52489471399997,
              33.922111511000026
            ],
            [
              -114.51449584999995,
              33.914211273000035
            ],
            [
              -114.51020049999994,
              33.90911102300004
            ],
            [
              -114.50789642299998,
              33.90281295800003
            ],
            [
              -114.51039886499996,
              33.89951324500004
            ],
            [
              -114.51549529999994,
              33.89801025400004
            ],
            [
              -114.52539825399998,
              33.90091323900003
            ],
            [
              -114.52319335899995,
              33.89311218300003
            ],
            [
              -114.50449371299999,
              33.876911163000045
            ],
            [
              -114.503196716,
              33.86921310400004
            ],
            [
              -114.50359344499998,
              33.86651229900008
            ],
            [
              -114.50659942599998,
              33.86361312900004
            ],
            [
              -114.51479339599996,
              33.85861206100003
            ],
            [
              -114.52619934099994,
              33.85971069300007
            ],
            [
              -114.52980041499995,
              33.85751342800006
            ],
            [
              -114.52929687499994,
              33.84741210900006
            ],
            [
              -114.52009582499994,
              33.82461166400003
            ],
            [
              -114.52269744899996,
              33.819011688000046
            ],
            [
              -114.52779388399995,
              33.815311432000044
            ],
            [
              -114.51859283399995,
              33.79621124300007
            ],
            [
              -114.50489807099996,
              33.76031112700008
            ],
            [
              -114.50460052499994,
              33.751113892000035
            ],
            [
              -114.51219940199996,
              33.734611511000026
            ],
            [
              -114.49699401899994,
              33.719512939000026
            ],
            [
              -114.49440002399996,
              33.711612701000035
            ],
            [
              -114.49439239499998,
              33.70541381800007
            ],
            [
              -114.49609374999994,
              33.69771194500004
            ],
            [
              -114.52399444599996,
              33.68591308600003
            ],
            [
              -114.53039550799997,
              33.67921066300005
            ],
            [
              -114.531196594,
              33.67601394700006
            ],
            [
              -114.532096863,
              33.669712067000034
            ],
            [
              -114.53029632599998,
              33.66681289700006
            ],
            [
              -114.52639770499997,
              33.66391372700008
            ],
            [
              -114.51619720499997,
              33.662513733000026
            ],
            [
              -114.51429748499999,
              33.65911102300004
            ],
            [
              -114.518295288,
              33.65591049200003
            ],
            [
              -114.52519988999995,
              33.65591049200003
            ],
            [
              -114.53269958499999,
              33.65241241500007
            ],
            [
              -114.53269958499999,
              33.64781189000007
            ],
            [
              -114.52510070799997,
              33.63981246900005
            ],
            [
              -114.523796082,
              33.63471221900005
            ],
            [
              -114.52639770499997,
              33.630210876000035
            ],
            [
              -114.53019714399994,
              33.62881088300003
            ],
            [
              -114.53109741199995,
              33.62431335400004
            ],
            [
              -114.52189636199995,
              33.61191177400008
            ],
            [
              -114.52919769299996,
              33.60661315900006
            ],
            [
              -114.54059600799997,
              33.59141159100005
            ],
            [
              -114.54009246799995,
              33.57981109600007
            ],
            [
              -114.53679656999998,
              33.571212769000056
            ],
            [
              -114.53159332299998,
              33.56171035800003
            ],
            [
              -114.52439880399999,
              33.553211212000065
            ],
            [
              -114.55899810799997,
              33.53111267100007
            ],
            [
              -114.56079864499998,
              33.517513275000056
            ],
            [
              -114.56839752199994,
              33.51011276200006
            ],
            [
              -114.58049774199998,
              33.506511688000046
            ],
            [
              -114.59189605699999,
              33.49901199300007
            ],
            [
              -114.60249328599997,
              33.481010437000066
            ],
            [
              -114.61239623999995,
              33.47081375100004
            ],
            [
              -114.623199463,
              33.45541381800007
            ],
            [
              -114.62310028099995,
              33.444713593000074
            ],
            [
              -114.62709806799995,
              33.43371204700003
            ],
            [
              -114.62969659999999,
              33.43351216000008
            ],
            [
              -114.83089659999996,
              33.43371216000003
            ],
            [
              -114.83079659999999,
              33.43011216000008
            ],
            [
              -115.06419372599998,
              33.42811203000008
            ],
            [
              -115.46459960899995,
              33.42841339100005
            ],
            [
              -115.48220062299998,
              33.426910400000054
            ],
            [
              -116.08519744899996,
              33.42591095000006
            ],
            [
              -116.12989807099996,
              33.42611312900004
            ],
            [
              -116.19659423799999,
              33.42921066300005
            ],
            [
              -116.50089263899997,
              33.42681121800007
            ],
            [
              -117.02529907199994,
              33.42681121800007
            ],
            [
              -117.03089904799998,
              33.426910400000054
            ],
            [
              -117.03109741199995,
              33.43011093100006
            ],
            [
              -117.10719299299996,
              33.430610657000045
            ],
            [
              -117.14079284699994,
              33.43261337300004
            ],
            [
              -117.23859405499996,
              33.431911469000056
            ],
            [
              -117.24149322499994,
              33.43301391600005
            ],
            [
              -117.242698669,
              33.449211121000076
            ],
            [
              -117.37079659999995,
              33.490712160000044
            ],
            [
              -117.36429659999999,
              33.505012160000035
            ],
            [
              -117.49249151699996,
              33.50441247100002
            ],
            [
              -117.50969695999999,
              33.50561142000004
            ],
            [
              -117.50969695999999,
              33.50901031500007
            ],
            [
              -117.50379943799999,
              33.508911133000026
            ],
            [
              -117.503196716,
              33.51971054100005
            ],
            [
              -117.50930023199999,
              33.52061080900006
            ],
            [
              -117.51019659999997,
              33.53401216000003
            ],
            [
              -117.41299659999999,
              33.65901216000003
            ],
            [
              -117.45969659999997,
              33.691612160000034
            ],
            [
              -117.47459659999998,
              33.70381216000004
            ],
            [
              -117.51409659999996,
              33.70771216000003
            ],
            [
              -117.53409659999994,
              33.71161216000007
            ],
            [
              -117.53689659999998,
              33.75721216000005
            ],
            [
              -117.5800966,
              33.768412160000025
            ],
            [
              -117.66279659999998,
              33.857512160000056
            ],
            [
              -117.67429351799996,
              33.85791397100007
            ],
            [
              -117.67499542199994,
              33.86841201800007
            ],
            [
              -117.66969659999995,
              33.880012160000035
            ],
            [
              -117.67049659999998,
              33.88361216000004
            ],
            [
              -117.67629659999994,
              33.88881216000004
            ],
            [
              -117.65489659999997,
              33.88881216000004
            ],
            [
              -117.65539659999996,
              33.925112160000026
            ],
            [
              -117.6108966,
              33.925112160000026
            ],
            [
              -117.61039659999994,
              33.97161216000006
            ],
            [
              -117.55809659999994,
              33.98921216000008
            ],
            [
              -117.55839659999998,
              34.03311216000003
            ],
            [
              -117.55089659999999,
              34.033812160000025
            ],
            [
              -117.37529659999996,
              34.03401216000003
            ],
            [
              -117.37459659999996,
              34.01941216000006
            ],
            [
              -117.22539659999995,
              34.018712160000064
            ],
            [
              -117.22539659999995,
              34.00481216000003
            ],
            [
              -117.13139659999996,
              34.00381216000005
            ],
            [
              -116.93349456799996,
              34.00491333000008
            ],
            [
              -116.92959594699994,
              34.00511169400005
            ],
            [
              -116.92959594699994,
              34.03411102300004
            ],
            [
              -116.31699659999998,
              34.03251216000007
            ],
            [
              -116.28309659999996,
              34.03431216000007
            ],
            [
              -115.84089660599994,
              34.03541183500005
            ],
            [
              -115.31619262699996,
              34.03411102300004
            ],
            [
              -115.31609344499998,
              34.077812195000035
            ],
            [
              -115.20779418899997,
              34.077812195000035
            ],
            [
              -115.18509674099994,
              34.07941055300006
            ],
            [
              -115.12579345699999,
              34.07981109600007
            ]
          ]
        ]
      }
    },
    {
      "type": "Feature",
      "properties": {
        "STATE": "CA",
        "CWA": "SGX",
        "COUNTYNAME": "Orange",
        "FIPS": "06059",
        "TIME_ZONE": "P"
      },
      "geometry": {
        "type": "MultiPolygon",
        "coordinates": [
          [
            [
              [
                -117.90959930399998,
                33.94591140700004
              ],
              [
                -117.78229522699996,
                33.94571304300007
              ],
              [
                -117.74979400599995,
                33.92261123700007
              ],
              [
                -117.68029785199997,
                33.87741088900003
              ],
              [
                -117.67319606099994,
                33.870114510000064
              ],
              [
                -117.67499542199994,
                33.86841201800007
              ],
              [
                -117.67429351799996,
                33.85791397100007
              ],
              [
                -117.66279659999998,
                33.857512160000056
              ],
              [
                -117.5800966,
                33.768412160000025
              ],
              [
                -117.53689659999998,
                33.75721216000005
              ],
              [
                -117.53409659999994,
                33.71161216000007
              ],
              [
                -117.51409659999996,
                33.70771216000003
              ],
              [
                -117.47459659999998,
                33.70381216000004
              ],
              [
                -117.45969659999997,
                33.691612160000034
              ],
              [
                -117.41299659999999,
                33.65901216000003
              ],
              [
                -117.51019659999997,
                33.53401216000003
              ],
              [
                -117.50930023199999,
                33.52061080900006
              ],
              [
                -117.503196716,
                33.51971054100005
              ],
              [
                -117.50379943799999,
                33.508911133000026
              ],
              [
                -117.50969695999999,
                33.50901031500007
              ],
              [
                -117.50859832799995,
                33.47061157200005
              ],
              [
                -117.53869628899997,
                33.45571136500007
              ],
              [
                -117.55939483599997,
                33.45191192600004
              ],
              [
                -117.578598022,
                33.453514099000074
              ],
              [
                -117.59559580399997,
                33.38647117000005
              ],
              [
                -117.60790252699996,
                33.40631866500007
              ],
              [
                -117.631682,
                33.430528
              ],
              [
                -117.645582,
                33.440728
              ],
              [
                -117.684584,
                33.461927
              ],
              [
                -117.689384,
                33.460027
              ],
              [
                -117.689884,
                33.461927
              ],
              [
                -117.69118439999994,
                33.45862711400002
              ],
              [
                -117.69838714599996,
                33.46112823500005
              ],
              [
                -117.69908142099996,
                33.459125519000054
              ],
              [
                -117.692685,
                33.457427
              ],
              [
                -117.69068520399998,
                33.45822612400008
              ],
              [
                -117.693382263,
                33.45692825300006
              ],
              [
                -117.70418548599997,
                33.45972824100005
              ],
              [
                -117.70498437099997,
                33.46092605600006
              ],
              [
                -117.699485,
                33.459227
              ],
              [
                -117.69878387499995,
                33.46122741700003
              ],
              [
                -117.703485,
                33.462427
              ],
              [
                -117.70378870599995,
                33.461227618000066
              ],
              [
                -117.70568847699997,
                33.462635040000066
              ],
              [
                -117.706998651,
                33.459836015000064
              ],
              [
                -117.71534728999995,
                33.46055603000008
              ],
              [
                -117.71458435099998,
                33.46302795400004
              ],
              [
                -117.726486,
                33.483427
              ],
              [
                -117.73398590099998,
                33.485027313000046
              ],
              [
                -117.734787,
                33.488027
              ],
              [
                -117.73758687199995,
                33.48782730800008
              ],
              [
                -117.73878478999995,
                33.49422836300005
              ],
              [
                -117.74628369199996,
                33.500127992000046
              ],
              [
                -117.74728393599997,
                33.50312805200008
              ],
              [
                -117.75568389899996,
                33.51262664800004
              ],
              [
                -117.760787,
                33.513726
              ],
              [
                -117.76298522899998,
                33.51912689200003
              ],
              [
                -117.76758575399998,
                33.52452468900003
              ],
              [
                -117.77218649499997,
                33.52682567800008
              ],
              [
                -117.78488922099996,
                33.54152679400005
              ],
              [
                -117.80408479599998,
                33.546024343000056
              ],
              [
                -117.80858612099996,
                33.55112457300004
              ],
              [
                -117.812188,
                33.552124
              ],
              [
                -117.81408730699997,
                33.55032465600004
              ],
              [
                -117.815488,
                33.553424
              ],
              [
                -117.81928790699999,
                33.553425584000024
              ],
              [
                -117.81968688999996,
                33.556224823000036
              ],
              [
                -117.82788848899997,
                33.56362533600003
              ],
              [
                -117.83278655999999,
                33.565624237000065
              ],
              [
                -117.84028625499997,
                33.573524475000056
              ],
              [
                -117.863289,
                33.584622
              ],
              [
                -117.871078491,
                33.59200668300008
              ],
              [
                -117.87679092299999,
                33.592323461000035
              ],
              [
                -117.87937,
                33.600246
              ],
              [
                -117.88229,
                33.602122
              ],
              [
                -117.88709,
                33.609321
              ],
              [
                -117.89302062999997,
                33.60972213700006
              ],
              [
                -117.894041,
                33.611546
              ],
              [
                -117.89878845199996,
                33.61352539100005
              ],
              [
                -117.89865112299998,
                33.61179733300003
              ],
              [
                -117.89450836199995,
                33.61108398400006
              ],
              [
                -117.89359542899996,
                33.60972213700006
              ],
              [
                -117.90039,
                33.610421
              ],
              [
                -117.90009,
                33.614621
              ],
              [
                -117.90378570599995,
                33.61632156400003
              ],
              [
                -117.90099117699998,
                33.62031931800004
              ],
              [
                -117.89364623999995,
                33.618915558000026
              ],
              [
                -117.89459228499999,
                33.615821838000045
              ],
              [
                -117.89318847699997,
                33.61511993400006
              ],
              [
                -117.89148712199994,
                33.61692047100007
              ],
              [
                -117.892204285,
                33.61950683600003
              ],
              [
                -117.89048767099996,
                33.61981964100005
              ],
              [
                -117.89302796799996,
                33.620746936000046
              ],
              [
                -117.89047241199995,
                33.624073029000044
              ],
              [
                -117.88806152299998,
                33.62608718900003
              ],
              [
                -117.88600921999995,
                33.62503813600006
              ],
              [
                -117.88749,
                33.624921
              ],
              [
                -117.89029,
                33.621021
              ],
              [
                -117.889681,
                33.620498
              ],
              [
                -117.88839721699998,
                33.62329483000008
              ],
              [
                -117.88498687699996,
                33.62532043500005
              ],
              [
                -117.88388824499998,
                33.62842178300008
              ],
              [
                -117.88588714599996,
                33.63011932400008
              ],
              [
                -117.88459,
                33.633721
              ],
              [
                -117.88768768299997,
                33.63782119800004
              ],
              [
                -117.88699,
                33.64082
              ],
              [
                -117.88239,
                33.64392
              ],
              [
                -117.881390195,
                33.64691979000003
              ],
              [
                -117.873989,
                33.64652
              ],
              [
                -117.87659454299995,
                33.650348663000045
              ],
              [
                -117.884138,
                33.652532
              ],
              [
                -117.880874,
                33.654788
              ],
              [
                -117.88047027599998,
                33.655410767000035
              ],
              [
                -117.88440704299995,
                33.657970428000056
              ],
              [
                -117.882362,
                33.660212
              ],
              [
                -117.88008880599995,
                33.66289901700003
              ],
              [
                -117.879689,
                33.663764
              ],
              [
                -117.880186,
                33.664436
              ],
              [
                -117.88323974599996,
                33.66535186800007
              ],
              [
                -117.879914,
                33.663652
              ],
              [
                -117.884538,
                33.657892
              ],
              [
                -117.88065338099995,
                33.655235291000054
              ],
              [
                -117.89049,
                33.64782
              ],
              [
                -117.88959,
                33.63872
              ],
              [
                -117.89149,
                33.634621
              ],
              [
                -117.88979339599996,
                33.63322067300004
              ],
              [
                -117.89129,
                33.631321
              ],
              [
                -117.88969,
                33.628821
              ],
              [
                -117.893738,
                33.621941
              ],
              [
                -117.895866,
                33.623029
              ],
              [
                -117.89499,
                33.621621
              ],
              [
                -117.903190613,
                33.62062072800006
              ],
              [
                -117.90749311699994,
                33.61222171000003
              ],
              [
                -117.92688751199995,
                33.620422363000046
              ],
              [
                -117.92879486099997,
                33.619720459000064
              ],
              [
                -117.92359161399997,
                33.611221313000044
              ],
              [
                -117.92549133299997,
                33.60972213700006
              ],
              [
                -117.92739085499994,
                33.612121339000055
              ],
              [
                -117.926791,
                33.614821
              ],
              [
                -117.92799377399996,
                33.61231994600007
              ],
              [
                -117.925991,
                33.609221
              ],
              [
                -117.90759277299998,
                33.60522079500004
              ],
              [
                -117.903877,
                33.607383
              ],
              [
                -117.90401458699995,
                33.60583114600007
              ],
              [
                -117.89499,
                33.601222
              ],
              [
                -117.88169097899998,
                33.59862136800007
              ],
              [
                -117.87989071299995,
                33.59302223700007
              ],
              [
                -117.89979,
                33.599622
              ],
              [
                -117.92709240899995,
                33.60552191900007
              ],
              [
                -117.94058990499997,
                33.620021820000034
              ],
              [
                -118.00268554699994,
                33.65554046600005
              ],
              [
                -118.004632,
                33.65376
              ],
              [
                -118.00305,
                33.655772
              ],
              [
                -118.02969360399999,
                33.67641830400004
              ],
              [
                -118.064895,
                33.711018
              ],
              [
                -118.094397,
                33.733117
              ],
              [
                -118.08809661899994,
                33.73041534400005
              ],
              [
                -118.08300003799997,
                33.730517
              ],
              [
                -118.08229827899999,
                33.72801590000006
              ],
              [
                -118.07780049999997,
                33.72432250000003
              ],
              [
                -118.07109832799995,
                33.72331619300007
              ],
              [
                -118.07309722899998,
                33.72231674200003
              ],
              [
                -118.07209777799994,
                33.719417572000054
              ],
              [
                -118.06849670399998,
                33.71621704100005
              ],
              [
                -118.066696,
                33.715518
              ],
              [
                -118.06439404499997,
                33.719014999000024
              ],
              [
                -118.06229514399996,
                33.71461830100003
              ],
              [
                -118.06359863299997,
                33.714019775000054
              ],
              [
                -118.06189727799995,
                33.71321868900003
              ],
              [
                -118.06289672899999,
                33.71261978100006
              ],
              [
                -118.05969479999999,
                33.712017401000026
              ],
              [
                -118.061096191,
                33.71171951300005
              ],
              [
                -118.057842,
                33.706834
              ],
              [
                -118.04155731199995,
                33.691387177000024
              ],
              [
                -118.04110717799995,
                33.69261550900006
              ],
              [
                -118.045629,
                33.696486
              ],
              [
                -118.044868469,
                33.69775390600006
              ],
              [
                -118.047683716,
                33.69782638500004
              ],
              [
                -118.058995,
                33.711018
              ],
              [
                -118.052795,
                33.711518
              ],
              [
                -118.057395,
                33.715417
              ],
              [
                -118.055495,
                33.724017
              ],
              [
                -118.058095,
                33.728317
              ],
              [
                -118.05839538599997,
                33.72691726700003
              ],
              [
                -118.05889129599996,
                33.727916718000074
              ],
              [
                -118.060495,
                33.728217
              ],
              [
                -118.059695,
                33.725717
              ],
              [
                -118.069596,
                33.726617
              ],
              [
                -118.07039642299998,
                33.724918365000065
              ],
              [
                -118.072796,
                33.726117
              ],
              [
                -118.070096,
                33.729017
              ],
              [
                -118.074396,
                33.726517
              ],
              [
                -118.07819408199998,
                33.726517
              ],
              [
                -118.077415466,
                33.728385925000055
              ],
              [
                -118.07919440099994,
                33.72741786100005
              ],
              [
                -118.081168,
                33.728753
              ],
              [
                -118.08119196799998,
                33.730003354000075
              ],
              [
                -118.078368,
                33.729749
              ],
              [
                -118.08659362799995,
                33.73141861000005
              ],
              [
                -118.089096,
                33.735017
              ],
              [
                -118.089797396,
                33.73401724100006
              ],
              [
                -118.096197,
                33.737917
              ],
              [
                -118.098899841,
                33.73561859100005
              ],
              [
                -118.09520400799994,
                33.73481381500005
              ],
              [
                -118.09639739999994,
                33.73381805400004
              ],
              [
                -118.099297,
                33.734917
              ],
              [
                -118.10069822599996,
                33.733518839000055
              ],
              [
                -118.11499775399994,
                33.74181742400003
              ],
              [
                -118.11235809299995,
                33.747287750000055
              ],
              [
                -118.09199523899997,
                33.75911331200007
              ],
              [
                -118.09359741199995,
                33.76791381800007
              ],
              [
                -118.09880065899995,
                33.77681350700004
              ],
              [
                -118.08670043899997,
                33.79611206100003
              ],
              [
                -118.08469390899995,
                33.80271148700007
              ],
              [
                -118.07269287099996,
                33.81491088900003
              ],
              [
                -118.064399719,
                33.81911087000003
              ],
              [
                -118.06349945099998,
                33.83151245100004
              ],
              [
                -118.060699463,
                33.83451080300006
              ],
              [
                -118.05909728999995,
                33.84471130400004
              ],
              [
                -118.05059814499998,
                33.850811005000025
              ],
              [
                -118.04999542199994,
                33.85351181000004
              ],
              [
                -118.04619598399995,
                33.855010986000025
              ],
              [
                -118.04609680199997,
                33.85861206100003
              ],
              [
                -118.04209899899996,
                33.85891342200006
              ],
              [
                -118.04179382299998,
                33.86211395300006
              ],
              [
                -118.03479766799995,
                33.866012573000035
              ],
              [
                -118.02890014599996,
                33.866012573000035
              ],
              [
                -118.02879333499999,
                33.87321090700004
              ],
              [
                -118.01149749799998,
                33.87411117600004
              ],
              [
                -118.01020049999994,
                33.88091278100006
              ],
              [
                -118.00269317599998,
                33.882110596000075
              ],
              [
                -118.00169372599998,
                33.88811111500007
              ],
              [
                -117.99469757099996,
                33.88871383700007
              ],
              [
                -117.99399566699998,
                33.895412445000034
              ],
              [
                -117.98529815699999,
                33.89531326300005
              ],
              [
                -117.98529815699999,
                33.90261077900004
              ],
              [
                -117.97660064699994,
                33.90261077900004
              ],
              [
                -117.97639465299994,
                33.94591140700004
              ],
              [
                -117.91579437299998,
                33.94701385500008
              ],
              [
                -117.90959930399998,
                33.94591140700004
              ]
            ]
          ],
          [
            [
              [
                -118.060495,
                33.724717
              ],
              [
                -118.06359853499998,
                33.721618714000044
              ],
              [
                -118.070196,
                33.724817
              ],
              [
                -118.06819915799997,
                33.72621536300005
              ],
              [
                -118.060495,
                33.724717
              ]
            ]
          ],
          [
            [
              [
                -118.058395,
                33.725917
              ],
              [
                -118.056995,
                33.722417
              ],
              [
                -118.06159248599994,
                33.71841882800004
              ],
              [
                -118.062895,
                33.720817
              ],
              [
                -118.058395,
                33.725917
              ]
            ]
          ],
          [
            [
              [
                -118.070894749,
                33.722815437000065
              ],
              [
                -118.06949615499997,
                33.720916748000036
              ],
              [
                -118.06788504499997,
                33.71684744700008
              ],
              [
                -118.07079315199996,
                33.72008132900004
              ],
              [
                -118.071456,
                33.72008099900006
              ],
              [
                -118.07229583999998,
                33.72221706800008
              ],
              [
                -118.070894749,
                33.722815437000065
              ]
            ]
          ],
          [
            [
              [
                -118.06489649399998,
                33.72021774700005
              ],
              [
                -118.06709361599997,
                33.718316205000065
              ],
              [
                -118.06989288299997,
                33.72251510600006
              ],
              [
                -118.06489649399998,
                33.72021774700005
              ]
            ]
          ],
          [
            [
              [
                -118.05719757099996,
                33.71341705300006
              ],
              [
                -118.05879224999995,
                33.71271920300006
              ],
              [
                -118.06129455599995,
                33.71711731000005
              ],
              [
                -118.05819702099996,
                33.72011566200007
              ],
              [
                -118.05719757099996,
                33.71341705300006
              ]
            ]
          ],
          [
            [
              [
                -118.070796,
                33.719817
              ],
              [
                -118.06858062699996,
                33.71670532200005
              ],
              [
                -118.07159497199996,
                33.719817
              ],
              [
                -118.070796,
                33.719817
              ]
            ]
          ],
          [
            [
              [
                -117.887191772,
                33.636119843000074
              ],
              [
                -117.88629913299997,
                33.63327026400003
              ],
              [
                -117.88928992999996,
                33.63512095700003
              ],
              [
                -117.88944992799998,
                33.636339993000036
              ],
              [
                -117.887191772,
                33.636119843000074
              ]
            ]
          ],
          [
            [
              [
                -117.88659000999996,
                33.628921029000026
              ],
              [
                -117.88858795199997,
                33.627922058000024
              ],
              [
                -117.88981628399995,
                33.629638672000056
              ],
              [
                -117.88918279699999,
                33.63294590400005
              ],
              [
                -117.88659000999996,
                33.628921029000026
              ]
            ]
          ],
          [
            [
              [
                -117.90909,
                33.608621
              ],
              [
                -117.92089080799997,
                33.611221313000044
              ],
              [
                -117.925191,
                33.615821
              ],
              [
                -117.924391,
                33.616721
              ],
              [
                -117.90869140599995,
                33.61011886600005
              ],
              [
                -117.90909,
                33.608621
              ]
            ]
          ],
          [
            [
              [
                -117.90049,
                33.614421
              ],
              [
                -117.90079,
                33.611821
              ],
              [
                -117.90438842799995,
                33.61312103300003
              ],
              [
                -117.901845,
                33.613068
              ],
              [
                -117.90358772499997,
                33.61502056000006
              ],
              [
                -117.90049,
                33.614421
              ]
            ]
          ],
          [
            [
              [
                -117.90019226099997,
                33.60962295500008
              ],
              [
                -117.90129089699997,
                33.60932158900005
              ],
              [
                -117.90388969299994,
                33.61102110200005
              ],
              [
                -117.90259,
                33.611521
              ],
              [
                -117.90019226099997,
                33.60962295500008
              ]
            ]
          ],
          [
            [
              [
                -117.88829040499996,
                33.60861969000007
              ],
              [
                -117.88519287099996,
                33.604621887000064
              ],
              [
                -117.89669036899994,
                33.60422134400005
              ],
              [
                -117.89948976,
                33.607321719000026
              ],
              [
                -117.89849090599995,
                33.60861969000007
              ],
              [
                -117.88829040499996,
                33.60861969000007
              ]
            ]
          ],
          [
            [
              [
                -117.89947509799998,
                33.60831451400003
              ],
              [
                -117.89981585499999,
                33.60815928000005
              ],
              [
                -117.89978029199995,
                33.608459320000065
              ],
              [
                -117.89947509799998,
                33.60831451400003
              ]
            ]
          ]
        ]
      }
    }
  ],
  "metadata": {
    "schema_version": "0.1.0",
    "wfo": "SGX",
    "layer": "counties",
    "source": "https://www.weather.gov/source/gis/Shapefiles/County/c_16ap26.zip",
    "public_release_status": "public-source-derived"
  }
}