{
  "type": "FeatureCollection",
  "name": "marine_zones",
  "crs": {
    "type": "name",
    "properties": {
      "name": "urn:ogc:def:crs:OGC:1.3:CRS84"
    }
  },
  "features": [
    {
      "type": "Feature",
      "properties": {
        "ID": "PZZ745",
        "WFO": "SGX",
        "GL_WFO": null,
        "NAME": "Waters from San Mateo point to the Mexican Border Extending 10 to 60 nm out including San Clemente Island"
      },
      "geometry": {
        "type": "Polygon",
        "coordinates": [
          [
            [
              -117.64385623899994,
              33.21174234000006
            ],
            [
              -117.59256668699999,
              33.152228861000026
            ],
            [
              -117.580969187,
              33.13033298900007
            ],
            [
              -117.56596627399995,
              33.11024180600003
            ],
            [
              -117.53667057499996,
              33.079826206000064
            ],
            [
              -117.51844167499996,
              33.06392437200003
            ],
            [
              -117.50574625299998,
              33.04371592200005
            ],
            [
              -117.48370057799997,
              32.983546156000045
            ],
            [
              -117.46985120599999,
              32.95698561900008
            ],
            [
              -117.45998203399995,
              32.915419489000044
            ],
            [
              -117.470542809,
              32.892419166000025
            ],
            [
              -117.47776088999996,
              32.86652856400008
            ],
            [
              -117.48016532699995,
              32.84364199100003
            ],
            [
              -117.47908549199997,
              32.814476065000065
            ],
            [
              -117.47350502499995,
              32.78362884000006
            ],
            [
              -117.466300661,
              32.76376204700006
            ],
            [
              -117.45758518899999,
              32.74706850100006
            ],
            [
              -117.45484948099994,
              32.707074130000024
            ],
            [
              -117.44944534799998,
              32.667141282000046
            ],
            [
              -117.429598995,
              32.607825329000036
            ],
            [
              -117.41339781499994,
              32.57964082400002
            ],
            [
              -117.39150262299995,
              32.55467720100006
            ],
            [
              -117.36267510399995,
              32.53207493800005
            ],
            [
              -117.32933363799998,
              32.51467526500005
            ],
            [
              -117.70491325199998,
              32.476344192000056
            ],
            [
              -118.21521539799994,
              32.43131382800004
            ],
            [
              -118.258591546,
              32.62997560400004
            ],
            [
              -118.42074610199995,
              32.73749455800004
            ],
            [
              -118.52705330499998,
              32.81851830000005
            ],
            [
              -118.63839662299995,
              32.99788887200003
            ],
            [
              -118.70986384699995,
              33.00967505700004
            ],
            [
              -118.19418395699995,
              33.186978433000036
            ],
            [
              -117.78085480399994,
              33.324833701000045
            ],
            [
              -117.76253864399996,
              33.29530138300004
            ],
            [
              -117.73756607899998,
              33.26931259600008
            ],
            [
              -117.70050167099998,
              33.24360792400006
            ],
            [
              -117.66076721799999,
              33.225488358000064
            ],
            [
              -117.64385623899994,
              33.21174234000006
            ]
          ],
          [
            [
              -118.59036034599995,
              33.04227757500007
            ],
            [
              -118.603915,
              33.036243
            ],
            [
              -118.61537170399998,
              33.03881454500004
            ],
            [
              -118.619947,
              33.036302
            ],
            [
              -118.62055969199997,
              33.033966064000026
            ],
            [
              -118.617309,
              33.030172
            ],
            [
              -118.61023712199994,
              33.02946472200006
            ],
            [
              -118.611686707,
              33.01573944100005
            ],
            [
              -118.61067199699994,
              33.01232528700007
            ],
            [
              -118.60460662799994,
              33.01071929900007
            ],
            [
              -118.599597,
              33.012628
            ],
            [
              -118.59266662599998,
              33.00911331200007
            ],
            [
              -118.588676,
              33.002472
            ],
            [
              -118.589092,
              33.000033
            ],
            [
              -118.58596,
              32.995628
            ],
            [
              -118.584304,
              32.988167
            ],
            [
              -118.581578,
              32.98552
            ],
            [
              -118.58080200599994,
              32.975966060000076
            ],
            [
              -118.576863,
              32.966018
            ],
            [
              -118.56291961699998,
              32.954933167000036
            ],
            [
              -118.554969,
              32.943528
            ],
            [
              -118.55406951899994,
              32.93370819100005
            ],
            [
              -118.54824066199996,
              32.924926758000026
            ],
            [
              -118.549893,
              32.916848
            ],
            [
              -118.54441070599995,
              32.914035797000054
            ],
            [
              -118.545096,
              32.909865
            ],
            [
              -118.53882598899997,
              32.90296936000004
            ],
            [
              -118.53833007799994,
              32.89995575000006
            ],
            [
              -118.534044,
              32.89887
            ],
            [
              -118.528615,
              32.894277
            ],
            [
              -118.526504,
              32.887828
            ],
            [
              -118.52133178699995,
              32.88209152200005
            ],
            [
              -118.510544,
              32.876493
            ],
            [
              -118.51135136799996,
              32.875036
            ],
            [
              -118.507033,
              32.875036
            ],
            [
              -118.50809457999998,
              32.871322140000075
            ],
            [
              -118.506605,
              32.866693
            ],
            [
              -118.50160980199996,
              32.862178802000074
            ],
            [
              -118.49955749499998,
              32.856472015000065
            ],
            [
              -118.50012206999997,
              32.85152435300006
            ],
            [
              -118.49301147499995,
              32.850795746000074
            ],
            [
              -118.48970031699997,
              32.84820938100006
            ],
            [
              -118.490514,
              32.846582
            ],
            [
              -118.48861049799996,
              32.84401777200003
            ],
            [
              -118.48443603499999,
              32.84491348300003
            ],
            [
              -118.48416150299994,
              32.84289612800006
            ],
            [
              -118.47492981,
              32.84136581400003
            ],
            [
              -118.469558716,
              32.83710479700005
            ],
            [
              -118.46939704599998,
              32.834357959000045
            ],
            [
              -118.46074,
              32.831037
            ],
            [
              -118.45848739299998,
              32.82757940800008
            ],
            [
              -118.45539092999996,
              32.82693862900004
            ],
            [
              -118.449749,
              32.819379
            ],
            [
              -118.44492,
              32.820593
            ],
            [
              -118.43916790399999,
              32.814616570000055
            ],
            [
              -118.436808,
              32.816357
            ],
            [
              -118.43376922599998,
              32.815624237000065
            ],
            [
              -118.427504,
              32.808018
            ],
            [
              -118.42942810099998,
              32.80542755100004
            ],
            [
              -118.425877,
              32.803092
            ],
            [
              -118.425634,
              32.800595
            ],
            [
              -118.424249,
              32.804719
            ],
            [
              -118.41714392699998,
              32.80709968000008
            ],
            [
              -118.415757,
              32.811132
            ],
            [
              -118.41117095899995,
              32.80991745000006
            ],
            [
              -118.40377044699994,
              32.81167984000007
            ],
            [
              -118.40126800499996,
              32.82033920300006
            ],
            [
              -118.395678,
              32.821527
            ],
            [
              -118.394565,
              32.823978
            ],
            [
              -118.387375,
              32.825327
            ],
            [
              -118.37996673599997,
              32.82454681400003
            ],
            [
              -118.37121600799998,
              32.819870423000054
            ],
            [
              -118.36053,
              32.819921
            ],
            [
              -118.356812,
              32.818364
            ],
            [
              -118.35585784899996,
              32.815822601000036
            ],
            [
              -118.34864807099996,
              32.82038497900004
            ],
            [
              -118.353504,
              32.821962
            ],
            [
              -118.369987488,
              32.83927154500003
            ],
            [
              -118.379305,
              32.8442
            ],
            [
              -118.38109588599997,
              32.847637177000024
            ],
            [
              -118.39007568399995,
              32.852565765000065
            ],
            [
              -118.392732,
              32.856071
            ],
            [
              -118.39694213899998,
              32.85700988800005
            ],
            [
              -118.40255737299998,
              32.86333465600006
            ],
            [
              -118.446771,
              32.895424
            ],
            [
              -118.460623,
              32.90951
            ],
            [
              -118.46757576799996,
              32.91463875100004
            ],
            [
              -118.482516,
              32.921599
            ],
            [
              -118.496810913,
              32.933845520000034
            ],
            [
              -118.51391,
              32.952935
            ],
            [
              -118.51548767099996,
              32.95792770400004
            ],
            [
              -118.52010345499997,
              32.963771820000034
            ],
            [
              -118.52922820999999,
              32.97092056300005
            ],
            [
              -118.53161744,
              32.975663017000045
            ],
            [
              -118.54142761199995,
              32.98230743400006
            ],
            [
              -118.546535,
              32.992272
            ],
            [
              -118.54773,
              33.000033
            ],
            [
              -118.54461700799999,
              33.00003433200004
            ],
            [
              -118.54498290999999,
              33.00370788600003
            ],
            [
              -118.55214,
              33.008598
            ],
            [
              -118.55729675299995,
              33.008663177000074
            ],
            [
              -118.557613,
              33.014546
            ],
            [
              -118.56080627399996,
              33.02071380600006
            ],
            [
              -118.558893,
              33.02538
            ],
            [
              -118.57344055199997,
              33.03702926600005
            ],
            [
              -118.587271,
              33.032035
            ],
            [
              -118.588734,
              33.034383
            ],
            [
              -118.586276,
              33.037242
            ],
            [
              -118.588165,
              33.041563
            ],
            [
              -118.59036034599995,
              33.04227757500007
            ]
          ],
          [
            [
              -118.369048,
              32.818703
            ],
            [
              -118.36850738499999,
              32.81941223100006
            ],
            [
              -118.36888122599998,
              32.819274902000075
            ],
            [
              -118.369048,
              32.818703
            ]
          ],
          [
            [
              -118.43146514899996,
              32.801582336000024
            ],
            [
              -118.43187017399998,
              32.802267871000026
            ],
            [
              -118.43206024199998,
              32.801513672000056
            ],
            [
              -118.43146514899996,
              32.801582336000024
            ]
          ],
          [
            [
              -118.42989349399994,
              32.804512024000076
            ],
            [
              -118.43195292299998,
              32.803962830000046
            ],
            [
              -118.43176269499997,
              32.80290985100004
            ],
            [
              -118.43078649799997,
              32.80290956700003
            ],
            [
              -118.42989349399994,
              32.804512024000076
            ]
          ],
          [
            [
              -118.42644544899997,
              32.80027387300004
            ],
            [
              -118.426556,
              32.79961
            ],
            [
              -118.426203,
              32.799725
            ],
            [
              -118.42644544899997,
              32.80027387300004
            ]
          ]
        ]
      }
    },
    {
      "type": "Feature",
      "properties": {
        "ID": "PZZ740",
        "WFO": "SGX",
        "GL_WFO": null,
        "NAME": "Coastal Waters from San Mateo Point to the Mexican Border and out to 10 nm"
      },
      "geometry": {
        "type": "Polygon",
        "coordinates": [
          [
            [
              -117.32933363799998,
              32.51467526500005
            ],
            [
              -117.36267510399995,
              32.53207493800005
            ],
            [
              -117.38183048599996,
              32.54614697000005
            ],
            [
              -117.39610796499994,
              32.55917320700007
            ],
            [
              -117.41050742899995,
              32.57570630600003
            ],
            [
              -117.41955373899998,
              32.58886610800005
            ],
            [
              -117.42732357299997,
              32.60289506700008
            ],
            [
              -117.43517166899994,
              32.62231512300008
            ],
            [
              -117.45020927599995,
              32.67062286100003
            ],
            [
              -117.45484948099994,
              32.707074130000024
            ],
            [
              -117.45758518899999,
              32.74706850100006
            ],
            [
              -117.466300661,
              32.76376204700006
            ],
            [
              -117.47350502499995,
              32.78362884000006
            ],
            [
              -117.48006465299994,
              32.824837184000046
            ],
            [
              -117.47990107099997,
              32.849541722000026
            ],
            [
              -117.47693675399995,
              32.87060819900006
            ],
            [
              -117.46990531599994,
              32.894122192000054
            ],
            [
              -117.45998203399995,
              32.915419489000044
            ],
            [
              -117.46985120599999,
              32.95698561900008
            ],
            [
              -117.48370057799997,
              32.983546156000045
            ],
            [
              -117.50574625299998,
              33.04371592200005
            ],
            [
              -117.52010240699997,
              33.06607663600005
            ],
            [
              -117.53667057499996,
              33.079826206000064
            ],
            [
              -117.56869750099997,
              33.113502045000075
            ],
            [
              -117.58180557699995,
              33.13165778300004
            ],
            [
              -117.59256668699999,
              33.152228861000026
            ],
            [
              -117.64385623899994,
              33.21174234000006
            ],
            [
              -117.66076721799999,
              33.225488358000064
            ],
            [
              -117.70050167099998,
              33.24360792400006
            ],
            [
              -117.734934566,
              33.26710648200003
            ],
            [
              -117.76151177399998,
              33.29400055800005
            ],
            [
              -117.772513501,
              33.30952038400005
            ],
            [
              -117.78085480399994,
              33.324833701000045
            ],
            [
              -117.59559580399997,
              33.38647117000005
            ],
            [
              -117.589634,
              33.383637
            ],
            [
              -117.574589,
              33.380532
            ],
            [
              -117.563688,
              33.372621
            ],
            [
              -117.547693,
              33.365491
            ],
            [
              -117.52548217799995,
              33.34964370700004
            ],
            [
              -117.509198,
              33.337193
            ],
            [
              -117.49152374299996,
              33.32019805900006
            ],
            [
              -117.44557952899999,
              33.268516541000054
            ],
            [
              -117.40923,
              33.223223
            ],
            [
              -117.40473174999994,
              33.216213226000036
            ],
            [
              -117.40605926499995,
              33.21261978100006
            ],
            [
              -117.402149,
              33.213732
            ],
            [
              -117.396492,
              33.208275
            ],
            [
              -117.39801025399998,
              33.21100616500007
            ],
            [
              -117.395704,
              33.213449
            ],
            [
              -117.394438,
              33.212772
            ],
            [
              -117.394478,
              33.2082
            ],
            [
              -117.389648438,
              33.206676483000024
            ],
            [
              -117.38923644999994,
              33.20520019500003
            ],
            [
              -117.391583,
              33.203764
            ],
            [
              -117.39527893099995,
              33.20674514800004
            ],
            [
              -117.369672,
              33.176936
            ],
            [
              -117.367672,
              33.178736
            ],
            [
              -117.36917114299996,
              33.17603683500005
            ],
            [
              -117.35991024099997,
              33.16489186500007
            ],
            [
              -117.35967254599996,
              33.16793823200004
            ],
            [
              -117.35694086499996,
              33.16632518800003
            ],
            [
              -117.35867309599996,
              33.16883850100004
            ],
            [
              -117.356913,
              33.168878
            ],
            [
              -117.35197448699995,
              33.17513656600005
            ],
            [
              -117.349548,
              33.174061
            ],
            [
              -117.349448,
              33.169658
            ],
            [
              -117.352253,
              33.166346
            ],
            [
              -117.35686492899998,
              33.168811798000036
            ],
            [
              -117.35481262199994,
              33.16598510700004
            ],
            [
              -117.359808,
              33.164755
            ],
            [
              -117.34507047599999,
              33.14523779000007
            ],
            [
              -117.34354400599995,
              33.145309448000035
            ],
            [
              -117.33686065699999,
              33.13097000100004
            ],
            [
              -117.328359,
              33.121842
            ],
            [
              -117.31527709999995,
              33.09350585900006
            ],
            [
              -117.30976867699997,
              33.07453918500005
            ],
            [
              -117.29866790799997,
              33.04724121100003
            ],
            [
              -117.29666900599995,
              33.03744125400004
            ],
            [
              -117.29047,
              33.031142
            ],
            [
              -117.28047,
              33.011943
            ],
            [
              -117.27227,
              32.979244
            ],
            [
              -117.27086639399994,
              32.97644424400005
            ],
            [
              -117.26697685599999,
              32.974389237000025
            ],
            [
              -117.26696777299998,
              32.97584533700007
            ],
            [
              -117.26486968999995,
              32.97264480600006
            ],
            [
              -117.26036834699994,
              32.971244812000066
            ],
            [
              -117.264841,
              32.971646
            ],
            [
              -117.27036163999998,
              32.97573781700004
            ],
            [
              -117.26866912799994,
              32.95944213900003
            ],
            [
              -117.26046752899998,
              32.93124389600007
            ],
            [
              -117.25946807899999,
              32.914546967000035
            ],
            [
              -117.25447,
              32.900146
            ],
            [
              -117.25167,
              32.874346
            ],
            [
              -117.25617,
              32.859447
            ],
            [
              -117.26387023899997,
              32.84944534300007
            ],
            [
              -117.26747131299999,
              32.84894561800007
            ],
            [
              -117.27387,
              32.851447
            ],
            [
              -117.27896881099997,
              32.847446442000034
            ],
            [
              -117.28217,
              32.839547
            ],
            [
              -117.282171,
              32.832147
            ],
            [
              -117.28027,
              32.826347
            ],
            [
              -117.28096771199995,
              32.822246552000024
            ],
            [
              -117.27317,
              32.817047
            ],
            [
              -117.27366638199999,
              32.81444931000004
            ],
            [
              -117.26786945999999,
              32.807848
            ],
            [
              -117.26426696799996,
              32.80704879800004
            ],
            [
              -117.25737,
              32.795548
            ],
            [
              -117.25407,
              32.781248
            ],
            [
              -117.25386801899998,
              32.759149078000064
            ],
            [
              -117.24666964,
              32.759349823000036
            ],
            [
              -117.24597167999997,
              32.76094818100006
            ],
            [
              -117.24816894499997,
              32.76044845600006
            ],
            [
              -117.24967193599997,
              32.76184845000006
            ],
            [
              -117.25057220499997,
              32.76474762000004
            ],
            [
              -117.24907,
              32.76894819800003
            ],
            [
              -117.250473022,
              32.768749237000065
            ],
            [
              -117.25037383999995,
              32.77064895600006
            ],
            [
              -117.24636840799997,
              32.76914978000008
            ],
            [
              -117.24617004399994,
              32.76345062300004
            ],
            [
              -117.24367,
              32.768749
            ],
            [
              -117.241169,
              32.766749
            ],
            [
              -117.24276733399995,
              32.758949280000024
            ],
            [
              -117.25344685299996,
              32.757118293000076
            ],
            [
              -117.252341,
              32.756827
            ],
            [
              -117.25257,
              32.752949
            ],
            [
              -117.25537,
              32.745649
            ],
            [
              -117.25517,
              32.73785
            ],
            [
              -117.25726895199995,
              32.73345
            ],
            [
              -117.25576782199994,
              32.72795105000006
            ],
            [
              -117.25836851099996,
              32.72605
            ],
            [
              -117.25596618699996,
              32.71604919400005
            ],
            [
              -117.25707,
              32.71535
            ],
            [
              -117.25537,
              32.70825
            ],
            [
              -117.25566856199998,
              32.69955070800006
            ],
            [
              -117.25306701699998,
              32.69245147700008
            ],
            [
              -117.25036621099997,
              32.68955230700004
            ],
            [
              -117.25036450299996,
              32.68275199900006
            ],
            [
              -117.248869,
              32.682351
            ],
            [
              -117.249267337,
              32.680149812000025
            ],
            [
              -117.247869,
              32.679751
            ],
            [
              -117.245969,
              32.673951
            ],
            [
              -117.245269,
              32.666652
            ],
            [
              -117.24316986399998,
              32.664852576000044
            ],
            [
              -117.238068,
              32.666752
            ],
            [
              -117.236268,
              32.671352
            ],
            [
              -117.23857116699998,
              32.681049347000055
            ],
            [
              -117.233268738,
              32.685951233000026
            ],
            [
              -117.235369,
              32.685351
            ],
            [
              -117.238169,
              32.687651
            ],
            [
              -117.239869,
              32.693251
            ],
            [
              -117.23957061799996,
              32.69915008500004
            ],
            [
              -117.236369,
              32.704151
            ],
            [
              -117.237169,
              32.71155
            ],
            [
              -117.23316960999995,
              32.715149146000044
            ],
            [
              -117.236469,
              32.71465
            ],
            [
              -117.23387145999999,
              32.71825027500006
            ],
            [
              -117.22936996499999,
              32.71825042900008
            ],
            [
              -117.227669,
              32.72025
            ],
            [
              -117.223668,
              32.71815
            ],
            [
              -117.23496884099995,
              32.70825123900005
            ],
            [
              -117.232469,
              32.708351
            ],
            [
              -117.220468,
              32.71935
            ],
            [
              -117.22286987299998,
              32.71844863900003
            ],
            [
              -117.228069,
              32.72155
            ],
            [
              -117.226969,
              32.72495
            ],
            [
              -117.21515702299996,
              32.72174461000003
            ],
            [
              -117.21527099599996,
              32.72834396400003
            ],
            [
              -117.213939,
              32.728619
            ],
            [
              -117.198868,
              32.72905
            ],
            [
              -117.197667,
              32.72735
            ],
            [
              -117.21336879699999,
              32.72465159400008
            ],
            [
              -117.197667,
              32.72535
            ],
            [
              -117.189067,
              32.72395
            ],
            [
              -117.19596862799995,
              32.726848602000075
            ],
            [
              -117.18656921399997,
              32.728450775000056
            ],
            [
              -117.18506622299998,
              32.72835159300007
            ],
            [
              -117.185493469,
              32.726600647000055
            ],
            [
              -117.180867,
              32.72585
            ],
            [
              -117.179967,
              32.72735
            ],
            [
              -117.17586517299998,
              32.727149963000045
            ],
            [
              -117.174467,
              32.72585
            ],
            [
              -117.173666,
              32.718151
            ],
            [
              -117.17686462399996,
              32.718151
            ],
            [
              -117.17696380599995,
              32.715551
            ],
            [
              -117.173666,
              32.714951
            ],
            [
              -117.17706693199995,
              32.714351547000035
            ],
            [
              -117.173666,
              32.714251
            ],
            [
              -117.17586517299998,
              32.711750031000065
            ],
            [
              -117.173466,
              32.712451
            ],
            [
              -117.17206572899994,
              32.70785140700008
            ],
            [
              -117.16973876999998,
              32.708518982000044
            ],
            [
              -117.168,
              32.707001
            ],
            [
              -117.16893768299997,
              32.708568573000036
            ],
            [
              -117.16756439199997,
              32.70865249600007
            ],
            [
              -117.164395,
              32.706425
            ],
            [
              -117.16702087399995,
              32.70668047600003
            ],
            [
              -117.16664,
              32.705497
            ],
            [
              -117.16488647499995,
              32.70438003500004
            ],
            [
              -117.163598,
              32.705865
            ],
            [
              -117.157995,
              32.70216
            ],
            [
              -117.16055081399998,
              32.701365072000044
            ],
            [
              -117.15369443599997,
              32.69685382400007
            ],
            [
              -117.152372,
              32.697551
            ],
            [
              -117.14196661399995,
              32.69035361400006
            ],
            [
              -117.136265,
              32.688852
            ],
            [
              -117.138665,
              32.686952
            ],
            [
              -117.129164,
              32.688352
            ],
            [
              -117.13396315499995,
              32.68735131400007
            ],
            [
              -117.13236236599994,
              32.68605041500007
            ],
            [
              -117.13516235399999,
              32.684452057000044
            ],
            [
              -117.132514174,
              32.68180517300004
            ],
            [
              -117.12866210899995,
              32.68414306600005
            ],
            [
              -117.12506103499999,
              32.679351807000046
            ],
            [
              -117.135962926,
              32.67895130200003
            ],
            [
              -117.131964,
              32.676352
            ],
            [
              -117.118560791,
              32.606269836000024
            ],
            [
              -117.10526275599995,
              32.60295486500007
            ],
            [
              -117.097464,
              32.604458
            ],
            [
              -117.098821,
              32.594402
            ],
            [
              -117.106753,
              32.588465
            ],
            [
              -117.121463,
              32.592855
            ],
            [
              -117.123063,
              32.604054
            ],
            [
              -117.13016509999994,
              32.60695266700003
            ],
            [
              -117.132965088,
              32.61025238000008
            ],
            [
              -117.132363,
              32.615654
            ],
            [
              -117.12826538099995,
              32.61965560900006
            ],
            [
              -117.12906344899994,
              32.62065355100003
            ],
            [
              -117.129263,
              32.619654
            ],
            [
              -117.131163,
              32.617954
            ],
            [
              -117.129863,
              32.619454
            ],
            [
              -117.132064819,
              32.618652344000054
            ],
            [
              -117.13056182899999,
              32.62145233200005
            ],
            [
              -117.133464,
              32.618954
            ],
            [
              -117.13356780999999,
              32.622455597000055
            ],
            [
              -117.13216310499996,
              32.62085415800004
            ],
            [
              -117.13086700399998,
              32.62365341200007
            ],
            [
              -117.12876326299994,
              32.62205520500004
            ],
            [
              -117.129963,
              32.627554
            ],
            [
              -117.13085937499994,
              32.624153137000064
            ],
            [
              -117.13346094299999,
              32.625354204000075
            ],
            [
              -117.133764,
              32.623154
            ],
            [
              -117.13586425799997,
              32.62605285600006
            ],
            [
              -117.132064819,
              32.62585449200003
            ],
            [
              -117.132164419,
              32.627054
            ],
            [
              -117.13456726099997,
              32.626655579000044
            ],
            [
              -117.133264,
              32.62715509100008
            ],
            [
              -117.13456726099997,
              32.628154755000025
            ],
            [
              -117.131664522,
              32.62925295500003
            ],
            [
              -117.13446807899999,
              32.62925338700006
            ],
            [
              -117.13136392999996,
              32.63055386000008
            ],
            [
              -117.13526153599997,
              32.629852295000035
            ],
            [
              -117.13536071799996,
              32.626552582000045
            ],
            [
              -117.13586425799997,
              32.62995147700008
            ],
            [
              -117.137268066,
              32.63015365600006
            ],
            [
              -117.13176727299998,
              32.63145446800007
            ],
            [
              -117.13316371999997,
              32.63305268000005
            ],
            [
              -117.138764,
              32.631153
            ],
            [
              -117.14116668699995,
              32.63705444300007
            ],
            [
              -117.13866426699997,
              32.63855353400004
            ],
            [
              -117.14566802999997,
              32.651752472000055
            ],
            [
              -117.149065,
              32.650953
            ],
            [
              -117.14756774899996,
              32.65475463900003
            ],
            [
              -117.14866634999998,
              32.65635295000004
            ],
            [
              -117.15246581999997,
              32.65685272200005
            ],
            [
              -117.160965,
              32.668352
            ],
            [
              -117.160365,
              32.671752
            ],
            [
              -117.153965,
              32.678152
            ],
            [
              -117.157367,
              32.680727
            ],
            [
              -117.15936279299996,
              32.679351807000046
            ],
            [
              -117.16016450799998,
              32.68025144600006
            ],
            [
              -117.16566467299998,
              32.674751282000045
            ],
            [
              -117.16865,
              32.675417
            ],
            [
              -117.17516326899994,
              32.68144226100003
            ],
            [
              -117.17186737099996,
              32.682453156000065
            ],
            [
              -117.169266,
              32.679352
            ],
            [
              -117.16716765499996,
              32.67985160600006
            ],
            [
              -117.165866,
              32.689552
            ],
            [
              -117.163966,
              32.693051
            ],
            [
              -117.165267944,
              32.69594955400004
            ],
            [
              -117.16826629599996,
              32.69915008500004
            ],
            [
              -117.19136810299995,
              32.70664978000008
            ],
            [
              -117.19026946999998,
              32.71224975600006
            ],
            [
              -117.188467,
              32.711651
            ],
            [
              -117.18967437699996,
              32.70693206800007
            ],
            [
              -117.187067,
              32.711351
            ],
            [
              -117.19169616699998,
              32.71568298300008
            ],
            [
              -117.202468,
              32.716151
            ],
            [
              -117.21416473399995,
              32.71305084200003
            ],
            [
              -117.226468,
              32.701651
            ],
            [
              -117.228368,
              32.687251
            ],
            [
              -117.223768,
              32.685051
            ],
            [
              -117.22386789599994,
              32.68305307400004
            ],
            [
              -117.21306610099998,
              32.687751770000034
            ],
            [
              -117.196767,
              32.688851
            ],
            [
              -117.180366,
              32.681652
            ],
            [
              -117.17896270799997,
              32.67965316800007
            ],
            [
              -117.18066399499997,
              32.678951332000054
            ],
            [
              -117.176766,
              32.678452
            ],
            [
              -117.168866,
              32.671952
            ],
            [
              -117.15166473399995,
              32.64795303300008
            ],
            [
              -117.13806152299998,
              32.623355865000065
            ],
            [
              -117.132963,
              32.597054
            ],
            [
              -117.133659363,
              32.565254211000024
            ],
            [
              -117.131863,
              32.557656
            ],
            [
              -117.12970133099998,
              32.555585507000046
            ],
            [
              -117.12860870399999,
              32.556415558000026
            ],
            [
              -117.13026428199998,
              32.557754517000035
            ],
            [
              -117.130563,
              32.559556
            ],
            [
              -117.127662397,
              32.55865605500003
            ],
            [
              -117.12586,
              32.563962
            ],
            [
              -117.12682296899999,
              32.558698151000044
            ],
            [
              -117.11926269499997,
              32.557754517000035
            ],
            [
              -117.127762,
              32.558456
            ],
            [
              -117.12966155999999,
              32.55735778800005
            ],
            [
              -117.123162,
              32.557656
            ],
            [
              -117.12126159699994,
              32.556957245000035
            ],
            [
              -117.122662,
              32.55585600100005
            ],
            [
              -117.12084197999997,
              32.554557800000055
            ],
            [
              -117.116412,
              32.555009
            ],
            [
              -117.10603332499994,
              32.553825378000056
            ],
            [
              -117.10805511499996,
              32.55171585100004
            ],
            [
              -117.110862,
              32.551956
            ],
            [
              -117.11606597899998,
              32.55435562100007
            ],
            [
              -117.12116241499996,
              32.55395507800006
            ],
            [
              -117.124862,
              32.556956
            ],
            [
              -117.12725849399999,
              32.55665563100007
            ],
            [
              -117.12686157199994,
              32.55225753800005
            ],
            [
              -117.125102,
              32.552011
            ],
            [
              -117.12396240199996,
              32.55465698200004
            ],
            [
              -117.12456185199994,
              32.552056185000026
            ],
            [
              -117.120862,
              32.552356
            ],
            [
              -117.11834716799996,
              32.549167633000025
            ],
            [
              -117.11913299599996,
              32.54796981800007
            ],
            [
              -117.119662,
              32.550756
            ],
            [
              -117.123262,
              32.551856
            ],
            [
              -117.12464141799995,
              32.551338196000074
            ],
            [
              -117.123405457,
              32.547454834000064
            ],
            [
              -117.12541961699998,
              32.546905518000074
            ],
            [
              -117.12418365499997,
              32.54962539700006
            ],
            [
              -117.125800987,
              32.55118423000005
            ],
            [
              -117.126309,
              32.547967
            ],
            [
              -117.12818908699995,
              32.555755615000066
            ],
            [
              -117.129583,
              32.555057
            ],
            [
              -117.12606048599997,
              32.54405593900003
            ],
            [
              -117.124862,
              32.534156
            ],
            [
              -117.32933363799998,
              32.51467526500005
            ]
          ]
        ]
      }
    }
  ],
  "metadata": {
    "schema_version": "0.1.0",
    "wfo": "SGX",
    "layer": "marine_zones",
    "source": "https://www.weather.gov/source/gis/Shapefiles/WSOM/mz16ap26.zip",
    "public_release_status": "public-source-derived"
  }
}