{
  "type": "FeatureCollection",
  "metadata": {
    "schema_version": "0.2.0",
    "year": 2026,
    "month": 4,
    "wfo": "PSR",
    "start_utc": "2026-04-01T00:00:00Z",
    "end_utc": "2026-05-01T00:00:00Z",
    "generated_utc": "2026-05-27T21:21:40Z",
    "mode": "storm_data_prep",
    "public_release_status": "public-source-derived",
    "source": "https://mesonet.agron.iastate.edu/cgi-bin/request/gis/lsr.py?wfo=PSR&sts=2026-04-01T00%3A00%3A00Z&ets=2026-05-01T00%3A00%3A00Z&fmt=csv"
  },
  "features": [
    {
      "type": "Feature",
      "id": "iem-lsr-PSR-1",
      "properties": {
        "report_id": "iem-lsr-PSR-1",
        "report_type": "NON-TSTM WND GST",
        "event_category": "thunderstorm_wind",
        "valid_utc": "202604031443",
        "county_or_zone": "Riverside",
        "city": "7 NNW Ripley",
        "state": "CA",
        "magnitude": 62.0,
        "magnitude_units": null,
        "source": "ASOS",
        "event_narrative": "ASOS station KBLH 7 NNW Ripley."
      },
      "geometry": {
        "type": "Point",
        "coordinates": [
          -114.72,
          33.62
        ]
      }
    },
    {
      "type": "Feature",
      "id": "iem-lsr-PSR-2",
      "properties": {
        "report_id": "iem-lsr-PSR-2",
        "report_type": "NON-TSTM WND GST",
        "event_category": "thunderstorm_wind",
        "valid_utc": "202604171552",
        "county_or_zone": "Riverside",
        "city": "7 NNW Ripley",
        "state": "CA",
        "magnitude": 60.0,
        "magnitude_units": null,
        "source": "AWOS",
        "event_narrative": "AWOS station KBLH 7 NNW Ripley."
      },
      "geometry": {
        "type": "Point",
        "coordinates": [
          -114.72,
          33.62
        ]
      }
    }
  ]
}