{
  "type": "FeatureCollection",
  "metadata": {
    "schema_version": "0.2.4",
    "year": 2026,
    "month": 8,
    "wfo": "RNK",
    "start_utc": "2026-08-01T00:00:00Z",
    "end_utc": "2026-09-01T00:00:00Z",
    "generated_utc": "2026-08-02T10:49:33Z",
    "mode": "storm_data_prep",
    "public_release_status": "public-source-derived",
    "time_note": "Storm Data entry times should be reviewed in local Standard Time (ST), not daylight time. Candidate reports include standard_time_display.",
    "tornado_track_policy": "Tornado tracks must come from DAT. NCEI begin/end coordinates are not used as a tornado track substitute.",
    "source": "https://mesonet.agron.iastate.edu/cgi-bin/request/gis/lsr.py?wfo=RNK&sts=2026-08-01T00%3A00%3A00Z&ets=2026-09-01T00%3A00%3A00Z&fmt=csv"
  },
  "features": [
    {
      "type": "Feature",
      "id": "iem-lsr-RNK-1",
      "properties": {
        "report_id": "iem-lsr-RNK-1",
        "report_type": "FLASH FLOOD",
        "event_category": "flooding",
        "valid_utc": "202608020200",
        "standard_time_display": "2026-08-01 21:00 EST",
        "wfo": "RNK",
        "county_or_zone": "Surry",
        "city": "4 SSW Pilot Mountain",
        "state": "NC",
        "magnitude": null,
        "magnitude_units": null,
        "source": "911 Call Center",
        "event_narrative": "Running water has completely flooded Shoals Road and made it impassable just south of its intersection with Fulks Lane."
      },
      "geometry": {
        "type": "Point",
        "coordinates": [
          -80.5,
          36.33
        ]
      }
    },
    {
      "type": "Feature",
      "id": "iem-lsr-RNK-2",
      "properties": {
        "report_id": "iem-lsr-RNK-2",
        "report_type": "FLASH FLOOD",
        "event_category": "flooding",
        "valid_utc": "202608020226",
        "standard_time_display": "2026-08-01 21:26 EST",
        "wfo": "RNK",
        "county_or_zone": "Surry",
        "city": "3 N Flat Rock",
        "state": "NC",
        "magnitude": null,
        "magnitude_units": null,
        "source": "911 Call Center",
        "event_narrative": "Road washout reported near the intersection of Willis Gap Road and Riverside Drive."
      },
      "geometry": {
        "type": "Point",
        "coordinates": [
          -80.58,
          36.54
        ]
      }
    },
    {
      "type": "Feature",
      "id": "iem-lsr-RNK-3",
      "properties": {
        "report_id": "iem-lsr-RNK-3",
        "report_type": "FLASH FLOOD",
        "event_category": "flooding",
        "valid_utc": "202608020246",
        "standard_time_display": "2026-08-01 21:46 EST",
        "wfo": "RNK",
        "county_or_zone": "Surry",
        "city": "1 E Flat Rock",
        "state": "NC",
        "magnitude": null,
        "magnitude_units": null,
        "source": "911 Call Center",
        "event_narrative": "Flooding reported at the intersection of Deatherage Road and Quaker Road near Faulkner Creek."
      },
      "geometry": {
        "type": "Point",
        "coordinates": [
          -80.57,
          36.51
        ]
      }
    },
    {
      "type": "Feature",
      "id": "iem-lsr-RNK-4",
      "properties": {
        "report_id": "iem-lsr-RNK-4",
        "report_type": "FLASH FLOOD",
        "event_category": "flooding",
        "valid_utc": "202608020252",
        "standard_time_display": "2026-08-01 21:52 EST",
        "wfo": "RNK",
        "county_or_zone": "Surry",
        "city": "3 SW Pilot Mountain",
        "state": "NC",
        "magnitude": null,
        "magnitude_units": null,
        "source": "911 Call Center",
        "event_narrative": "Bridge under water on Jim McKinney Road over Pilot Creek."
      },
      "geometry": {
        "type": "Point",
        "coordinates": [
          -80.51,
          36.35
        ]
      }
    },
    {
      "type": "Feature",
      "id": "iem-lsr-RNK-5",
      "properties": {
        "report_id": "iem-lsr-RNK-5",
        "report_type": "FLASH FLOOD",
        "event_category": "flooding",
        "valid_utc": "202608020320",
        "standard_time_display": "2026-08-01 22:20 EST",
        "wfo": "RNK",
        "county_or_zone": "Surry",
        "city": "1 E Flat Rock",
        "state": "NC",
        "magnitude": null,
        "magnitude_units": null,
        "source": "911 Call Center",
        "event_narrative": "Several cars stuck in high water east of Mount Airy with rescues ongoing."
      },
      "geometry": {
        "type": "Point",
        "coordinates": [
          -80.57,
          36.51
        ]
      }
    },
    {
      "type": "Feature",
      "id": "iem-lsr-RNK-6",
      "properties": {
        "report_id": "iem-lsr-RNK-6",
        "report_type": "FLASH FLOOD",
        "event_category": "flooding",
        "valid_utc": "202608020322",
        "standard_time_display": "2026-08-01 22:22 EST",
        "wfo": "RNK",
        "county_or_zone": "Surry",
        "city": "1 SW Woodville",
        "state": "NC",
        "magnitude": null,
        "magnitude_units": null,
        "source": "911 Call Center",
        "event_narrative": "Water coming in the front door of the house."
      },
      "geometry": {
        "type": "Point",
        "coordinates": [
          -80.5,
          36.49
        ]
      }
    },
    {
      "type": "Feature",
      "id": "iem-lsr-RNK-7",
      "properties": {
        "report_id": "iem-lsr-RNK-7",
        "report_type": "FLASH FLOOD",
        "event_category": "flooding",
        "valid_utc": "202608020325",
        "standard_time_display": "2026-08-01 22:25 EST",
        "wfo": "RNK",
        "county_or_zone": "Surry",
        "city": "Pilot Mountain",
        "state": "NC",
        "magnitude": null,
        "magnitude_units": null,
        "source": "911 Call Center",
        "event_narrative": "Numerous roads under fast flowing water and impassable_ including Toms Creek Church Road_ Bryan Road_ and Cleo Cain Road."
      },
      "geometry": {
        "type": "Point",
        "coordinates": [
          -80.47,
          36.39
        ]
      }
    },
    {
      "type": "Feature",
      "id": "iem-lsr-RNK-8",
      "properties": {
        "report_id": "iem-lsr-RNK-8",
        "report_type": "FLASH FLOOD",
        "event_category": "flooding",
        "valid_utc": "202608020330",
        "standard_time_display": "2026-08-01 22:30 EST",
        "wfo": "RNK",
        "county_or_zone": "Surry",
        "city": "Mount Airy",
        "state": "NC",
        "magnitude": null,
        "magnitude_units": null,
        "source": "911 Call Center",
        "event_narrative": "Numerous roads flooded and covered with several inches of fast flowing water_ including Aims Avenue_ Cook School Road_ Pine Street_ Reeves Mill Road_ Indian Grove Church Road_ Westfield Road_ Blue Ho"
      },
      "geometry": {
        "type": "Point",
        "coordinates": [
          -80.61,
          36.5
        ]
      }
    },
    {
      "type": "Feature",
      "id": "iem-lsr-RNK-9",
      "properties": {
        "report_id": "iem-lsr-RNK-9",
        "report_type": "FLASH FLOOD",
        "event_category": "flooding",
        "valid_utc": "202608020343",
        "standard_time_display": "2026-08-01 22:43 EST",
        "wfo": "RNK",
        "county_or_zone": "Surry",
        "city": "1 NW Flat Rock",
        "state": "NC",
        "magnitude": null,
        "magnitude_units": null,
        "source": "911 Call Center",
        "event_narrative": "House has been flooded by a nearby creek."
      },
      "geometry": {
        "type": "Point",
        "coordinates": [
          -80.6,
          36.52
        ]
      }
    },
    {
      "type": "Feature",
      "id": "iem-lsr-RNK-10",
      "properties": {
        "report_id": "iem-lsr-RNK-10",
        "report_type": "FLASH FLOOD",
        "event_category": "flooding",
        "valid_utc": "202608020356",
        "standard_time_display": "2026-08-01 22:56 EST",
        "wfo": "RNK",
        "county_or_zone": "Surry",
        "city": "Pilot Mountain",
        "state": "NC",
        "magnitude": null,
        "magnitude_units": null,
        "source": "911 Call Center",
        "event_narrative": "Several vehicle water rescues ongoing in and around town_ including East Pine Street_ Foothill Farm Lane_ Cleo Cain Road."
      },
      "geometry": {
        "type": "Point",
        "coordinates": [
          -80.47,
          36.38
        ]
      }
    },
    {
      "type": "Feature",
      "id": "iem-lsr-RNK-11",
      "properties": {
        "report_id": "iem-lsr-RNK-11",
        "report_type": "FLASH FLOOD",
        "event_category": "flooding",
        "valid_utc": "202608020414",
        "standard_time_display": "2026-08-01 23:14 EST",
        "wfo": "RNK",
        "county_or_zone": "Surry",
        "city": "3 SE Flat Rock",
        "state": "NC",
        "magnitude": null,
        "magnitude_units": null,
        "source": "911 Call Center",
        "event_narrative": "Flooding inside a building on Reeves Mill Road."
      },
      "geometry": {
        "type": "Point",
        "coordinates": [
          -80.56,
          36.48
        ]
      }
    },
    {
      "type": "Feature",
      "id": "iem-lsr-RNK-12",
      "properties": {
        "report_id": "iem-lsr-RNK-12",
        "report_type": "FLASH FLOOD",
        "event_category": "flooding",
        "valid_utc": "202608020415",
        "standard_time_display": "2026-08-01 23:15 EST",
        "wfo": "RNK",
        "county_or_zone": "Surry",
        "city": "1 N Woodville",
        "state": "NC",
        "magnitude": null,
        "magnitude_units": null,
        "source": "911 Call Center",
        "event_narrative": "Bridge on Norman Rd_ near Mt. Airy_ NC is washed out."
      },
      "geometry": {
        "type": "Point",
        "coordinates": [
          -80.48,
          36.52
        ]
      }
    },
    {
      "type": "Feature",
      "id": "iem-lsr-RNK-13",
      "properties": {
        "report_id": "iem-lsr-RNK-13",
        "report_type": "FLASH FLOOD",
        "event_category": "flooding",
        "valid_utc": "202608020415",
        "standard_time_display": "2026-08-01 23:15 EST",
        "wfo": "RNK",
        "county_or_zone": "Surry",
        "city": "3 ENE Woodville",
        "state": "NC",
        "magnitude": null,
        "magnitude_units": null,
        "source": "911 Call Center",
        "event_narrative": "Bridge flooded on Albion Church Rd_ near Martin Rd in Mt. Airy_ NC."
      },
      "geometry": {
        "type": "Point",
        "coordinates": [
          -80.44,
          36.52
        ]
      }
    },
    {
      "type": "Feature",
      "id": "iem-lsr-RNK-14",
      "properties": {
        "report_id": "iem-lsr-RNK-14",
        "report_type": "FLASH FLOOD",
        "event_category": "flooding",
        "valid_utc": "202608020415",
        "standard_time_display": "2026-08-01 23:15 EST",
        "wfo": "RNK",
        "county_or_zone": "Surry",
        "city": "3 NNW Woodville",
        "state": "NC",
        "magnitude": null,
        "magnitude_units": null,
        "source": "911 Call Center",
        "event_narrative": "Road near Slate Mountain Baptist Church being washed off into the creek."
      },
      "geometry": {
        "type": "Point",
        "coordinates": [
          -80.51,
          36.54
        ]
      }
    },
    {
      "type": "Feature",
      "id": "iem-lsr-RNK-15",
      "properties": {
        "report_id": "iem-lsr-RNK-15",
        "report_type": "FLASH FLOOD",
        "event_category": "flooding",
        "valid_utc": "202608020425",
        "standard_time_display": "2026-08-01 23:25 EST",
        "wfo": "RNK",
        "county_or_zone": "Surry",
        "city": "3 ESE Flat Rock",
        "state": "NC",
        "magnitude": null,
        "magnitude_units": null,
        "source": "911 Call Center",
        "event_narrative": "Creek has risen_ surrounding a house on Westfield Rd in Mt. Airy_ NC. Person trapped inside with water entering the home."
      },
      "geometry": {
        "type": "Point",
        "coordinates": [
          -80.54,
          36.49
        ]
      }
    },
    {
      "type": "Feature",
      "id": "iem-lsr-RNK-16",
      "properties": {
        "report_id": "iem-lsr-RNK-16",
        "report_type": "FLASH FLOOD",
        "event_category": "flooding",
        "valid_utc": "202608020430",
        "standard_time_display": "2026-08-01 23:30 EST",
        "wfo": "RNK",
        "county_or_zone": "Surry",
        "city": "1 E Mount Airy",
        "state": "NC",
        "magnitude": null,
        "magnitude_units": null,
        "source": "911 Call Center",
        "event_narrative": "Riverside Park and adjacent Riverside Drive in Mt. Airy_ NC are flooded."
      },
      "geometry": {
        "type": "Point",
        "coordinates": [
          -80.6,
          36.5
        ]
      }
    },
    {
      "type": "Feature",
      "id": "iem-lsr-RNK-17",
      "properties": {
        "report_id": "iem-lsr-RNK-17",
        "report_type": "FLASH FLOOD",
        "event_category": "flooding",
        "valid_utc": "202608020435",
        "standard_time_display": "2026-08-01 23:35 EST",
        "wfo": "RNK",
        "county_or_zone": "Surry",
        "city": "1 E Mount Airy",
        "state": "NC",
        "magnitude": null,
        "magnitude_units": null,
        "source": "911 Call Center",
        "event_narrative": "E Pine Street near Riverside Drive in Mt. Airy_ NC is flooded."
      },
      "geometry": {
        "type": "Point",
        "coordinates": [
          -80.6,
          36.5
        ]
      }
    },
    {
      "type": "Feature",
      "id": "iem-lsr-RNK-18",
      "properties": {
        "report_id": "iem-lsr-RNK-18",
        "report_type": "FLASH FLOOD",
        "event_category": "flooding",
        "valid_utc": "202608020440",
        "standard_time_display": "2026-08-01 23:40 EST",
        "wfo": "RNK",
        "county_or_zone": "Surry",
        "city": "1 NE Woodville",
        "state": "NC",
        "magnitude": null,
        "magnitude_units": null,
        "source": "911 Call Center",
        "event_narrative": "Woodville Rd near Mt. Airy is flooded."
      },
      "geometry": {
        "type": "Point",
        "coordinates": [
          -80.47,
          36.51
        ]
      }
    },
    {
      "type": "Feature",
      "id": "iem-lsr-RNK-19",
      "properties": {
        "report_id": "iem-lsr-RNK-19",
        "report_type": "FLASH FLOOD",
        "event_category": "flooding",
        "valid_utc": "202608020445",
        "standard_time_display": "2026-08-01 23:45 EST",
        "wfo": "RNK",
        "county_or_zone": "Surry",
        "city": "1 ENE Woodville",
        "state": "NC",
        "magnitude": null,
        "magnitude_units": null,
        "source": "911 Call Center",
        "event_narrative": "Campbell Rd near Mt. Airy_ NC is washed out."
      },
      "geometry": {
        "type": "Point",
        "coordinates": [
          -80.46,
          36.5
        ]
      }
    },
    {
      "type": "Feature",
      "id": "iem-lsr-RNK-20",
      "properties": {
        "report_id": "iem-lsr-RNK-20",
        "report_type": "FLASH FLOOD",
        "event_category": "flooding",
        "valid_utc": "202608020445",
        "standard_time_display": "2026-08-01 23:45 EST",
        "wfo": "RNK",
        "county_or_zone": "Stokes",
        "city": "2 WSW Francisco",
        "state": "NC",
        "magnitude": null,
        "magnitude_units": null,
        "source": "911 Call Center",
        "event_narrative": "Frans Rd in Stokes_ NC is flooded."
      },
      "geometry": {
        "type": "Point",
        "coordinates": [
          -80.4,
          36.49
        ]
      }
    },
    {
      "type": "Feature",
      "id": "iem-lsr-RNK-21",
      "properties": {
        "report_id": "iem-lsr-RNK-21",
        "report_type": "FLASH FLOOD",
        "event_category": "flooding",
        "valid_utc": "202608020500",
        "standard_time_display": "2026-08-02 00:00 EST",
        "wfo": "RNK",
        "county_or_zone": "Surry",
        "city": "1 SW Flat Rock",
        "state": "NC",
        "magnitude": null,
        "magnitude_units": null,
        "source": "911 Call Center",
        "event_narrative": "Hamburg Street near the Middle School in Mt Airy_ NC is flooded and impassable."
      },
      "geometry": {
        "type": "Point",
        "coordinates": [
          -80.59,
          36.5
        ]
      }
    },
    {
      "type": "Feature",
      "id": "iem-lsr-RNK-22",
      "properties": {
        "report_id": "iem-lsr-RNK-22",
        "report_type": "FLASH FLOOD",
        "event_category": "flooding",
        "valid_utc": "202608020500",
        "standard_time_display": "2026-08-02 00:00 EST",
        "wfo": "RNK",
        "county_or_zone": "Stokes",
        "city": "2 W Francisco",
        "state": "NC",
        "magnitude": null,
        "magnitude_units": null,
        "source": "911 Call Center",
        "event_narrative": "Christian Rd in Stokes_ NC is flooded."
      },
      "geometry": {
        "type": "Point",
        "coordinates": [
          -80.41,
          36.5
        ]
      }
    },
    {
      "type": "Feature",
      "id": "iem-lsr-RNK-23",
      "properties": {
        "report_id": "iem-lsr-RNK-23",
        "report_type": "FLASH FLOOD",
        "event_category": "flooding",
        "valid_utc": "202608020500",
        "standard_time_display": "2026-08-02 00:00 EST",
        "wfo": "RNK",
        "county_or_zone": "Surry",
        "city": "3 ESE Flat Rock",
        "state": "NC",
        "magnitude": null,
        "magnitude_units": null,
        "source": "911 Call Center",
        "event_narrative": "Indian Grove Church Road near the intersection at Westfield Rd in Mt. Airy_ NC is flooded."
      },
      "geometry": {
        "type": "Point",
        "coordinates": [
          -80.54,
          36.5
        ]
      }
    },
    {
      "type": "Feature",
      "id": "iem-lsr-RNK-24",
      "properties": {
        "report_id": "iem-lsr-RNK-24",
        "report_type": "FLASH FLOOD",
        "event_category": "flooding",
        "valid_utc": "202608020500",
        "standard_time_display": "2026-08-02 00:00 EST",
        "wfo": "RNK",
        "county_or_zone": "Carroll",
        "city": "3 SSE Laurel Fork",
        "state": "VA",
        "magnitude": null,
        "magnitude_units": null,
        "source": "911 Call Center",
        "event_narrative": "Bellspur Road is flooded and impassable near the intersection at Woodstock Rd in Laurel Fork_ VA."
      },
      "geometry": {
        "type": "Point",
        "coordinates": [
          -80.5,
          36.68
        ]
      }
    },
    {
      "type": "Feature",
      "id": "iem-lsr-RNK-25",
      "properties": {
        "report_id": "iem-lsr-RNK-25",
        "report_type": "FLASH FLOOD",
        "event_category": "flooding",
        "valid_utc": "202608020500",
        "standard_time_display": "2026-08-02 00:00 EST",
        "wfo": "RNK",
        "county_or_zone": "Carroll",
        "city": "Laurel Fork",
        "state": "VA",
        "magnitude": null,
        "magnitude_units": null,
        "source": "911 Call Center",
        "event_narrative": "One water rescue after a car drove into flood waters."
      },
      "geometry": {
        "type": "Point",
        "coordinates": [
          -80.52,
          36.72
        ]
      }
    },
    {
      "type": "Feature",
      "id": "iem-lsr-RNK-26",
      "properties": {
        "report_id": "iem-lsr-RNK-26",
        "report_type": "FLASH FLOOD",
        "event_category": "flooding",
        "valid_utc": "202608020505",
        "standard_time_display": "2026-08-02 00:05 EST",
        "wfo": "RNK",
        "county_or_zone": "Surry",
        "city": "3 SE Flat Rock",
        "state": "NC",
        "magnitude": null,
        "magnitude_units": null,
        "source": "911 Call Center",
        "event_narrative": "Reeves Mill Rd is flooded at Rutledge Creek."
      },
      "geometry": {
        "type": "Point",
        "coordinates": [
          -80.55,
          36.48
        ]
      }
    },
    {
      "type": "Feature",
      "id": "iem-lsr-RNK-27",
      "properties": {
        "report_id": "iem-lsr-RNK-27",
        "report_type": "FLASH FLOOD",
        "event_category": "flooding",
        "valid_utc": "202608020505",
        "standard_time_display": "2026-08-02 00:05 EST",
        "wfo": "RNK",
        "county_or_zone": "Surry",
        "city": "Flat Rock",
        "state": "NC",
        "magnitude": null,
        "magnitude_units": null,
        "source": "911 Call Center",
        "event_narrative": "Linville Rd is flooded near the intersection at Slate Rd in Mt Airy_ NC."
      },
      "geometry": {
        "type": "Point",
        "coordinates": [
          -80.59,
          36.51
        ]
      }
    },
    {
      "type": "Feature",
      "id": "iem-lsr-RNK-28",
      "properties": {
        "report_id": "iem-lsr-RNK-28",
        "report_type": "FLASH FLOOD",
        "event_category": "flooding",
        "valid_utc": "202608020525",
        "standard_time_display": "2026-08-02 00:25 EST",
        "wfo": "RNK",
        "county_or_zone": "Stokes",
        "city": "3 W Francisco",
        "state": "NC",
        "magnitude": null,
        "magnitude_units": null,
        "source": "911 Call Center",
        "event_narrative": "Old Asbury Rd in Stokes_ NC is flooded."
      },
      "geometry": {
        "type": "Point",
        "coordinates": [
          -80.42,
          36.5
        ]
      }
    },
    {
      "type": "Feature",
      "id": "iem-lsr-RNK-29",
      "properties": {
        "report_id": "iem-lsr-RNK-29",
        "report_type": "FLASH FLOOD",
        "event_category": "flooding",
        "valid_utc": "202608020530",
        "standard_time_display": "2026-08-02 00:30 EST",
        "wfo": "RNK",
        "county_or_zone": "Surry",
        "city": "Ararat",
        "state": "NC",
        "magnitude": null,
        "magnitude_units": null,
        "source": "911 Call Center",
        "event_narrative": "Road is flooded near the intersection of Radar Rd and Ararat Rd in Ararat_ NC."
      },
      "geometry": {
        "type": "Point",
        "coordinates": [
          -80.56,
          36.4
        ]
      }
    },
    {
      "type": "Feature",
      "id": "iem-lsr-RNK-30",
      "properties": {
        "report_id": "iem-lsr-RNK-30",
        "report_type": "FLASH FLOOD",
        "event_category": "flooding",
        "valid_utc": "202608020550",
        "standard_time_display": "2026-08-02 00:50 EST",
        "wfo": "RNK",
        "county_or_zone": "Surry",
        "city": "2 ENE Woodville",
        "state": "NC",
        "magnitude": null,
        "magnitude_units": null,
        "source": "911 Call Center",
        "event_narrative": "Mud slide near the intersection of Woodville Rd and Caterpillar Trail in Mt Airy_ NC."
      },
      "geometry": {
        "type": "Point",
        "coordinates": [
          -80.46,
          36.51
        ]
      }
    },
    {
      "type": "Feature",
      "id": "iem-lsr-RNK-31",
      "properties": {
        "report_id": "iem-lsr-RNK-31",
        "report_type": "FLASH FLOOD",
        "event_category": "flooding",
        "valid_utc": "202608020600",
        "standard_time_display": "2026-08-02 01:00 EST",
        "wfo": "RNK",
        "county_or_zone": "Surry",
        "city": "2 NNE Flat Rock",
        "state": "NC",
        "magnitude": null,
        "magnitude_units": null,
        "source": "911 Call Center",
        "event_narrative": "Road is flooded near the intersection of White Sulphur Springs Rd and Riverside Dr in Mt Airy_ NC."
      },
      "geometry": {
        "type": "Point",
        "coordinates": [
          -80.57,
          36.54
        ]
      }
    },
    {
      "type": "Feature",
      "id": "iem-lsr-RNK-32",
      "properties": {
        "report_id": "iem-lsr-RNK-32",
        "report_type": "FLASH FLOOD",
        "event_category": "flooding",
        "valid_utc": "202608020615",
        "standard_time_display": "2026-08-02 01:15 EST",
        "wfo": "RNK",
        "county_or_zone": "Surry",
        "city": "1 NNW Woodville",
        "state": "NC",
        "magnitude": null,
        "magnitude_units": null,
        "source": "911 Call Center",
        "event_narrative": "Slate Mountain Rd near Big Creek is flooded."
      },
      "geometry": {
        "type": "Point",
        "coordinates": [
          -80.49,
          36.51
        ]
      }
    },
    {
      "type": "Feature",
      "id": "iem-lsr-RNK-33",
      "properties": {
        "report_id": "iem-lsr-RNK-33",
        "report_type": "FLASH FLOOD",
        "event_category": "flooding",
        "valid_utc": "202608020700",
        "standard_time_display": "2026-08-02 02:00 EST",
        "wfo": "RNK",
        "county_or_zone": "Surry",
        "city": "1 WSW Flat Rock",
        "state": "NC",
        "magnitude": null,
        "magnitude_units": null,
        "source": "911 Call Center",
        "event_narrative": "Corrects previous flash flood report from 1 WSW Flat Rock. House is flooded on Efland Lane with cars in the water in Mt. Airy_ NC. Water rescue is ongoing."
      },
      "geometry": {
        "type": "Point",
        "coordinates": [
          -80.6,
          36.5
        ]
      }
    },
    {
      "type": "Feature",
      "id": "iem-lsr-RNK-34",
      "properties": {
        "report_id": "iem-lsr-RNK-34",
        "report_type": "FLASH FLOOD",
        "event_category": "flooding",
        "valid_utc": "202608020700",
        "standard_time_display": "2026-08-02 02:00 EST",
        "wfo": "RNK",
        "county_or_zone": "Surry",
        "city": "1 WSW Flat Rock",
        "state": "NC",
        "magnitude": null,
        "magnitude_units": null,
        "source": "911 Call Center",
        "event_narrative": "House is flooded on Efland Lane with cars in the water in Mt. Airy_ NC."
      },
      "geometry": {
        "type": "Point",
        "coordinates": [
          -80.6,
          36.5
        ]
      }
    },
    {
      "type": "Feature",
      "id": "iem-lsr-RNK-35",
      "properties": {
        "report_id": "iem-lsr-RNK-35",
        "report_type": "FLASH FLOOD",
        "event_category": "flooding",
        "valid_utc": "202608020730",
        "standard_time_display": "2026-08-02 02:30 EST",
        "wfo": "RNK",
        "county_or_zone": "Surry",
        "city": "4 N Woodville",
        "state": "NC",
        "magnitude": null,
        "magnitude_units": null,
        "source": "911 Call Center",
        "event_narrative": "Flooding near the intersection of E Pine Street and Childress Rd in Mt. Airy_ NC."
      },
      "geometry": {
        "type": "Point",
        "coordinates": [
          -80.48,
          36.55
        ]
      }
    },
    {
      "type": "Feature",
      "id": "iem-lsr-RNK-36",
      "properties": {
        "report_id": "iem-lsr-RNK-36",
        "report_type": "FLOOD",
        "event_category": "flooding",
        "valid_utc": "202608020920",
        "standard_time_display": "2026-08-02 04:20 EST",
        "wfo": "RNK",
        "county_or_zone": "Surry",
        "city": "1 SW Flat Rock",
        "state": "NC",
        "magnitude": null,
        "magnitude_units": null,
        "source": "911 Call Center",
        "event_narrative": "Vehicle with persons inside is stuck in flood water on Hamburg Street in Mt. Airy_ NC."
      },
      "geometry": {
        "type": "Point",
        "coordinates": [
          -80.59,
          36.5
        ]
      }
    }
  ]
}