{
  "type": "FeatureCollection",
  "metadata": {
    "schema_version": "0.2.4",
    "year": 2026,
    "month": 3,
    "wfo": "CAE",
    "start_utc": "2026-03-01T00:00:00Z",
    "end_utc": "2026-04-01T00:00:00Z",
    "generated_utc": "2026-05-29T12:30:01Z",
    "mode": "storm_data_prep",
    "public_release_status": "public-source-derived",
    "time_note": "Storm Data entry times should be reviewed in local Standard Time (ST), not daylight time. Candidate reports include standard_time_display.",
    "tornado_track_policy": "Tornado tracks must come from DAT. NCEI begin/end coordinates are not used as a tornado track substitute.",
    "source": "https://mesonet.agron.iastate.edu/cgi-bin/request/gis/lsr.py?wfo=CAE&sts=2026-03-01T00%3A00%3A00Z&ets=2026-04-01T00%3A00%3A00Z&fmt=csv"
  },
  "features": [
    {
      "type": "Feature",
      "id": "iem-lsr-CAE-1",
      "properties": {
        "report_id": "iem-lsr-CAE-1",
        "report_type": "HAIL",
        "event_category": "hail",
        "valid_utc": "202603081915",
        "standard_time_display": "2026-03-08 14:15 EST",
        "wfo": "CAE",
        "county_or_zone": "Sumter",
        "city": "3 NNW Stateburg",
        "state": "SC",
        "magnitude": 0.75,
        "magnitude_units": null,
        "source": "Trained Spotter",
        "event_narrative": "Penny size hail reported."
      },
      "geometry": {
        "type": "Point",
        "coordinates": [
          -80.54,
          34.02
        ]
      }
    },
    {
      "type": "Feature",
      "id": "iem-lsr-CAE-2",
      "properties": {
        "report_id": "iem-lsr-CAE-2",
        "report_type": "TSTM WND DMG",
        "event_category": "thunderstorm_wind",
        "valid_utc": "202603121225",
        "standard_time_display": "2026-03-12 07:25 EST",
        "wfo": "CAE",
        "county_or_zone": "McDuffie",
        "city": "6 S Thomson",
        "state": "GA",
        "magnitude": null,
        "magnitude_units": null,
        "source": "Trained Spotter",
        "event_narrative": "Trained spotter relayed pictures via Facebook of downed trees off of Quail Farm Road near Brier Creek. Time estimated by radar."
      },
      "geometry": {
        "type": "Point",
        "coordinates": [
          -82.49,
          33.38
        ]
      }
    },
    {
      "type": "Feature",
      "id": "iem-lsr-CAE-3",
      "properties": {
        "report_id": "iem-lsr-CAE-3",
        "report_type": "TSTM WND DMG",
        "event_category": "thunderstorm_wind",
        "valid_utc": "202603121228",
        "standard_time_display": "2026-03-12 07:28 EST",
        "wfo": "CAE",
        "county_or_zone": "McDuffie",
        "city": "1 SE Thomson",
        "state": "GA",
        "magnitude": null,
        "magnitude_units": null,
        "source": "911 Call Center",
        "event_narrative": "McDuffie County dispatch reported numerous trees and several power lines down throughout the county."
      },
      "geometry": {
        "type": "Point",
        "coordinates": [
          -82.48,
          33.45
        ]
      }
    },
    {
      "type": "Feature",
      "id": "iem-lsr-CAE-4",
      "properties": {
        "report_id": "iem-lsr-CAE-4",
        "report_type": "TSTM WND DMG",
        "event_category": "thunderstorm_wind",
        "valid_utc": "202603121250",
        "standard_time_display": "2026-03-12 07:50 EST",
        "wfo": "CAE",
        "county_or_zone": "Richmond",
        "city": "2 SE Fort Gordon",
        "state": "GA",
        "magnitude": null,
        "magnitude_units": null,
        "source": "Trained Spotter",
        "event_narrative": "Reports of siding blown off 5 separate houses near the intersection of Garcia Drive and Brainard Avenue in Fort Gordon."
      },
      "geometry": {
        "type": "Point",
        "coordinates": [
          -82.12,
          33.4
        ]
      }
    },
    {
      "type": "Feature",
      "id": "iem-lsr-CAE-5",
      "properties": {
        "report_id": "iem-lsr-CAE-5",
        "report_type": "TSTM WND DMG",
        "event_category": "thunderstorm_wind",
        "valid_utc": "202603121252",
        "standard_time_display": "2026-03-12 07:52 EST",
        "wfo": "CAE",
        "county_or_zone": "Newberry",
        "city": "6 WNW Newberry",
        "state": "SC",
        "magnitude": null,
        "magnitude_units": null,
        "source": "Public",
        "event_narrative": "Trees reported down on Beaver Dam Creek Road."
      },
      "geometry": {
        "type": "Point",
        "coordinates": [
          -81.71,
          34.32
        ]
      }
    },
    {
      "type": "Feature",
      "id": "iem-lsr-CAE-6",
      "properties": {
        "report_id": "iem-lsr-CAE-6",
        "report_type": "TSTM WND DMG",
        "event_category": "thunderstorm_wind",
        "valid_utc": "202603121310",
        "standard_time_display": "2026-03-12 08:10 EST",
        "wfo": "CAE",
        "county_or_zone": "Edgefield",
        "city": "6 SSW Trenton",
        "state": "SC",
        "magnitude": null,
        "magnitude_units": null,
        "source": "Emergency Mngr",
        "event_narrative": "Trees reported down at Bettis Academy School."
      },
      "geometry": {
        "type": "Point",
        "coordinates": [
          -81.86,
          33.66
        ]
      }
    },
    {
      "type": "Feature",
      "id": "iem-lsr-CAE-7",
      "properties": {
        "report_id": "iem-lsr-CAE-7",
        "report_type": "TSTM WND DMG",
        "event_category": "thunderstorm_wind",
        "valid_utc": "202603121333",
        "standard_time_display": "2026-03-12 08:33 EST",
        "wfo": "CAE",
        "county_or_zone": "Aiken",
        "city": "8 ESE Monetta",
        "state": "SC",
        "magnitude": null,
        "magnitude_units": null,
        "source": "Law Enforcement",
        "event_narrative": "SC DPS reported trees down along Huckleberry Finn Road and Holder Road."
      },
      "geometry": {
        "type": "Point",
        "coordinates": [
          -81.49,
          33.79
        ]
      }
    },
    {
      "type": "Feature",
      "id": "iem-lsr-CAE-8",
      "properties": {
        "report_id": "iem-lsr-CAE-8",
        "report_type": "TSTM WND DMG",
        "event_category": "thunderstorm_wind",
        "valid_utc": "202603121351",
        "standard_time_display": "2026-03-12 08:51 EST",
        "wfo": "CAE",
        "county_or_zone": "Richland",
        "city": "2 SSE Ballentine",
        "state": "SC",
        "magnitude": null,
        "magnitude_units": null,
        "source": "Trained Spotter",
        "event_narrative": "Reports of trees snapped at the intersection of Dreher Shoals Road and Garden Brook Drive. Additional trees snapped further down on Leamington Way."
      },
      "geometry": {
        "type": "Point",
        "coordinates": [
          -81.22,
          34.1
        ]
      }
    },
    {
      "type": "Feature",
      "id": "iem-lsr-CAE-9",
      "properties": {
        "report_id": "iem-lsr-CAE-9",
        "report_type": "TORNADO",
        "event_category": "tornado",
        "valid_utc": "202603121352",
        "standard_time_display": "2026-03-12 08:52 EST",
        "wfo": "CAE",
        "county_or_zone": "Richland",
        "city": "2 SSE Ballentine",
        "state": "SC",
        "magnitude": null,
        "magnitude_units": null,
        "source": "NWS Storm Survey",
        "event_narrative": "A NWS Survey Team confirmed a brief EF-0 tornado northwest of Irmo in Richland County_ SC from March 12th 2026. The tornado formed near Dreher Shoals Road and continued east across Lemington Way and"
      },
      "geometry": {
        "type": "Point",
        "coordinates": [
          -81.23,
          34.1
        ]
      }
    },
    {
      "type": "Feature",
      "id": "iem-lsr-CAE-10",
      "properties": {
        "report_id": "iem-lsr-CAE-10",
        "report_type": "TSTM WND GST",
        "event_category": "thunderstorm_wind",
        "valid_utc": "202603121353",
        "standard_time_display": "2026-03-12 08:53 EST",
        "wfo": "CAE",
        "county_or_zone": "Aiken",
        "city": "Wagener",
        "state": "SC",
        "magnitude": 65.0,
        "magnitude_units": null,
        "source": "Fire Dept/Rescue",
        "event_narrative": "Aiken County EMS member reported a measured gust of 65 mph and described witnessing a downburst near Roy Street in Wagener. Time estimated by radar."
      },
      "geometry": {
        "type": "Point",
        "coordinates": [
          -81.36,
          33.65
        ]
      }
    },
    {
      "type": "Feature",
      "id": "iem-lsr-CAE-11",
      "properties": {
        "report_id": "iem-lsr-CAE-11",
        "report_type": "TORNADO",
        "event_category": "tornado",
        "valid_utc": "202603121353",
        "standard_time_display": "2026-03-12 08:53 EST",
        "wfo": "CAE",
        "county_or_zone": "Lexington",
        "city": "1 SW Lake Murray Dam",
        "state": "SC",
        "magnitude": null,
        "magnitude_units": null,
        "source": "Public",
        "event_narrative": "Public reported video of a tornadic waterspout over Lake Murray near the Saluda Dam associated with a severe thunderstorm and strong velocity couplet from KCAE radar. The tornado did not cause any no"
      },
      "geometry": {
        "type": "Point",
        "coordinates": [
          -81.23,
          34.05
        ]
      }
    },
    {
      "type": "Feature",
      "id": "iem-lsr-CAE-12",
      "properties": {
        "report_id": "iem-lsr-CAE-12",
        "report_type": "WATERSPOUT",
        "event_category": "tornado",
        "valid_utc": "202603121353",
        "standard_time_display": "2026-03-12 08:53 EST",
        "wfo": "CAE",
        "county_or_zone": "Lexington",
        "city": "Lake Murray Dam",
        "state": "SC",
        "magnitude": null,
        "magnitude_units": null,
        "source": "Public",
        "event_narrative": "Local media relayed public video of a waterspout over Lake Murray."
      },
      "geometry": {
        "type": "Point",
        "coordinates": [
          -81.22,
          34.05
        ]
      }
    },
    {
      "type": "Feature",
      "id": "iem-lsr-CAE-13",
      "properties": {
        "report_id": "iem-lsr-CAE-13",
        "report_type": "TSTM WND DMG",
        "event_category": "thunderstorm_wind",
        "valid_utc": "202603121355",
        "standard_time_display": "2026-03-12 08:55 EST",
        "wfo": "CAE",
        "county_or_zone": "Richland",
        "city": "1 NNE Irmo",
        "state": "SC",
        "magnitude": null,
        "magnitude_units": null,
        "source": "NWS Employee",
        "event_narrative": "Retired NWS employee reported multiple trees down with minor structural damage to homes in the Waterford Subdivision_ Royal Tower Road and Broad River Road."
      },
      "geometry": {
        "type": "Point",
        "coordinates": [
          -81.18,
          34.1
        ]
      }
    },
    {
      "type": "Feature",
      "id": "iem-lsr-CAE-14",
      "properties": {
        "report_id": "iem-lsr-CAE-14",
        "report_type": "TSTM WND DMG",
        "event_category": "thunderstorm_wind",
        "valid_utc": "202603121400",
        "standard_time_display": "2026-03-12 09:00 EST",
        "wfo": "CAE",
        "county_or_zone": "Lexington",
        "city": "2 E Lexington",
        "state": "SC",
        "magnitude": null,
        "magnitude_units": null,
        "source": "Dept of Highways",
        "event_narrative": "SC DPS reported a tree down along Baskin Hills Rd. Time estimated by radar."
      },
      "geometry": {
        "type": "Point",
        "coordinates": [
          -81.19,
          33.99
        ]
      }
    },
    {
      "type": "Feature",
      "id": "iem-lsr-CAE-15",
      "properties": {
        "report_id": "iem-lsr-CAE-15",
        "report_type": "TSTM WND DMG",
        "event_category": "thunderstorm_wind",
        "valid_utc": "202603121413",
        "standard_time_display": "2026-03-12 09:13 EST",
        "wfo": "CAE",
        "county_or_zone": "Richland",
        "city": "Blythewood",
        "state": "SC",
        "magnitude": null,
        "magnitude_units": null,
        "source": "Local Official",
        "event_narrative": "Town of Blythewood shared photos of damaged amphitheater cover_ with metal sheeting blown off."
      },
      "geometry": {
        "type": "Point",
        "coordinates": [
          -80.97,
          34.22
        ]
      }
    },
    {
      "type": "Feature",
      "id": "iem-lsr-CAE-16",
      "properties": {
        "report_id": "iem-lsr-CAE-16",
        "report_type": "TORNADO",
        "event_category": "tornado",
        "valid_utc": "202603121424",
        "standard_time_display": "2026-03-12 09:24 EST",
        "wfo": "CAE",
        "county_or_zone": "Bamberg",
        "city": "4 S Bamberg",
        "state": "SC",
        "magnitude": null,
        "magnitude_units": null,
        "source": "NWS Storm Survey",
        "event_narrative": "A NWS Survey Team confirmed a brief EF-0 tornado south of the town of Bamberg in Bamberg County_ SC from March 12th_ 2026. The tornado formed near the intersection of HWY 601 and Harley Rd and contin"
      },
      "geometry": {
        "type": "Point",
        "coordinates": [
          -81.03,
          33.24
        ]
      }
    },
    {
      "type": "Feature",
      "id": "iem-lsr-CAE-17",
      "properties": {
        "report_id": "iem-lsr-CAE-17",
        "report_type": "TSTM WND DMG",
        "event_category": "thunderstorm_wind",
        "valid_utc": "202603121425",
        "standard_time_display": "2026-03-12 09:25 EST",
        "wfo": "CAE",
        "county_or_zone": "Bamberg",
        "city": "4 S Bamberg",
        "state": "SC",
        "magnitude": null,
        "magnitude_units": null,
        "source": "Public",
        "event_narrative": "Numerous trees reported down in yard at the intersection of Harley Road and Highway 601."
      },
      "geometry": {
        "type": "Point",
        "coordinates": [
          -81.03,
          33.24
        ]
      }
    },
    {
      "type": "Feature",
      "id": "iem-lsr-CAE-18",
      "properties": {
        "report_id": "iem-lsr-CAE-18",
        "report_type": "TSTM WND DMG",
        "event_category": "thunderstorm_wind",
        "valid_utc": "202603121427",
        "standard_time_display": "2026-03-12 09:27 EST",
        "wfo": "CAE",
        "county_or_zone": "Lexington",
        "city": "3 ESE Gaston",
        "state": "SC",
        "magnitude": null,
        "magnitude_units": null,
        "source": "Dept of Highways",
        "event_narrative": "Trees down near Pine Plain Rd and Mack Street."
      },
      "geometry": {
        "type": "Point",
        "coordinates": [
          -81.05,
          33.8
        ]
      }
    },
    {
      "type": "Feature",
      "id": "iem-lsr-CAE-19",
      "properties": {
        "report_id": "iem-lsr-CAE-19",
        "report_type": "TSTM WND DMG",
        "event_category": "thunderstorm_wind",
        "valid_utc": "202603121432",
        "standard_time_display": "2026-03-12 09:32 EST",
        "wfo": "CAE",
        "county_or_zone": "Richland",
        "city": "2 SSE Horrell Hill",
        "state": "SC",
        "magnitude": null,
        "magnitude_units": null,
        "source": "Dept of Highways",
        "event_narrative": "SC DPS reported a tree down on the roadway at the intersection of Horrell Hill Rd and Crossing Creek Rd. Time estimated by radar."
      },
      "geometry": {
        "type": "Point",
        "coordinates": [
          -80.84,
          33.93
        ]
      }
    },
    {
      "type": "Feature",
      "id": "iem-lsr-CAE-20",
      "properties": {
        "report_id": "iem-lsr-CAE-20",
        "report_type": "TSTM WND DMG",
        "event_category": "thunderstorm_wind",
        "valid_utc": "202603121455",
        "standard_time_display": "2026-03-12 09:55 EST",
        "wfo": "CAE",
        "county_or_zone": "Kershaw",
        "city": "2 E Camden",
        "state": "SC",
        "magnitude": null,
        "magnitude_units": null,
        "source": "911 Call Center",
        "event_narrative": "Kershaw County dispatch reported numerous trees down throughout the county."
      },
      "geometry": {
        "type": "Point",
        "coordinates": [
          -80.58,
          34.26
        ]
      }
    },
    {
      "type": "Feature",
      "id": "iem-lsr-CAE-21",
      "properties": {
        "report_id": "iem-lsr-CAE-21",
        "report_type": "TSTM WND DMG",
        "event_category": "thunderstorm_wind",
        "valid_utc": "202603121455",
        "standard_time_display": "2026-03-12 09:55 EST",
        "wfo": "CAE",
        "county_or_zone": "Clarendon",
        "city": "5 NE Santee",
        "state": "SC",
        "magnitude": null,
        "magnitude_units": null,
        "source": "Dept of Highways",
        "event_narrative": "SCDPS report of tree on road near between I-95 and Dingle Pond Rd."
      },
      "geometry": {
        "type": "Point",
        "coordinates": [
          -80.43,
          33.53
        ]
      }
    },
    {
      "type": "Feature",
      "id": "iem-lsr-CAE-22",
      "properties": {
        "report_id": "iem-lsr-CAE-22",
        "report_type": "TSTM WND DMG",
        "event_category": "thunderstorm_wind",
        "valid_utc": "202603121518",
        "standard_time_display": "2026-03-12 10:18 EST",
        "wfo": "CAE",
        "county_or_zone": "Lee",
        "city": "2 S Bishopville",
        "state": "SC",
        "magnitude": null,
        "magnitude_units": null,
        "source": "Dept of Highways",
        "event_narrative": "SCDPS reports a tree down on I-20 south of Bishopville. Time estimated by radar."
      },
      "geometry": {
        "type": "Point",
        "coordinates": [
          -80.24,
          34.19
        ]
      }
    },
    {
      "type": "Feature",
      "id": "iem-lsr-CAE-23",
      "properties": {
        "report_id": "iem-lsr-CAE-23",
        "report_type": "TSTM WND DMG",
        "event_category": "thunderstorm_wind",
        "valid_utc": "202603161305",
        "standard_time_display": "2026-03-16 08:05 EST",
        "wfo": "CAE",
        "county_or_zone": "Burke",
        "city": "5 S Hephzibah",
        "state": "GA",
        "magnitude": null,
        "magnitude_units": null,
        "source": "Dept of Highways",
        "event_narrative": "Burke County dept of highways reported trees down on Craig Rd near Winter Rd. Time estimated by radar."
      },
      "geometry": {
        "type": "Point",
        "coordinates": [
          -82.11,
          33.21
        ]
      }
    },
    {
      "type": "Feature",
      "id": "iem-lsr-CAE-24",
      "properties": {
        "report_id": "iem-lsr-CAE-24",
        "report_type": "TSTM WND DMG",
        "event_category": "thunderstorm_wind",
        "valid_utc": "202603161318",
        "standard_time_display": "2026-03-16 08:18 EST",
        "wfo": "CAE",
        "county_or_zone": "McDuffie",
        "city": "4 NW Thomson",
        "state": "GA",
        "magnitude": null,
        "magnitude_units": null,
        "source": "911 Call Center",
        "event_narrative": "McDuffie county dispatch reported trees down along I-20 near mile marker 169."
      },
      "geometry": {
        "type": "Point",
        "coordinates": [
          -82.56,
          33.51
        ]
      }
    },
    {
      "type": "Feature",
      "id": "iem-lsr-CAE-25",
      "properties": {
        "report_id": "iem-lsr-CAE-25",
        "report_type": "TSTM WND DMG",
        "event_category": "thunderstorm_wind",
        "valid_utc": "202603161335",
        "standard_time_display": "2026-03-16 08:35 EST",
        "wfo": "CAE",
        "county_or_zone": "Burke",
        "city": "7 WSW Plant Vogtle",
        "state": "GA",
        "magnitude": null,
        "magnitude_units": null,
        "source": "Dept of Highways",
        "event_narrative": "Burke County Dept of highways reported trees down on Scarlett Oaks Dr. Time estimated by radar."
      },
      "geometry": {
        "type": "Point",
        "coordinates": [
          -81.87,
          33.1
        ]
      }
    },
    {
      "type": "Feature",
      "id": "iem-lsr-CAE-26",
      "properties": {
        "report_id": "iem-lsr-CAE-26",
        "report_type": "TSTM WND DMG",
        "event_category": "thunderstorm_wind",
        "valid_utc": "202603161343",
        "standard_time_display": "2026-03-16 08:43 EST",
        "wfo": "CAE",
        "county_or_zone": "Edgefield",
        "city": "2 WSW Johnston",
        "state": "SC",
        "magnitude": null,
        "magnitude_units": null,
        "source": "Dept of Highways",
        "event_narrative": "Edgefield dept. of highways reported trees down on Blanch Baptist Rd. Time estimated by radar."
      },
      "geometry": {
        "type": "Point",
        "coordinates": [
          -81.84,
          33.83
        ]
      }
    },
    {
      "type": "Feature",
      "id": "iem-lsr-CAE-27",
      "properties": {
        "report_id": "iem-lsr-CAE-27",
        "report_type": "TSTM WND DMG",
        "event_category": "thunderstorm_wind",
        "valid_utc": "202603162015",
        "standard_time_display": "2026-03-16 15:15 EST",
        "wfo": "CAE",
        "county_or_zone": "Kershaw",
        "city": "1 WNW Lake Wateree Dam",
        "state": "SC",
        "magnitude": null,
        "magnitude_units": null,
        "source": "Broadcast Media",
        "event_narrative": "Broadcast Media shared a photo showing tree blown down_ knocking power lines down with it. Time estimated from source and radar."
      },
      "geometry": {
        "type": "Point",
        "coordinates": [
          -80.72,
          34.34
        ]
      }
    }
  ]
}