{
  "type": "FeatureCollection",
  "metadata": {
    "schema_version": "0.2.4",
    "year": 2026,
    "month": 4,
    "wfo": "RLX",
    "start_utc": "2026-04-01T00:00:00Z",
    "end_utc": "2026-05-01T00:00:00Z",
    "generated_utc": "2026-06-24T11:58:02Z",
    "mode": "storm_data_prep",
    "public_release_status": "public-source-derived",
    "time_note": "Storm Data entry times should be reviewed in local Standard Time (ST), not daylight time. Candidate reports include standard_time_display.",
    "tornado_track_policy": "Tornado tracks must come from DAT. NCEI begin/end coordinates are not used as a tornado track substitute.",
    "source": "https://mesonet.agron.iastate.edu/cgi-bin/request/gis/lsr.py?wfo=RLX&sts=2026-04-01T00%3A00%3A00Z&ets=2026-05-01T00%3A00%3A00Z&fmt=csv"
  },
  "features": [
    {
      "type": "Feature",
      "id": "iem-lsr-RLX-1",
      "properties": {
        "report_id": "iem-lsr-RLX-1",
        "report_type": "TSTM WND DMG",
        "event_category": "thunderstorm_wind",
        "valid_utc": "202604011751",
        "standard_time_display": "2026-04-01 12:51 EST",
        "wfo": "RLX",
        "county_or_zone": "Lawrence",
        "city": "9 SSW Louisa",
        "state": "KY",
        "magnitude": null,
        "magnitude_units": null,
        "source": "Utility Company",
        "event_narrative": "Tree damage resulting in 54 customers without power."
      },
      "geometry": {
        "type": "Point",
        "coordinates": [
          -82.64,
          37.98
        ]
      }
    },
    {
      "type": "Feature",
      "id": "iem-lsr-RLX-2",
      "properties": {
        "report_id": "iem-lsr-RLX-2",
        "report_type": "HAIL",
        "event_category": "hail",
        "valid_utc": "202604011820",
        "standard_time_display": "2026-04-01 13:20 EST",
        "wfo": "RLX",
        "county_or_zone": "Wayne",
        "city": "7 NNE Kermit",
        "state": "WV",
        "magnitude": 1.25,
        "magnitude_units": null,
        "source": "Trained Spotter",
        "event_narrative": "Trained spotter near Crum_ WV measured half dollar size hail."
      },
      "geometry": {
        "type": "Point",
        "coordinates": [
          -82.36,
          37.93
        ]
      }
    },
    {
      "type": "Feature",
      "id": "iem-lsr-RLX-3",
      "properties": {
        "report_id": "iem-lsr-RLX-3",
        "report_type": "TSTM WND DMG",
        "event_category": "thunderstorm_wind",
        "valid_utc": "202604011905",
        "standard_time_display": "2026-04-01 14:05 EST",
        "wfo": "RLX",
        "county_or_zone": "Logan",
        "city": "3 NE Mitchell Heights",
        "state": "WV",
        "magnitude": null,
        "magnitude_units": null,
        "source": "Utility Company",
        "event_narrative": "500 customers without power due to tree damage in the Pecks Mill area."
      },
      "geometry": {
        "type": "Point",
        "coordinates": [
          -81.95,
          37.94
        ]
      }
    },
    {
      "type": "Feature",
      "id": "iem-lsr-RLX-4",
      "properties": {
        "report_id": "iem-lsr-RLX-4",
        "report_type": "HAIL",
        "event_category": "hail",
        "valid_utc": "202604011917",
        "standard_time_display": "2026-04-01 14:17 EST",
        "wfo": "RLX",
        "county_or_zone": "Boone",
        "city": "8 SSW Madison",
        "state": "WV",
        "magnitude": 0.25,
        "magnitude_units": null,
        "source": "Public",
        "event_narrative": "Also flooding of much of the yard which floods easily_ water getting into the road in front of the house."
      },
      "geometry": {
        "type": "Point",
        "coordinates": [
          -81.85,
          37.96
        ]
      }
    },
    {
      "type": "Feature",
      "id": "iem-lsr-RLX-5",
      "properties": {
        "report_id": "iem-lsr-RLX-5",
        "report_type": "TSTM WND DMG",
        "event_category": "thunderstorm_wind",
        "valid_utc": "202604011931",
        "standard_time_display": "2026-04-01 14:31 EST",
        "wfo": "RLX",
        "county_or_zone": "Mingo",
        "city": "Delbarton",
        "state": "WV",
        "magnitude": null,
        "magnitude_units": null,
        "source": "911 Call Center",
        "event_narrative": "Tree down along Bulldog Boulevard. Time estimated from radar."
      },
      "geometry": {
        "type": "Point",
        "coordinates": [
          -82.18,
          37.71
        ]
      }
    },
    {
      "type": "Feature",
      "id": "iem-lsr-RLX-6",
      "properties": {
        "report_id": "iem-lsr-RLX-6",
        "report_type": "HAIL",
        "event_category": "hail",
        "valid_utc": "202604012000",
        "standard_time_display": "2026-04-01 15:00 EST",
        "wfo": "RLX",
        "county_or_zone": "Raleigh",
        "city": "Daniels",
        "state": "WV",
        "magnitude": 0.5,
        "magnitude_units": null,
        "source": "Broadcast Media",
        "event_narrative": "Size estimated from a photo provided from the media. Time is estimated from radar."
      },
      "geometry": {
        "type": "Point",
        "coordinates": [
          -81.12,
          37.74
        ]
      }
    },
    {
      "type": "Feature",
      "id": "iem-lsr-RLX-7",
      "properties": {
        "report_id": "iem-lsr-RLX-7",
        "report_type": "HAIL",
        "event_category": "hail",
        "valid_utc": "202604012003",
        "standard_time_display": "2026-04-01 15:03 EST",
        "wfo": "RLX",
        "county_or_zone": "Raleigh",
        "city": "1 E Beaver",
        "state": "WV",
        "magnitude": 1.0,
        "magnitude_units": null,
        "source": "Public",
        "event_narrative": null
      },
      "geometry": {
        "type": "Point",
        "coordinates": [
          -81.13,
          37.74
        ]
      }
    },
    {
      "type": "Feature",
      "id": "iem-lsr-RLX-8",
      "properties": {
        "report_id": "iem-lsr-RLX-8",
        "report_type": "HAIL",
        "event_category": "hail",
        "valid_utc": "202604012005",
        "standard_time_display": "2026-04-01 15:05 EST",
        "wfo": "RLX",
        "county_or_zone": "Raleigh",
        "city": "1 N Daniels",
        "state": "WV",
        "magnitude": 0.75,
        "magnitude_units": null,
        "source": "Public",
        "event_narrative": "Report from mPING: Dime (0.75 in.)."
      },
      "geometry": {
        "type": "Point",
        "coordinates": [
          -81.13,
          37.74
        ]
      }
    },
    {
      "type": "Feature",
      "id": "iem-lsr-RLX-9",
      "properties": {
        "report_id": "iem-lsr-RLX-9",
        "report_type": "HAIL",
        "event_category": "hail",
        "valid_utc": "202604012012",
        "standard_time_display": "2026-04-01 15:12 EST",
        "wfo": "RLX",
        "county_or_zone": "Raleigh",
        "city": "1 N Daniels",
        "state": "WV",
        "magnitude": 1.0,
        "magnitude_units": null,
        "source": "Public",
        "event_narrative": null
      },
      "geometry": {
        "type": "Point",
        "coordinates": [
          -81.13,
          37.74
        ]
      }
    },
    {
      "type": "Feature",
      "id": "iem-lsr-RLX-10",
      "properties": {
        "report_id": "iem-lsr-RLX-10",
        "report_type": "HAIL",
        "event_category": "hail",
        "valid_utc": "202604012037",
        "standard_time_display": "2026-04-01 15:37 EST",
        "wfo": "RLX",
        "county_or_zone": "Raleigh",
        "city": "Beckley",
        "state": "WV",
        "magnitude": 0.25,
        "magnitude_units": null,
        "source": "Trained Spotter",
        "event_narrative": "Also strong wind but no estimate of speed_ no known damage_ frequent lightning."
      },
      "geometry": {
        "type": "Point",
        "coordinates": [
          -81.19,
          37.79
        ]
      }
    },
    {
      "type": "Feature",
      "id": "iem-lsr-RLX-11",
      "properties": {
        "report_id": "iem-lsr-RLX-11",
        "report_type": "TSTM WND DMG",
        "event_category": "thunderstorm_wind",
        "valid_utc": "202604012038",
        "standard_time_display": "2026-04-01 15:38 EST",
        "wfo": "RLX",
        "county_or_zone": "Raleigh",
        "city": "Beckley",
        "state": "WV",
        "magnitude": null,
        "magnitude_units": null,
        "source": "911 Call Center",
        "event_narrative": "Corrects previous tstm wnd dmg report from Beckley. Tree reported down. Time is estimated by radar."
      },
      "geometry": {
        "type": "Point",
        "coordinates": [
          -81.18,
          37.78
        ]
      }
    },
    {
      "type": "Feature",
      "id": "iem-lsr-RLX-12",
      "properties": {
        "report_id": "iem-lsr-RLX-12",
        "report_type": "TSTM WND DMG",
        "event_category": "thunderstorm_wind",
        "valid_utc": "202604012038",
        "standard_time_display": "2026-04-01 15:38 EST",
        "wfo": "RLX",
        "county_or_zone": "Raleigh",
        "city": "Beckley",
        "state": "WV",
        "magnitude": null,
        "magnitude_units": null,
        "source": "911 Call Center",
        "event_narrative": "Tree reported down."
      },
      "geometry": {
        "type": "Point",
        "coordinates": [
          -81.18,
          37.78
        ]
      }
    },
    {
      "type": "Feature",
      "id": "iem-lsr-RLX-13",
      "properties": {
        "report_id": "iem-lsr-RLX-13",
        "report_type": "TSTM WND GST",
        "event_category": "thunderstorm_wind",
        "valid_utc": "202604012039",
        "standard_time_display": "2026-04-01 15:39 EST",
        "wfo": "RLX",
        "county_or_zone": "Raleigh",
        "city": "2 ESE Stanaford",
        "state": "WV",
        "magnitude": 52.0,
        "magnitude_units": null,
        "source": "ASOS",
        "event_narrative": "ASOS station KBKW Beckley Airport."
      },
      "geometry": {
        "type": "Point",
        "coordinates": [
          -81.12,
          37.8
        ]
      }
    },
    {
      "type": "Feature",
      "id": "iem-lsr-RLX-14",
      "properties": {
        "report_id": "iem-lsr-RLX-14",
        "report_type": "TSTM WND DMG",
        "event_category": "thunderstorm_wind",
        "valid_utc": "202604012041",
        "standard_time_display": "2026-04-01 15:41 EST",
        "wfo": "RLX",
        "county_or_zone": "Washington",
        "city": "5 SSE Chesterhill",
        "state": "OH",
        "magnitude": null,
        "magnitude_units": null,
        "source": "911 Call Center",
        "event_narrative": "Tree into powerlines and powerlines on fire at State Rt 550 and Murphy Rd."
      },
      "geometry": {
        "type": "Point",
        "coordinates": [
          -81.84,
          39.43
        ]
      }
    },
    {
      "type": "Feature",
      "id": "iem-lsr-RLX-15",
      "properties": {
        "report_id": "iem-lsr-RLX-15",
        "report_type": "HAIL",
        "event_category": "hail",
        "valid_utc": "202604012043",
        "standard_time_display": "2026-04-01 15:43 EST",
        "wfo": "RLX",
        "county_or_zone": "Raleigh",
        "city": "1 SW Macarthur",
        "state": "WV",
        "magnitude": 0.5,
        "magnitude_units": null,
        "source": "Public",
        "event_narrative": "Report from mPING: Half-inch (0.50 in.)."
      },
      "geometry": {
        "type": "Point",
        "coordinates": [
          -81.22,
          37.75
        ]
      }
    },
    {
      "type": "Feature",
      "id": "iem-lsr-RLX-16",
      "properties": {
        "report_id": "iem-lsr-RLX-16",
        "report_type": "TSTM WND DMG",
        "event_category": "thunderstorm_wind",
        "valid_utc": "202604012043",
        "standard_time_display": "2026-04-01 15:43 EST",
        "wfo": "RLX",
        "county_or_zone": "Raleigh",
        "city": "Beckley",
        "state": "WV",
        "magnitude": null,
        "magnitude_units": null,
        "source": "911 Call Center",
        "event_narrative": "Tree down. Time estimated from radar."
      },
      "geometry": {
        "type": "Point",
        "coordinates": [
          -81.18,
          37.79
        ]
      }
    },
    {
      "type": "Feature",
      "id": "iem-lsr-RLX-17",
      "properties": {
        "report_id": "iem-lsr-RLX-17",
        "report_type": "TSTM WND DMG",
        "event_category": "thunderstorm_wind",
        "valid_utc": "202604012046",
        "standard_time_display": "2026-04-01 15:46 EST",
        "wfo": "RLX",
        "county_or_zone": "Raleigh",
        "city": "4 ESE Piney View",
        "state": "WV",
        "magnitude": null,
        "magnitude_units": null,
        "source": "911 Call Center",
        "event_narrative": "Tree and power lines down. Time estimated from radar."
      },
      "geometry": {
        "type": "Point",
        "coordinates": [
          -81.07,
          37.83
        ]
      }
    },
    {
      "type": "Feature",
      "id": "iem-lsr-RLX-18",
      "properties": {
        "report_id": "iem-lsr-RLX-18",
        "report_type": "TSTM WND DMG",
        "event_category": "thunderstorm_wind",
        "valid_utc": "202604012050",
        "standard_time_display": "2026-04-01 15:50 EST",
        "wfo": "RLX",
        "county_or_zone": "Raleigh",
        "city": "Beckley",
        "state": "WV",
        "magnitude": null,
        "magnitude_units": null,
        "source": "911 Call Center",
        "event_narrative": "Tree down on Clyburn St. in Sprague."
      },
      "geometry": {
        "type": "Point",
        "coordinates": [
          -81.19,
          37.79
        ]
      }
    },
    {
      "type": "Feature",
      "id": "iem-lsr-RLX-19",
      "properties": {
        "report_id": "iem-lsr-RLX-19",
        "report_type": "HAIL",
        "event_category": "hail",
        "valid_utc": "202604012051",
        "standard_time_display": "2026-04-01 15:51 EST",
        "wfo": "RLX",
        "county_or_zone": "Washington",
        "city": "4 SSW Beverly",
        "state": "OH",
        "magnitude": 1.0,
        "magnitude_units": null,
        "source": "Cocorahs",
        "event_narrative": "Time is estimated by radar."
      },
      "geometry": {
        "type": "Point",
        "coordinates": [
          -81.66,
          39.49
        ]
      }
    },
    {
      "type": "Feature",
      "id": "iem-lsr-RLX-20",
      "properties": {
        "report_id": "iem-lsr-RLX-20",
        "report_type": "HAIL",
        "event_category": "hail",
        "valid_utc": "202604012111",
        "standard_time_display": "2026-04-01 16:11 EST",
        "wfo": "RLX",
        "county_or_zone": "Washington",
        "city": "3 SW Lowell",
        "state": "OH",
        "magnitude": 0.5,
        "magnitude_units": null,
        "source": "Public",
        "event_narrative": "Report from mPING: Half-inch (0.50 in.)."
      },
      "geometry": {
        "type": "Point",
        "coordinates": [
          -81.54,
          39.49
        ]
      }
    },
    {
      "type": "Feature",
      "id": "iem-lsr-RLX-21",
      "properties": {
        "report_id": "iem-lsr-RLX-21",
        "report_type": "HAIL",
        "event_category": "hail",
        "valid_utc": "202604012114",
        "standard_time_display": "2026-04-01 16:14 EST",
        "wfo": "RLX",
        "county_or_zone": "Washington",
        "city": "1 NW Marietta",
        "state": "OH",
        "magnitude": 0.75,
        "magnitude_units": null,
        "source": "Public",
        "event_narrative": "Report from mPING: Dime (0.75 in.)."
      },
      "geometry": {
        "type": "Point",
        "coordinates": [
          -81.46,
          39.43
        ]
      }
    },
    {
      "type": "Feature",
      "id": "iem-lsr-RLX-22",
      "properties": {
        "report_id": "iem-lsr-RLX-22",
        "report_type": "TSTM WND DMG",
        "event_category": "thunderstorm_wind",
        "valid_utc": "202604012114",
        "standard_time_display": "2026-04-01 16:14 EST",
        "wfo": "RLX",
        "county_or_zone": "Washington",
        "city": "1 ESE Marietta",
        "state": "OH",
        "magnitude": null,
        "magnitude_units": null,
        "source": "Public",
        "event_narrative": "Caller witnessed part of a roof blown off of a nearby house. Time estimated from radar."
      },
      "geometry": {
        "type": "Point",
        "coordinates": [
          -81.43,
          39.42
        ]
      }
    },
    {
      "type": "Feature",
      "id": "iem-lsr-RLX-23",
      "properties": {
        "report_id": "iem-lsr-RLX-23",
        "report_type": "HAIL",
        "event_category": "hail",
        "valid_utc": "202604012115",
        "standard_time_display": "2026-04-01 16:15 EST",
        "wfo": "RLX",
        "county_or_zone": "Washington",
        "city": "6 WSW Marietta",
        "state": "OH",
        "magnitude": 1.0,
        "magnitude_units": null,
        "source": "Trained Spotter",
        "event_narrative": null
      },
      "geometry": {
        "type": "Point",
        "coordinates": [
          -81.56,
          39.4
        ]
      }
    },
    {
      "type": "Feature",
      "id": "iem-lsr-RLX-24",
      "properties": {
        "report_id": "iem-lsr-RLX-24",
        "report_type": "HAIL",
        "event_category": "hail",
        "valid_utc": "202604012115",
        "standard_time_display": "2026-04-01 16:15 EST",
        "wfo": "RLX",
        "county_or_zone": "Wood",
        "city": "Williamstown",
        "state": "WV",
        "magnitude": 1.5,
        "magnitude_units": null,
        "source": "Public",
        "event_narrative": "Report from mPING: Ping Pong Ball (1.50 in.)."
      },
      "geometry": {
        "type": "Point",
        "coordinates": [
          -81.46,
          39.4
        ]
      }
    },
    {
      "type": "Feature",
      "id": "iem-lsr-RLX-25",
      "properties": {
        "report_id": "iem-lsr-RLX-25",
        "report_type": "HAIL",
        "event_category": "hail",
        "valid_utc": "202604012115",
        "standard_time_display": "2026-04-01 16:15 EST",
        "wfo": "RLX",
        "county_or_zone": "Washington",
        "city": "1 W Marietta",
        "state": "OH",
        "magnitude": 1.75,
        "magnitude_units": null,
        "source": "Public",
        "event_narrative": "Corrects previous hail report from 1 W Marietta. Ping pong to golf ball sized hail reported across Marietta. Time estimated by radar."
      },
      "geometry": {
        "type": "Point",
        "coordinates": [
          -81.46,
          39.42
        ]
      }
    },
    {
      "type": "Feature",
      "id": "iem-lsr-RLX-26",
      "properties": {
        "report_id": "iem-lsr-RLX-26",
        "report_type": "HAIL",
        "event_category": "hail",
        "valid_utc": "202604012115",
        "standard_time_display": "2026-04-01 16:15 EST",
        "wfo": "RLX",
        "county_or_zone": "Washington",
        "city": "1 W Marietta",
        "state": "OH",
        "magnitude": 1.75,
        "magnitude_units": null,
        "source": "Public",
        "event_narrative": "Ping pong to gold ball sized hail reported across Marietta. Time estimated by radar."
      },
      "geometry": {
        "type": "Point",
        "coordinates": [
          -81.46,
          39.42
        ]
      }
    },
    {
      "type": "Feature",
      "id": "iem-lsr-RLX-27",
      "properties": {
        "report_id": "iem-lsr-RLX-27",
        "report_type": "TSTM WND DMG",
        "event_category": "thunderstorm_wind",
        "valid_utc": "202604012115",
        "standard_time_display": "2026-04-01 16:15 EST",
        "wfo": "RLX",
        "county_or_zone": "Washington",
        "city": "1 W Marietta",
        "state": "OH",
        "magnitude": null,
        "magnitude_units": null,
        "source": "Public",
        "event_narrative": "Tree and numerous branches down on a house off 2nd street in Marietta. Extensive damage to the home. Time estimated by radar. Picture provided."
      },
      "geometry": {
        "type": "Point",
        "coordinates": [
          -81.46,
          39.42
        ]
      }
    },
    {
      "type": "Feature",
      "id": "iem-lsr-RLX-28",
      "properties": {
        "report_id": "iem-lsr-RLX-28",
        "report_type": "HAIL",
        "event_category": "hail",
        "valid_utc": "202604012116",
        "standard_time_display": "2026-04-01 16:16 EST",
        "wfo": "RLX",
        "county_or_zone": "Washington",
        "city": "1 SE Marietta",
        "state": "OH",
        "magnitude": 1.0,
        "magnitude_units": null,
        "source": "Public",
        "event_narrative": null
      },
      "geometry": {
        "type": "Point",
        "coordinates": [
          -81.44,
          39.42
        ]
      }
    },
    {
      "type": "Feature",
      "id": "iem-lsr-RLX-29",
      "properties": {
        "report_id": "iem-lsr-RLX-29",
        "report_type": "HAIL",
        "event_category": "hail",
        "valid_utc": "202604012116",
        "standard_time_display": "2026-04-01 16:16 EST",
        "wfo": "RLX",
        "county_or_zone": "Washington",
        "city": "Marietta",
        "state": "OH",
        "magnitude": 1.1,
        "magnitude_units": null,
        "source": "Trained Spotter",
        "event_narrative": "Hail up to 1.1 in and accumulation of smaller hail."
      },
      "geometry": {
        "type": "Point",
        "coordinates": [
          -81.45,
          39.43
        ]
      }
    },
    {
      "type": "Feature",
      "id": "iem-lsr-RLX-30",
      "properties": {
        "report_id": "iem-lsr-RLX-30",
        "report_type": "HAIL",
        "event_category": "hail",
        "valid_utc": "202604012116",
        "standard_time_display": "2026-04-01 16:16 EST",
        "wfo": "RLX",
        "county_or_zone": "Washington",
        "city": "1 SW Marietta",
        "state": "OH",
        "magnitude": 1.5,
        "magnitude_units": null,
        "source": "Broadcast Media",
        "event_narrative": "From photo provided to the media. Time is estimated from radar."
      },
      "geometry": {
        "type": "Point",
        "coordinates": [
          -81.45,
          39.42
        ]
      }
    },
    {
      "type": "Feature",
      "id": "iem-lsr-RLX-31",
      "properties": {
        "report_id": "iem-lsr-RLX-31",
        "report_type": "HAIL",
        "event_category": "hail",
        "valid_utc": "202604012117",
        "standard_time_display": "2026-04-01 16:17 EST",
        "wfo": "RLX",
        "county_or_zone": "Wood",
        "city": "Williamstown",
        "state": "WV",
        "magnitude": 1.0,
        "magnitude_units": null,
        "source": "Public",
        "event_narrative": null
      },
      "geometry": {
        "type": "Point",
        "coordinates": [
          -81.45,
          39.41
        ]
      }
    },
    {
      "type": "Feature",
      "id": "iem-lsr-RLX-32",
      "properties": {
        "report_id": "iem-lsr-RLX-32",
        "report_type": "HAIL",
        "event_category": "hail",
        "valid_utc": "202604012117",
        "standard_time_display": "2026-04-01 16:17 EST",
        "wfo": "RLX",
        "county_or_zone": "Wood",
        "city": "Williamstown",
        "state": "WV",
        "magnitude": 1.0,
        "magnitude_units": null,
        "source": "Public",
        "event_narrative": "Time is estimated by radar."
      },
      "geometry": {
        "type": "Point",
        "coordinates": [
          -81.45,
          39.4
        ]
      }
    },
    {
      "type": "Feature",
      "id": "iem-lsr-RLX-33",
      "properties": {
        "report_id": "iem-lsr-RLX-33",
        "report_type": "HAIL",
        "event_category": "hail",
        "valid_utc": "202604012117",
        "standard_time_display": "2026-04-01 16:17 EST",
        "wfo": "RLX",
        "county_or_zone": "Washington",
        "city": "1 S Marietta",
        "state": "OH",
        "magnitude": 1.25,
        "magnitude_units": null,
        "source": "Public",
        "event_narrative": "Report from mPING: Half Dollar (1.25 in.). Time is estimated from radar."
      },
      "geometry": {
        "type": "Point",
        "coordinates": [
          -81.44,
          39.41
        ]
      }
    },
    {
      "type": "Feature",
      "id": "iem-lsr-RLX-34",
      "properties": {
        "report_id": "iem-lsr-RLX-34",
        "report_type": "HAIL",
        "event_category": "hail",
        "valid_utc": "202604012117",
        "standard_time_display": "2026-04-01 16:17 EST",
        "wfo": "RLX",
        "county_or_zone": "Athens",
        "city": "4 WSW Athens",
        "state": "OH",
        "magnitude": 1.25,
        "magnitude_units": null,
        "source": "Trained Spotter",
        "event_narrative": "Photos include pictures of between half dollar to ping pong ball size hail."
      },
      "geometry": {
        "type": "Point",
        "coordinates": [
          -82.15,
          39.3
        ]
      }
    },
    {
      "type": "Feature",
      "id": "iem-lsr-RLX-35",
      "properties": {
        "report_id": "iem-lsr-RLX-35",
        "report_type": "HAIL",
        "event_category": "hail",
        "valid_utc": "202604012118",
        "standard_time_display": "2026-04-01 16:18 EST",
        "wfo": "RLX",
        "county_or_zone": "Washington",
        "city": "1 S Marietta",
        "state": "OH",
        "magnitude": 1.0,
        "magnitude_units": null,
        "source": "Public",
        "event_narrative": "Report from mPING: Quarter (1.00 in.)."
      },
      "geometry": {
        "type": "Point",
        "coordinates": [
          -81.44,
          39.41
        ]
      }
    },
    {
      "type": "Feature",
      "id": "iem-lsr-RLX-36",
      "properties": {
        "report_id": "iem-lsr-RLX-36",
        "report_type": "HAIL",
        "event_category": "hail",
        "valid_utc": "202604012118",
        "standard_time_display": "2026-04-01 16:18 EST",
        "wfo": "RLX",
        "county_or_zone": "Wood",
        "city": "Williamstown",
        "state": "WV",
        "magnitude": 1.5,
        "magnitude_units": null,
        "source": "Cocorahs",
        "event_narrative": "Ping-pong sized hail. CoCoRaHS station WD-7."
      },
      "geometry": {
        "type": "Point",
        "coordinates": [
          -81.46,
          39.4
        ]
      }
    },
    {
      "type": "Feature",
      "id": "iem-lsr-RLX-37",
      "properties": {
        "report_id": "iem-lsr-RLX-37",
        "report_type": "HAIL",
        "event_category": "hail",
        "valid_utc": "202604012119",
        "standard_time_display": "2026-04-01 16:19 EST",
        "wfo": "RLX",
        "county_or_zone": "Washington",
        "city": "1 ESE Marietta",
        "state": "OH",
        "magnitude": 1.0,
        "magnitude_units": null,
        "source": "Public",
        "event_narrative": "Corrects previous hail report from 1 ESE Marietta. Large hail estimated at half inch to quarter size. Time estimated from radar."
      },
      "geometry": {
        "type": "Point",
        "coordinates": [
          -81.43,
          39.42
        ]
      }
    },
    {
      "type": "Feature",
      "id": "iem-lsr-RLX-38",
      "properties": {
        "report_id": "iem-lsr-RLX-38",
        "report_type": "TSTM WND DMG",
        "event_category": "thunderstorm_wind",
        "valid_utc": "202604012119",
        "standard_time_display": "2026-04-01 16:19 EST",
        "wfo": "RLX",
        "county_or_zone": "Washington",
        "city": "1 ESE Marietta",
        "state": "OH",
        "magnitude": null,
        "magnitude_units": null,
        "source": "Public",
        "event_narrative": "Large hail estimated at half inch to quarter size. Time estimated from radar."
      },
      "geometry": {
        "type": "Point",
        "coordinates": [
          -81.43,
          39.42
        ]
      }
    },
    {
      "type": "Feature",
      "id": "iem-lsr-RLX-39",
      "properties": {
        "report_id": "iem-lsr-RLX-39",
        "report_type": "HAIL",
        "event_category": "hail",
        "valid_utc": "202604012120",
        "standard_time_display": "2026-04-01 16:20 EST",
        "wfo": "RLX",
        "county_or_zone": "Washington",
        "city": "2 ESE Marietta",
        "state": "OH",
        "magnitude": 1.0,
        "magnitude_units": null,
        "source": "Public",
        "event_narrative": "Photo showing quarter size hail."
      },
      "geometry": {
        "type": "Point",
        "coordinates": [
          -81.42,
          39.41
        ]
      }
    },
    {
      "type": "Feature",
      "id": "iem-lsr-RLX-40",
      "properties": {
        "report_id": "iem-lsr-RLX-40",
        "report_type": "TSTM WND DMG",
        "event_category": "thunderstorm_wind",
        "valid_utc": "202604012120",
        "standard_time_display": "2026-04-01 16:20 EST",
        "wfo": "RLX",
        "county_or_zone": "Washington",
        "city": "2 ESE Marietta",
        "state": "OH",
        "magnitude": null,
        "magnitude_units": null,
        "source": "Public",
        "event_narrative": "Power lines down along Pike Street in Marietta."
      },
      "geometry": {
        "type": "Point",
        "coordinates": [
          -81.42,
          39.41
        ]
      }
    },
    {
      "type": "Feature",
      "id": "iem-lsr-RLX-41",
      "properties": {
        "report_id": "iem-lsr-RLX-41",
        "report_type": "HAIL",
        "event_category": "hail",
        "valid_utc": "202604012122",
        "standard_time_display": "2026-04-01 16:22 EST",
        "wfo": "RLX",
        "county_or_zone": "Washington",
        "city": "2 E Williamstown",
        "state": "OH",
        "magnitude": 1.25,
        "magnitude_units": null,
        "source": "Public",
        "event_narrative": "Report from mPING: Half Dollar (1.25 in.)."
      },
      "geometry": {
        "type": "Point",
        "coordinates": [
          -81.41,
          39.4
        ]
      }
    },
    {
      "type": "Feature",
      "id": "iem-lsr-RLX-42",
      "properties": {
        "report_id": "iem-lsr-RLX-42",
        "report_type": "TSTM WND DMG",
        "event_category": "thunderstorm_wind",
        "valid_utc": "202604012125",
        "standard_time_display": "2026-04-01 16:25 EST",
        "wfo": "RLX",
        "county_or_zone": "Washington",
        "city": "1 NNE Marietta",
        "state": "OH",
        "magnitude": null,
        "magnitude_units": null,
        "source": "Public",
        "event_narrative": "Numerous trees down reported by someone on social media. Pictures provided. Time estimated by radar."
      },
      "geometry": {
        "type": "Point",
        "coordinates": [
          -81.44,
          39.44
        ]
      }
    },
    {
      "type": "Feature",
      "id": "iem-lsr-RLX-43",
      "properties": {
        "report_id": "iem-lsr-RLX-43",
        "report_type": "TSTM WND DMG",
        "event_category": "thunderstorm_wind",
        "valid_utc": "202604012125",
        "standard_time_display": "2026-04-01 16:25 EST",
        "wfo": "RLX",
        "county_or_zone": "Lawrence",
        "city": "1 W Louisa",
        "state": "KY",
        "magnitude": null,
        "magnitude_units": null,
        "source": "Public",
        "event_narrative": "Tree down across road blocking the entire road on Town Hill road. Time estimated by radar."
      },
      "geometry": {
        "type": "Point",
        "coordinates": [
          -82.62,
          38.11
        ]
      }
    },
    {
      "type": "Feature",
      "id": "iem-lsr-RLX-44",
      "properties": {
        "report_id": "iem-lsr-RLX-44",
        "report_type": "TSTM WND DMG",
        "event_category": "thunderstorm_wind",
        "valid_utc": "202604012130",
        "standard_time_display": "2026-04-01 16:30 EST",
        "wfo": "RLX",
        "county_or_zone": "Washington",
        "city": "Marietta",
        "state": "OH",
        "magnitude": null,
        "magnitude_units": null,
        "source": "Public",
        "event_narrative": "Tree snap off and destroyed on the property of a home with a fence knocked over. Time estimated by radar. Picture provided via social media."
      },
      "geometry": {
        "type": "Point",
        "coordinates": [
          -81.45,
          39.43
        ]
      }
    },
    {
      "type": "Feature",
      "id": "iem-lsr-RLX-45",
      "properties": {
        "report_id": "iem-lsr-RLX-45",
        "report_type": "HAIL",
        "event_category": "hail",
        "valid_utc": "202604012140",
        "standard_time_display": "2026-04-01 16:40 EST",
        "wfo": "RLX",
        "county_or_zone": "Pleasants",
        "city": "1 NE Belmont",
        "state": "WV",
        "magnitude": 1.0,
        "magnitude_units": null,
        "source": "Public",
        "event_narrative": null
      },
      "geometry": {
        "type": "Point",
        "coordinates": [
          -81.25,
          39.39
        ]
      }
    },
    {
      "type": "Feature",
      "id": "iem-lsr-RLX-46",
      "properties": {
        "report_id": "iem-lsr-RLX-46",
        "report_type": "HAIL",
        "event_category": "hail",
        "valid_utc": "202604012140",
        "standard_time_display": "2026-04-01 16:40 EST",
        "wfo": "RLX",
        "county_or_zone": "Pleasants",
        "city": "Belmont",
        "state": "WV",
        "magnitude": 1.0,
        "magnitude_units": null,
        "source": "Public",
        "event_narrative": "Size estimated from a photo on social media. Time is estimated by radar."
      },
      "geometry": {
        "type": "Point",
        "coordinates": [
          -81.26,
          39.38
        ]
      }
    },
    {
      "type": "Feature",
      "id": "iem-lsr-RLX-47",
      "properties": {
        "report_id": "iem-lsr-RLX-47",
        "report_type": "TSTM WND DMG",
        "event_category": "thunderstorm_wind",
        "valid_utc": "202604012144",
        "standard_time_display": "2026-04-01 16:44 EST",
        "wfo": "RLX",
        "county_or_zone": "Meigs",
        "city": "1 NE Middleport",
        "state": "OH",
        "magnitude": null,
        "magnitude_units": null,
        "source": "Broadcast Media",
        "event_narrative": "Sign blown off business. Time estimated from radar."
      },
      "geometry": {
        "type": "Point",
        "coordinates": [
          -82.05,
          39.01
        ]
      }
    },
    {
      "type": "Feature",
      "id": "iem-lsr-RLX-48",
      "properties": {
        "report_id": "iem-lsr-RLX-48",
        "report_type": "HAIL",
        "event_category": "hail",
        "valid_utc": "202604012149",
        "standard_time_display": "2026-04-01 16:49 EST",
        "wfo": "RLX",
        "county_or_zone": "Wood",
        "city": "1 NNW Parkersburg",
        "state": "WV",
        "magnitude": 1.0,
        "magnitude_units": null,
        "source": "Public",
        "event_narrative": "A couple of simultaneous reports of quarter-sized hail in Parkersburg_ one on 19th street."
      },
      "geometry": {
        "type": "Point",
        "coordinates": [
          -81.55,
          39.28
        ]
      }
    },
    {
      "type": "Feature",
      "id": "iem-lsr-RLX-49",
      "properties": {
        "report_id": "iem-lsr-RLX-49",
        "report_type": "FLASH FLOOD",
        "event_category": "flooding",
        "valid_utc": "202604012150",
        "standard_time_display": "2026-04-01 16:50 EST",
        "wfo": "RLX",
        "county_or_zone": "Washington",
        "city": "1 W Marietta",
        "state": "OH",
        "magnitude": null,
        "magnitude_units": null,
        "source": "Public",
        "event_narrative": "Road covered with high water by 3rd street and 2nd street. Time reported by social media and photos were provided."
      },
      "geometry": {
        "type": "Point",
        "coordinates": [
          -81.46,
          39.42
        ]
      }
    },
    {
      "type": "Feature",
      "id": "iem-lsr-RLX-50",
      "properties": {
        "report_id": "iem-lsr-RLX-50",
        "report_type": "TSTM WND DMG",
        "event_category": "thunderstorm_wind",
        "valid_utc": "202604012152",
        "standard_time_display": "2026-04-01 16:52 EST",
        "wfo": "RLX",
        "county_or_zone": "Wood",
        "city": "1 NNE Parkersburg",
        "state": "WV",
        "magnitude": null,
        "magnitude_units": null,
        "source": "911 Call Center",
        "event_narrative": "Tree down."
      },
      "geometry": {
        "type": "Point",
        "coordinates": [
          -81.53,
          39.28
        ]
      }
    },
    {
      "type": "Feature",
      "id": "iem-lsr-RLX-51",
      "properties": {
        "report_id": "iem-lsr-RLX-51",
        "report_type": "TSTM WND DMG",
        "event_category": "thunderstorm_wind",
        "valid_utc": "202604012153",
        "standard_time_display": "2026-04-01 16:53 EST",
        "wfo": "RLX",
        "county_or_zone": "Wood",
        "city": "1 N Parkersburg",
        "state": "WV",
        "magnitude": null,
        "magnitude_units": null,
        "source": "911 Call Center",
        "event_narrative": "Power lines down along 22nd street."
      },
      "geometry": {
        "type": "Point",
        "coordinates": [
          -81.54,
          39.28
        ]
      }
    },
    {
      "type": "Feature",
      "id": "iem-lsr-RLX-52",
      "properties": {
        "report_id": "iem-lsr-RLX-52",
        "report_type": "TSTM WND DMG",
        "event_category": "thunderstorm_wind",
        "valid_utc": "202604012157",
        "standard_time_display": "2026-04-01 16:57 EST",
        "wfo": "RLX",
        "county_or_zone": "Wood",
        "city": "1 W Blennerhassett",
        "state": "WV",
        "magnitude": null,
        "magnitude_units": null,
        "source": "911 Call Center",
        "event_narrative": "Power Lines Down. Time estimated from radar."
      },
      "geometry": {
        "type": "Point",
        "coordinates": [
          -81.65,
          39.26
        ]
      }
    },
    {
      "type": "Feature",
      "id": "iem-lsr-RLX-53",
      "properties": {
        "report_id": "iem-lsr-RLX-53",
        "report_type": "TSTM WND DMG",
        "event_category": "thunderstorm_wind",
        "valid_utc": "202604012159",
        "standard_time_display": "2026-04-01 16:59 EST",
        "wfo": "RLX",
        "county_or_zone": "Wood",
        "city": "1 NE Parkersburg",
        "state": "WV",
        "magnitude": null,
        "magnitude_units": null,
        "source": "911 Call Center",
        "event_narrative": "Tree down on car and shed."
      },
      "geometry": {
        "type": "Point",
        "coordinates": [
          -81.52,
          39.27
        ]
      }
    },
    {
      "type": "Feature",
      "id": "iem-lsr-RLX-54",
      "properties": {
        "report_id": "iem-lsr-RLX-54",
        "report_type": "FLASH FLOOD",
        "event_category": "flooding",
        "valid_utc": "202604012200",
        "standard_time_display": "2026-04-01 17:00 EST",
        "wfo": "RLX",
        "county_or_zone": "Wood",
        "city": "2 N Parkersburg",
        "state": "WV",
        "magnitude": null,
        "magnitude_units": null,
        "source": "Public",
        "event_narrative": "Report from mPING: Streets flooded."
      },
      "geometry": {
        "type": "Point",
        "coordinates": [
          -81.54,
          39.29
        ]
      }
    },
    {
      "type": "Feature",
      "id": "iem-lsr-RLX-55",
      "properties": {
        "report_id": "iem-lsr-RLX-55",
        "report_type": "TSTM WND DMG",
        "event_category": "thunderstorm_wind",
        "valid_utc": "202604012201",
        "standard_time_display": "2026-04-01 17:01 EST",
        "wfo": "RLX",
        "county_or_zone": "Wood",
        "city": "1 N Parkersburg",
        "state": "WV",
        "magnitude": null,
        "magnitude_units": null,
        "source": "911 Call Center",
        "event_narrative": "Tree down on a house."
      },
      "geometry": {
        "type": "Point",
        "coordinates": [
          -81.54,
          39.28
        ]
      }
    },
    {
      "type": "Feature",
      "id": "iem-lsr-RLX-56",
      "properties": {
        "report_id": "iem-lsr-RLX-56",
        "report_type": "FLASH FLOOD",
        "event_category": "flooding",
        "valid_utc": "202604012202",
        "standard_time_display": "2026-04-01 17:02 EST",
        "wfo": "RLX",
        "county_or_zone": "Wood",
        "city": "1 E North Hills",
        "state": "WV",
        "magnitude": null,
        "magnitude_units": null,
        "source": "Public",
        "event_narrative": "Report from mPING: Street flooding."
      },
      "geometry": {
        "type": "Point",
        "coordinates": [
          -81.49,
          39.31
        ]
      }
    },
    {
      "type": "Feature",
      "id": "iem-lsr-RLX-57",
      "properties": {
        "report_id": "iem-lsr-RLX-57",
        "report_type": "TSTM WND DMG",
        "event_category": "thunderstorm_wind",
        "valid_utc": "202604012204",
        "standard_time_display": "2026-04-01 17:04 EST",
        "wfo": "RLX",
        "county_or_zone": "Wood",
        "city": "5 NE Mineral Wells",
        "state": "WV",
        "magnitude": null,
        "magnitude_units": null,
        "source": "911 Call Center",
        "event_narrative": "Corrects previous non-tstm wnd dmg report from 5 NE Mineral Wells. Tree across Little Stillwell Road."
      },
      "geometry": {
        "type": "Point",
        "coordinates": [
          -81.45,
          39.23
        ]
      }
    },
    {
      "type": "Feature",
      "id": "iem-lsr-RLX-58",
      "properties": {
        "report_id": "iem-lsr-RLX-58",
        "report_type": "NON-TSTM WND DMG",
        "event_category": "thunderstorm_wind",
        "valid_utc": "202604012204",
        "standard_time_display": "2026-04-01 17:04 EST",
        "wfo": "RLX",
        "county_or_zone": "Wood",
        "city": "5 NE Mineral Wells",
        "state": "WV",
        "magnitude": null,
        "magnitude_units": null,
        "source": "911 Call Center",
        "event_narrative": "Tree across Little Stillwell Road."
      },
      "geometry": {
        "type": "Point",
        "coordinates": [
          -81.45,
          39.23
        ]
      }
    },
    {
      "type": "Feature",
      "id": "iem-lsr-RLX-59",
      "properties": {
        "report_id": "iem-lsr-RLX-59",
        "report_type": "TSTM WND DMG",
        "event_category": "thunderstorm_wind",
        "valid_utc": "202604012207",
        "standard_time_display": "2026-04-01 17:07 EST",
        "wfo": "RLX",
        "county_or_zone": "Wood",
        "city": "9 ESE North Hills",
        "state": "WV",
        "magnitude": null,
        "magnitude_units": null,
        "source": "911 Call Center",
        "event_narrative": "Tree along Robert Byrd Highway and Progress Ridge Road blocking traffic."
      },
      "geometry": {
        "type": "Point",
        "coordinates": [
          -81.37,
          39.25
        ]
      }
    },
    {
      "type": "Feature",
      "id": "iem-lsr-RLX-60",
      "properties": {
        "report_id": "iem-lsr-RLX-60",
        "report_type": "TSTM WND DMG",
        "event_category": "thunderstorm_wind",
        "valid_utc": "202604012217",
        "standard_time_display": "2026-04-01 17:17 EST",
        "wfo": "RLX",
        "county_or_zone": "Gallia",
        "city": "Gallipolis",
        "state": "OH",
        "magnitude": null,
        "magnitude_units": null,
        "source": "Broadcast Media",
        "event_narrative": "Large tree down blocking Ohio Avenue. Time estimated from radar."
      },
      "geometry": {
        "type": "Point",
        "coordinates": [
          -82.19,
          38.83
        ]
      }
    },
    {
      "type": "Feature",
      "id": "iem-lsr-RLX-61",
      "properties": {
        "report_id": "iem-lsr-RLX-61",
        "report_type": "HAIL",
        "event_category": "hail",
        "valid_utc": "202604012220",
        "standard_time_display": "2026-04-01 17:20 EST",
        "wfo": "RLX",
        "county_or_zone": "Pleasants",
        "city": "1 NE Belmont",
        "state": "WV",
        "magnitude": 0.5,
        "magnitude_units": null,
        "source": "Public",
        "event_narrative": null
      },
      "geometry": {
        "type": "Point",
        "coordinates": [
          -81.25,
          39.39
        ]
      }
    },
    {
      "type": "Feature",
      "id": "iem-lsr-RLX-62",
      "properties": {
        "report_id": "iem-lsr-RLX-62",
        "report_type": "TSTM WND DMG",
        "event_category": "thunderstorm_wind",
        "valid_utc": "202604012222",
        "standard_time_display": "2026-04-01 17:22 EST",
        "wfo": "RLX",
        "county_or_zone": "Ritchie",
        "city": "4 NW Ellenboro",
        "state": "WV",
        "magnitude": null,
        "magnitude_units": null,
        "source": "911 Call Center",
        "event_narrative": "Tree down blocking Glendale Road in Cairo. Time estimated from radar."
      },
      "geometry": {
        "type": "Point",
        "coordinates": [
          -81.12,
          39.31
        ]
      }
    },
    {
      "type": "Feature",
      "id": "iem-lsr-RLX-63",
      "properties": {
        "report_id": "iem-lsr-RLX-63",
        "report_type": "TSTM WND DMG",
        "event_category": "thunderstorm_wind",
        "valid_utc": "202604012231",
        "standard_time_display": "2026-04-01 17:31 EST",
        "wfo": "RLX",
        "county_or_zone": "Pleasants",
        "city": "6 NNW Pennsboro",
        "state": "WV",
        "magnitude": null,
        "magnitude_units": null,
        "source": "Public",
        "event_narrative": "Tree down in lines. Time estimated from radar."
      },
      "geometry": {
        "type": "Point",
        "coordinates": [
          -81.03,
          39.36
        ]
      }
    },
    {
      "type": "Feature",
      "id": "iem-lsr-RLX-64",
      "properties": {
        "report_id": "iem-lsr-RLX-64",
        "report_type": "TSTM WND DMG",
        "event_category": "thunderstorm_wind",
        "valid_utc": "202604012233",
        "standard_time_display": "2026-04-01 17:33 EST",
        "wfo": "RLX",
        "county_or_zone": "Ritchie",
        "city": "3 N Ellenboro",
        "state": "WV",
        "magnitude": null,
        "magnitude_units": null,
        "source": "911 Call Center",
        "event_narrative": "Tree and power lines down. Time estimated from radar."
      },
      "geometry": {
        "type": "Point",
        "coordinates": [
          -81.05,
          39.3
        ]
      }
    },
    {
      "type": "Feature",
      "id": "iem-lsr-RLX-65",
      "properties": {
        "report_id": "iem-lsr-RLX-65",
        "report_type": "TSTM WND DMG",
        "event_category": "thunderstorm_wind",
        "valid_utc": "202604012240",
        "standard_time_display": "2026-04-01 17:40 EST",
        "wfo": "RLX",
        "county_or_zone": "Wirt",
        "city": "2 NNW Elizabeth",
        "state": "WV",
        "magnitude": null,
        "magnitude_units": null,
        "source": "911 Call Center",
        "event_narrative": "Tree in Roadway on WV-14 & Rose Hill Rd. Time estimated from radar."
      },
      "geometry": {
        "type": "Point",
        "coordinates": [
          -81.42,
          39.08
        ]
      }
    },
    {
      "type": "Feature",
      "id": "iem-lsr-RLX-66",
      "properties": {
        "report_id": "iem-lsr-RLX-66",
        "report_type": "TSTM WND DMG",
        "event_category": "thunderstorm_wind",
        "valid_utc": "202604012242",
        "standard_time_display": "2026-04-01 17:42 EST",
        "wfo": "RLX",
        "county_or_zone": "Ritchie",
        "city": "2 NNE Pennsboro",
        "state": "WV",
        "magnitude": null,
        "magnitude_units": null,
        "source": "911 Call Center",
        "event_narrative": "Tree down blocking Gnats Run Road. Time estimated from radar."
      },
      "geometry": {
        "type": "Point",
        "coordinates": [
          -80.97,
          39.31
        ]
      }
    },
    {
      "type": "Feature",
      "id": "iem-lsr-RLX-67",
      "properties": {
        "report_id": "iem-lsr-RLX-67",
        "report_type": "TSTM WND DMG",
        "event_category": "thunderstorm_wind",
        "valid_utc": "202604012252",
        "standard_time_display": "2026-04-01 17:52 EST",
        "wfo": "RLX",
        "county_or_zone": "Doddridge",
        "city": "3 NW West Union",
        "state": "WV",
        "magnitude": null,
        "magnitude_units": null,
        "source": "911 Call Center",
        "event_narrative": "Tree reported down in roadway."
      },
      "geometry": {
        "type": "Point",
        "coordinates": [
          -80.8,
          39.33
        ]
      }
    },
    {
      "type": "Feature",
      "id": "iem-lsr-RLX-68",
      "properties": {
        "report_id": "iem-lsr-RLX-68",
        "report_type": "FLASH FLOOD",
        "event_category": "flooding",
        "valid_utc": "202604012334",
        "standard_time_display": "2026-04-01 18:34 EST",
        "wfo": "RLX",
        "county_or_zone": "Mason",
        "city": "1 NE Point Pleasant",
        "state": "WV",
        "magnitude": null,
        "magnitude_units": null,
        "source": "Dept of Highways",
        "event_narrative": "High water along CR 16. The road is closed."
      },
      "geometry": {
        "type": "Point",
        "coordinates": [
          -82.12,
          38.86
        ]
      }
    },
    {
      "type": "Feature",
      "id": "iem-lsr-RLX-69",
      "properties": {
        "report_id": "iem-lsr-RLX-69",
        "report_type": "TSTM WND GST",
        "event_category": "thunderstorm_wind",
        "valid_utc": "202604012335",
        "standard_time_display": "2026-04-01 18:35 EST",
        "wfo": "RLX",
        "county_or_zone": "Harrison",
        "city": "3 WSW Clarksburg",
        "state": "WV",
        "magnitude": 61.0,
        "magnitude_units": null,
        "source": "Trained Spotter",
        "event_narrative": null
      },
      "geometry": {
        "type": "Point",
        "coordinates": [
          -80.39,
          39.26
        ]
      }
    },
    {
      "type": "Feature",
      "id": "iem-lsr-RLX-70",
      "properties": {
        "report_id": "iem-lsr-RLX-70",
        "report_type": "TSTM WND DMG",
        "event_category": "thunderstorm_wind",
        "valid_utc": "202604012335",
        "standard_time_display": "2026-04-01 18:35 EST",
        "wfo": "RLX",
        "county_or_zone": "Harrison",
        "city": "1 WSW Clarksburg",
        "state": "WV",
        "magnitude": null,
        "magnitude_units": null,
        "source": "911 Call Center",
        "event_narrative": "Tree down and blocking roadway. Time estimated from radar."
      },
      "geometry": {
        "type": "Point",
        "coordinates": [
          -80.34,
          39.28
        ]
      }
    },
    {
      "type": "Feature",
      "id": "iem-lsr-RLX-71",
      "properties": {
        "report_id": "iem-lsr-RLX-71",
        "report_type": "TSTM WND DMG",
        "event_category": "thunderstorm_wind",
        "valid_utc": "202604012335",
        "standard_time_display": "2026-04-01 18:35 EST",
        "wfo": "RLX",
        "county_or_zone": "Harrison",
        "city": "Clarksburg",
        "state": "WV",
        "magnitude": null,
        "magnitude_units": null,
        "source": "911 Call Center",
        "event_narrative": "Tree down along 2nd street in Clarksburg_ Time estimated from radar."
      },
      "geometry": {
        "type": "Point",
        "coordinates": [
          -80.34,
          39.28
        ]
      }
    },
    {
      "type": "Feature",
      "id": "iem-lsr-RLX-72",
      "properties": {
        "report_id": "iem-lsr-RLX-72",
        "report_type": "HAIL",
        "event_category": "hail",
        "valid_utc": "202604020137",
        "standard_time_display": "2026-04-01 20:37 EST",
        "wfo": "RLX",
        "county_or_zone": "Kanawha",
        "city": "Dunbar",
        "state": "WV",
        "magnitude": 0.7,
        "magnitude_units": null,
        "source": "Amateur Radio",
        "event_narrative": "Time estimated from radar."
      },
      "geometry": {
        "type": "Point",
        "coordinates": [
          -81.74,
          38.36
        ]
      }
    },
    {
      "type": "Feature",
      "id": "iem-lsr-RLX-73",
      "properties": {
        "report_id": "iem-lsr-RLX-73",
        "report_type": "HAIL",
        "event_category": "hail",
        "valid_utc": "202604020145",
        "standard_time_display": "2026-04-01 20:45 EST",
        "wfo": "RLX",
        "county_or_zone": "Kanawha",
        "city": "1 SW Dunbar",
        "state": "WV",
        "magnitude": 0.75,
        "magnitude_units": null,
        "source": "Public",
        "event_narrative": "Report from mPING: Dime (0.75 in.)."
      },
      "geometry": {
        "type": "Point",
        "coordinates": [
          -81.74,
          38.35
        ]
      }
    },
    {
      "type": "Feature",
      "id": "iem-lsr-RLX-74",
      "properties": {
        "report_id": "iem-lsr-RLX-74",
        "report_type": "SNOW",
        "event_category": "winter",
        "valid_utc": "202604201100",
        "standard_time_display": "2026-04-20 06:00 EST",
        "wfo": "RLX",
        "county_or_zone": "Pocahontas",
        "city": "1 S Snowshoe",
        "state": "WV",
        "magnitude": 0.2,
        "magnitude_units": null,
        "source": "CO-OP Observer",
        "event_narrative": "CO-OP Observer station SNOW2 Snowshoe."
      },
      "geometry": {
        "type": "Point",
        "coordinates": [
          -79.99,
          38.4
        ]
      }
    },
    {
      "type": "Feature",
      "id": "iem-lsr-RLX-75",
      "properties": {
        "report_id": "iem-lsr-RLX-75",
        "report_type": "TSTM WND DMG",
        "event_category": "thunderstorm_wind",
        "valid_utc": "202604280655",
        "standard_time_display": "2026-04-28 01:55 EST",
        "wfo": "RLX",
        "county_or_zone": "Carter",
        "city": "4 WSW Olive Hill",
        "state": "KY",
        "magnitude": null,
        "magnitude_units": null,
        "source": "911 Call Center",
        "event_narrative": "A few trees down next to Olive Hill on State Route 174. Power lines were down as well. Time estimated by radar."
      },
      "geometry": {
        "type": "Point",
        "coordinates": [
          -83.24,
          38.27
        ]
      }
    },
    {
      "type": "Feature",
      "id": "iem-lsr-RLX-76",
      "properties": {
        "report_id": "iem-lsr-RLX-76",
        "report_type": "TSTM WND DMG",
        "event_category": "thunderstorm_wind",
        "valid_utc": "202604292000",
        "standard_time_display": "2026-04-29 15:00 EST",
        "wfo": "RLX",
        "county_or_zone": "Fayette",
        "city": "3 ENE Fayetteville",
        "state": "WV",
        "magnitude": null,
        "magnitude_units": null,
        "source": "Dept of Highways",
        "event_narrative": "Tree down across Whispering Pines Lane."
      },
      "geometry": {
        "type": "Point",
        "coordinates": [
          -81.05,
          38.08
        ]
      }
    },
    {
      "type": "Feature",
      "id": "iem-lsr-RLX-77",
      "properties": {
        "report_id": "iem-lsr-RLX-77",
        "report_type": "TORNADO",
        "event_category": "tornado",
        "valid_utc": "202604292003",
        "standard_time_display": "2026-04-29 15:03 EST",
        "wfo": "RLX",
        "county_or_zone": "Fayette",
        "city": "3 NE Fayetteville",
        "state": "WV",
        "magnitude": null,
        "magnitude_units": null,
        "source": "NWS Storm Survey",
        "event_narrative": "An EF1 tornado began in the Pine Grove community of Fayette County_ skipping along a 5 mile path in an east-southeasterly direction_ lifting near the intersection of Mountain Vista Dr and US 60 in th"
      },
      "geometry": {
        "type": "Point",
        "coordinates": [
          -81.05,
          38.08
        ]
      }
    },
    {
      "type": "Feature",
      "id": "iem-lsr-RLX-78",
      "properties": {
        "report_id": "iem-lsr-RLX-78",
        "report_type": "TSTM WND DMG",
        "event_category": "thunderstorm_wind",
        "valid_utc": "202604292008",
        "standard_time_display": "2026-04-29 15:08 EST",
        "wfo": "RLX",
        "county_or_zone": "Fayette",
        "city": "4 N Babcock State Park",
        "state": "WV",
        "magnitude": null,
        "magnitude_units": null,
        "source": "Broadcast Media",
        "event_narrative": "Multiple trees down including at least one uprooted along Lansing Edmond Road near Winona. Photos provided. Time estimated from radar including possible rotation and debris ball."
      },
      "geometry": {
        "type": "Point",
        "coordinates": [
          -80.99,
          38.06
        ]
      }
    },
    {
      "type": "Feature",
      "id": "iem-lsr-RLX-79",
      "properties": {
        "report_id": "iem-lsr-RLX-79",
        "report_type": "TSTM WND DMG",
        "event_category": "thunderstorm_wind",
        "valid_utc": "202604292010",
        "standard_time_display": "2026-04-29 15:10 EST",
        "wfo": "RLX",
        "county_or_zone": "Fayette",
        "city": "5 N Babcock State Park",
        "state": "WV",
        "magnitude": null,
        "magnitude_units": null,
        "source": "Broadcast Media",
        "event_narrative": "Multiple trees down in Lookout_ one damaging a small structure. Photos and videos provided via broadcast media via social media show leaves plastered against a house with vinyl siding_ and on a vehic"
      },
      "geometry": {
        "type": "Point",
        "coordinates": [
          -80.97,
          38.06
        ]
      }
    },
    {
      "type": "Feature",
      "id": "iem-lsr-RLX-80",
      "properties": {
        "report_id": "iem-lsr-RLX-80",
        "report_type": "TSTM WND DMG",
        "event_category": "thunderstorm_wind",
        "valid_utc": "202604292011",
        "standard_time_display": "2026-04-29 15:11 EST",
        "wfo": "RLX",
        "county_or_zone": "Fayette",
        "city": "4 ENE Fayetteville",
        "state": "WV",
        "magnitude": null,
        "magnitude_units": null,
        "source": "Utility Company",
        "event_narrative": "Trees and lines down along Pine Grove School Rd."
      },
      "geometry": {
        "type": "Point",
        "coordinates": [
          -81.03,
          38.07
        ]
      }
    }
  ]
}