{
  "type": "FeatureCollection",
  "metadata": {
    "schema_version": "0.2.4",
    "year": 2026,
    "month": 6,
    "wfo": "BMX",
    "start_utc": "2026-06-01T00:00:00Z",
    "end_utc": "2026-07-01T00:00:00Z",
    "generated_utc": "2026-06-02T12:51:06Z",
    "mode": "storm_data_prep",
    "public_release_status": "public-source-derived",
    "time_note": "Storm Data entry times should be reviewed in local Standard Time (ST), not daylight time. Candidate reports include standard_time_display.",
    "tornado_track_policy": "Tornado tracks must come from DAT. NCEI begin/end coordinates are not used as a tornado track substitute.",
    "source": "https://mesonet.agron.iastate.edu/cgi-bin/request/gis/lsr.py?wfo=BMX&sts=2026-06-01T00%3A00%3A00Z&ets=2026-07-01T00%3A00%3A00Z&fmt=csv"
  },
  "features": [
    {
      "type": "Feature",
      "id": "iem-lsr-BMX-1",
      "properties": {
        "report_id": "iem-lsr-BMX-1",
        "report_type": "TSTM WND DMG",
        "event_category": "thunderstorm_wind",
        "valid_utc": "202606011800",
        "standard_time_display": "2026-06-01 12:00 CST",
        "wfo": "BMX",
        "county_or_zone": "Marion",
        "city": "1 E Hackleburg",
        "state": "AL",
        "magnitude": null,
        "magnitude_units": null,
        "source": "911 Call Center",
        "event_narrative": "Corrected LSR formatting. Trees and power lines down along Highway 172 in Hackleburg."
      },
      "geometry": {
        "type": "Point",
        "coordinates": [
          -87.82,
          34.27
        ]
      }
    },
    {
      "type": "Feature",
      "id": "iem-lsr-BMX-2",
      "properties": {
        "report_id": "iem-lsr-BMX-2",
        "report_type": "TSTM WND DMG",
        "event_category": "thunderstorm_wind",
        "valid_utc": "202606011800",
        "standard_time_display": "2026-06-01 12:00 CST",
        "wfo": "BMX",
        "county_or_zone": "Marion",
        "city": "5 ENE Shottsville",
        "state": "AL",
        "magnitude": null,
        "magnitude_units": null,
        "source": "911 Call Center",
        "event_narrative": "Corrected LSR formatting. Trees and powerlines down near Shottsville on Highway 19 and also on Downs Rd."
      },
      "geometry": {
        "type": "Point",
        "coordinates": [
          -88.05,
          34.29
        ]
      }
    },
    {
      "type": "Feature",
      "id": "iem-lsr-BMX-3",
      "properties": {
        "report_id": "iem-lsr-BMX-3",
        "report_type": "TSTM WND DMG",
        "event_category": "thunderstorm_wind",
        "valid_utc": "202606011815",
        "standard_time_display": "2026-06-01 12:15 CST",
        "wfo": "BMX",
        "county_or_zone": "Marion",
        "city": "4 ENE Byrd",
        "state": "AL",
        "magnitude": null,
        "magnitude_units": null,
        "source": "Public",
        "event_narrative": "Trees and power lines down along County Highway 122 and also along Highway 17."
      },
      "geometry": {
        "type": "Point",
        "coordinates": [
          -88.07,
          34.1
        ]
      }
    },
    {
      "type": "Feature",
      "id": "iem-lsr-BMX-4",
      "properties": {
        "report_id": "iem-lsr-BMX-4",
        "report_type": "TSTM WND DMG",
        "event_category": "thunderstorm_wind",
        "valid_utc": "202606011820",
        "standard_time_display": "2026-06-01 12:20 CST",
        "wfo": "BMX",
        "county_or_zone": "Winston",
        "city": "Double Springs",
        "state": "AL",
        "magnitude": null,
        "magnitude_units": null,
        "source": "CO-OP Observer",
        "event_narrative": "Tress down across parts of the county."
      },
      "geometry": {
        "type": "Point",
        "coordinates": [
          -87.4,
          34.15
        ]
      }
    },
    {
      "type": "Feature",
      "id": "iem-lsr-BMX-5",
      "properties": {
        "report_id": "iem-lsr-BMX-5",
        "report_type": "TSTM WND DMG",
        "event_category": "thunderstorm_wind",
        "valid_utc": "202606011839",
        "standard_time_display": "2026-06-01 12:39 CST",
        "wfo": "BMX",
        "county_or_zone": "Marion",
        "city": "2 WSW Guin",
        "state": "AL",
        "magnitude": null,
        "magnitude_units": null,
        "source": "911 Call Center",
        "event_narrative": "Trees and power lines down along Highway 278."
      },
      "geometry": {
        "type": "Point",
        "coordinates": [
          -87.95,
          33.95
        ]
      }
    },
    {
      "type": "Feature",
      "id": "iem-lsr-BMX-6",
      "properties": {
        "report_id": "iem-lsr-BMX-6",
        "report_type": "TSTM WND DMG",
        "event_category": "thunderstorm_wind",
        "valid_utc": "202606011851",
        "standard_time_display": "2026-06-01 12:51 CST",
        "wfo": "BMX",
        "county_or_zone": "Lamar",
        "city": "Vernon",
        "state": "AL",
        "magnitude": null,
        "magnitude_units": null,
        "source": "911 Call Center",
        "event_narrative": "Multiple trees and powerlines down countywide."
      },
      "geometry": {
        "type": "Point",
        "coordinates": [
          -88.11,
          33.76
        ]
      }
    },
    {
      "type": "Feature",
      "id": "iem-lsr-BMX-7",
      "properties": {
        "report_id": "iem-lsr-BMX-7",
        "report_type": "TSTM WND DMG",
        "event_category": "thunderstorm_wind",
        "valid_utc": "202606011853",
        "standard_time_display": "2026-06-01 12:53 CST",
        "wfo": "BMX",
        "county_or_zone": "Walker",
        "city": "4 WSW Nauvoo",
        "state": "AL",
        "magnitude": null,
        "magnitude_units": null,
        "source": "911 Call Center",
        "event_narrative": "Trees and power lines down on Mill Creek Rd and also on highway 5."
      },
      "geometry": {
        "type": "Point",
        "coordinates": [
          -87.55,
          33.96
        ]
      }
    },
    {
      "type": "Feature",
      "id": "iem-lsr-BMX-8",
      "properties": {
        "report_id": "iem-lsr-BMX-8",
        "report_type": "TSTM WND DMG",
        "event_category": "thunderstorm_wind",
        "valid_utc": "202606011859",
        "standard_time_display": "2026-06-01 12:59 CST",
        "wfo": "BMX",
        "county_or_zone": "Blount",
        "city": "1 SE Susan Moore",
        "state": "AL",
        "magnitude": null,
        "magnitude_units": null,
        "source": "Fire Dept/Rescue",
        "event_narrative": "Multiple trees down Burgett Rd."
      },
      "geometry": {
        "type": "Point",
        "coordinates": [
          -86.42,
          34.07
        ]
      }
    },
    {
      "type": "Feature",
      "id": "iem-lsr-BMX-9",
      "properties": {
        "report_id": "iem-lsr-BMX-9",
        "report_type": "TSTM WND DMG",
        "event_category": "thunderstorm_wind",
        "valid_utc": "202606011900",
        "standard_time_display": "2026-06-01 13:00 CST",
        "wfo": "BMX",
        "county_or_zone": "Walker",
        "city": "1 NNE Jasper",
        "state": "AL",
        "magnitude": null,
        "magnitude_units": null,
        "source": "911 Call Center",
        "event_narrative": "Multiple trees down around Jasper."
      },
      "geometry": {
        "type": "Point",
        "coordinates": [
          -87.27,
          33.84
        ]
      }
    },
    {
      "type": "Feature",
      "id": "iem-lsr-BMX-10",
      "properties": {
        "report_id": "iem-lsr-BMX-10",
        "report_type": "TSTM WND DMG",
        "event_category": "thunderstorm_wind",
        "valid_utc": "202606011900",
        "standard_time_display": "2026-06-01 13:00 CST",
        "wfo": "BMX",
        "county_or_zone": "Blount",
        "city": "3 SE Mclarty",
        "state": "AL",
        "magnitude": null,
        "magnitude_units": null,
        "source": "Emergency Mngr",
        "event_narrative": "Tree on mobile home on Highway 75."
      },
      "geometry": {
        "type": "Point",
        "coordinates": [
          -86.37,
          34.15
        ]
      }
    },
    {
      "type": "Feature",
      "id": "iem-lsr-BMX-11",
      "properties": {
        "report_id": "iem-lsr-BMX-11",
        "report_type": "TSTM WND DMG",
        "event_category": "thunderstorm_wind",
        "valid_utc": "202606011904",
        "standard_time_display": "2026-06-01 13:04 CST",
        "wfo": "BMX",
        "county_or_zone": "Walker",
        "city": "1 N Cedrum",
        "state": "AL",
        "magnitude": null,
        "magnitude_units": null,
        "source": "911 Call Center",
        "event_narrative": "Tree down on Ripley Road in Carbon Hill."
      },
      "geometry": {
        "type": "Point",
        "coordinates": [
          -87.44,
          33.87
        ]
      }
    },
    {
      "type": "Feature",
      "id": "iem-lsr-BMX-12",
      "properties": {
        "report_id": "iem-lsr-BMX-12",
        "report_type": "TSTM WND DMG",
        "event_category": "thunderstorm_wind",
        "valid_utc": "202606011905",
        "standard_time_display": "2026-06-01 13:05 CST",
        "wfo": "BMX",
        "county_or_zone": "Fayette",
        "city": "1 S Fayette",
        "state": "AL",
        "magnitude": null,
        "magnitude_units": null,
        "source": "Emergency Mngr",
        "event_narrative": "Multiple trees and power lines down countywide."
      },
      "geometry": {
        "type": "Point",
        "coordinates": [
          -87.83,
          33.68
        ]
      }
    },
    {
      "type": "Feature",
      "id": "iem-lsr-BMX-13",
      "properties": {
        "report_id": "iem-lsr-BMX-13",
        "report_type": "TSTM WND DMG",
        "event_category": "thunderstorm_wind",
        "valid_utc": "202606011909",
        "standard_time_display": "2026-06-01 13:09 CST",
        "wfo": "BMX",
        "county_or_zone": "Etowah",
        "city": "1 NW Gallant",
        "state": "AL",
        "magnitude": null,
        "magnitude_units": null,
        "source": "Emergency Mngr",
        "event_narrative": "Tree down on Tumlin Gap Rd."
      },
      "geometry": {
        "type": "Point",
        "coordinates": [
          -86.25,
          34.01
        ]
      }
    },
    {
      "type": "Feature",
      "id": "iem-lsr-BMX-14",
      "properties": {
        "report_id": "iem-lsr-BMX-14",
        "report_type": "TSTM WND DMG",
        "event_category": "thunderstorm_wind",
        "valid_utc": "202606011909",
        "standard_time_display": "2026-06-01 13:09 CST",
        "wfo": "BMX",
        "county_or_zone": "Blount",
        "city": "1 WSW Blount Springs",
        "state": "AL",
        "magnitude": null,
        "magnitude_units": null,
        "source": "Emergency Mngr",
        "event_narrative": "Tree down at Highway 31 and County Road 5 and along County Road 9."
      },
      "geometry": {
        "type": "Point",
        "coordinates": [
          -86.81,
          33.92
        ]
      }
    },
    {
      "type": "Feature",
      "id": "iem-lsr-BMX-15",
      "properties": {
        "report_id": "iem-lsr-BMX-15",
        "report_type": "TSTM WND DMG",
        "event_category": "thunderstorm_wind",
        "valid_utc": "202606011909",
        "standard_time_display": "2026-06-01 13:09 CST",
        "wfo": "BMX",
        "county_or_zone": "Fayette",
        "city": "3 NNE Bevill State Coll",
        "state": "AL",
        "magnitude": null,
        "magnitude_units": null,
        "source": "Emergency Mngr",
        "event_narrative": "Tree down Gun Club Road."
      },
      "geometry": {
        "type": "Point",
        "coordinates": [
          -87.8,
          33.76
        ]
      }
    },
    {
      "type": "Feature",
      "id": "iem-lsr-BMX-16",
      "properties": {
        "report_id": "iem-lsr-BMX-16",
        "report_type": "TSTM WND DMG",
        "event_category": "thunderstorm_wind",
        "valid_utc": "202606011915",
        "standard_time_display": "2026-06-01 13:15 CST",
        "wfo": "BMX",
        "county_or_zone": "Etowah",
        "city": "1 NW Attalla",
        "state": "AL",
        "magnitude": null,
        "magnitude_units": null,
        "source": "Emergency Mngr",
        "event_narrative": "Trees down on Highway 179 and Highway 77."
      },
      "geometry": {
        "type": "Point",
        "coordinates": [
          -86.12,
          34.03
        ]
      }
    },
    {
      "type": "Feature",
      "id": "iem-lsr-BMX-17",
      "properties": {
        "report_id": "iem-lsr-BMX-17",
        "report_type": "TSTM WND DMG",
        "event_category": "thunderstorm_wind",
        "valid_utc": "202606011915",
        "standard_time_display": "2026-06-01 13:15 CST",
        "wfo": "BMX",
        "county_or_zone": "Blount",
        "city": "1 WSW Oneonta",
        "state": "AL",
        "magnitude": null,
        "magnitude_units": null,
        "source": "Emergency Mngr",
        "event_narrative": "Carport blown into roadway. Other trees down in the area."
      },
      "geometry": {
        "type": "Point",
        "coordinates": [
          -86.48,
          33.95
        ]
      }
    },
    {
      "type": "Feature",
      "id": "iem-lsr-BMX-18",
      "properties": {
        "report_id": "iem-lsr-BMX-18",
        "report_type": "TSTM WND DMG",
        "event_category": "thunderstorm_wind",
        "valid_utc": "202606011915",
        "standard_time_display": "2026-06-01 13:15 CST",
        "wfo": "BMX",
        "county_or_zone": "Jefferson",
        "city": "Trafford",
        "state": "AL",
        "magnitude": null,
        "magnitude_units": null,
        "source": "Emergency Mngr",
        "event_narrative": "Trees down in Trafford."
      },
      "geometry": {
        "type": "Point",
        "coordinates": [
          -86.74,
          33.82
        ]
      }
    },
    {
      "type": "Feature",
      "id": "iem-lsr-BMX-19",
      "properties": {
        "report_id": "iem-lsr-BMX-19",
        "report_type": "TSTM WND DMG",
        "event_category": "thunderstorm_wind",
        "valid_utc": "202606011915",
        "standard_time_display": "2026-06-01 13:15 CST",
        "wfo": "BMX",
        "county_or_zone": "Jefferson",
        "city": "Warrior",
        "state": "AL",
        "magnitude": null,
        "magnitude_units": null,
        "source": "911 Call Center",
        "event_narrative": "Tree fell on occupied vehicle. No injuries."
      },
      "geometry": {
        "type": "Point",
        "coordinates": [
          -86.81,
          33.81
        ]
      }
    },
    {
      "type": "Feature",
      "id": "iem-lsr-BMX-20",
      "properties": {
        "report_id": "iem-lsr-BMX-20",
        "report_type": "TSTM WND DMG",
        "event_category": "thunderstorm_wind",
        "valid_utc": "202606011920",
        "standard_time_display": "2026-06-01 13:20 CST",
        "wfo": "BMX",
        "county_or_zone": "Walker",
        "city": "1 NNW Empire",
        "state": "AL",
        "magnitude": null,
        "magnitude_units": null,
        "source": "911 Call Center",
        "event_narrative": "Tree down on coon creek road."
      },
      "geometry": {
        "type": "Point",
        "coordinates": [
          -87.02,
          33.82
        ]
      }
    },
    {
      "type": "Feature",
      "id": "iem-lsr-BMX-21",
      "properties": {
        "report_id": "iem-lsr-BMX-21",
        "report_type": "TSTM WND DMG",
        "event_category": "thunderstorm_wind",
        "valid_utc": "202606011920",
        "standard_time_display": "2026-06-01 13:20 CST",
        "wfo": "BMX",
        "county_or_zone": "Walker",
        "city": "1 W Cordova",
        "state": "AL",
        "magnitude": null,
        "magnitude_units": null,
        "source": "911 Call Center",
        "event_narrative": "Multiple trees down around Cordova and Parrish."
      },
      "geometry": {
        "type": "Point",
        "coordinates": [
          -87.2,
          33.76
        ]
      }
    },
    {
      "type": "Feature",
      "id": "iem-lsr-BMX-22",
      "properties": {
        "report_id": "iem-lsr-BMX-22",
        "report_type": "TSTM WND GST",
        "event_category": "thunderstorm_wind",
        "valid_utc": "202606011925",
        "standard_time_display": "2026-06-01 13:25 CST",
        "wfo": "BMX",
        "county_or_zone": "Etowah",
        "city": "Gadsden Municipal Airpo",
        "state": "AL",
        "magnitude": 48.0,
        "magnitude_units": null,
        "source": "AWOS",
        "event_narrative": "Peak gust of 42 kts at GAD."
      },
      "geometry": {
        "type": "Point",
        "coordinates": [
          -86.09,
          33.97
        ]
      }
    },
    {
      "type": "Feature",
      "id": "iem-lsr-BMX-23",
      "properties": {
        "report_id": "iem-lsr-BMX-23",
        "report_type": "TSTM WND DMG",
        "event_category": "thunderstorm_wind",
        "valid_utc": "202606011925",
        "standard_time_display": "2026-06-01 13:25 CST",
        "wfo": "BMX",
        "county_or_zone": "Walker",
        "city": "1 E Dora",
        "state": "AL",
        "magnitude": null,
        "magnitude_units": null,
        "source": "911 Call Center",
        "event_narrative": "Tree down Sellers Rd."
      },
      "geometry": {
        "type": "Point",
        "coordinates": [
          -87.07,
          33.73
        ]
      }
    },
    {
      "type": "Feature",
      "id": "iem-lsr-BMX-24",
      "properties": {
        "report_id": "iem-lsr-BMX-24",
        "report_type": "TSTM WND DMG",
        "event_category": "thunderstorm_wind",
        "valid_utc": "202606011925",
        "standard_time_display": "2026-06-01 13:25 CST",
        "wfo": "BMX",
        "county_or_zone": "Blount",
        "city": "3 SE Remlap",
        "state": "AL",
        "magnitude": null,
        "magnitude_units": null,
        "source": "Emergency Mngr",
        "event_narrative": "Tree down valley grove rd."
      },
      "geometry": {
        "type": "Point",
        "coordinates": [
          -86.57,
          33.81
        ]
      }
    },
    {
      "type": "Feature",
      "id": "iem-lsr-BMX-25",
      "properties": {
        "report_id": "iem-lsr-BMX-25",
        "report_type": "TSTM WND DMG",
        "event_category": "thunderstorm_wind",
        "valid_utc": "202606011925",
        "standard_time_display": "2026-06-01 13:25 CST",
        "wfo": "BMX",
        "county_or_zone": "Etowah",
        "city": "Gadsden",
        "state": "AL",
        "magnitude": null,
        "magnitude_units": null,
        "source": "Emergency Mngr",
        "event_narrative": "Multiple trees down in Gadsden."
      },
      "geometry": {
        "type": "Point",
        "coordinates": [
          -86.0,
          34.01
        ]
      }
    },
    {
      "type": "Feature",
      "id": "iem-lsr-BMX-26",
      "properties": {
        "report_id": "iem-lsr-BMX-26",
        "report_type": "TSTM WND DMG",
        "event_category": "thunderstorm_wind",
        "valid_utc": "202606011925",
        "standard_time_display": "2026-06-01 13:25 CST",
        "wfo": "BMX",
        "county_or_zone": "St. Clair",
        "city": "Whitney Junction",
        "state": "AL",
        "magnitude": null,
        "magnitude_units": null,
        "source": "Amateur Radio",
        "event_narrative": "Tree down in Whitney."
      },
      "geometry": {
        "type": "Point",
        "coordinates": [
          -86.3,
          33.88
        ]
      }
    },
    {
      "type": "Feature",
      "id": "iem-lsr-BMX-27",
      "properties": {
        "report_id": "iem-lsr-BMX-27",
        "report_type": "TSTM WND DMG",
        "event_category": "thunderstorm_wind",
        "valid_utc": "202606011929",
        "standard_time_display": "2026-06-01 13:29 CST",
        "wfo": "BMX",
        "county_or_zone": "Jefferson",
        "city": "1 NNW Fultondale",
        "state": "AL",
        "magnitude": null,
        "magnitude_units": null,
        "source": "Broadcast Media",
        "event_narrative": "Multiple trees were downed around Fultondale_ with several blocked roadways_ including KC Dement Ave_ Stouts Rd_ and 34th St N."
      },
      "geometry": {
        "type": "Point",
        "coordinates": [
          -86.81,
          33.63
        ]
      }
    },
    {
      "type": "Feature",
      "id": "iem-lsr-BMX-28",
      "properties": {
        "report_id": "iem-lsr-BMX-28",
        "report_type": "HAIL",
        "event_category": "hail",
        "valid_utc": "202606011930",
        "standard_time_display": "2026-06-01 13:30 CST",
        "wfo": "BMX",
        "county_or_zone": "Etowah",
        "city": "Gadsden",
        "state": "AL",
        "magnitude": 0.88,
        "magnitude_units": null,
        "source": "Public",
        "event_narrative": null
      },
      "geometry": {
        "type": "Point",
        "coordinates": [
          -86.01,
          34.01
        ]
      }
    },
    {
      "type": "Feature",
      "id": "iem-lsr-BMX-29",
      "properties": {
        "report_id": "iem-lsr-BMX-29",
        "report_type": "TSTM WND DMG",
        "event_category": "thunderstorm_wind",
        "valid_utc": "202606011930",
        "standard_time_display": "2026-06-01 13:30 CST",
        "wfo": "BMX",
        "county_or_zone": "St. Clair",
        "city": "1 ESE Wattsville",
        "state": "AL",
        "magnitude": null,
        "magnitude_units": null,
        "source": "911 Call Center",
        "event_narrative": "Multiple trees down around Highway 231 and Highway 144."
      },
      "geometry": {
        "type": "Point",
        "coordinates": [
          -86.26,
          33.67
        ]
      }
    },
    {
      "type": "Feature",
      "id": "iem-lsr-BMX-30",
      "properties": {
        "report_id": "iem-lsr-BMX-30",
        "report_type": "TSTM WND DMG",
        "event_category": "thunderstorm_wind",
        "valid_utc": "202606011930",
        "standard_time_display": "2026-06-01 13:30 CST",
        "wfo": "BMX",
        "county_or_zone": "St. Clair",
        "city": "2 NE Whitney Junction",
        "state": "AL",
        "magnitude": null,
        "magnitude_units": null,
        "source": "Emergency Mngr",
        "event_narrative": "Tree blocking roadway Highway 11 and Frost Hollow Road."
      },
      "geometry": {
        "type": "Point",
        "coordinates": [
          -86.27,
          33.89
        ]
      }
    },
    {
      "type": "Feature",
      "id": "iem-lsr-BMX-31",
      "properties": {
        "report_id": "iem-lsr-BMX-31",
        "report_type": "TSTM WND DMG",
        "event_category": "thunderstorm_wind",
        "valid_utc": "202606011930",
        "standard_time_display": "2026-06-01 13:30 CST",
        "wfo": "BMX",
        "county_or_zone": "Jefferson",
        "city": "2 SSW Pinson",
        "state": "AL",
        "magnitude": null,
        "magnitude_units": null,
        "source": "911 Call Center",
        "event_narrative": "Trees down Pinson Valley Parkway."
      },
      "geometry": {
        "type": "Point",
        "coordinates": [
          -86.7,
          33.67
        ]
      }
    },
    {
      "type": "Feature",
      "id": "iem-lsr-BMX-32",
      "properties": {
        "report_id": "iem-lsr-BMX-32",
        "report_type": "TSTM WND DMG",
        "event_category": "thunderstorm_wind",
        "valid_utc": "202606011930",
        "standard_time_display": "2026-06-01 13:30 CST",
        "wfo": "BMX",
        "county_or_zone": "Etowah",
        "city": "3 WSW Southside",
        "state": "AL",
        "magnitude": null,
        "magnitude_units": null,
        "source": "Emergency Mngr",
        "event_narrative": "Trees down on Lister Ferry Rd and also Steele Station rd."
      },
      "geometry": {
        "type": "Point",
        "coordinates": [
          -86.08,
          33.91
        ]
      }
    },
    {
      "type": "Feature",
      "id": "iem-lsr-BMX-33",
      "properties": {
        "report_id": "iem-lsr-BMX-33",
        "report_type": "TSTM WND DMG",
        "event_category": "thunderstorm_wind",
        "valid_utc": "202606011930",
        "standard_time_display": "2026-06-01 13:30 CST",
        "wfo": "BMX",
        "county_or_zone": "Jefferson",
        "city": "Pinson",
        "state": "AL",
        "magnitude": null,
        "magnitude_units": null,
        "source": "Emergency Mngr",
        "event_narrative": "Multiple trees down in Pinson."
      },
      "geometry": {
        "type": "Point",
        "coordinates": [
          -86.69,
          33.69
        ]
      }
    },
    {
      "type": "Feature",
      "id": "iem-lsr-BMX-34",
      "properties": {
        "report_id": "iem-lsr-BMX-34",
        "report_type": "TSTM WND DMG",
        "event_category": "thunderstorm_wind",
        "valid_utc": "202606011935",
        "standard_time_display": "2026-06-01 13:35 CST",
        "wfo": "BMX",
        "county_or_zone": "Jefferson",
        "city": "Adamsville",
        "state": "AL",
        "magnitude": null,
        "magnitude_units": null,
        "source": "911 Call Center",
        "event_narrative": "Large tree down on Bankhead Highway."
      },
      "geometry": {
        "type": "Point",
        "coordinates": [
          -86.96,
          33.6
        ]
      }
    },
    {
      "type": "Feature",
      "id": "iem-lsr-BMX-35",
      "properties": {
        "report_id": "iem-lsr-BMX-35",
        "report_type": "TSTM WND DMG",
        "event_category": "thunderstorm_wind",
        "valid_utc": "202606011939",
        "standard_time_display": "2026-06-01 13:39 CST",
        "wfo": "BMX",
        "county_or_zone": "St. Clair",
        "city": "1 SSW Odenville",
        "state": "AL",
        "magnitude": null,
        "magnitude_units": null,
        "source": "911 Call Center",
        "event_narrative": "Multiple trees down around Odenville."
      },
      "geometry": {
        "type": "Point",
        "coordinates": [
          -86.4,
          33.68
        ]
      }
    },
    {
      "type": "Feature",
      "id": "iem-lsr-BMX-36",
      "properties": {
        "report_id": "iem-lsr-BMX-36",
        "report_type": "TSTM WND GST",
        "event_category": "thunderstorm_wind",
        "valid_utc": "202606011941",
        "standard_time_display": "2026-06-01 13:41 CST",
        "wfo": "BMX",
        "county_or_zone": "Jefferson",
        "city": "Birmingham Internationa",
        "state": "AL",
        "magnitude": 53.0,
        "magnitude_units": null,
        "source": "ASOS",
        "event_narrative": "46kt max gust at BHM."
      },
      "geometry": {
        "type": "Point",
        "coordinates": [
          -86.75,
          33.56
        ]
      }
    },
    {
      "type": "Feature",
      "id": "iem-lsr-BMX-37",
      "properties": {
        "report_id": "iem-lsr-BMX-37",
        "report_type": "TSTM WND DMG",
        "event_category": "thunderstorm_wind",
        "valid_utc": "202606011942",
        "standard_time_display": "2026-06-01 13:42 CST",
        "wfo": "BMX",
        "county_or_zone": "Jefferson",
        "city": "2 SW Birmingport",
        "state": "AL",
        "magnitude": null,
        "magnitude_units": null,
        "source": "911 Call Center",
        "event_narrative": "Tree down alliance rd."
      },
      "geometry": {
        "type": "Point",
        "coordinates": [
          -87.13,
          33.54
        ]
      }
    },
    {
      "type": "Feature",
      "id": "iem-lsr-BMX-38",
      "properties": {
        "report_id": "iem-lsr-BMX-38",
        "report_type": "TSTM WND DMG",
        "event_category": "thunderstorm_wind",
        "valid_utc": "202606011942",
        "standard_time_display": "2026-06-01 13:42 CST",
        "wfo": "BMX",
        "county_or_zone": "Jefferson",
        "city": "2 WSW Trussville",
        "state": "AL",
        "magnitude": null,
        "magnitude_units": null,
        "source": "911 Call Center",
        "event_narrative": "Tree down on Valley Rd near the Pinnacle."
      },
      "geometry": {
        "type": "Point",
        "coordinates": [
          -86.64,
          33.61
        ]
      }
    },
    {
      "type": "Feature",
      "id": "iem-lsr-BMX-39",
      "properties": {
        "report_id": "iem-lsr-BMX-39",
        "report_type": "TSTM WND DMG",
        "event_category": "thunderstorm_wind",
        "valid_utc": "202606011945",
        "standard_time_display": "2026-06-01 13:45 CST",
        "wfo": "BMX",
        "county_or_zone": "Pickens",
        "city": "Reform",
        "state": "AL",
        "magnitude": null,
        "magnitude_units": null,
        "source": "911 Call Center",
        "event_narrative": "Tree down in Reform. Also a tree down in Carrolton."
      },
      "geometry": {
        "type": "Point",
        "coordinates": [
          -88.02,
          33.38
        ]
      }
    },
    {
      "type": "Feature",
      "id": "iem-lsr-BMX-40",
      "properties": {
        "report_id": "iem-lsr-BMX-40",
        "report_type": "TSTM WND DMG",
        "event_category": "thunderstorm_wind",
        "valid_utc": "202606011949",
        "standard_time_display": "2026-06-01 13:49 CST",
        "wfo": "BMX",
        "county_or_zone": "Jefferson",
        "city": "2 W Inverness",
        "state": "AL",
        "magnitude": null,
        "magnitude_units": null,
        "source": "Emergency Mngr",
        "event_narrative": "Tree down blocking one lane at Caldwell Mill and Camp Horner Road."
      },
      "geometry": {
        "type": "Point",
        "coordinates": [
          -86.74,
          33.42
        ]
      }
    },
    {
      "type": "Feature",
      "id": "iem-lsr-BMX-41",
      "properties": {
        "report_id": "iem-lsr-BMX-41",
        "report_type": "TSTM WND DMG",
        "event_category": "thunderstorm_wind",
        "valid_utc": "202606011949",
        "standard_time_display": "2026-06-01 13:49 CST",
        "wfo": "BMX",
        "county_or_zone": "Calhoun",
        "city": "2 W Wellington",
        "state": "AL",
        "magnitude": null,
        "magnitude_units": null,
        "source": "Public",
        "event_narrative": "Multiple trees down Graham Drive."
      },
      "geometry": {
        "type": "Point",
        "coordinates": [
          -85.92,
          33.83
        ]
      }
    },
    {
      "type": "Feature",
      "id": "iem-lsr-BMX-42",
      "properties": {
        "report_id": "iem-lsr-BMX-42",
        "report_type": "TSTM WND DMG",
        "event_category": "thunderstorm_wind",
        "valid_utc": "202606011950",
        "standard_time_display": "2026-06-01 13:50 CST",
        "wfo": "BMX",
        "county_or_zone": "Jefferson",
        "city": "2 ESE Samford Universit",
        "state": "AL",
        "magnitude": null,
        "magnitude_units": null,
        "source": "911 Call Center",
        "event_narrative": "Trees down in Vestavia Hills."
      },
      "geometry": {
        "type": "Point",
        "coordinates": [
          -86.77,
          33.45
        ]
      }
    },
    {
      "type": "Feature",
      "id": "iem-lsr-BMX-43",
      "properties": {
        "report_id": "iem-lsr-BMX-43",
        "report_type": "TSTM WND DMG",
        "event_category": "thunderstorm_wind",
        "valid_utc": "202606011951",
        "standard_time_display": "2026-06-01 13:51 CST",
        "wfo": "BMX",
        "county_or_zone": "Jefferson",
        "city": "2 SSE Vestavia Hills",
        "state": "AL",
        "magnitude": null,
        "magnitude_units": null,
        "source": "Emergency Mngr",
        "event_narrative": "Rocky Ridge Road at Lochridge Road tree down with power pole and transformer down."
      },
      "geometry": {
        "type": "Point",
        "coordinates": [
          -86.78,
          33.41
        ]
      }
    },
    {
      "type": "Feature",
      "id": "iem-lsr-BMX-44",
      "properties": {
        "report_id": "iem-lsr-BMX-44",
        "report_type": "TSTM WND DMG",
        "event_category": "thunderstorm_wind",
        "valid_utc": "202606011954",
        "standard_time_display": "2026-06-01 13:54 CST",
        "wfo": "BMX",
        "county_or_zone": "Jefferson",
        "city": "1 S Bessemer",
        "state": "AL",
        "magnitude": null,
        "magnitude_units": null,
        "source": "Emergency Mngr",
        "event_narrative": "Tree downed onto a house."
      },
      "geometry": {
        "type": "Point",
        "coordinates": [
          -86.96,
          33.39
        ]
      }
    },
    {
      "type": "Feature",
      "id": "iem-lsr-BMX-45",
      "properties": {
        "report_id": "iem-lsr-BMX-45",
        "report_type": "TSTM WND DMG",
        "event_category": "thunderstorm_wind",
        "valid_utc": "202606011954",
        "standard_time_display": "2026-06-01 13:54 CST",
        "wfo": "BMX",
        "county_or_zone": "Jefferson",
        "city": "1 SW Samford University",
        "state": "AL",
        "magnitude": null,
        "magnitude_units": null,
        "source": "911 Call Center",
        "event_narrative": "Trees down along Lakeshore Parkway and Green Springs."
      },
      "geometry": {
        "type": "Point",
        "coordinates": [
          -86.8,
          33.46
        ]
      }
    },
    {
      "type": "Feature",
      "id": "iem-lsr-BMX-46",
      "properties": {
        "report_id": "iem-lsr-BMX-46",
        "report_type": "TSTM WND DMG",
        "event_category": "thunderstorm_wind",
        "valid_utc": "202606011957",
        "standard_time_display": "2026-06-01 13:57 CST",
        "wfo": "BMX",
        "county_or_zone": "St. Clair",
        "city": "1 NW Cropwell",
        "state": "AL",
        "magnitude": null,
        "magnitude_units": null,
        "source": "911 Call Center",
        "event_narrative": "Multiple trees down around Cropwell."
      },
      "geometry": {
        "type": "Point",
        "coordinates": [
          -86.28,
          33.56
        ]
      }
    },
    {
      "type": "Feature",
      "id": "iem-lsr-BMX-47",
      "properties": {
        "report_id": "iem-lsr-BMX-47",
        "report_type": "TSTM WND DMG",
        "event_category": "thunderstorm_wind",
        "valid_utc": "202606012000",
        "standard_time_display": "2026-06-01 14:00 CST",
        "wfo": "BMX",
        "county_or_zone": "Jefferson",
        "city": "1 NE Lipscomb",
        "state": "AL",
        "magnitude": null,
        "magnitude_units": null,
        "source": "Emergency Mngr",
        "event_narrative": "Tree on a house Avenue K in Brighton."
      },
      "geometry": {
        "type": "Point",
        "coordinates": [
          -86.92,
          33.43
        ]
      }
    },
    {
      "type": "Feature",
      "id": "iem-lsr-BMX-48",
      "properties": {
        "report_id": "iem-lsr-BMX-48",
        "report_type": "TSTM WND DMG",
        "event_category": "thunderstorm_wind",
        "valid_utc": "202606012000",
        "standard_time_display": "2026-06-01 14:00 CST",
        "wfo": "BMX",
        "county_or_zone": "Calhoun",
        "city": "1 NNW Weaver",
        "state": "AL",
        "magnitude": null,
        "magnitude_units": null,
        "source": "Trained Spotter",
        "event_narrative": "Multiple trees down on Peaceburg Rd in Weaver."
      },
      "geometry": {
        "type": "Point",
        "coordinates": [
          -85.81,
          33.77
        ]
      }
    },
    {
      "type": "Feature",
      "id": "iem-lsr-BMX-49",
      "properties": {
        "report_id": "iem-lsr-BMX-49",
        "report_type": "TSTM WND DMG",
        "event_category": "thunderstorm_wind",
        "valid_utc": "202606012000",
        "standard_time_display": "2026-06-01 14:00 CST",
        "wfo": "BMX",
        "county_or_zone": "Shelby",
        "city": "1 NW Oak Mountain Lake",
        "state": "AL",
        "magnitude": null,
        "magnitude_units": null,
        "source": "911 Call Center",
        "event_narrative": "Tree down at Sunny Meadows dr and cahaba valley trace."
      },
      "geometry": {
        "type": "Point",
        "coordinates": [
          -86.71,
          33.38
        ]
      }
    },
    {
      "type": "Feature",
      "id": "iem-lsr-BMX-50",
      "properties": {
        "report_id": "iem-lsr-BMX-50",
        "report_type": "TSTM WND DMG",
        "event_category": "thunderstorm_wind",
        "valid_utc": "202606012000",
        "standard_time_display": "2026-06-01 14:00 CST",
        "wfo": "BMX",
        "county_or_zone": "Talladega",
        "city": "1 WNW Talladega",
        "state": "AL",
        "magnitude": null,
        "magnitude_units": null,
        "source": "Emergency Mngr",
        "event_narrative": "Tree on a house Howard Street."
      },
      "geometry": {
        "type": "Point",
        "coordinates": [
          -86.12,
          33.44
        ]
      }
    },
    {
      "type": "Feature",
      "id": "iem-lsr-BMX-51",
      "properties": {
        "report_id": "iem-lsr-BMX-51",
        "report_type": "TSTM WND DMG",
        "event_category": "thunderstorm_wind",
        "valid_utc": "202606012000",
        "standard_time_display": "2026-06-01 14:00 CST",
        "wfo": "BMX",
        "county_or_zone": "Calhoun",
        "city": "2 NW Dearmanville",
        "state": "AL",
        "magnitude": null,
        "magnitude_units": null,
        "source": "Public",
        "event_narrative": "Multiple trees down on Choccolocco Road in Anniston."
      },
      "geometry": {
        "type": "Point",
        "coordinates": [
          -85.78,
          33.64
        ]
      }
    },
    {
      "type": "Feature",
      "id": "iem-lsr-BMX-52",
      "properties": {
        "report_id": "iem-lsr-BMX-52",
        "report_type": "TSTM WND DMG",
        "event_category": "thunderstorm_wind",
        "valid_utc": "202606012000",
        "standard_time_display": "2026-06-01 14:00 CST",
        "wfo": "BMX",
        "county_or_zone": "Jefferson",
        "city": "2 SE Splash Adventure",
        "state": "AL",
        "magnitude": null,
        "magnitude_units": null,
        "source": "911 Call Center",
        "event_narrative": "Tree fell on a mobile home."
      },
      "geometry": {
        "type": "Point",
        "coordinates": [
          -86.97,
          33.37
        ]
      }
    },
    {
      "type": "Feature",
      "id": "iem-lsr-BMX-53",
      "properties": {
        "report_id": "iem-lsr-BMX-53",
        "report_type": "TSTM WND DMG",
        "event_category": "thunderstorm_wind",
        "valid_utc": "202606012000",
        "standard_time_display": "2026-06-01 14:00 CST",
        "wfo": "BMX",
        "county_or_zone": "Talladega",
        "city": "2 WSW Jackson Shoals",
        "state": "AL",
        "magnitude": null,
        "magnitude_units": null,
        "source": "Emergency Mngr",
        "event_narrative": "Multiple trees down around Talladega and Lincoln."
      },
      "geometry": {
        "type": "Point",
        "coordinates": [
          -86.13,
          33.54
        ]
      }
    },
    {
      "type": "Feature",
      "id": "iem-lsr-BMX-54",
      "properties": {
        "report_id": "iem-lsr-BMX-54",
        "report_type": "TSTM WND GST",
        "event_category": "thunderstorm_wind",
        "valid_utc": "202606012002",
        "standard_time_display": "2026-06-01 14:02 CST",
        "wfo": "BMX",
        "county_or_zone": "Calhoun",
        "city": "Anniston Regional Airpo",
        "state": "AL",
        "magnitude": 56.0,
        "magnitude_units": null,
        "source": "ASOS",
        "event_narrative": "Peak gust of 49 kt at ANB."
      },
      "geometry": {
        "type": "Point",
        "coordinates": [
          -85.86,
          33.59
        ]
      }
    },
    {
      "type": "Feature",
      "id": "iem-lsr-BMX-55",
      "properties": {
        "report_id": "iem-lsr-BMX-55",
        "report_type": "TSTM WND DMG",
        "event_category": "thunderstorm_wind",
        "valid_utc": "202606012002",
        "standard_time_display": "2026-06-01 14:02 CST",
        "wfo": "BMX",
        "county_or_zone": "Calhoun",
        "city": "Jacksonville State Univ",
        "state": "AL",
        "magnitude": null,
        "magnitude_units": null,
        "source": "Public",
        "event_narrative": "Multiple trees down around Jacksonville and service station canopy damged."
      },
      "geometry": {
        "type": "Point",
        "coordinates": [
          -85.76,
          33.82
        ]
      }
    },
    {
      "type": "Feature",
      "id": "iem-lsr-BMX-56",
      "properties": {
        "report_id": "iem-lsr-BMX-56",
        "report_type": "TSTM WND DMG",
        "event_category": "thunderstorm_wind",
        "valid_utc": "202606012003",
        "standard_time_display": "2026-06-01 14:03 CST",
        "wfo": "BMX",
        "county_or_zone": "Tuscaloosa",
        "city": "4 WSW Sexton Bend",
        "state": "AL",
        "magnitude": null,
        "magnitude_units": null,
        "source": "Emergency Mngr",
        "event_narrative": "Multiple reports of downed trees in Tuscaloosa County."
      },
      "geometry": {
        "type": "Point",
        "coordinates": [
          -87.59,
          33.28
        ]
      }
    },
    {
      "type": "Feature",
      "id": "iem-lsr-BMX-57",
      "properties": {
        "report_id": "iem-lsr-BMX-57",
        "report_type": "TSTM WND DMG",
        "event_category": "thunderstorm_wind",
        "valid_utc": "202606012009",
        "standard_time_display": "2026-06-01 14:09 CST",
        "wfo": "BMX",
        "county_or_zone": "Shelby",
        "city": "3 W Joe Tucker Park",
        "state": "AL",
        "magnitude": null,
        "magnitude_units": null,
        "source": "Broadcast Media",
        "event_narrative": "Multiple trees down on Morgan Rd including on a vehicle near County Road 13."
      },
      "geometry": {
        "type": "Point",
        "coordinates": [
          -86.89,
          33.28
        ]
      }
    },
    {
      "type": "Feature",
      "id": "iem-lsr-BMX-58",
      "properties": {
        "report_id": "iem-lsr-BMX-58",
        "report_type": "TSTM WND DMG",
        "event_category": "thunderstorm_wind",
        "valid_utc": "202606012009",
        "standard_time_display": "2026-06-01 14:09 CST",
        "wfo": "BMX",
        "county_or_zone": "Shelby",
        "city": "5 S Bent Brook Golf Clu",
        "state": "AL",
        "magnitude": null,
        "magnitude_units": null,
        "source": "911 Call Center",
        "event_narrative": "Trees down South Shades Crest and Bluff Ridge Rd."
      },
      "geometry": {
        "type": "Point",
        "coordinates": [
          -86.98,
          33.26
        ]
      }
    },
    {
      "type": "Feature",
      "id": "iem-lsr-BMX-59",
      "properties": {
        "report_id": "iem-lsr-BMX-59",
        "report_type": "TSTM WND DMG",
        "event_category": "thunderstorm_wind",
        "valid_utc": "202606012012",
        "standard_time_display": "2026-06-01 14:12 CST",
        "wfo": "BMX",
        "county_or_zone": "Shelby",
        "city": "2 W Alabaster",
        "state": "AL",
        "magnitude": null,
        "magnitude_units": null,
        "source": "911 Call Center",
        "event_narrative": "Trees down in Alabaster and Helena."
      },
      "geometry": {
        "type": "Point",
        "coordinates": [
          -86.85,
          33.25
        ]
      }
    },
    {
      "type": "Feature",
      "id": "iem-lsr-BMX-60",
      "properties": {
        "report_id": "iem-lsr-BMX-60",
        "report_type": "TSTM WND DMG",
        "event_category": "thunderstorm_wind",
        "valid_utc": "202606012012",
        "standard_time_display": "2026-06-01 14:12 CST",
        "wfo": "BMX",
        "county_or_zone": "Shelby",
        "city": "3 ESE Ballantrae",
        "state": "AL",
        "magnitude": null,
        "magnitude_units": null,
        "source": "NWS Employee",
        "event_narrative": "Few snapped tress along CR 331."
      },
      "geometry": {
        "type": "Point",
        "coordinates": [
          -86.71,
          33.24
        ]
      }
    },
    {
      "type": "Feature",
      "id": "iem-lsr-BMX-61",
      "properties": {
        "report_id": "iem-lsr-BMX-61",
        "report_type": "TSTM WND DMG",
        "event_category": "thunderstorm_wind",
        "valid_utc": "202606012015",
        "standard_time_display": "2026-06-01 14:15 CST",
        "wfo": "BMX",
        "county_or_zone": "Shelby",
        "city": "1 NNE Alabaster",
        "state": "AL",
        "magnitude": null,
        "magnitude_units": null,
        "source": "911 Call Center",
        "event_narrative": "Tree on a mobile home on Peavine Street."
      },
      "geometry": {
        "type": "Point",
        "coordinates": [
          -86.8,
          33.26
        ]
      }
    },
    {
      "type": "Feature",
      "id": "iem-lsr-BMX-62",
      "properties": {
        "report_id": "iem-lsr-BMX-62",
        "report_type": "TSTM WND DMG",
        "event_category": "thunderstorm_wind",
        "valid_utc": "202606012015",
        "standard_time_display": "2026-06-01 14:15 CST",
        "wfo": "BMX",
        "county_or_zone": "Shelby",
        "city": "1 NNE Alabaster Veteran",
        "state": "AL",
        "magnitude": null,
        "magnitude_units": null,
        "source": "911 Call Center",
        "event_narrative": "Tree on a house Heather Lane."
      },
      "geometry": {
        "type": "Point",
        "coordinates": [
          -86.82,
          33.2
        ]
      }
    },
    {
      "type": "Feature",
      "id": "iem-lsr-BMX-63",
      "properties": {
        "report_id": "iem-lsr-BMX-63",
        "report_type": "TSTM WND DMG",
        "event_category": "thunderstorm_wind",
        "valid_utc": "202606012015",
        "standard_time_display": "2026-06-01 14:15 CST",
        "wfo": "BMX",
        "county_or_zone": "Bibb",
        "city": "Woodstock",
        "state": "AL",
        "magnitude": null,
        "magnitude_units": null,
        "source": "Broadcast Media",
        "event_narrative": "Tree on a mobile home in Woodstock."
      },
      "geometry": {
        "type": "Point",
        "coordinates": [
          -87.15,
          33.21
        ]
      }
    },
    {
      "type": "Feature",
      "id": "iem-lsr-BMX-64",
      "properties": {
        "report_id": "iem-lsr-BMX-64",
        "report_type": "TSTM WND DMG",
        "event_category": "thunderstorm_wind",
        "valid_utc": "202606012016",
        "standard_time_display": "2026-06-01 14:16 CST",
        "wfo": "BMX",
        "county_or_zone": "Talladega",
        "city": "1 WSW Alpine",
        "state": "AL",
        "magnitude": null,
        "magnitude_units": null,
        "source": "Public",
        "event_narrative": "Trees fell and crushed a camper and other trees fell across roadways in the Alpine area."
      },
      "geometry": {
        "type": "Point",
        "coordinates": [
          -86.23,
          33.35
        ]
      }
    },
    {
      "type": "Feature",
      "id": "iem-lsr-BMX-65",
      "properties": {
        "report_id": "iem-lsr-BMX-65",
        "report_type": "TSTM WND DMG",
        "event_category": "thunderstorm_wind",
        "valid_utc": "202606012021",
        "standard_time_display": "2026-06-01 14:21 CST",
        "wfo": "BMX",
        "county_or_zone": "Pickens",
        "city": "Aliceville",
        "state": "AL",
        "magnitude": null,
        "magnitude_units": null,
        "source": "911 Call Center",
        "event_narrative": "Tree down in Aliceville."
      },
      "geometry": {
        "type": "Point",
        "coordinates": [
          -88.16,
          33.13
        ]
      }
    },
    {
      "type": "Feature",
      "id": "iem-lsr-BMX-66",
      "properties": {
        "report_id": "iem-lsr-BMX-66",
        "report_type": "TSTM WND DMG",
        "event_category": "thunderstorm_wind",
        "valid_utc": "202606012021",
        "standard_time_display": "2026-06-01 14:21 CST",
        "wfo": "BMX",
        "county_or_zone": "Cleburne",
        "city": "Heflin",
        "state": "AL",
        "magnitude": null,
        "magnitude_units": null,
        "source": "911 Call Center",
        "event_narrative": "Multiple trees and power lines down across the county."
      },
      "geometry": {
        "type": "Point",
        "coordinates": [
          -85.59,
          33.65
        ]
      }
    },
    {
      "type": "Feature",
      "id": "iem-lsr-BMX-67",
      "properties": {
        "report_id": "iem-lsr-BMX-67",
        "report_type": "TSTM WND GST",
        "event_category": "thunderstorm_wind",
        "valid_utc": "202606012024",
        "standard_time_display": "2026-06-01 14:24 CST",
        "wfo": "BMX",
        "county_or_zone": "Shelby",
        "city": "Shelby County Airport",
        "state": "AL",
        "magnitude": 49.0,
        "magnitude_units": null,
        "source": "ASOS",
        "event_narrative": "Peak gust of 43 kts at EET."
      },
      "geometry": {
        "type": "Point",
        "coordinates": [
          -86.78,
          33.18
        ]
      }
    },
    {
      "type": "Feature",
      "id": "iem-lsr-BMX-68",
      "properties": {
        "report_id": "iem-lsr-BMX-68",
        "report_type": "TSTM WND DMG",
        "event_category": "thunderstorm_wind",
        "valid_utc": "202606012025",
        "standard_time_display": "2026-06-01 14:25 CST",
        "wfo": "BMX",
        "county_or_zone": "Shelby",
        "city": "Montevallo",
        "state": "AL",
        "magnitude": null,
        "magnitude_units": null,
        "source": "911 Call Center",
        "event_narrative": "Trees down around Montevallo."
      },
      "geometry": {
        "type": "Point",
        "coordinates": [
          -86.86,
          33.1
        ]
      }
    },
    {
      "type": "Feature",
      "id": "iem-lsr-BMX-69",
      "properties": {
        "report_id": "iem-lsr-BMX-69",
        "report_type": "TSTM WND DMG",
        "event_category": "thunderstorm_wind",
        "valid_utc": "202606012025",
        "standard_time_display": "2026-06-01 14:25 CST",
        "wfo": "BMX",
        "county_or_zone": "Shelby",
        "city": "Wilsonville",
        "state": "AL",
        "magnitude": null,
        "magnitude_units": null,
        "source": "911 Call Center",
        "event_narrative": "Trees down around Columbiana and Wilsonville."
      },
      "geometry": {
        "type": "Point",
        "coordinates": [
          -86.48,
          33.23
        ]
      }
    },
    {
      "type": "Feature",
      "id": "iem-lsr-BMX-70",
      "properties": {
        "report_id": "iem-lsr-BMX-70",
        "report_type": "TSTM WND DMG",
        "event_category": "thunderstorm_wind",
        "valid_utc": "202606012027",
        "standard_time_display": "2026-06-01 14:27 CST",
        "wfo": "BMX",
        "county_or_zone": "Shelby",
        "city": "Calera",
        "state": "AL",
        "magnitude": null,
        "magnitude_units": null,
        "source": "911 Call Center",
        "event_narrative": "Multiple trees down around Calera."
      },
      "geometry": {
        "type": "Point",
        "coordinates": [
          -86.76,
          33.11
        ]
      }
    },
    {
      "type": "Feature",
      "id": "iem-lsr-BMX-71",
      "properties": {
        "report_id": "iem-lsr-BMX-71",
        "report_type": "TSTM WND DMG",
        "event_category": "thunderstorm_wind",
        "valid_utc": "202606012030",
        "standard_time_display": "2026-06-01 14:30 CST",
        "wfo": "BMX",
        "county_or_zone": "Shelby",
        "city": "2 W Shelby Shores at La",
        "state": "AL",
        "magnitude": null,
        "magnitude_units": null,
        "source": "911 Call Center",
        "event_narrative": "Multiple trees down South River Road."
      },
      "geometry": {
        "type": "Point",
        "coordinates": [
          -86.5,
          33.13
        ]
      }
    },
    {
      "type": "Feature",
      "id": "iem-lsr-BMX-72",
      "properties": {
        "report_id": "iem-lsr-BMX-72",
        "report_type": "TSTM WND DMG",
        "event_category": "thunderstorm_wind",
        "valid_utc": "202606012033",
        "standard_time_display": "2026-06-01 14:33 CST",
        "wfo": "BMX",
        "county_or_zone": "Clay",
        "city": "1 ENE Clay County Count",
        "state": "AL",
        "magnitude": null,
        "magnitude_units": null,
        "source": "911 Call Center",
        "event_narrative": "Trees down around Ashland and Lineville_ including Country Club Road and also Springhill Rd."
      },
      "geometry": {
        "type": "Point",
        "coordinates": [
          -85.77,
          33.28
        ]
      }
    },
    {
      "type": "Feature",
      "id": "iem-lsr-BMX-73",
      "properties": {
        "report_id": "iem-lsr-BMX-73",
        "report_type": "TSTM WND DMG",
        "event_category": "thunderstorm_wind",
        "valid_utc": "202606012033",
        "standard_time_display": "2026-06-01 14:33 CST",
        "wfo": "BMX",
        "county_or_zone": "Clay",
        "city": "Millerville",
        "state": "AL",
        "magnitude": null,
        "magnitude_units": null,
        "source": "911 Call Center",
        "event_narrative": "Multiple trees down around Millerville_ including on Highway 148 and Highway 9."
      },
      "geometry": {
        "type": "Point",
        "coordinates": [
          -85.93,
          33.19
        ]
      }
    },
    {
      "type": "Feature",
      "id": "iem-lsr-BMX-74",
      "properties": {
        "report_id": "iem-lsr-BMX-74",
        "report_type": "TSTM WND DMG",
        "event_category": "thunderstorm_wind",
        "valid_utc": "202606012035",
        "standard_time_display": "2026-06-01 14:35 CST",
        "wfo": "BMX",
        "county_or_zone": "Talladega",
        "city": "2 NE Shelby Shores at L",
        "state": "AL",
        "magnitude": null,
        "magnitude_units": null,
        "source": "Emergency Mngr",
        "event_narrative": "Multiple trees and power lines down Cedar Creek Road."
      },
      "geometry": {
        "type": "Point",
        "coordinates": [
          -86.44,
          33.15
        ]
      }
    },
    {
      "type": "Feature",
      "id": "iem-lsr-BMX-75",
      "properties": {
        "report_id": "iem-lsr-BMX-75",
        "report_type": "TSTM WND DMG",
        "event_category": "thunderstorm_wind",
        "valid_utc": "202606012035",
        "standard_time_display": "2026-06-01 14:35 CST",
        "wfo": "BMX",
        "county_or_zone": "Talladega",
        "city": "Sycamore",
        "state": "AL",
        "magnitude": null,
        "magnitude_units": null,
        "source": "Emergency Mngr",
        "event_narrative": "Tree down on an unoccupied vehicle on School Street."
      },
      "geometry": {
        "type": "Point",
        "coordinates": [
          -86.21,
          33.25
        ]
      }
    },
    {
      "type": "Feature",
      "id": "iem-lsr-BMX-76",
      "properties": {
        "report_id": "iem-lsr-BMX-76",
        "report_type": "TSTM WND DMG",
        "event_category": "thunderstorm_wind",
        "valid_utc": "202606012039",
        "standard_time_display": "2026-06-01 14:39 CST",
        "wfo": "BMX",
        "county_or_zone": "Bibb",
        "city": "1 NW Centreville",
        "state": "AL",
        "magnitude": null,
        "magnitude_units": null,
        "source": "911 Call Center",
        "event_narrative": "Multiple trees and power lines down countywide."
      },
      "geometry": {
        "type": "Point",
        "coordinates": [
          -87.15,
          32.95
        ]
      }
    },
    {
      "type": "Feature",
      "id": "iem-lsr-BMX-77",
      "properties": {
        "report_id": "iem-lsr-BMX-77",
        "report_type": "TSTM WND DMG",
        "event_category": "thunderstorm_wind",
        "valid_utc": "202606012039",
        "standard_time_display": "2026-06-01 14:39 CST",
        "wfo": "BMX",
        "county_or_zone": "Hale",
        "city": "2 NNW Havana",
        "state": "AL",
        "magnitude": null,
        "magnitude_units": null,
        "source": "Emergency Mngr",
        "event_narrative": "Trees down in various parts of northern Hale County_ some blocking roads."
      },
      "geometry": {
        "type": "Point",
        "coordinates": [
          -87.64,
          32.92
        ]
      }
    },
    {
      "type": "Feature",
      "id": "iem-lsr-BMX-78",
      "properties": {
        "report_id": "iem-lsr-BMX-78",
        "report_type": "HAIL",
        "event_category": "hail",
        "valid_utc": "202606012045",
        "standard_time_display": "2026-06-01 14:45 CST",
        "wfo": "BMX",
        "county_or_zone": "Coosa",
        "city": "2 ENE Hanover",
        "state": "AL",
        "magnitude": 1.0,
        "magnitude_units": null,
        "source": "Trained Spotter",
        "event_narrative": null
      },
      "geometry": {
        "type": "Point",
        "coordinates": [
          -86.17,
          33.02
        ]
      }
    },
    {
      "type": "Feature",
      "id": "iem-lsr-BMX-79",
      "properties": {
        "report_id": "iem-lsr-BMX-79",
        "report_type": "TSTM WND DMG",
        "event_category": "thunderstorm_wind",
        "valid_utc": "202606012051",
        "standard_time_display": "2026-06-01 14:51 CST",
        "wfo": "BMX",
        "county_or_zone": "Randolph",
        "city": "2 ENE Woodland",
        "state": "AL",
        "magnitude": null,
        "magnitude_units": null,
        "source": "Emergency Mngr",
        "event_narrative": "Trees down around Woodland."
      },
      "geometry": {
        "type": "Point",
        "coordinates": [
          -85.37,
          33.39
        ]
      }
    },
    {
      "type": "Feature",
      "id": "iem-lsr-BMX-80",
      "properties": {
        "report_id": "iem-lsr-BMX-80",
        "report_type": "TSTM WND DMG",
        "event_category": "thunderstorm_wind",
        "valid_utc": "202606012051",
        "standard_time_display": "2026-06-01 14:51 CST",
        "wfo": "BMX",
        "county_or_zone": "Randolph",
        "city": "Wedowee",
        "state": "AL",
        "magnitude": null,
        "magnitude_units": null,
        "source": "Emergency Mngr",
        "event_narrative": "Multiple trees down around Wedowee."
      },
      "geometry": {
        "type": "Point",
        "coordinates": [
          -85.48,
          33.31
        ]
      }
    },
    {
      "type": "Feature",
      "id": "iem-lsr-BMX-81",
      "properties": {
        "report_id": "iem-lsr-BMX-81",
        "report_type": "TSTM WND DMG",
        "event_category": "thunderstorm_wind",
        "valid_utc": "202606012054",
        "standard_time_display": "2026-06-01 14:54 CST",
        "wfo": "BMX",
        "county_or_zone": "Chilton",
        "city": "1 WNW Clanton",
        "state": "AL",
        "magnitude": null,
        "magnitude_units": null,
        "source": "911 Call Center",
        "event_narrative": "Multiple trees and power lines down countywide."
      },
      "geometry": {
        "type": "Point",
        "coordinates": [
          -86.64,
          32.84
        ]
      }
    },
    {
      "type": "Feature",
      "id": "iem-lsr-BMX-82",
      "properties": {
        "report_id": "iem-lsr-BMX-82",
        "report_type": "TSTM WND DMG",
        "event_category": "thunderstorm_wind",
        "valid_utc": "202606012054",
        "standard_time_display": "2026-06-01 14:54 CST",
        "wfo": "BMX",
        "county_or_zone": "Tallapoosa",
        "city": "Alexander City",
        "state": "AL",
        "magnitude": null,
        "magnitude_units": null,
        "source": "Emergency Mngr",
        "event_narrative": "Multiple trees down around Alexander City_ including one on a vehicle."
      },
      "geometry": {
        "type": "Point",
        "coordinates": [
          -85.96,
          32.94
        ]
      }
    },
    {
      "type": "Feature",
      "id": "iem-lsr-BMX-83",
      "properties": {
        "report_id": "iem-lsr-BMX-83",
        "report_type": "TSTM WND DMG",
        "event_category": "thunderstorm_wind",
        "valid_utc": "202606012054",
        "standard_time_display": "2026-06-01 14:54 CST",
        "wfo": "BMX",
        "county_or_zone": "Greene",
        "city": "Eutaw",
        "state": "AL",
        "magnitude": null,
        "magnitude_units": null,
        "source": "911 Call Center",
        "event_narrative": "Several trees down across the county."
      },
      "geometry": {
        "type": "Point",
        "coordinates": [
          -87.89,
          32.84
        ]
      }
    },
    {
      "type": "Feature",
      "id": "iem-lsr-BMX-84",
      "properties": {
        "report_id": "iem-lsr-BMX-84",
        "report_type": "TSTM WND DMG",
        "event_category": "thunderstorm_wind",
        "valid_utc": "202606012055",
        "standard_time_display": "2026-06-01 14:55 CST",
        "wfo": "BMX",
        "county_or_zone": "Randolph",
        "city": "Rock Stand",
        "state": "AL",
        "magnitude": null,
        "magnitude_units": null,
        "source": "Emergency Mngr",
        "event_narrative": "Tree down on power lines."
      },
      "geometry": {
        "type": "Point",
        "coordinates": [
          -85.41,
          33.22
        ]
      }
    },
    {
      "type": "Feature",
      "id": "iem-lsr-BMX-85",
      "properties": {
        "report_id": "iem-lsr-BMX-85",
        "report_type": "TSTM WND DMG",
        "event_category": "thunderstorm_wind",
        "valid_utc": "202606012056",
        "standard_time_display": "2026-06-01 14:56 CST",
        "wfo": "BMX",
        "county_or_zone": "Randolph",
        "city": "Wadley",
        "state": "AL",
        "magnitude": null,
        "magnitude_units": null,
        "source": "Emergency Mngr",
        "event_narrative": "Multiple trees down around Wadley."
      },
      "geometry": {
        "type": "Point",
        "coordinates": [
          -85.57,
          33.12
        ]
      }
    },
    {
      "type": "Feature",
      "id": "iem-lsr-BMX-86",
      "properties": {
        "report_id": "iem-lsr-BMX-86",
        "report_type": "TSTM WND DMG",
        "event_category": "thunderstorm_wind",
        "valid_utc": "202606012100",
        "standard_time_display": "2026-06-01 15:00 CST",
        "wfo": "BMX",
        "county_or_zone": "Coosa",
        "city": "Rockford",
        "state": "AL",
        "magnitude": null,
        "magnitude_units": null,
        "source": "911 Call Center",
        "event_narrative": "Multiple trees and power lines down countywide."
      },
      "geometry": {
        "type": "Point",
        "coordinates": [
          -86.22,
          32.89
        ]
      }
    },
    {
      "type": "Feature",
      "id": "iem-lsr-BMX-87",
      "properties": {
        "report_id": "iem-lsr-BMX-87",
        "report_type": "TSTM WND DMG",
        "event_category": "thunderstorm_wind",
        "valid_utc": "202606012101",
        "standard_time_display": "2026-06-01 15:01 CST",
        "wfo": "BMX",
        "county_or_zone": "Chambers",
        "city": "2 E Red Level",
        "state": "AL",
        "magnitude": null,
        "magnitude_units": null,
        "source": "Emergency Mngr",
        "event_narrative": "Tree down at CR 237_ CR 158 intersection."
      },
      "geometry": {
        "type": "Point",
        "coordinates": [
          -85.45,
          33.09
        ]
      }
    },
    {
      "type": "Feature",
      "id": "iem-lsr-BMX-88",
      "properties": {
        "report_id": "iem-lsr-BMX-88",
        "report_type": "TSTM WND DMG",
        "event_category": "thunderstorm_wind",
        "valid_utc": "202606012106",
        "standard_time_display": "2026-06-01 15:06 CST",
        "wfo": "BMX",
        "county_or_zone": "Sumter",
        "city": "3 S Gainesville",
        "state": "AL",
        "magnitude": null,
        "magnitude_units": null,
        "source": "911 Call Center",
        "event_narrative": "Tree down on Williams Rd."
      },
      "geometry": {
        "type": "Point",
        "coordinates": [
          -88.16,
          32.78
        ]
      }
    },
    {
      "type": "Feature",
      "id": "iem-lsr-BMX-89",
      "properties": {
        "report_id": "iem-lsr-BMX-89",
        "report_type": "TSTM WND DMG",
        "event_category": "thunderstorm_wind",
        "valid_utc": "202606012111",
        "standard_time_display": "2026-06-01 15:11 CST",
        "wfo": "BMX",
        "county_or_zone": "Elmore",
        "city": "2 WNW Ten Cedar Estates",
        "state": "AL",
        "magnitude": null,
        "magnitude_units": null,
        "source": "Public",
        "event_narrative": "A tree fell through a home in Titus."
      },
      "geometry": {
        "type": "Point",
        "coordinates": [
          -86.27,
          32.67
        ]
      }
    },
    {
      "type": "Feature",
      "id": "iem-lsr-BMX-90",
      "properties": {
        "report_id": "iem-lsr-BMX-90",
        "report_type": "TSTM WND DMG",
        "event_category": "thunderstorm_wind",
        "valid_utc": "202606012113",
        "standard_time_display": "2026-06-01 15:13 CST",
        "wfo": "BMX",
        "county_or_zone": "Chambers",
        "city": "Lafayette",
        "state": "AL",
        "magnitude": null,
        "magnitude_units": null,
        "source": "Emergency Mngr",
        "event_narrative": "Trees down across parts of the county."
      },
      "geometry": {
        "type": "Point",
        "coordinates": [
          -85.4,
          32.9
        ]
      }
    },
    {
      "type": "Feature",
      "id": "iem-lsr-BMX-91",
      "properties": {
        "report_id": "iem-lsr-BMX-91",
        "report_type": "TSTM WND DMG",
        "event_category": "thunderstorm_wind",
        "valid_utc": "202606012115",
        "standard_time_display": "2026-06-01 15:15 CST",
        "wfo": "BMX",
        "county_or_zone": "Autauga",
        "city": "5 WSW Deatsville",
        "state": "AL",
        "magnitude": null,
        "magnitude_units": null,
        "source": "911 Call Center",
        "event_narrative": "Multiple trees and power lines down across the county_ with the worst damage in northern portions of the county."
      },
      "geometry": {
        "type": "Point",
        "coordinates": [
          -86.49,
          32.59
        ]
      }
    },
    {
      "type": "Feature",
      "id": "iem-lsr-BMX-92",
      "properties": {
        "report_id": "iem-lsr-BMX-92",
        "report_type": "TSTM WND DMG",
        "event_category": "thunderstorm_wind",
        "valid_utc": "202606012115",
        "standard_time_display": "2026-06-01 15:15 CST",
        "wfo": "BMX",
        "county_or_zone": "Tallapoosa",
        "city": "Dadeville",
        "state": "AL",
        "magnitude": null,
        "magnitude_units": null,
        "source": "Emergency Mngr",
        "event_narrative": "Tree on a house in Dadeville."
      },
      "geometry": {
        "type": "Point",
        "coordinates": [
          -85.76,
          32.83
        ]
      }
    },
    {
      "type": "Feature",
      "id": "iem-lsr-BMX-93",
      "properties": {
        "report_id": "iem-lsr-BMX-93",
        "report_type": "TSTM WND DMG",
        "event_category": "thunderstorm_wind",
        "valid_utc": "202606012118",
        "standard_time_display": "2026-06-01 15:18 CST",
        "wfo": "BMX",
        "county_or_zone": "Elmore",
        "city": "Deatsville",
        "state": "AL",
        "magnitude": null,
        "magnitude_units": null,
        "source": "911 Call Center",
        "event_narrative": "Multiple trees down around Deatsville."
      },
      "geometry": {
        "type": "Point",
        "coordinates": [
          -86.4,
          32.61
        ]
      }
    },
    {
      "type": "Feature",
      "id": "iem-lsr-BMX-94",
      "properties": {
        "report_id": "iem-lsr-BMX-94",
        "report_type": "TSTM WND DMG",
        "event_category": "thunderstorm_wind",
        "valid_utc": "202606012120",
        "standard_time_display": "2026-06-01 15:20 CST",
        "wfo": "BMX",
        "county_or_zone": "Chambers",
        "city": "2 WNW West Chambers",
        "state": "AL",
        "magnitude": null,
        "magnitude_units": null,
        "source": "Emergency Mngr",
        "event_narrative": "Two trees down with one lane blocked."
      },
      "geometry": {
        "type": "Point",
        "coordinates": [
          -85.53,
          32.84
        ]
      }
    },
    {
      "type": "Feature",
      "id": "iem-lsr-BMX-95",
      "properties": {
        "report_id": "iem-lsr-BMX-95",
        "report_type": "TSTM WND DMG",
        "event_category": "thunderstorm_wind",
        "valid_utc": "202606012121",
        "standard_time_display": "2026-06-01 15:21 CST",
        "wfo": "BMX",
        "county_or_zone": "Perry",
        "city": "Marion",
        "state": "AL",
        "magnitude": null,
        "magnitude_units": null,
        "source": "911 Call Center",
        "event_narrative": "Multiple trees and power lines down across the county."
      },
      "geometry": {
        "type": "Point",
        "coordinates": [
          -87.32,
          32.63
        ]
      }
    },
    {
      "type": "Feature",
      "id": "iem-lsr-BMX-96",
      "properties": {
        "report_id": "iem-lsr-BMX-96",
        "report_type": "TSTM WND DMG",
        "event_category": "thunderstorm_wind",
        "valid_utc": "202606012127",
        "standard_time_display": "2026-06-01 15:27 CST",
        "wfo": "BMX",
        "county_or_zone": "Elmore",
        "city": "2 NNW Martin Dam",
        "state": "AL",
        "magnitude": null,
        "magnitude_units": null,
        "source": "Emergency Mngr",
        "event_narrative": "Damage to porch overhang on Andrew Mills Rd."
      },
      "geometry": {
        "type": "Point",
        "coordinates": [
          -85.92,
          32.7
        ]
      }
    },
    {
      "type": "Feature",
      "id": "iem-lsr-BMX-97",
      "properties": {
        "report_id": "iem-lsr-BMX-97",
        "report_type": "TSTM WND DMG",
        "event_category": "thunderstorm_wind",
        "valid_utc": "202606012130",
        "standard_time_display": "2026-06-01 15:30 CST",
        "wfo": "BMX",
        "county_or_zone": "Elmore",
        "city": "Wetumpka",
        "state": "AL",
        "magnitude": null,
        "magnitude_units": null,
        "source": "911 Call Center",
        "event_narrative": "Multiple trees down Wetumpka."
      },
      "geometry": {
        "type": "Point",
        "coordinates": [
          -86.2,
          32.54
        ]
      }
    },
    {
      "type": "Feature",
      "id": "iem-lsr-BMX-98",
      "properties": {
        "report_id": "iem-lsr-BMX-98",
        "report_type": "TSTM WND DMG",
        "event_category": "thunderstorm_wind",
        "valid_utc": "202606012137",
        "standard_time_display": "2026-06-01 15:37 CST",
        "wfo": "BMX",
        "county_or_zone": "Elmore",
        "city": "Tallassee",
        "state": "AL",
        "magnitude": null,
        "magnitude_units": null,
        "source": "911 Call Center",
        "event_narrative": "Trees and power lines down around Tallassee."
      },
      "geometry": {
        "type": "Point",
        "coordinates": [
          -85.9,
          32.53
        ]
      }
    },
    {
      "type": "Feature",
      "id": "iem-lsr-BMX-99",
      "properties": {
        "report_id": "iem-lsr-BMX-99",
        "report_type": "TSTM WND DMG",
        "event_category": "thunderstorm_wind",
        "valid_utc": "202606012139",
        "standard_time_display": "2026-06-01 15:39 CST",
        "wfo": "BMX",
        "county_or_zone": "Sumter",
        "city": "1 W Dug Hill",
        "state": "AL",
        "magnitude": null,
        "magnitude_units": null,
        "source": "911 Call Center",
        "event_narrative": "Tree down on Mundy Road and also a tree down on County Road 23."
      },
      "geometry": {
        "type": "Point",
        "coordinates": [
          -88.05,
          32.51
        ]
      }
    },
    {
      "type": "Feature",
      "id": "iem-lsr-BMX-100",
      "properties": {
        "report_id": "iem-lsr-BMX-100",
        "report_type": "TSTM WND DMG",
        "event_category": "thunderstorm_wind",
        "valid_utc": "202606012142",
        "standard_time_display": "2026-06-01 15:42 CST",
        "wfo": "BMX",
        "county_or_zone": "Sumter",
        "city": "5 N I-20 Welcome Center",
        "state": "AL",
        "magnitude": null,
        "magnitude_units": null,
        "source": "911 Call Center",
        "event_narrative": "Tree down on County Road 27."
      },
      "geometry": {
        "type": "Point",
        "coordinates": [
          -88.39,
          32.52
        ]
      }
    },
    {
      "type": "Feature",
      "id": "iem-lsr-BMX-101",
      "properties": {
        "report_id": "iem-lsr-BMX-101",
        "report_type": "TSTM WND DMG",
        "event_category": "thunderstorm_wind",
        "valid_utc": "202606012144",
        "standard_time_display": "2026-06-01 15:44 CST",
        "wfo": "BMX",
        "county_or_zone": "Lee",
        "city": "Auburn",
        "state": "AL",
        "magnitude": null,
        "magnitude_units": null,
        "source": "Emergency Mngr",
        "event_narrative": "Trees down in various parts of the county."
      },
      "geometry": {
        "type": "Point",
        "coordinates": [
          -85.48,
          32.61
        ]
      }
    },
    {
      "type": "Feature",
      "id": "iem-lsr-BMX-102",
      "properties": {
        "report_id": "iem-lsr-BMX-102",
        "report_type": "TSTM WND GST",
        "event_category": "thunderstorm_wind",
        "valid_utc": "202606012152",
        "standard_time_display": "2026-06-01 15:52 CST",
        "wfo": "BMX",
        "county_or_zone": "Lee",
        "city": "Robert G. Pitts Airport",
        "state": "AL",
        "magnitude": 48.0,
        "magnitude_units": null,
        "source": "AWOS",
        "event_narrative": "42 kts at AUO."
      },
      "geometry": {
        "type": "Point",
        "coordinates": [
          -85.44,
          32.61
        ]
      }
    },
    {
      "type": "Feature",
      "id": "iem-lsr-BMX-103",
      "properties": {
        "report_id": "iem-lsr-BMX-103",
        "report_type": "TSTM WND DMG",
        "event_category": "thunderstorm_wind",
        "valid_utc": "202606012154",
        "standard_time_display": "2026-06-01 15:54 CST",
        "wfo": "BMX",
        "county_or_zone": "Macon",
        "city": "Tuskegee",
        "state": "AL",
        "magnitude": null,
        "magnitude_units": null,
        "source": "911 Call Center",
        "event_narrative": "Multiple trees and power lines down across the county."
      },
      "geometry": {
        "type": "Point",
        "coordinates": [
          -85.69,
          32.42
        ]
      }
    },
    {
      "type": "Feature",
      "id": "iem-lsr-BMX-104",
      "properties": {
        "report_id": "iem-lsr-BMX-104",
        "report_type": "TSTM WND DMG",
        "event_category": "thunderstorm_wind",
        "valid_utc": "202606012204",
        "standard_time_display": "2026-06-01 16:04 CST",
        "wfo": "BMX",
        "county_or_zone": "Montgomery",
        "city": "Pintlala",
        "state": "AL",
        "magnitude": null,
        "magnitude_units": null,
        "source": "911 Call Center",
        "event_narrative": "Multiple trees and power lines down across primarily the southern half of Montgomery County."
      },
      "geometry": {
        "type": "Point",
        "coordinates": [
          -86.37,
          32.18
        ]
      }
    },
    {
      "type": "Feature",
      "id": "iem-lsr-BMX-105",
      "properties": {
        "report_id": "iem-lsr-BMX-105",
        "report_type": "TSTM WND DMG",
        "event_category": "thunderstorm_wind",
        "valid_utc": "202606012211",
        "standard_time_display": "2026-06-01 16:11 CST",
        "wfo": "BMX",
        "county_or_zone": "Russell",
        "city": "2 W Phenix Drag Strip",
        "state": "AL",
        "magnitude": null,
        "magnitude_units": null,
        "source": "Emergency Mngr",
        "event_narrative": "Trees down Camp Parkman Rd."
      },
      "geometry": {
        "type": "Point",
        "coordinates": [
          -85.13,
          32.42
        ]
      }
    },
    {
      "type": "Feature",
      "id": "iem-lsr-BMX-106",
      "properties": {
        "report_id": "iem-lsr-BMX-106",
        "report_type": "TSTM WND DMG",
        "event_category": "thunderstorm_wind",
        "valid_utc": "202606012211",
        "standard_time_display": "2026-06-01 16:11 CST",
        "wfo": "BMX",
        "county_or_zone": "Russell",
        "city": "Phenix Drag Strip",
        "state": "AL",
        "magnitude": null,
        "magnitude_units": null,
        "source": "Emergency Mngr",
        "event_narrative": "Trees down Sandfort Rd and Woodland Drive."
      },
      "geometry": {
        "type": "Point",
        "coordinates": [
          -85.09,
          32.42
        ]
      }
    },
    {
      "type": "Feature",
      "id": "iem-lsr-BMX-107",
      "properties": {
        "report_id": "iem-lsr-BMX-107",
        "report_type": "TSTM WND DMG",
        "event_category": "thunderstorm_wind",
        "valid_utc": "202606012214",
        "standard_time_display": "2026-06-01 16:14 CST",
        "wfo": "BMX",
        "county_or_zone": "Russell",
        "city": "3 ESE Monterey Heights",
        "state": "AL",
        "magnitude": null,
        "magnitude_units": null,
        "source": "Emergency Mngr",
        "event_narrative": "Tree down on power line and on fire Cutrate road and Opelika."
      },
      "geometry": {
        "type": "Point",
        "coordinates": [
          -85.05,
          32.5
        ]
      }
    },
    {
      "type": "Feature",
      "id": "iem-lsr-BMX-108",
      "properties": {
        "report_id": "iem-lsr-BMX-108",
        "report_type": "TSTM WND DMG",
        "event_category": "thunderstorm_wind",
        "valid_utc": "202606012215",
        "standard_time_display": "2026-06-01 16:15 CST",
        "wfo": "BMX",
        "county_or_zone": "Lowndes",
        "city": "Fort Deposit",
        "state": "AL",
        "magnitude": null,
        "magnitude_units": null,
        "source": "911 Call Center",
        "event_narrative": "Multiple trees and power lines down across the county_ especially in the Fort Deposit and Letohatchee areas."
      },
      "geometry": {
        "type": "Point",
        "coordinates": [
          -86.58,
          31.99
        ]
      }
    },
    {
      "type": "Feature",
      "id": "iem-lsr-BMX-109",
      "properties": {
        "report_id": "iem-lsr-BMX-109",
        "report_type": "TSTM WND DMG",
        "event_category": "thunderstorm_wind",
        "valid_utc": "202606012221",
        "standard_time_display": "2026-06-01 16:21 CST",
        "wfo": "BMX",
        "county_or_zone": "Bullock",
        "city": "Union Springs",
        "state": "AL",
        "magnitude": null,
        "magnitude_units": null,
        "source": "911 Call Center",
        "event_narrative": "Multiple trees and power lines down across the county_ including along highway 110_ highway 82_ and highway 29."
      },
      "geometry": {
        "type": "Point",
        "coordinates": [
          -85.72,
          32.14
        ]
      }
    },
    {
      "type": "Feature",
      "id": "iem-lsr-BMX-110",
      "properties": {
        "report_id": "iem-lsr-BMX-110",
        "report_type": "TSTM WND DMG",
        "event_category": "thunderstorm_wind",
        "valid_utc": "202606012224",
        "standard_time_display": "2026-06-01 16:24 CST",
        "wfo": "BMX",
        "county_or_zone": "Russell",
        "city": "Seale",
        "state": "AL",
        "magnitude": null,
        "magnitude_units": null,
        "source": "Emergency Mngr",
        "event_narrative": "Trees down Old Seale Highway and Mt Zion Street."
      },
      "geometry": {
        "type": "Point",
        "coordinates": [
          -85.17,
          32.3
        ]
      }
    },
    {
      "type": "Feature",
      "id": "iem-lsr-BMX-111",
      "properties": {
        "report_id": "iem-lsr-BMX-111",
        "report_type": "TSTM WND DMG",
        "event_category": "thunderstorm_wind",
        "valid_utc": "202606012254",
        "standard_time_display": "2026-06-01 16:54 CST",
        "wfo": "BMX",
        "county_or_zone": "Pike",
        "city": "Brundidge",
        "state": "AL",
        "magnitude": null,
        "magnitude_units": null,
        "source": "911 Call Center",
        "event_narrative": "Multiple trees and power lines down across the county_ including on Highway 231."
      },
      "geometry": {
        "type": "Point",
        "coordinates": [
          -85.82,
          31.72
        ]
      }
    },
    {
      "type": "Feature",
      "id": "iem-lsr-BMX-112",
      "properties": {
        "report_id": "iem-lsr-BMX-112",
        "report_type": "TSTM WND DMG",
        "event_category": "thunderstorm_wind",
        "valid_utc": "202606012300",
        "standard_time_display": "2026-06-01 17:00 CST",
        "wfo": "BMX",
        "county_or_zone": "Barbour",
        "city": "1 S Clayton",
        "state": "AL",
        "magnitude": null,
        "magnitude_units": null,
        "source": "911 Call Center",
        "event_narrative": "Multiple trees and power lines down across the county."
      },
      "geometry": {
        "type": "Point",
        "coordinates": [
          -85.45,
          31.87
        ]
      }
    }
  ]
}