{
  "type": "FeatureCollection",
  "metadata": {
    "schema_version": "0.2.4",
    "year": 2026,
    "month": 9,
    "wfo": "LOX",
    "start_utc": "2026-09-01T00:00:00Z",
    "end_utc": "2026-10-01T00:00:00Z",
    "generated_utc": "2026-09-16T14:11:39Z",
    "mode": "storm_data_prep",
    "public_release_status": "public-source-derived",
    "time_note": "Storm Data entry times should be reviewed in local Standard Time (ST), not daylight time. Candidate reports include standard_time_display.",
    "tornado_track_policy": "Tornado tracks must come from DAT. NCEI begin/end coordinates are not used as a tornado track substitute.",
    "source": "https://mesonet.agron.iastate.edu/cgi-bin/request/gis/lsr.py?wfo=LOX&sts=2026-09-01T00%3A00%3A00Z&ets=2026-10-01T00%3A00%3A00Z&fmt=csv"
  },
  "features": [
    {
      "type": "Feature",
      "id": "iem-lsr-LOX-1",
      "properties": {
        "report_id": "iem-lsr-LOX-1",
        "report_type": "COASTAL FLOOD",
        "event_category": "flooding",
        "valid_utc": "202609052300",
        "standard_time_display": "2026-09-05 15:00 PST",
        "wfo": "LOX",
        "county_or_zone": "Los Angeles",
        "city": "4 SE Long Beach",
        "state": "CA",
        "magnitude": null,
        "magnitude_units": null,
        "source": "Broadcast Media",
        "event_narrative": "Water flowing into homes and streets. Time is approximate."
      },
      "geometry": {
        "type": "Point",
        "coordinates": [
          -118.12,
          33.75
        ]
      }
    },
    {
      "type": "Feature",
      "id": "iem-lsr-LOX-2",
      "properties": {
        "report_id": "iem-lsr-LOX-2",
        "report_type": "COASTAL FLOOD",
        "event_category": "flooding",
        "valid_utc": "202609052346",
        "standard_time_display": "2026-09-05 15:46 PST",
        "wfo": "LOX",
        "county_or_zone": "Los Angeles",
        "city": "1 WNW Malibu",
        "state": "CA",
        "magnitude": null,
        "magnitude_units": null,
        "source": "Lifeguard",
        "event_narrative": "Water flowing into parking lots at Zuma Beach."
      },
      "geometry": {
        "type": "Point",
        "coordinates": [
          -118.83,
          34.02
        ]
      }
    },
    {
      "type": "Feature",
      "id": "iem-lsr-LOX-3",
      "properties": {
        "report_id": "iem-lsr-LOX-3",
        "report_type": "COASTAL FLOOD",
        "event_category": "flooding",
        "valid_utc": "202609070100",
        "standard_time_display": "2026-09-06 17:00 PST",
        "wfo": "LOX",
        "county_or_zone": "Los Angeles",
        "city": "4 SE Long Beach",
        "state": "CA",
        "magnitude": null,
        "magnitude_units": null,
        "source": "Fire Dept/Rescue",
        "event_narrative": "Waves overtopped seawall and boardwalk_ clogging pumps for neighborhood_ and flooding 12 garages_ despite proactive measures from fire department and community. Waves also continuously undercut the b"
      },
      "geometry": {
        "type": "Point",
        "coordinates": [
          -118.12,
          33.75
        ]
      }
    },
    {
      "type": "Feature",
      "id": "iem-lsr-LOX-4",
      "properties": {
        "report_id": "iem-lsr-LOX-4",
        "report_type": "COASTAL FLOOD",
        "event_category": "flooding",
        "valid_utc": "202609070115",
        "standard_time_display": "2026-09-06 17:15 PST",
        "wfo": "LOX",
        "county_or_zone": "Ventura",
        "city": "1 ESE Point Mugu",
        "state": "CA",
        "magnitude": null,
        "magnitude_units": null,
        "source": "Broadcast Media",
        "event_narrative": "Waves crashing onto cars and flooding across the Pacific Coast Highway."
      },
      "geometry": {
        "type": "Point",
        "coordinates": [
          -119.05,
          34.09
        ]
      }
    },
    {
      "type": "Feature",
      "id": "iem-lsr-LOX-5",
      "properties": {
        "report_id": "iem-lsr-LOX-5",
        "report_type": "NON-TSTM WND GST",
        "event_category": "thunderstorm_wind",
        "valid_utc": "202609140140",
        "standard_time_display": "2026-09-13 17:40 PST",
        "wfo": "LOX",
        "county_or_zone": "Santa Barbara",
        "city": "8 W Gaviota",
        "state": "CA",
        "magnitude": 58.0,
        "magnitude_units": null,
        "source": "Mesonet",
        "event_narrative": "Mesonet station SE456 San Agustin (SCE)."
      },
      "geometry": {
        "type": "Point",
        "coordinates": [
          -120.36,
          34.47
        ]
      }
    },
    {
      "type": "Feature",
      "id": "iem-lsr-LOX-6",
      "properties": {
        "report_id": "iem-lsr-LOX-6",
        "report_type": "NON-TSTM WND GST",
        "event_category": "thunderstorm_wind",
        "valid_utc": "202609140306",
        "standard_time_display": "2026-09-13 19:06 PST",
        "wfo": "LOX",
        "county_or_zone": "Santa Barbara",
        "city": "4 N Refugio State Beach",
        "state": "CA",
        "magnitude": 59.0,
        "magnitude_units": null,
        "source": "Mesonet",
        "event_narrative": "Mesonet station RHWC1 Refugio Hills RAWS."
      },
      "geometry": {
        "type": "Point",
        "coordinates": [
          -120.08,
          34.52
        ]
      }
    }
  ]
}