{
  "type": "FeatureCollection",
  "metadata": {
    "schema_version": "0.2.4",
    "year": 2026,
    "month": 7,
    "wfo": "BOU",
    "start_utc": "2026-07-01T00:00:00Z",
    "end_utc": "2026-08-01T00:00:00Z",
    "generated_utc": "2026-07-01T12:16:45Z",
    "mode": "storm_data_prep",
    "public_release_status": "public-source-derived",
    "time_note": "Storm Data entry times should be reviewed in local Standard Time (ST), not daylight time. Candidate reports include standard_time_display.",
    "tornado_track_policy": "Tornado tracks must come from DAT. NCEI begin/end coordinates are not used as a tornado track substitute.",
    "source": "https://mesonet.agron.iastate.edu/cgi-bin/request/gis/lsr.py?wfo=BOU&sts=2026-07-01T00%3A00%3A00Z&ets=2026-08-01T00%3A00%3A00Z&fmt=csv"
  },
  "features": [
    {
      "type": "Feature",
      "id": "iem-lsr-BOU-1",
      "properties": {
        "report_id": "iem-lsr-BOU-1",
        "report_type": "TORNADO",
        "event_category": "tornado",
        "valid_utc": "202607010140",
        "standard_time_display": "2026-06-30 18:40 MST",
        "wfo": "BOU",
        "county_or_zone": "Logan",
        "city": "2 E North Sterling Rese",
        "state": "CO",
        "magnitude": null,
        "magnitude_units": null,
        "source": "Public",
        "event_narrative": null
      },
      "geometry": {
        "type": "Point",
        "coordinates": [
          -103.23,
          40.78
        ]
      }
    },
    {
      "type": "Feature",
      "id": "iem-lsr-BOU-2",
      "properties": {
        "report_id": "iem-lsr-BOU-2",
        "report_type": "HAIL",
        "event_category": "hail",
        "valid_utc": "202607010145",
        "standard_time_display": "2026-06-30 18:45 MST",
        "wfo": "BOU",
        "county_or_zone": "Logan",
        "city": "6 S North Sterling Rese",
        "state": "CO",
        "magnitude": 1.0,
        "magnitude_units": null,
        "source": "Trained Spotter",
        "event_narrative": null
      },
      "geometry": {
        "type": "Point",
        "coordinates": [
          -103.26,
          40.7
        ]
      }
    },
    {
      "type": "Feature",
      "id": "iem-lsr-BOU-3",
      "properties": {
        "report_id": "iem-lsr-BOU-3",
        "report_type": "NON-TSTM WND GST",
        "event_category": "thunderstorm_wind",
        "valid_utc": "202607010145",
        "standard_time_display": "2026-06-30 18:45 MST",
        "wfo": "BOU",
        "county_or_zone": "Logan",
        "city": "North Sterling Reservoi",
        "state": "CO",
        "magnitude": 67.0,
        "magnitude_units": null,
        "source": "Mesonet",
        "event_narrative": "Mesonet station TT562 North Sterling."
      },
      "geometry": {
        "type": "Point",
        "coordinates": [
          -103.26,
          40.79
        ]
      }
    },
    {
      "type": "Feature",
      "id": "iem-lsr-BOU-4",
      "properties": {
        "report_id": "iem-lsr-BOU-4",
        "report_type": "TSTM WND DMG",
        "event_category": "thunderstorm_wind",
        "valid_utc": "202607010145",
        "standard_time_display": "2026-06-30 18:45 MST",
        "wfo": "BOU",
        "county_or_zone": "Logan",
        "city": "North Sterling Reservoi",
        "state": "CO",
        "magnitude": null,
        "magnitude_units": null,
        "source": "Mesonet",
        "event_narrative": "Corrects previous non-tstm wnd gst report from North Sterling Reservoir. Mesonet station TT562 North Sterling."
      },
      "geometry": {
        "type": "Point",
        "coordinates": [
          -103.26,
          40.79
        ]
      }
    },
    {
      "type": "Feature",
      "id": "iem-lsr-BOU-5",
      "properties": {
        "report_id": "iem-lsr-BOU-5",
        "report_type": "TORNADO",
        "event_category": "tornado",
        "valid_utc": "202607010146",
        "standard_time_display": "2026-06-30 18:46 MST",
        "wfo": "BOU",
        "county_or_zone": "Logan",
        "city": "5 E Sterling",
        "state": "CO",
        "magnitude": null,
        "magnitude_units": null,
        "source": "Public",
        "event_narrative": "Tornado reported 1 mile north of US 6."
      },
      "geometry": {
        "type": "Point",
        "coordinates": [
          -103.13,
          40.64
        ]
      }
    },
    {
      "type": "Feature",
      "id": "iem-lsr-BOU-6",
      "properties": {
        "report_id": "iem-lsr-BOU-6",
        "report_type": "TSTM WND GST",
        "event_category": "thunderstorm_wind",
        "valid_utc": "202607010154",
        "standard_time_display": "2026-06-30 18:54 MST",
        "wfo": "BOU",
        "county_or_zone": "Logan",
        "city": "3 NW Iliff",
        "state": "CO",
        "magnitude": 74.0,
        "magnitude_units": null,
        "source": "Public",
        "event_narrative": "Ambient Weather Station."
      },
      "geometry": {
        "type": "Point",
        "coordinates": [
          -103.1,
          40.8
        ]
      }
    },
    {
      "type": "Feature",
      "id": "iem-lsr-BOU-7",
      "properties": {
        "report_id": "iem-lsr-BOU-7",
        "report_type": "TSTM WND GST",
        "event_category": "thunderstorm_wind",
        "valid_utc": "202607010209",
        "standard_time_display": "2026-06-30 19:09 MST",
        "wfo": "BOU",
        "county_or_zone": "Logan",
        "city": "4 SW Fleming",
        "state": "CO",
        "magnitude": 67.0,
        "magnitude_units": null,
        "source": "Public",
        "event_narrative": "Ambient Weather Station."
      },
      "geometry": {
        "type": "Point",
        "coordinates": [
          -102.89,
          40.64
        ]
      }
    },
    {
      "type": "Feature",
      "id": "iem-lsr-BOU-8",
      "properties": {
        "report_id": "iem-lsr-BOU-8",
        "report_type": "HAIL",
        "event_category": "hail",
        "valid_utc": "202607010216",
        "standard_time_display": "2026-06-30 19:16 MST",
        "wfo": "BOU",
        "county_or_zone": "Logan",
        "city": "3 S Crook",
        "state": "CO",
        "magnitude": 1.25,
        "magnitude_units": null,
        "source": "Public",
        "event_narrative": "Report from mPING: Half Dollar (1.25 in.)."
      },
      "geometry": {
        "type": "Point",
        "coordinates": [
          -102.81,
          40.82
        ]
      }
    },
    {
      "type": "Feature",
      "id": "iem-lsr-BOU-9",
      "properties": {
        "report_id": "iem-lsr-BOU-9",
        "report_type": "HAIL",
        "event_category": "hail",
        "valid_utc": "202607010221",
        "standard_time_display": "2026-06-30 19:21 MST",
        "wfo": "BOU",
        "county_or_zone": "Logan",
        "city": "10 NW Twin Buttes",
        "state": "CO",
        "magnitude": 1.0,
        "magnitude_units": null,
        "source": "Storm Chaser",
        "event_narrative": null
      },
      "geometry": {
        "type": "Point",
        "coordinates": [
          -102.92,
          40.99
        ]
      }
    },
    {
      "type": "Feature",
      "id": "iem-lsr-BOU-10",
      "properties": {
        "report_id": "iem-lsr-BOU-10",
        "report_type": "TSTM WND GST",
        "event_category": "thunderstorm_wind",
        "valid_utc": "202607010304",
        "standard_time_display": "2026-06-30 20:04 MST",
        "wfo": "BOU",
        "county_or_zone": "Sedgwick",
        "city": "2 NNE Ovid",
        "state": "CO",
        "magnitude": 72.0,
        "magnitude_units": null,
        "source": "Public",
        "event_narrative": "UPR."
      },
      "geometry": {
        "type": "Point",
        "coordinates": [
          -102.36,
          40.99
        ]
      }
    }
  ]
}