{
  "type": "FeatureCollection",
  "metadata": {
    "schema_version": "0.2.4",
    "year": 2026,
    "month": 8,
    "wfo": "REV",
    "start_utc": "2026-08-01T00:00:00Z",
    "end_utc": "2026-09-01T00:00:00Z",
    "generated_utc": "2026-08-10T10:36:00Z",
    "mode": "storm_data_prep",
    "public_release_status": "public-source-derived",
    "time_note": "Storm Data entry times should be reviewed in local Standard Time (ST), not daylight time. Candidate reports include standard_time_display.",
    "tornado_track_policy": "Tornado tracks must come from DAT. NCEI begin/end coordinates are not used as a tornado track substitute.",
    "source": "https://mesonet.agron.iastate.edu/cgi-bin/request/gis/lsr.py?wfo=REV&sts=2026-08-01T00%3A00%3A00Z&ets=2026-09-01T00%3A00%3A00Z&fmt=csv"
  },
  "features": [
    {
      "type": "Feature",
      "id": "iem-lsr-REV-1",
      "properties": {
        "report_id": "iem-lsr-REV-1",
        "report_type": "TSTM WND GST",
        "event_category": "thunderstorm_wind",
        "valid_utc": "202608080147",
        "standard_time_display": "2026-08-07 17:47 PST",
        "wfo": "REV",
        "county_or_zone": "Washoe",
        "city": "2 SSW Sun Valley",
        "state": "NV",
        "magnitude": 66.0,
        "magnitude_units": null,
        "source": "NWS Employee",
        "event_narrative": "57 kt outflow wind gust observed at NWS Reno office."
      },
      "geometry": {
        "type": "Point",
        "coordinates": [
          -119.8,
          39.57
        ]
      }
    }
  ]
}