{
  "type": "FeatureCollection",
  "metadata": {
    "schema_version": "0.2.4",
    "year": 2026,
    "month": 7,
    "wfo": "MEG",
    "start_utc": "2026-07-01T00:00:00Z",
    "end_utc": "2026-08-01T00:00:00Z",
    "generated_utc": "2026-07-04T11:00:45Z",
    "mode": "storm_data_prep",
    "public_release_status": "public-source-derived",
    "time_note": "Storm Data entry times should be reviewed in local Standard Time (ST), not daylight time. Candidate reports include standard_time_display.",
    "tornado_track_policy": "Tornado tracks must come from DAT. NCEI begin/end coordinates are not used as a tornado track substitute.",
    "source": "https://mesonet.agron.iastate.edu/cgi-bin/request/gis/lsr.py?wfo=MEG&sts=2026-07-01T00%3A00%3A00Z&ets=2026-08-01T00%3A00%3A00Z&fmt=csv"
  },
  "features": [
    {
      "type": "Feature",
      "id": "iem-lsr-MEG-1",
      "properties": {
        "report_id": "iem-lsr-MEG-1",
        "report_type": "TSTM WND DMG",
        "event_category": "thunderstorm_wind",
        "valid_utc": "202607012110",
        "standard_time_display": "2026-07-01 15:10 CST",
        "wfo": "MEG",
        "county_or_zone": "Tishomingo",
        "city": "1 S Golden",
        "state": "MS",
        "magnitude": null,
        "magnitude_units": null,
        "source": "Public",
        "event_narrative": "Large tree down across Patterson Chapel Rd south of Golden."
      },
      "geometry": {
        "type": "Point",
        "coordinates": [
          -88.19,
          34.47
        ]
      }
    },
    {
      "type": "Feature",
      "id": "iem-lsr-MEG-2",
      "properties": {
        "report_id": "iem-lsr-MEG-2",
        "report_type": "TSTM WND DMG",
        "event_category": "thunderstorm_wind",
        "valid_utc": "202607012115",
        "standard_time_display": "2026-07-01 15:15 CST",
        "wfo": "MEG",
        "county_or_zone": "Lee",
        "city": "3 S Plantersville",
        "state": "MS",
        "magnitude": null,
        "magnitude_units": null,
        "source": "911 Call Center",
        "event_narrative": "Several trees down from Plantersville to Shannon."
      },
      "geometry": {
        "type": "Point",
        "coordinates": [
          -88.66,
          34.16
        ]
      }
    },
    {
      "type": "Feature",
      "id": "iem-lsr-MEG-3",
      "properties": {
        "report_id": "iem-lsr-MEG-3",
        "report_type": "TSTM WND DMG",
        "event_category": "thunderstorm_wind",
        "valid_utc": "202607012115",
        "standard_time_display": "2026-07-01 15:15 CST",
        "wfo": "MEG",
        "county_or_zone": "Tishomingo",
        "city": "Belmont",
        "state": "MS",
        "magnitude": null,
        "magnitude_units": null,
        "source": "Public",
        "event_narrative": "Numerous trees and power lines down across town and a few outbuildings suffered significant damage. Structural damage to some store fronts and roofs."
      },
      "geometry": {
        "type": "Point",
        "coordinates": [
          -88.21,
          34.51
        ]
      }
    },
    {
      "type": "Feature",
      "id": "iem-lsr-MEG-4",
      "properties": {
        "report_id": "iem-lsr-MEG-4",
        "report_type": "TSTM WND DMG",
        "event_category": "thunderstorm_wind",
        "valid_utc": "202607012115",
        "standard_time_display": "2026-07-01 15:15 CST",
        "wfo": "MEG",
        "county_or_zone": "Itawamba",
        "city": "Fairview",
        "state": "MS",
        "magnitude": null,
        "magnitude_units": null,
        "source": "Broadcast Media",
        "event_narrative": "Large trees down on vehicles."
      },
      "geometry": {
        "type": "Point",
        "coordinates": [
          -88.32,
          34.37
        ]
      }
    },
    {
      "type": "Feature",
      "id": "iem-lsr-MEG-5",
      "properties": {
        "report_id": "iem-lsr-MEG-5",
        "report_type": "TSTM WND DMG",
        "event_category": "thunderstorm_wind",
        "valid_utc": "202607012125",
        "standard_time_display": "2026-07-01 15:25 CST",
        "wfo": "MEG",
        "county_or_zone": "Tishomingo",
        "city": "Tishomingo",
        "state": "MS",
        "magnitude": null,
        "magnitude_units": null,
        "source": "Public",
        "event_narrative": "Corrects previous tstm wnd dmg report from Tishomingo. Trees and power lines down across the community."
      },
      "geometry": {
        "type": "Point",
        "coordinates": [
          -88.23,
          34.64
        ]
      }
    },
    {
      "type": "Feature",
      "id": "iem-lsr-MEG-6",
      "properties": {
        "report_id": "iem-lsr-MEG-6",
        "report_type": "TSTM WND GST",
        "event_category": "thunderstorm_wind",
        "valid_utc": "202607012130",
        "standard_time_display": "2026-07-01 15:30 CST",
        "wfo": "MEG",
        "county_or_zone": "Tishomingo",
        "city": "1 NNE Iuka",
        "state": "MS",
        "magnitude": 50.0,
        "magnitude_units": null,
        "source": "Broadcast Media",
        "event_narrative": "Several trees down in Iuka area due to strong winds associated with a thunderstorm outflow boundary."
      },
      "geometry": {
        "type": "Point",
        "coordinates": [
          -88.19,
          34.82
        ]
      }
    },
    {
      "type": "Feature",
      "id": "iem-lsr-MEG-7",
      "properties": {
        "report_id": "iem-lsr-MEG-7",
        "report_type": "TSTM WND DMG",
        "event_category": "thunderstorm_wind",
        "valid_utc": "202607012130",
        "standard_time_display": "2026-07-01 15:30 CST",
        "wfo": "MEG",
        "county_or_zone": "Tishomingo",
        "city": "1 NNE Iuka",
        "state": "MS",
        "magnitude": null,
        "magnitude_units": null,
        "source": "Broadcast Media",
        "event_narrative": "Numerous trees and power lines down in Iuka area due to strong winds associated with a thunderstorm outflow boundary."
      },
      "geometry": {
        "type": "Point",
        "coordinates": [
          -88.19,
          34.82
        ]
      }
    },
    {
      "type": "Feature",
      "id": "iem-lsr-MEG-8",
      "properties": {
        "report_id": "iem-lsr-MEG-8",
        "report_type": "TSTM WND DMG",
        "event_category": "thunderstorm_wind",
        "valid_utc": "202607012135",
        "standard_time_display": "2026-07-01 15:35 CST",
        "wfo": "MEG",
        "county_or_zone": "Prentiss",
        "city": "1 N Burton",
        "state": "MS",
        "magnitude": null,
        "magnitude_units": null,
        "source": "Broadcast Media",
        "event_narrative": "Several trees down along Highway 365 and Highway 30. One home off of 365 sustained significant damage due to treefall."
      },
      "geometry": {
        "type": "Point",
        "coordinates": [
          -88.34,
          34.65
        ]
      }
    },
    {
      "type": "Feature",
      "id": "iem-lsr-MEG-9",
      "properties": {
        "report_id": "iem-lsr-MEG-9",
        "report_type": "TSTM WND GST",
        "event_category": "thunderstorm_wind",
        "valid_utc": "202607012145",
        "standard_time_display": "2026-07-01 15:45 CST",
        "wfo": "MEG",
        "county_or_zone": "Prentiss",
        "city": "Booneville",
        "state": "MS",
        "magnitude": 50.0,
        "magnitude_units": null,
        "source": "Public",
        "event_narrative": "Metal roof of an outbuilding partially peeled back."
      },
      "geometry": {
        "type": "Point",
        "coordinates": [
          -88.57,
          34.66
        ]
      }
    },
    {
      "type": "Feature",
      "id": "iem-lsr-MEG-10",
      "properties": {
        "report_id": "iem-lsr-MEG-10",
        "report_type": "TSTM WND DMG",
        "event_category": "thunderstorm_wind",
        "valid_utc": "202607012155",
        "standard_time_display": "2026-07-01 15:55 CST",
        "wfo": "MEG",
        "county_or_zone": "Lee",
        "city": "2 E Nettleton",
        "state": "MS",
        "magnitude": null,
        "magnitude_units": null,
        "source": "911 Call Center",
        "event_narrative": "Large tree down across Road 100."
      },
      "geometry": {
        "type": "Point",
        "coordinates": [
          -88.58,
          34.09
        ]
      }
    },
    {
      "type": "Feature",
      "id": "iem-lsr-MEG-11",
      "properties": {
        "report_id": "iem-lsr-MEG-11",
        "report_type": "TSTM WND GST",
        "event_category": "thunderstorm_wind",
        "valid_utc": "202607012315",
        "standard_time_display": "2026-07-01 17:15 CST",
        "wfo": "MEG",
        "county_or_zone": "Lafayette",
        "city": "5 WNW Denmark",
        "state": "MS",
        "magnitude": 45.0,
        "magnitude_units": null,
        "source": "Emergency Mngr",
        "event_narrative": "Tree down on Highway 6 East at County Road 269. Time estimated from radar."
      },
      "geometry": {
        "type": "Point",
        "coordinates": [
          -89.43,
          34.34
        ]
      }
    },
    {
      "type": "Feature",
      "id": "iem-lsr-MEG-12",
      "properties": {
        "report_id": "iem-lsr-MEG-12",
        "report_type": "TSTM WND GST",
        "event_category": "thunderstorm_wind",
        "valid_utc": "202607012325",
        "standard_time_display": "2026-07-01 17:25 CST",
        "wfo": "MEG",
        "county_or_zone": "Marshall",
        "city": "4 E Independence",
        "state": "MS",
        "magnitude": 50.0,
        "magnitude_units": null,
        "source": "Emergency Mngr",
        "event_narrative": "Several trees down due to outflow winds."
      },
      "geometry": {
        "type": "Point",
        "coordinates": [
          -89.72,
          34.7
        ]
      }
    },
    {
      "type": "Feature",
      "id": "iem-lsr-MEG-13",
      "properties": {
        "report_id": "iem-lsr-MEG-13",
        "report_type": "TSTM WND DMG",
        "event_category": "thunderstorm_wind",
        "valid_utc": "202607012325",
        "standard_time_display": "2026-07-01 17:25 CST",
        "wfo": "MEG",
        "county_or_zone": "Tishomingo",
        "city": "Tishomingo",
        "state": "MS",
        "magnitude": null,
        "magnitude_units": null,
        "source": "Public",
        "event_narrative": "Trees and power lines down across the community."
      },
      "geometry": {
        "type": "Point",
        "coordinates": [
          -88.23,
          34.64
        ]
      }
    },
    {
      "type": "Feature",
      "id": "iem-lsr-MEG-14",
      "properties": {
        "report_id": "iem-lsr-MEG-14",
        "report_type": "TSTM WND GST",
        "event_category": "thunderstorm_wind",
        "valid_utc": "202607012335",
        "standard_time_display": "2026-07-01 17:35 CST",
        "wfo": "MEG",
        "county_or_zone": "Fayette",
        "city": "2 NE Oakland",
        "state": "TN",
        "magnitude": 45.0,
        "magnitude_units": null,
        "source": "NWS Employee",
        "event_narrative": "Tree down outside of Oakland."
      },
      "geometry": {
        "type": "Point",
        "coordinates": [
          -89.49,
          35.24
        ]
      }
    },
    {
      "type": "Feature",
      "id": "iem-lsr-MEG-15",
      "properties": {
        "report_id": "iem-lsr-MEG-15",
        "report_type": "HAIL",
        "event_category": "hail",
        "valid_utc": "202607022048",
        "standard_time_display": "2026-07-02 14:48 CST",
        "wfo": "MEG",
        "county_or_zone": "Decatur",
        "city": "3 SSE Scotts Hill",
        "state": "TN",
        "magnitude": 1.0,
        "magnitude_units": null,
        "source": "Broadcast Media",
        "event_narrative": null
      },
      "geometry": {
        "type": "Point",
        "coordinates": [
          -88.23,
          35.47
        ]
      }
    },
    {
      "type": "Feature",
      "id": "iem-lsr-MEG-16",
      "properties": {
        "report_id": "iem-lsr-MEG-16",
        "report_type": "HAIL",
        "event_category": "hail",
        "valid_utc": "202607022102",
        "standard_time_display": "2026-07-02 15:02 CST",
        "wfo": "MEG",
        "county_or_zone": "Henderson",
        "city": "1 SW Scotts Hill",
        "state": "TN",
        "magnitude": 1.0,
        "magnitude_units": null,
        "source": "Public",
        "event_narrative": "Reported quarter size hail in Scotts Hill_ TN. Time estimated on radar."
      },
      "geometry": {
        "type": "Point",
        "coordinates": [
          -88.26,
          35.51
        ]
      }
    },
    {
      "type": "Feature",
      "id": "iem-lsr-MEG-17",
      "properties": {
        "report_id": "iem-lsr-MEG-17",
        "report_type": "TSTM WND DMG",
        "event_category": "thunderstorm_wind",
        "valid_utc": "202607022315",
        "standard_time_display": "2026-07-02 17:15 CST",
        "wfo": "MEG",
        "county_or_zone": "Benton",
        "city": "6 NE Camden",
        "state": "TN",
        "magnitude": null,
        "magnitude_units": null,
        "source": "Trained Spotter",
        "event_narrative": "Barn roof blown off with debris across Eva Flatwoods Rd."
      },
      "geometry": {
        "type": "Point",
        "coordinates": [
          -88.03,
          36.12
        ]
      }
    },
    {
      "type": "Feature",
      "id": "iem-lsr-MEG-18",
      "properties": {
        "report_id": "iem-lsr-MEG-18",
        "report_type": "TSTM WND DMG",
        "event_category": "thunderstorm_wind",
        "valid_utc": "202607022320",
        "standard_time_display": "2026-07-02 17:20 CST",
        "wfo": "MEG",
        "county_or_zone": "Henry",
        "city": "3 N Buchanan",
        "state": "TN",
        "magnitude": null,
        "magnitude_units": null,
        "source": "911 Call Center",
        "event_narrative": "Large tree down on Blood River Church Rd."
      },
      "geometry": {
        "type": "Point",
        "coordinates": [
          -88.2,
          36.48
        ]
      }
    },
    {
      "type": "Feature",
      "id": "iem-lsr-MEG-19",
      "properties": {
        "report_id": "iem-lsr-MEG-19",
        "report_type": "TSTM WND DMG",
        "event_category": "thunderstorm_wind",
        "valid_utc": "202607022322",
        "standard_time_display": "2026-07-02 17:22 CST",
        "wfo": "MEG",
        "county_or_zone": "Henry",
        "city": "4 S Buchanan",
        "state": "TN",
        "magnitude": null,
        "magnitude_units": null,
        "source": "911 Call Center",
        "event_narrative": "Large tree down across Buchanan Rd."
      },
      "geometry": {
        "type": "Point",
        "coordinates": [
          -88.2,
          36.38
        ]
      }
    },
    {
      "type": "Feature",
      "id": "iem-lsr-MEG-20",
      "properties": {
        "report_id": "iem-lsr-MEG-20",
        "report_type": "TSTM WND DMG",
        "event_category": "thunderstorm_wind",
        "valid_utc": "202607022325",
        "standard_time_display": "2026-07-02 17:25 CST",
        "wfo": "MEG",
        "county_or_zone": "Henry",
        "city": "2 NNE Puryear",
        "state": "TN",
        "magnitude": null,
        "magnitude_units": null,
        "source": "911 Call Center",
        "event_narrative": "Several trees down blocking Valentine Rd."
      },
      "geometry": {
        "type": "Point",
        "coordinates": [
          -88.32,
          36.47
        ]
      }
    },
    {
      "type": "Feature",
      "id": "iem-lsr-MEG-21",
      "properties": {
        "report_id": "iem-lsr-MEG-21",
        "report_type": "TSTM WND GST",
        "event_category": "thunderstorm_wind",
        "valid_utc": "202607022335",
        "standard_time_display": "2026-07-02 17:35 CST",
        "wfo": "MEG",
        "county_or_zone": "Henry",
        "city": "3 ESE Paris",
        "state": "TN",
        "magnitude": 50.0,
        "magnitude_units": null,
        "source": "911 Call Center",
        "event_narrative": "Tree and power lines down on Palmer Dr."
      },
      "geometry": {
        "type": "Point",
        "coordinates": [
          -88.28,
          36.29
        ]
      }
    },
    {
      "type": "Feature",
      "id": "iem-lsr-MEG-22",
      "properties": {
        "report_id": "iem-lsr-MEG-22",
        "report_type": "TSTM WND DMG",
        "event_category": "thunderstorm_wind",
        "valid_utc": "202607022335",
        "standard_time_display": "2026-07-02 17:35 CST",
        "wfo": "MEG",
        "county_or_zone": "Henry",
        "city": "3 NNW Paris",
        "state": "TN",
        "magnitude": null,
        "magnitude_units": null,
        "source": "Trained Spotter",
        "event_narrative": "Large tree down blocking Whitlock Rd."
      },
      "geometry": {
        "type": "Point",
        "coordinates": [
          -88.35,
          36.35
        ]
      }
    },
    {
      "type": "Feature",
      "id": "iem-lsr-MEG-23",
      "properties": {
        "report_id": "iem-lsr-MEG-23",
        "report_type": "TSTM WND DMG",
        "event_category": "thunderstorm_wind",
        "valid_utc": "202607022336",
        "standard_time_display": "2026-07-02 17:36 CST",
        "wfo": "MEG",
        "county_or_zone": "Henry",
        "city": "4 N Puryear",
        "state": "TN",
        "magnitude": null,
        "magnitude_units": null,
        "source": "911 Call Center",
        "event_narrative": "Trees down blocking both lanes of Mason Lake Rd."
      },
      "geometry": {
        "type": "Point",
        "coordinates": [
          -88.32,
          36.5
        ]
      }
    },
    {
      "type": "Feature",
      "id": "iem-lsr-MEG-24",
      "properties": {
        "report_id": "iem-lsr-MEG-24",
        "report_type": "TSTM WND DMG",
        "event_category": "thunderstorm_wind",
        "valid_utc": "202607022345",
        "standard_time_display": "2026-07-02 17:45 CST",
        "wfo": "MEG",
        "county_or_zone": "Henry",
        "city": "5 ESE Cottage Grove",
        "state": "TN",
        "magnitude": null,
        "magnitude_units": null,
        "source": "911 Call Center",
        "event_narrative": "Tree down blocking Highway 69."
      },
      "geometry": {
        "type": "Point",
        "coordinates": [
          -88.4,
          36.35
        ]
      }
    },
    {
      "type": "Feature",
      "id": "iem-lsr-MEG-25",
      "properties": {
        "report_id": "iem-lsr-MEG-25",
        "report_type": "TSTM WND DMG",
        "event_category": "thunderstorm_wind",
        "valid_utc": "202607031707",
        "standard_time_display": "2026-07-03 11:07 CST",
        "wfo": "MEG",
        "county_or_zone": "Lee",
        "city": "1 E Nettleton",
        "state": "MS",
        "magnitude": null,
        "magnitude_units": null,
        "source": "Public",
        "event_narrative": "multiple trees down."
      },
      "geometry": {
        "type": "Point",
        "coordinates": [
          -88.6,
          34.09
        ]
      }
    },
    {
      "type": "Feature",
      "id": "iem-lsr-MEG-26",
      "properties": {
        "report_id": "iem-lsr-MEG-26",
        "report_type": "TSTM WND DMG",
        "event_category": "thunderstorm_wind",
        "valid_utc": "202607031740",
        "standard_time_display": "2026-07-03 11:40 CST",
        "wfo": "MEG",
        "county_or_zone": "Monroe",
        "city": "6 NNW Gattman",
        "state": "MS",
        "magnitude": null,
        "magnitude_units": null,
        "source": "Trained Spotter",
        "event_narrative": "Tree snapped in half and fallen on manufactured home near Mill Creek Rd in Greenwood Springs_ MS."
      },
      "geometry": {
        "type": "Point",
        "coordinates": [
          -88.27,
          33.96
        ]
      }
    },
    {
      "type": "Feature",
      "id": "iem-lsr-MEG-27",
      "properties": {
        "report_id": "iem-lsr-MEG-27",
        "report_type": "TSTM WND DMG",
        "event_category": "thunderstorm_wind",
        "valid_utc": "202607032202",
        "standard_time_display": "2026-07-03 16:02 CST",
        "wfo": "MEG",
        "county_or_zone": "Madison",
        "city": "3 NNE Jackson",
        "state": "TN",
        "magnitude": null,
        "magnitude_units": null,
        "source": "NWS Employee",
        "event_narrative": "Large tree down on house."
      },
      "geometry": {
        "type": "Point",
        "coordinates": [
          -88.81,
          35.68
        ]
      }
    },
    {
      "type": "Feature",
      "id": "iem-lsr-MEG-28",
      "properties": {
        "report_id": "iem-lsr-MEG-28",
        "report_type": "NON-TSTM WND DMG",
        "event_category": "thunderstorm_wind",
        "valid_utc": "202607032243",
        "standard_time_display": "2026-07-03 16:43 CST",
        "wfo": "MEG",
        "county_or_zone": "Weakley",
        "city": "Sharon",
        "state": "TN",
        "magnitude": null,
        "magnitude_units": null,
        "source": "Law Enforcement",
        "event_narrative": "Power lines down in Sharon."
      },
      "geometry": {
        "type": "Point",
        "coordinates": [
          -88.82,
          36.23
        ]
      }
    }
  ]
}