{
  "type": "FeatureCollection",
  "metadata": {
    "schema_version": "0.2.4",
    "year": 2026,
    "month": 5,
    "wfo": "DVN",
    "start_utc": "2026-05-01T00:00:00Z",
    "end_utc": "2026-06-01T00:00:00Z",
    "generated_utc": "2026-06-24T11:55:59Z",
    "mode": "storm_data_prep",
    "public_release_status": "public-source-derived",
    "time_note": "Storm Data entry times should be reviewed in local Standard Time (ST), not daylight time. Candidate reports include standard_time_display.",
    "tornado_track_policy": "Tornado tracks must come from DAT. NCEI begin/end coordinates are not used as a tornado track substitute.",
    "source": "https://mesonet.agron.iastate.edu/cgi-bin/request/gis/lsr.py?wfo=DVN&sts=2026-05-01T00%3A00%3A00Z&ets=2026-06-01T00%3A00%3A00Z&fmt=csv"
  },
  "features": [
    {
      "type": "Feature",
      "id": "iem-lsr-DVN-1",
      "properties": {
        "report_id": "iem-lsr-DVN-1",
        "report_type": "TSTM WND GST",
        "event_category": "thunderstorm_wind",
        "valid_utc": "202605042137",
        "standard_time_display": "2026-05-04 15:37 CST",
        "wfo": "DVN",
        "county_or_zone": "Muscatine",
        "city": "West Liberty",
        "state": "IA",
        "magnitude": 60.0,
        "magnitude_units": null,
        "source": "Public",
        "event_narrative": null
      },
      "geometry": {
        "type": "Point",
        "coordinates": [
          -91.26,
          41.57
        ]
      }
    },
    {
      "type": "Feature",
      "id": "iem-lsr-DVN-2",
      "properties": {
        "report_id": "iem-lsr-DVN-2",
        "report_type": "TSTM WND DMG",
        "event_category": "thunderstorm_wind",
        "valid_utc": "202605042150",
        "standard_time_display": "2026-05-04 15:50 CST",
        "wfo": "DVN",
        "county_or_zone": "Whiteside",
        "city": "1 N Hamilton Corners",
        "state": "IL",
        "magnitude": null,
        "magnitude_units": null,
        "source": "Law Enforcement",
        "event_narrative": "Tree trunk split in backyard. Across the road_ 5 power poles snapped at the base. Time estimated from radar based on time LE received call."
      },
      "geometry": {
        "type": "Point",
        "coordinates": [
          -89.97,
          41.71
        ]
      }
    },
    {
      "type": "Feature",
      "id": "iem-lsr-DVN-3",
      "properties": {
        "report_id": "iem-lsr-DVN-3",
        "report_type": "TSTM WND GST",
        "event_category": "thunderstorm_wind",
        "valid_utc": "202605042221",
        "standard_time_display": "2026-05-04 16:21 CST",
        "wfo": "DVN",
        "county_or_zone": "Rock Island",
        "city": "1 W Hillsdale",
        "state": "IL",
        "magnitude": 60.0,
        "magnitude_units": null,
        "source": "Public",
        "event_narrative": "Corrects previous tstm wnd gst report from 1 W Hillsdale."
      },
      "geometry": {
        "type": "Point",
        "coordinates": [
          -90.19,
          41.61
        ]
      }
    },
    {
      "type": "Feature",
      "id": "iem-lsr-DVN-4",
      "properties": {
        "report_id": "iem-lsr-DVN-4",
        "report_type": "TSTM WND GST",
        "event_category": "thunderstorm_wind",
        "valid_utc": "202605042223",
        "standard_time_display": "2026-05-04 16:23 CST",
        "wfo": "DVN",
        "county_or_zone": "Rock Island",
        "city": "1 W Hillsdale",
        "state": "IL",
        "magnitude": 60.0,
        "magnitude_units": null,
        "source": "Public",
        "event_narrative": "Time estimated by radar."
      },
      "geometry": {
        "type": "Point",
        "coordinates": [
          -90.19,
          41.61
        ]
      }
    },
    {
      "type": "Feature",
      "id": "iem-lsr-DVN-5",
      "properties": {
        "report_id": "iem-lsr-DVN-5",
        "report_type": "TSTM WND DMG",
        "event_category": "thunderstorm_wind",
        "valid_utc": "202605042231",
        "standard_time_display": "2026-05-04 16:31 CST",
        "wfo": "DVN",
        "county_or_zone": "Scott",
        "city": "1 SW Davenport",
        "state": "IA",
        "magnitude": null,
        "magnitude_units": null,
        "source": "Public",
        "event_narrative": "Multiple large tree limbs down. Main limb was 16-18 inches and multiple 12-14 inch limbs. Time estimated from radar."
      },
      "geometry": {
        "type": "Point",
        "coordinates": [
          -90.62,
          41.54
        ]
      }
    },
    {
      "type": "Feature",
      "id": "iem-lsr-DVN-6",
      "properties": {
        "report_id": "iem-lsr-DVN-6",
        "report_type": "TSTM WND GST",
        "event_category": "thunderstorm_wind",
        "valid_utc": "202605042251",
        "standard_time_display": "2026-05-04 16:51 CST",
        "wfo": "DVN",
        "county_or_zone": "Henry",
        "city": "2 W Cambridge",
        "state": "IL",
        "magnitude": 70.0,
        "magnitude_units": null,
        "source": "Local Official",
        "event_narrative": "Measured gust. Noted blowing dust drastically obscuring visibility at the time."
      },
      "geometry": {
        "type": "Point",
        "coordinates": [
          -90.23,
          41.3
        ]
      }
    },
    {
      "type": "Feature",
      "id": "iem-lsr-DVN-7",
      "properties": {
        "report_id": "iem-lsr-DVN-7",
        "report_type": "HAIL",
        "event_category": "hail",
        "valid_utc": "202605042252",
        "standard_time_display": "2026-05-04 16:52 CST",
        "wfo": "DVN",
        "county_or_zone": "Henderson",
        "city": "Oquawka",
        "state": "IL",
        "magnitude": 0.7,
        "magnitude_units": null,
        "source": "Trained Spotter",
        "event_narrative": "Covered the ground."
      },
      "geometry": {
        "type": "Point",
        "coordinates": [
          -90.95,
          40.94
        ]
      }
    },
    {
      "type": "Feature",
      "id": "iem-lsr-DVN-8",
      "properties": {
        "report_id": "iem-lsr-DVN-8",
        "report_type": "TSTM WND DMG",
        "event_category": "thunderstorm_wind",
        "valid_utc": "202605042344",
        "standard_time_display": "2026-05-04 17:44 CST",
        "wfo": "DVN",
        "county_or_zone": "Putnam",
        "city": "1 E Hennepin",
        "state": "IL",
        "magnitude": null,
        "magnitude_units": null,
        "source": "Law Enforcement",
        "event_narrative": "Tree down on Route 71 near Hennepin."
      },
      "geometry": {
        "type": "Point",
        "coordinates": [
          -89.3,
          41.26
        ]
      }
    },
    {
      "type": "Feature",
      "id": "iem-lsr-DVN-9",
      "properties": {
        "report_id": "iem-lsr-DVN-9",
        "report_type": "TSTM WND GST",
        "event_category": "thunderstorm_wind",
        "valid_utc": "202605050000",
        "standard_time_display": "2026-05-04 18:00 CST",
        "wfo": "DVN",
        "county_or_zone": "Henderson",
        "city": "1 SE Rozetta",
        "state": "IL",
        "magnitude": 61.0,
        "magnitude_units": null,
        "source": "Trained Spotter",
        "event_narrative": "Measured on Davis weather station."
      },
      "geometry": {
        "type": "Point",
        "coordinates": [
          -90.85,
          40.94
        ]
      }
    },
    {
      "type": "Feature",
      "id": "iem-lsr-DVN-10",
      "properties": {
        "report_id": "iem-lsr-DVN-10",
        "report_type": "HAIL",
        "event_category": "hail",
        "valid_utc": "202605050030",
        "standard_time_display": "2026-05-04 18:30 CST",
        "wfo": "DVN",
        "county_or_zone": "Des Moines",
        "city": "Beaverdale",
        "state": "IA",
        "magnitude": 0.88,
        "magnitude_units": null,
        "source": "Trained Spotter",
        "event_narrative": "Dime to Nickel size hail."
      },
      "geometry": {
        "type": "Point",
        "coordinates": [
          -91.22,
          40.85
        ]
      }
    },
    {
      "type": "Feature",
      "id": "iem-lsr-DVN-11",
      "properties": {
        "report_id": "iem-lsr-DVN-11",
        "report_type": "HAIL",
        "event_category": "hail",
        "valid_utc": "202605050030",
        "standard_time_display": "2026-05-04 18:30 CST",
        "wfo": "DVN",
        "county_or_zone": "Lee",
        "city": "2 E Sawyer",
        "state": "IA",
        "magnitude": 1.0,
        "magnitude_units": null,
        "source": "Public",
        "event_narrative": null
      },
      "geometry": {
        "type": "Point",
        "coordinates": [
          -91.32,
          40.7
        ]
      }
    },
    {
      "type": "Feature",
      "id": "iem-lsr-DVN-12",
      "properties": {
        "report_id": "iem-lsr-DVN-12",
        "report_type": "HAIL",
        "event_category": "hail",
        "valid_utc": "202605050055",
        "standard_time_display": "2026-05-04 18:55 CST",
        "wfo": "DVN",
        "county_or_zone": "Lee",
        "city": "2 E Sawyer",
        "state": "IA",
        "magnitude": 1.0,
        "magnitude_units": null,
        "source": "Public",
        "event_narrative": "Corrects previous hail report from 2 E Sawyer."
      },
      "geometry": {
        "type": "Point",
        "coordinates": [
          -91.32,
          40.7
        ]
      }
    },
    {
      "type": "Feature",
      "id": "iem-lsr-DVN-13",
      "properties": {
        "report_id": "iem-lsr-DVN-13",
        "report_type": "TSTM WND DMG",
        "event_category": "thunderstorm_wind",
        "valid_utc": "202605180544",
        "standard_time_display": "2026-05-17 23:44 CST",
        "wfo": "DVN",
        "county_or_zone": "Delaware",
        "city": "2 N Ryan",
        "state": "IA",
        "magnitude": null,
        "magnitude_units": null,
        "source": "Emergency Mngr",
        "event_narrative": "Two power poles snapped north of town near Hwy 13. Time estimated from radar."
      },
      "geometry": {
        "type": "Point",
        "coordinates": [
          -91.48,
          42.38
        ]
      }
    },
    {
      "type": "Feature",
      "id": "iem-lsr-DVN-14",
      "properties": {
        "report_id": "iem-lsr-DVN-14",
        "report_type": "HAIL",
        "event_category": "hail",
        "valid_utc": "202605180851",
        "standard_time_display": "2026-05-18 02:51 CST",
        "wfo": "DVN",
        "county_or_zone": "Scott",
        "city": "1 NNW Bettendorf",
        "state": "IA",
        "magnitude": 1.25,
        "magnitude_units": null,
        "source": "NWS Employee",
        "event_narrative": "Half dollar size hail reported by off duty NWS employee."
      },
      "geometry": {
        "type": "Point",
        "coordinates": [
          -90.48,
          41.57
        ]
      }
    },
    {
      "type": "Feature",
      "id": "iem-lsr-DVN-15",
      "properties": {
        "report_id": "iem-lsr-DVN-15",
        "report_type": "HAIL",
        "event_category": "hail",
        "valid_utc": "202605180851",
        "standard_time_display": "2026-05-18 02:51 CST",
        "wfo": "DVN",
        "county_or_zone": "Scott",
        "city": "2 N Bettendorf",
        "state": "IA",
        "magnitude": 1.25,
        "magnitude_units": null,
        "source": "Public",
        "event_narrative": null
      },
      "geometry": {
        "type": "Point",
        "coordinates": [
          -90.47,
          41.59
        ]
      }
    },
    {
      "type": "Feature",
      "id": "iem-lsr-DVN-16",
      "properties": {
        "report_id": "iem-lsr-DVN-16",
        "report_type": "HAIL",
        "event_category": "hail",
        "valid_utc": "202605180854",
        "standard_time_display": "2026-05-18 02:54 CST",
        "wfo": "DVN",
        "county_or_zone": "Scott",
        "city": "1 WSW Bettendorf",
        "state": "IA",
        "magnitude": 1.0,
        "magnitude_units": null,
        "source": "Trained Spotter",
        "event_narrative": null
      },
      "geometry": {
        "type": "Point",
        "coordinates": [
          -90.5,
          41.56
        ]
      }
    },
    {
      "type": "Feature",
      "id": "iem-lsr-DVN-17",
      "properties": {
        "report_id": "iem-lsr-DVN-17",
        "report_type": "RAIN",
        "event_category": "other",
        "valid_utc": "202605181300",
        "standard_time_display": "2026-05-18 07:00 CST",
        "wfo": "DVN",
        "county_or_zone": "Van Buren",
        "city": "10 N Memphis",
        "state": "IA",
        "magnitude": 1.0,
        "magnitude_units": null,
        "source": "Broadcast Media",
        "event_narrative": "Between midnight and 8 AM."
      },
      "geometry": {
        "type": "Point",
        "coordinates": [
          -92.17,
          40.61
        ]
      }
    },
    {
      "type": "Feature",
      "id": "iem-lsr-DVN-18",
      "properties": {
        "report_id": "iem-lsr-DVN-18",
        "report_type": "RAIN",
        "event_category": "other",
        "valid_utc": "202605181336",
        "standard_time_display": "2026-05-18 07:36 CST",
        "wfo": "DVN",
        "county_or_zone": "Clinton",
        "city": "2 W Fulton",
        "state": "IA",
        "magnitude": 1.0,
        "magnitude_units": null,
        "source": "Trained Spotter",
        "event_narrative": null
      },
      "geometry": {
        "type": "Point",
        "coordinates": [
          -90.19,
          41.86
        ]
      }
    }
  ]
}