{
  "type": "FeatureCollection",
  "metadata": {
    "schema_version": "0.2.4",
    "year": 2026,
    "month": 3,
    "wfo": "TWC",
    "start_utc": "2026-03-01T00:00:00Z",
    "end_utc": "2026-04-01T00:00:00Z",
    "generated_utc": "2026-05-28T12:48:44Z",
    "mode": "storm_data_prep",
    "public_release_status": "public-source-derived",
    "time_note": "Storm Data entry times should be reviewed in local Standard Time (ST), not daylight time. Candidate reports include standard_time_display.",
    "tornado_track_policy": "Tornado tracks must come from DAT. NCEI begin/end coordinates are not used as a tornado track substitute.",
    "source": "https://mesonet.agron.iastate.edu/cgi-bin/request/gis/lsr.py?wfo=TWC&sts=2026-03-01T00%3A00%3A00Z&ets=2026-04-01T00%3A00%3A00Z&fmt=csv"
  },
  "features": [
    {
      "type": "Feature",
      "id": "iem-lsr-TWC-1",
      "properties": {
        "report_id": "iem-lsr-TWC-1",
        "report_type": "RAIN",
        "event_category": "other",
        "valid_utc": "202603300224",
        "standard_time_display": "2026-03-29 19:24 MST",
        "wfo": "TWC",
        "county_or_zone": "Pima",
        "city": "12 ENE Pisinemo",
        "state": "AZ",
        "magnitude": 1.41,
        "magnitude_units": null,
        "source": "Public",
        "event_narrative": "Rain fell in duration of 80 minutes. Private weather station."
      },
      "geometry": {
        "type": "Point",
        "coordinates": [
          -112.13,
          32.1
        ]
      }
    }
  ]
}