{
  "type": "FeatureCollection",
  "name": "counties_parishes",
  "crs": {
    "type": "name",
    "properties": {
      "name": "urn:ogc:def:crs:OGC:1.3:CRS84"
    }
  },
  "features": [
    {
      "type": "Feature",
      "properties": {
        "STATE": "MO",
        "CWA": "SGF",
        "COUNTYNAME": "Barton",
        "FIPS": "29011",
        "TIME_ZONE": "C"
      },
      "geometry": {
        "type": "Polygon",
        "coordinates": [
          [
            [
              -94.61759948699995,
              37.653713226000036
            ],
            [
              -94.28119659399994,
              37.64701080300006
            ],
            [
              -94.07379913299997,
              37.63971328700006
            ],
            [
              -94.08219909699994,
              37.349311829000044
            ],
            [
              -94.44739532499995,
              37.35791397100007
            ],
            [
              -94.61750030499996,
              37.36431121800007
            ],
            [
              -94.61759948699995,
              37.653713226000036
            ]
          ]
        ]
      }
    },
    {
      "type": "Feature",
      "properties": {
        "STATE": "MO",
        "CWA": "SGF",
        "COUNTYNAME": "Benton",
        "FIPS": "29015",
        "TIME_ZONE": "C"
      },
      "geometry": {
        "type": "Polygon",
        "coordinates": [
          [
            [
              -93.28929901099997,
              38.53541183500005
            ],
            [
              -93.18560028099995,
              38.534214020000036
            ],
            [
              -93.06739807099996,
              38.53011322000003
            ],
            [
              -93.07199859599996,
              38.44311142000004
            ],
            [
              -93.06879424999994,
              38.44231033300008
            ],
            [
              -93.06900024399994,
              38.43351364100005
            ],
            [
              -93.08179473899997,
              38.19311142000004
            ],
            [
              -93.08089446999998,
              38.18651199300007
            ],
            [
              -93.05909728999995,
              38.18571090700004
            ],
            [
              -93.06579589799998,
              38.06251144400005
            ],
            [
              -93.25019836399997,
              38.06501388500004
            ],
            [
              -93.50399780299995,
              38.07261276200006
            ],
            [
              -93.49729919399994,
              38.199111938000044
            ],
            [
              -93.51029968299997,
              38.199512482000046
            ],
            [
              -93.51259612999996,
              38.20061111500007
            ],
            [
              -93.51169586199995,
              38.20531082200006
            ],
            [
              -93.51349639899996,
              38.207412720000036
            ],
            [
              -93.52309417699996,
              38.207412720000036
            ],
            [
              -93.51210021999998,
              38.446212769000056
            ],
            [
              -93.51249694799998,
              38.45421218900003
            ],
            [
              -93.51509857199994,
              38.455013275000056
            ],
            [
              -93.51279449499998,
              38.51251220700004
            ],
            [
              -93.29189300499996,
              38.506313324000075
            ],
            [
              -93.28929901099997,
              38.53541183500005
            ]
          ]
        ]
      }
    },
    {
      "type": "Feature",
      "properties": {
        "STATE": "MO",
        "CWA": "SGF",
        "COUNTYNAME": "Camden",
        "FIPS": "29029",
        "TIME_ZONE": "C"
      },
      "geometry": {
        "type": "Polygon",
        "coordinates": [
          [
            [
              -93.00199748499995,
              38.22091264100004
            ],
            [
              -92.98479461699998,
              38.22001266500007
            ],
            [
              -92.98349761999998,
              38.213813782000045
            ],
            [
              -92.98569488499999,
              38.21101379400005
            ],
            [
              -92.98929595899995,
              38.210411072000056
            ],
            [
              -93.01319885299995,
              38.20981216400003
            ],
            [
              -93.01999664299996,
              38.20481109600007
            ],
            [
              -93.02229309099994,
              38.19961166400003
            ],
            [
              -93.02099609399994,
              38.19681167600004
            ],
            [
              -93.01589965799997,
              38.19061279300007
            ],
            [
              -93.00709533699995,
              38.18631362900004
            ],
            [
              -92.99019622799995,
              38.187412262000066
            ],
            [
              -92.98469543499994,
              38.19231033300008
            ],
            [
              -92.98199462899998,
              38.20011138900003
            ],
            [
              -92.969993591,
              38.21411132800006
            ],
            [
              -92.96849822999997,
              38.21891403200004
            ],
            [
              -92.96119689899996,
              38.22991180400004
            ],
            [
              -92.95769500699998,
              38.23161315900006
            ],
            [
              -92.940696716,
              38.226512909000064
            ],
            [
              -92.93669891399998,
              38.22441101100003
            ],
            [
              -92.93190002399996,
              38.21861267100007
            ],
            [
              -92.93269348099994,
              38.21401214600007
            ],
            [
              -92.93659973099994,
              38.20981216400003
            ],
            [
              -92.94459533699995,
              38.205810547000056
            ],
            [
              -92.95829772899998,
              38.20301055900006
            ],
            [
              -92.96229553199998,
              38.19871139500003
            ],
            [
              -92.95419311499995,
              38.196910858000024
            ],
            [
              -92.76899719199997,
              38.18971252400007
            ],
            [
              -92.76490020799997,
              38.19061279300007
            ],
            [
              -92.76389312699996,
              38.19901275600006
            ],
            [
              -92.76029968299997,
              38.20351028400006
            ],
            [
              -92.75899505599995,
              38.21021270800003
            ],
            [
              -92.75229644799998,
              38.215812683000024
            ],
            [
              -92.74149322499994,
              38.22081375100004
            ],
            [
              -92.73320007299998,
              38.22181320200008
            ],
            [
              -92.71799468999995,
              38.220310211000026
            ],
            [
              -92.70869445799997,
              38.22361373900003
            ],
            [
              -92.69649505599995,
              38.22331237800006
            ],
            [
              -92.67659759499998,
              38.213111877000074
            ],
            [
              -92.64899444599996,
              38.21141052200005
            ],
            [
              -92.64239501999998,
              38.21271133400006
            ],
            [
              -92.64029693599997,
              38.20541381800007
            ],
            [
              -92.64099883999995,
              38.17201232900004
            ],
            [
              -92.60529327399996,
              38.17071151700003
            ],
            [
              -92.60519409199998,
              38.14351272600004
            ],
            [
              -92.59639739999994,
              38.13981246900005
            ],
            [
              -92.59679412799994,
              38.11161041300005
            ],
            [
              -92.58799743699996,
              38.11061096200007
            ],
            [
              -92.58779907199994,
              38.09651184100005
            ],
            [
              -92.56969451899994,
              38.09551239000007
            ],
            [
              -92.57019805899995,
              38.066612244000055
            ],
            [
              -92.55209350599995,
              38.06631088300003
            ],
            [
              -92.55249786399997,
              38.05221176100008
            ],
            [
              -92.53359985399999,
              38.05181121800007
            ],
            [
              -92.53389739999994,
              38.03741073600003
            ],
            [
              -92.51559448199998,
              38.03691101100003
            ],
            [
              -92.51599883999995,
              38.022911072000056
            ],
            [
              -92.40539550799997,
              38.02111053500005
            ],
            [
              -92.40919494599996,
              37.85931396500007
            ],
            [
              -92.42070007299998,
              37.85931396500007
            ],
            [
              -92.42469787599998,
              37.85581207300004
            ],
            [
              -92.42630004899996,
              37.851512909000064
            ],
            [
              -92.44829559299995,
              37.836311340000066
            ],
            [
              -92.45179748499999,
              37.830513
            ],
            [
              -92.45289611799996,
              37.82441330000006
            ],
            [
              -92.46209716799996,
              37.82491302500006
            ],
            [
              -92.475494385,
              37.828411102000075
            ],
            [
              -92.49279785199997,
              37.829311371000074
            ],
            [
              -92.50419616699998,
              37.82511138900003
            ],
            [
              -92.51299285899995,
              37.812313080000024
            ],
            [
              -92.51959991499996,
              37.81301116900005
            ],
            [
              -92.53079986599994,
              37.81131362900004
            ],
            [
              -92.53429412799994,
              37.80931091300005
            ],
            [
              -92.53959655799997,
              37.80211257900004
            ],
            [
              -92.54949951199995,
              37.80141067500006
            ],
            [
              -92.56329345699999,
              37.80531311000004
            ],
            [
              -92.56499481199995,
              37.80731201200007
            ],
            [
              -92.56469726599994,
              37.81181335400004
            ],
            [
              -92.57149505599995,
              37.823413849000076
            ],
            [
              -92.57839965799997,
              37.82431030300006
            ],
            [
              -92.585395813,
              37.82821273800005
            ],
            [
              -92.58919525099998,
              37.83401107800006
            ],
            [
              -92.59980011,
              37.84071350100004
            ],
            [
              -92.60039520299995,
              37.852611542000034
            ],
            [
              -92.60820007299998,
              37.85591125500008
            ],
            [
              -92.61409759499998,
              37.86361312900004
            ],
            [
              -92.61489868199999,
              37.87171173100006
            ],
            [
              -92.61809539799998,
              37.87341308600003
            ],
            [
              -92.61739349399994,
              37.87881088300003
            ],
            [
              -92.62030029299996,
              37.88561248800005
            ],
            [
              -92.62059783899997,
              37.89171218900003
            ],
            [
              -92.85540008499999,
              37.89571380600006
            ],
            [
              -93.07249450699999,
              37.90261077900004
            ],
            [
              -93.05909728999995,
              38.18571090700004
            ],
            [
              -93.08089446999998,
              38.18651199300007
            ],
            [
              -93.08179473899997,
              38.19311142000004
            ],
            [
              -93.07740020799997,
              38.26121139500003
            ],
            [
              -93.07219695999999,
              38.26541137700008
            ],
            [
              -93.05859374999994,
              38.269611359000066
            ],
            [
              -93.04660034199998,
              38.27021026600005
            ],
            [
              -93.04319763199999,
              38.268413544000055
            ],
            [
              -93.03859710699999,
              38.26411056500007
            ],
            [
              -93.03229522699996,
              38.252811432000044
            ],
            [
              -93.01539611799996,
              38.24211120600006
            ],
            [
              -93.00719451899994,
              38.225410461000024
            ],
            [
              -93.00199748499995,
              38.22091264100004
            ]
          ]
        ]
      }
    },
    {
      "type": "Feature",
      "properties": {
        "STATE": "MO",
        "CWA": "SGF",
        "COUNTYNAME": "Cedar",
        "FIPS": "29039",
        "TIME_ZONE": "C"
      },
      "geometry": {
        "type": "Polygon",
        "coordinates": [
          [
            [
              -94.065696716,
              37.901012421000075
            ],
            [
              -93.80859374999994,
              37.89271163900003
            ],
            [
              -93.81149291999998,
              37.83471298200004
            ],
            [
              -93.62839508099995,
              37.82941055300006
            ],
            [
              -93.63239288299997,
              37.742210388000046
            ],
            [
              -93.60949706999997,
              37.74171066300005
            ],
            [
              -93.61599731399997,
              37.573810577000074
            ],
            [
              -93.65089416499995,
              37.57331085200008
            ],
            [
              -93.83759307899999,
              37.57821273800005
            ],
            [
              -94.07529449499998,
              37.580513
            ],
            [
              -94.06869506799995,
              37.75551223800005
            ],
            [
              -94.07339477499994,
              37.75571060200008
            ],
            [
              -94.065696716,
              37.901012421000075
            ]
          ]
        ]
      }
    },
    {
      "type": "Feature",
      "properties": {
        "STATE": "MO",
        "CWA": "SGF",
        "COUNTYNAME": "Christian",
        "FIPS": "29043",
        "TIME_ZONE": "C"
      },
      "geometry": {
        "type": "Polygon",
        "coordinates": [
          [
            [
              -93.60839843799994,
              37.09811401400003
            ],
            [
              -93.29479980499997,
              37.09441375700004
            ],
            [
              -92.902893066,
              37.08521270800003
            ],
            [
              -92.90909576399997,
              36.809413910000046
            ],
            [
              -93.34140014599996,
              36.81731033300008
            ],
            [
              -93.33759307899999,
              36.992012024000076
            ],
            [
              -93.61009979199997,
              36.99581146200006
            ],
            [
              -93.60839843799994,
              37.09811401400003
            ]
          ]
        ]
      }
    },
    {
      "type": "Feature",
      "properties": {
        "STATE": "MO",
        "CWA": "SGF",
        "COUNTYNAME": "Dent",
        "FIPS": "29065",
        "TIME_ZONE": "C"
      },
      "geometry": {
        "type": "Polygon",
        "coordinates": [
          [
            [
              -91.80579376199995,
              37.79131317100007
            ],
            [
              -91.30839538599997,
              37.787212372000056
            ],
            [
              -91.31039428699995,
              37.70001220700004
            ],
            [
              -91.15319824299996,
              37.69721221000003
            ],
            [
              -91.15509796099997,
              37.588813782000045
            ],
            [
              -91.21269988999995,
              37.58891296400003
            ],
            [
              -91.31229400599995,
              37.59281158400006
            ],
            [
              -91.31419372599998,
              37.50511169400005
            ],
            [
              -91.21089935299995,
              37.501113892000035
            ],
            [
              -91.21189880399999,
              37.415313721000075
            ],
            [
              -91.42769622799995,
              37.41801071200007
            ],
            [
              -91.75499725299994,
              37.42471313500005
            ],
            [
              -91.75539398199999,
              37.59851074200003
            ],
            [
              -91.80909728999995,
              37.599712372000056
            ],
            [
              -91.80579376199995,
              37.79131317100007
            ]
          ]
        ]
      }
    },
    {
      "type": "Feature",
      "properties": {
        "STATE": "MO",
        "CWA": "SGF",
        "COUNTYNAME": "Douglas",
        "FIPS": "29067",
        "TIME_ZONE": "C"
      },
      "geometry": {
        "type": "Polygon",
        "coordinates": [
          [
            [
              -92.83609771699997,
              37.06851196300005
            ],
            [
              -92.63729858399995,
              37.066810608000026
            ],
            [
              -92.08869934099994,
              37.05621337900004
            ],
            [
              -92.09599304199998,
              36.79401397700008
            ],
            [
              -92.90909576399997,
              36.809413910000046
            ],
            [
              -92.90299987799995,
              37.07061386100003
            ],
            [
              -92.83609771699997,
              37.06851196300005
            ]
          ]
        ]
      }
    },
    {
      "type": "Feature",
      "properties": {
        "STATE": "MO",
        "CWA": "SGF",
        "COUNTYNAME": "Greene",
        "FIPS": "29077",
        "TIME_ZONE": "C"
      },
      "geometry": {
        "type": "Polygon",
        "coordinates": [
          [
            [
              -93.62119293199999,
              37.42701339700005
            ],
            [
              -93.07429504399994,
              37.41541290300006
            ],
            [
              -93.07679748499999,
              37.27021026600005
            ],
            [
              -93.06149291999998,
              37.269611359000066
            ],
            [
              -93.06529998799994,
              37.088710785000046
            ],
            [
              -93.29479980499997,
              37.09441375700004
            ],
            [
              -93.60839843799994,
              37.09811401400003
            ],
            [
              -93.60540008499999,
              37.28151321400003
            ],
            [
              -93.62559509299996,
              37.28191375700004
            ],
            [
              -93.62579345699999,
              37.28451156600005
            ],
            [
              -93.62119293199999,
              37.42701339700005
            ]
          ]
        ]
      }
    },
    {
      "type": "Feature",
      "properties": {
        "STATE": "MO",
        "CWA": "SGF",
        "COUNTYNAME": "Hickory",
        "FIPS": "29085",
        "TIME_ZONE": "C"
      },
      "geometry": {
        "type": "Polygon",
        "coordinates": [
          [
            [
              -93.50399780299995,
              38.07261276200006
            ],
            [
              -93.25019836399997,
              38.06501388500004
            ],
            [
              -93.06579589799998,
              38.06251144400005
            ],
            [
              -93.07249450699999,
              37.90261077900004
            ],
            [
              -93.18249511699997,
              37.90421295200008
            ],
            [
              -93.18779754599996,
              37.80291366600005
            ],
            [
              -93.57409667999997,
              37.813312531000065
            ],
            [
              -93.56809997599998,
              37.914913177000074
            ],
            [
              -93.51210021999998,
              37.91351318400007
            ],
            [
              -93.50399780299995,
              38.07261276200006
            ]
          ]
        ]
      }
    },
    {
      "type": "Feature",
      "properties": {
        "STATE": "MO",
        "CWA": "SGF",
        "COUNTYNAME": "Howell",
        "FIPS": "29091",
        "TIME_ZONE": "C"
      },
      "geometry": {
        "type": "Polygon",
        "coordinates": [
          [
            [
              -91.98499298099995,
              37.055713654000044
            ],
            [
              -91.87429809599996,
              37.05071258500004
            ],
            [
              -91.65639495799996,
              37.04911041300005
            ],
            [
              -91.65609741199995,
              36.966812134000065
            ],
            [
              -91.65989685099998,
              36.793613434000065
            ],
            [
              -91.66069793699995,
              36.787513733000026
            ],
            [
              -91.67419433599997,
              36.78781127900004
            ],
            [
              -91.67549896199995,
              36.750411987000064
            ],
            [
              -91.67799377399996,
              36.60681152300003
            ],
            [
              -91.67199706999997,
              36.606113434000065
            ],
            [
              -91.67229461699998,
              36.49971389800004
            ],
            [
              -91.97269439699994,
              36.49841308600003
            ],
            [
              -92.12030029299996,
              36.49941253700007
            ],
            [
              -92.11229705799997,
              36.79421234100005
            ],
            [
              -92.09599304199998,
              36.79401397700008
            ],
            [
              -92.08869934099994,
              37.05621337900004
            ],
            [
              -91.98499298099995,
              37.055713654000044
            ]
          ]
        ]
      }
    },
    {
      "type": "Feature",
      "properties": {
        "STATE": "MO",
        "CWA": "SGF",
        "COUNTYNAME": "Laclede",
        "FIPS": "29105",
        "TIME_ZONE": "C"
      },
      "geometry": {
        "type": "Polygon",
        "coordinates": [
          [
            [
              -92.85540008499999,
              37.89571380600006
            ],
            [
              -92.62059783899997,
              37.89171218900003
            ],
            [
              -92.62030029299996,
              37.88561248800005
            ],
            [
              -92.61739349399994,
              37.87881088300003
            ],
            [
              -92.61809539799998,
              37.87341308600003
            ],
            [
              -92.61489868199999,
              37.87171173100006
            ],
            [
              -92.61409759499998,
              37.86361312900004
            ],
            [
              -92.60820007299998,
              37.85591125500008
            ],
            [
              -92.60039520299995,
              37.852611542000034
            ],
            [
              -92.59980011,
              37.84071350100004
            ],
            [
              -92.58919525099998,
              37.83401107800006
            ],
            [
              -92.585395813,
              37.82821273800005
            ],
            [
              -92.57839965799997,
              37.82431030300006
            ],
            [
              -92.57149505599995,
              37.823413849000076
            ],
            [
              -92.56469726599994,
              37.81181335400004
            ],
            [
              -92.56499481199995,
              37.80731201200007
            ],
            [
              -92.56329345699999,
              37.80531311000004
            ],
            [
              -92.54949951199995,
              37.80141067500006
            ],
            [
              -92.53959655799997,
              37.80211257900004
            ],
            [
              -92.53429412799994,
              37.80931091300005
            ],
            [
              -92.53079986599994,
              37.81131362900004
            ],
            [
              -92.51959991499996,
              37.81301116900005
            ],
            [
              -92.51299285899995,
              37.812313080000024
            ],
            [
              -92.50419616699998,
              37.82511138900003
            ],
            [
              -92.49279785199997,
              37.829311371000074
            ],
            [
              -92.475494385,
              37.828411102000075
            ],
            [
              -92.46209716799996,
              37.82491302500006
            ],
            [
              -92.45289611799996,
              37.82441330000006
            ],
            [
              -92.45179748499999,
              37.830513
            ],
            [
              -92.44829559299995,
              37.836311340000066
            ],
            [
              -92.42630004899996,
              37.851512909000064
            ],
            [
              -92.42469787599998,
              37.85581207300004
            ],
            [
              -92.42070007299998,
              37.85931396500007
            ],
            [
              -92.40919494599996,
              37.85931396500007
            ],
            [
              -92.41269683799999,
              37.71401214600007
            ],
            [
              -92.24969482399996,
              37.648811340000066
            ],
            [
              -92.24889373799994,
              37.63511276200006
            ],
            [
              -92.25239562999997,
              37.47301101700003
            ],
            [
              -92.37519836399997,
              37.47371292100007
            ],
            [
              -92.54399871799995,
              37.47851181000004
            ],
            [
              -92.85359954799998,
              37.48401260400004
            ],
            [
              -92.84629821799996,
              37.720111847000055
            ],
            [
              -92.85989379899996,
              37.721210480000025
            ],
            [
              -92.85540008499999,
              37.89571380600006
            ]
          ]
        ]
      }
    },
    {
      "type": "Feature",
      "properties": {
        "STATE": "MO",
        "CWA": "SGF",
        "COUNTYNAME": "Barry",
        "FIPS": "29009",
        "TIME_ZONE": "C"
      },
      "geometry": {
        "type": "Polygon",
        "coordinates": [
          [
            [
              -94.06259918199999,
              36.932212830000026
            ],
            [
              -93.61100006099997,
              36.92331314100005
            ],
            [
              -93.61289977999996,
              36.82161331200007
            ],
            [
              -93.60929870599995,
              36.82031250000006
            ],
            [
              -93.57379913299997,
              36.82001113900003
            ],
            [
              -93.58399963399995,
              36.49921035800003
            ],
            [
              -94.07749938999996,
              36.49871063200004
            ],
            [
              -94.06769561799996,
              36.73671340900006
            ],
            [
              -94.06859588599997,
              36.749813080000024
            ],
            [
              -94.06259918199999,
              36.932212830000026
            ]
          ]
        ]
      }
    },
    {
      "type": "Feature",
      "properties": {
        "STATE": "MO",
        "CWA": "SGF",
        "COUNTYNAME": "McDonald",
        "FIPS": "29119",
        "TIME_ZONE": "C"
      },
      "geometry": {
        "type": "Polygon",
        "coordinates": [
          [
            [
              -94.61829376199995,
              36.76611328100006
            ],
            [
              -94.06789398199999,
              36.747711182000046
            ],
            [
              -94.07749938999996,
              36.49871063200004
            ],
            [
              -94.61779785199997,
              36.49961090100004
            ],
            [
              -94.61829376199995,
              36.76611328100006
            ]
          ]
        ]
      }
    },
    {
      "type": "Feature",
      "properties": {
        "STATE": "MO",
        "CWA": "SGF",
        "COUNTYNAME": "Maries",
        "FIPS": "29125",
        "TIME_ZONE": "C"
      },
      "geometry": {
        "type": "Polygon",
        "coordinates": [
          [
            [
              -91.76549529999994,
              38.29091262800006
            ],
            [
              -91.75019836399997,
              38.28891372700008
            ],
            [
              -91.64469909699994,
              38.28861236600005
            ],
            [
              -91.64479827899999,
              38.15741348300003
            ],
            [
              -91.64429473899997,
              38.153713226000036
            ],
            [
              -91.63129424999994,
              38.15351104700005
            ],
            [
              -91.63059997599998,
              38.14981079100005
            ],
            [
              -91.63239288299997,
              38.05091095000006
            ],
            [
              -91.75439453099995,
              38.05331039400005
            ],
            [
              -91.89489746099997,
              38.05121231100003
            ],
            [
              -91.89699554399994,
              38.04811096200007
            ],
            [
              -91.91510009799998,
              38.04241180400004
            ],
            [
              -91.92389678999996,
              38.03581237800006
            ],
            [
              -91.93349456799996,
              38.03161239600007
            ],
            [
              -91.93689727799995,
              38.03191375700004
            ],
            [
              -91.94209289599996,
              38.04151153600003
            ],
            [
              -91.94989776599994,
              38.04171371500007
            ],
            [
              -91.95349883999995,
              38.040210724000076
            ],
            [
              -91.95929717999996,
              38.033512115000065
            ],
            [
              -91.96609497099996,
              38.01031112700008
            ],
            [
              -91.97259521499996,
              38.009613037000065
            ],
            [
              -92.07609558099995,
              38.011310577000074
            ],
            [
              -92.18549346899994,
              38.016014099000074
            ],
            [
              -92.18139648399995,
              38.16111373900003
            ],
            [
              -92.19779968299997,
              38.161510468000074
            ],
            [
              -92.19569396999998,
              38.29221344000007
            ],
            [
              -92.01129913299997,
              38.288112640000065
            ],
            [
              -91.88449859599996,
              38.289913177000074
            ],
            [
              -91.86279296899994,
              38.29331207300004
            ],
            [
              -91.76549529999994,
              38.29091262800006
            ]
          ]
        ]
      }
    },
    {
      "type": "Feature",
      "properties": {
        "STATE": "MO",
        "CWA": "SGF",
        "COUNTYNAME": "Miller",
        "FIPS": "29131",
        "TIME_ZONE": "C"
      },
      "geometry": {
        "type": "Polygon",
        "coordinates": [
          [
            [
              -92.63019561799996,
              38.43091201800007
            ],
            [
              -92.40480041499995,
              38.42541122400007
            ],
            [
              -92.40379333499999,
              38.41991043100006
            ],
            [
              -92.40759277299998,
              38.34131240800008
            ],
            [
              -92.30289459199997,
              38.336612701000035
            ],
            [
              -92.29769897499995,
              38.33921051000004
            ],
            [
              -92.29290008499999,
              38.33941268900003
            ],
            [
              -92.28149414099994,
              38.33621215800008
            ],
            [
              -92.26849365199996,
              38.32831192000003
            ],
            [
              -92.25069427499994,
              38.32281112700008
            ],
            [
              -92.23479461699998,
              38.327510834000066
            ],
            [
              -92.22799682599998,
              38.331111908000025
            ],
            [
              -92.22529602099996,
              38.33441162100007
            ],
            [
              -92.19449615499997,
              38.335514069000055
            ],
            [
              -92.19779968299997,
              38.161510468000074
            ],
            [
              -92.18139648399995,
              38.16111373900003
            ],
            [
              -92.18549346899994,
              38.016014099000074
            ],
            [
              -92.51599883999995,
              38.022911072000056
            ],
            [
              -92.51559448199998,
              38.03691101100003
            ],
            [
              -92.53389739999994,
              38.03741073600003
            ],
            [
              -92.53359985399999,
              38.05181121800007
            ],
            [
              -92.55249786399997,
              38.05221176100008
            ],
            [
              -92.55209350599995,
              38.06631088300003
            ],
            [
              -92.57019805899995,
              38.066612244000055
            ],
            [
              -92.56969451899994,
              38.09551239000007
            ],
            [
              -92.58779907199994,
              38.09651184100005
            ],
            [
              -92.58799743699996,
              38.11061096200007
            ],
            [
              -92.59679412799994,
              38.11161041300005
            ],
            [
              -92.59639739999994,
              38.13981246900005
            ],
            [
              -92.60519409199998,
              38.14351272600004
            ],
            [
              -92.60529327399996,
              38.17071151700003
            ],
            [
              -92.64099883999995,
              38.17201232900004
            ],
            [
              -92.64029693599997,
              38.20541381800007
            ],
            [
              -92.64239501999998,
              38.21271133400006
            ],
            [
              -92.64899444599996,
              38.21141052200005
            ],
            [
              -92.67659759499998,
              38.213111877000074
            ],
            [
              -92.69649505599995,
              38.22331237800006
            ],
            [
              -92.68979644799998,
              38.34851074200003
            ],
            [
              -92.63519287099996,
              38.34791183500005
            ],
            [
              -92.63319396999998,
              38.35771179200003
            ],
            [
              -92.63019561799996,
              38.43091201800007
            ]
          ]
        ]
      }
    },
    {
      "type": "Feature",
      "properties": {
        "STATE": "MO",
        "CWA": "SGF",
        "COUNTYNAME": "Morgan",
        "FIPS": "29141",
        "TIME_ZONE": "C"
      },
      "geometry": {
        "type": "Polygon",
        "coordinates": [
          [
            [
              -92.95399475099998,
              38.68601226800007
            ],
            [
              -92.83979797399996,
              38.684413910000046
            ],
            [
              -92.84140014599996,
              38.596412659000066
            ],
            [
              -92.62449645999999,
              38.430713654000044
            ],
            [
              -92.63019561799996,
              38.43091201800007
            ],
            [
              -92.63319396999998,
              38.35771179200003
            ],
            [
              -92.63519287099996,
              38.34791183500005
            ],
            [
              -92.68979644799998,
              38.34851074200003
            ],
            [
              -92.69649505599995,
              38.22331237800006
            ],
            [
              -92.70869445799997,
              38.22361373900003
            ],
            [
              -92.71799468999995,
              38.220310211000026
            ],
            [
              -92.73679351799996,
              38.22151184100005
            ],
            [
              -92.75229644799998,
              38.215812683000024
            ],
            [
              -92.75899505599995,
              38.21021270800003
            ],
            [
              -92.76029968299997,
              38.20351028400006
            ],
            [
              -92.76389312699996,
              38.19901275600006
            ],
            [
              -92.76490020799997,
              38.19061279300007
            ],
            [
              -92.76899719199997,
              38.18971252400007
            ],
            [
              -92.95419311499995,
              38.196910858000024
            ],
            [
              -92.96229553199998,
              38.19871139500003
            ],
            [
              -92.95829772899998,
              38.20301055900006
            ],
            [
              -92.94459533699995,
              38.205810547000056
            ],
            [
              -92.93659973099994,
              38.20981216400003
            ],
            [
              -92.93269348099994,
              38.21401214600007
            ],
            [
              -92.93190002399996,
              38.21861267100007
            ],
            [
              -92.93669891399998,
              38.22441101100003
            ],
            [
              -92.940696716,
              38.226512909000064
            ],
            [
              -92.95769500699998,
              38.23161315900006
            ],
            [
              -92.96119689899996,
              38.22991180400004
            ],
            [
              -92.96849822999997,
              38.21891403200004
            ],
            [
              -92.969993591,
              38.21411132800006
            ],
            [
              -92.98199462899998,
              38.20011138900003
            ],
            [
              -92.98469543499994,
              38.19231033300008
            ],
            [
              -92.99019622799995,
              38.187412262000066
            ],
            [
              -93.00709533699995,
              38.18631362900004
            ],
            [
              -93.01589965799997,
              38.19061279300007
            ],
            [
              -93.02099609399994,
              38.19681167600004
            ],
            [
              -93.02229309099994,
              38.19961166400003
            ],
            [
              -93.01999664299996,
              38.20481109600007
            ],
            [
              -93.01659393299997,
              38.208011627000076
            ],
            [
              -93.00919341999997,
              38.21061325100004
            ],
            [
              -92.98569488499999,
              38.21101379400005
            ],
            [
              -92.98349761999998,
              38.213813782000045
            ],
            [
              -92.98479461699998,
              38.22001266500007
            ],
            [
              -92.99909973099994,
              38.22031402600004
            ],
            [
              -93.00549316399997,
              38.22281265300006
            ],
            [
              -93.01539611799996,
              38.24211120600006
            ],
            [
              -93.03229522699996,
              38.252811432000044
            ],
            [
              -93.03859710699999,
              38.26411056500007
            ],
            [
              -93.04660034199998,
              38.27021026600005
            ],
            [
              -93.06359863299997,
              38.268413544000055
            ],
            [
              -93.07219695999999,
              38.26541137700008
            ],
            [
              -93.07740020799997,
              38.26121139500003
            ],
            [
              -93.06900024399994,
              38.43351364100005
            ],
            [
              -93.06879424999994,
              38.44231033300008
            ],
            [
              -93.07199859599996,
              38.44311142000004
            ],
            [
              -93.05999755899995,
              38.69391250600006
            ],
            [
              -92.95399475099998,
              38.68601226800007
            ]
          ]
        ]
      }
    },
    {
      "type": "Feature",
      "properties": {
        "STATE": "MO",
        "CWA": "SGF",
        "COUNTYNAME": "Newton",
        "FIPS": "29145",
        "TIME_ZONE": "C"
      },
      "geometry": {
        "type": "Polygon",
        "coordinates": [
          [
            [
              -94.61789703399995,
              37.05711364700005
            ],
            [
              -94.50459289599996,
              37.054813385000045
            ],
            [
              -94.25919341999997,
              37.05301284800004
            ],
            [
              -94.05919647199994,
              37.04851150500008
            ],
            [
              -94.06789398199999,
              36.747711182000046
            ],
            [
              -94.61829376199995,
              36.76611328100006
            ],
            [
              -94.61789703399995,
              37.05711364700005
            ]
          ]
        ]
      }
    },
    {
      "type": "Feature",
      "properties": {
        "STATE": "MO",
        "CWA": "SGF",
        "COUNTYNAME": "Oregon",
        "FIPS": "29149",
        "TIME_ZONE": "C"
      },
      "geometry": {
        "type": "Polygon",
        "coordinates": [
          [
            [
              -91.65799713099995,
              36.88911056500007
            ],
            [
              -91.47809600799997,
              36.88581085200008
            ],
            [
              -91.25459289599996,
              36.88521194500004
            ],
            [
              -91.22279357899998,
              36.88381195100004
            ],
            [
              -91.22480011,
              36.82571029700006
            ],
            [
              -91.11589813199998,
              36.82371139500003
            ],
            [
              -91.11750030499996,
              36.78091049200003
            ],
            [
              -91.11959838899998,
              36.78011322000003
            ],
            [
              -91.12590026899994,
              36.497711182000046
            ],
            [
              -91.45009612999996,
              36.497112274000074
            ],
            [
              -91.50539398199999,
              36.498912811000025
            ],
            [
              -91.67229461699998,
              36.49971389800004
            ],
            [
              -91.67199706999997,
              36.606113434000065
            ],
            [
              -91.67799377399996,
              36.60681152300003
            ],
            [
              -91.67819976799996,
              36.626712799000074
            ],
            [
              -91.67419433599997,
              36.78781127900004
            ],
            [
              -91.66069793699995,
              36.787513733000026
            ],
            [
              -91.65819549599996,
              36.840511322000054
            ],
            [
              -91.65799713099995,
              36.88911056500007
            ]
          ]
        ]
      }
    },
    {
      "type": "Feature",
      "properties": {
        "STATE": "MO",
        "CWA": "SGF",
        "COUNTYNAME": "Ozark",
        "FIPS": "29153",
        "TIME_ZONE": "C"
      },
      "geometry": {
        "type": "Polygon",
        "coordinates": [
          [
            [
              -92.76449584999995,
              36.80601120000006
            ],
            [
              -92.11229705799997,
              36.79421234100005
            ],
            [
              -92.12030029299996,
              36.49941253700007
            ],
            [
              -92.37519836399997,
              36.49721145600006
            ],
            [
              -92.46089935299995,
              36.49871063200004
            ],
            [
              -92.772895813,
              36.49781036400003
            ],
            [
              -92.76449584999995,
              36.80601120000006
            ]
          ]
        ]
      }
    },
    {
      "type": "Feature",
      "properties": {
        "STATE": "MO",
        "CWA": "SGF",
        "COUNTYNAME": "Phelps",
        "FIPS": "29161",
        "TIME_ZONE": "C"
      },
      "geometry": {
        "type": "Polygon",
        "coordinates": [
          [
            [
              -91.63129424999994,
              38.15351104700005
            ],
            [
              -91.52579498299997,
              38.15251159700006
            ],
            [
              -91.52589416499995,
              38.00001144400005
            ],
            [
              -91.52879333499999,
              37.789012909000064
            ],
            [
              -91.80579376199995,
              37.79131317100007
            ],
            [
              -91.80909728999995,
              37.599712372000056
            ],
            [
              -91.86269378699996,
              37.59891128500004
            ],
            [
              -92.02929687499994,
              37.60251236000005
            ],
            [
              -92.02869415299995,
              37.69781112700008
            ],
            [
              -92.02649688699995,
              37.71721267700008
            ],
            [
              -92.02549743699996,
              37.75051116900005
            ],
            [
              -92.02119445799997,
              38.01061248800005
            ],
            [
              -91.96609497099996,
              38.01031112700008
            ],
            [
              -91.95929717999996,
              38.033512115000065
            ],
            [
              -91.95349883999995,
              38.040210724000076
            ],
            [
              -91.94989776599994,
              38.04171371500007
            ],
            [
              -91.94209289599996,
              38.04151153600003
            ],
            [
              -91.93689727799995,
              38.03191375700004
            ],
            [
              -91.93349456799996,
              38.03161239600007
            ],
            [
              -91.92389678999996,
              38.03581237800006
            ],
            [
              -91.91510009799998,
              38.04241180400004
            ],
            [
              -91.89699554399994,
              38.04811096200007
            ],
            [
              -91.89489746099997,
              38.05121231100003
            ],
            [
              -91.75439453099995,
              38.05331039400005
            ],
            [
              -91.63239288299997,
              38.05091095000006
            ],
            [
              -91.63129424999994,
              38.15351104700005
            ]
          ]
        ]
      }
    },
    {
      "type": "Feature",
      "properties": {
        "STATE": "MO",
        "CWA": "SGF",
        "COUNTYNAME": "Polk",
        "FIPS": "29167",
        "TIME_ZONE": "C"
      },
      "geometry": {
        "type": "Polygon",
        "coordinates": [
          [
            [
              -93.57299804699994,
              37.827613831000065
            ],
            [
              -93.57409667999997,
              37.813312531000065
            ],
            [
              -93.18779754599996,
              37.80291366600005
            ],
            [
              -93.19129943799999,
              37.733512878000056
            ],
            [
              -93.19039916999998,
              37.730010986000025
            ],
            [
              -93.17319488499999,
              37.72951126100003
            ],
            [
              -93.18280029299996,
              37.417312622000054
            ],
            [
              -93.46249389599996,
              37.42451095600006
            ],
            [
              -93.62119293199999,
              37.42701339700005
            ],
            [
              -93.60949706999997,
              37.74171066300005
            ],
            [
              -93.63239288299997,
              37.742210388000046
            ],
            [
              -93.62839508099995,
              37.82941055300006
            ],
            [
              -93.57299804699994,
              37.827613831000065
            ]
          ]
        ]
      }
    },
    {
      "type": "Feature",
      "properties": {
        "STATE": "MO",
        "CWA": "SGF",
        "COUNTYNAME": "Pulaski",
        "FIPS": "29169",
        "TIME_ZONE": "C"
      },
      "geometry": {
        "type": "Polygon",
        "coordinates": [
          [
            [
              -92.40539550799997,
              38.02111053500005
            ],
            [
              -92.02119445799997,
              38.01061248800005
            ],
            [
              -92.02549743699996,
              37.75051116900005
            ],
            [
              -92.02649688699995,
              37.71721267700008
            ],
            [
              -92.02869415299995,
              37.69781112700008
            ],
            [
              -92.02929687499994,
              37.60251236000005
            ],
            [
              -92.17689514199998,
              37.605213165000066
            ],
            [
              -92.24939727799995,
              37.60451126100003
            ],
            [
              -92.24969482399996,
              37.648811340000066
            ],
            [
              -92.41269683799999,
              37.71401214600007
            ],
            [
              -92.40539550799997,
              38.02111053500005
            ]
          ]
        ]
      }
    },
    {
      "type": "Feature",
      "properties": {
        "STATE": "MO",
        "CWA": "SGF",
        "COUNTYNAME": "St. Clair",
        "FIPS": "29185",
        "TIME_ZONE": "C"
      },
      "geometry": {
        "type": "Polygon",
        "coordinates": [
          [
            [
              -93.53899383499999,
              38.207012177000024
            ],
            [
              -93.51349639899996,
              38.207412720000036
            ],
            [
              -93.51169586199995,
              38.20531082200006
            ],
            [
              -93.51259612999996,
              38.20061111500007
            ],
            [
              -93.49729919399994,
              38.199111938000044
            ],
            [
              -93.51210021999998,
              37.91351318400007
            ],
            [
              -93.56809997599998,
              37.914913177000074
            ],
            [
              -93.57299804699994,
              37.827613831000065
            ],
            [
              -93.81149291999998,
              37.83471298200004
            ],
            [
              -93.80859374999994,
              37.89271163900003
            ],
            [
              -94.065696716,
              37.901012421000075
            ],
            [
              -94.04989623999995,
              38.21391296400003
            ],
            [
              -93.556999207,
              38.20111084000007
            ],
            [
              -93.56929779099994,
              38.216213226000036
            ],
            [
              -93.56189727799995,
              38.22031402600004
            ],
            [
              -93.556999207,
              38.21971130400004
            ],
            [
              -93.53899383499999,
              38.207012177000024
            ]
          ]
        ]
      }
    },
    {
      "type": "Feature",
      "properties": {
        "STATE": "MO",
        "CWA": "SGF",
        "COUNTYNAME": "Shannon",
        "FIPS": "29203",
        "TIME_ZONE": "C"
      },
      "geometry": {
        "type": "Polygon",
        "coordinates": [
          [
            [
              -91.64679717999996,
              37.422710419000055
            ],
            [
              -91.42769622799995,
              37.41801071200007
            ],
            [
              -91.176498413,
              37.41481399500003
            ],
            [
              -91.17609405499996,
              37.31341171300005
            ],
            [
              -91.15839386,
              37.312911987000064
            ],
            [
              -91.15919494599996,
              37.25491333000008
            ],
            [
              -91.12319946299993,
              37.25451278700007
            ],
            [
              -91.12319946299993,
              37.24361038200004
            ],
            [
              -91.12539672899999,
              37.23561096200007
            ],
            [
              -91.12549591099997,
              37.199512482000046
            ],
            [
              -91.10729980499997,
              37.199211121000076
            ],
            [
              -91.10719299299996,
              37.20321273800005
            ],
            [
              -91.08829498299997,
              37.20321273800005
            ],
            [
              -91.08879852299998,
              37.175212860000045
            ],
            [
              -91.07059478799994,
              37.177612305000025
            ],
            [
              -91.07109832799995,
              37.16271209700005
            ],
            [
              -91.03429412799994,
              37.16931152300003
            ],
            [
              -91.03509521499996,
              37.14021301300005
            ],
            [
              -91.01699829099994,
              37.14311218300003
            ],
            [
              -91.01779937699996,
              37.09571075400004
            ],
            [
              -91.03599548299997,
              37.09371185300006
            ],
            [
              -91.06669616699998,
              37.09351348900003
            ],
            [
              -91.065696716,
              37.08981323200004
            ],
            [
              -91.09029388399995,
              37.08671188400007
            ],
            [
              -91.10209655799997,
              37.08671188400007
            ],
            [
              -91.11439514199998,
              37.08411407500006
            ],
            [
              -91.21719360399999,
              37.08621215800008
            ],
            [
              -91.22279357899998,
              36.88381195100004
            ],
            [
              -91.25459289599996,
              36.88521194500004
            ],
            [
              -91.47809600799997,
              36.88581085200008
            ],
            [
              -91.65799713099995,
              36.88911056500007
            ],
            [
              -91.65329742399996,
              37.192913055000076
            ],
            [
              -91.65159606899994,
              37.24821090700004
            ],
            [
              -91.64759826699998,
              37.24911117600004
            ],
            [
              -91.64679717999996,
              37.422710419000055
            ]
          ]
        ]
      }
    },
    {
      "type": "Feature",
      "properties": {
        "STATE": "MO",
        "CWA": "SGF",
        "COUNTYNAME": "Stone",
        "FIPS": "29209",
        "TIME_ZONE": "C"
      },
      "geometry": {
        "type": "Polygon",
        "coordinates": [
          [
            [
              -93.61009979199997,
              36.99581146200006
            ],
            [
              -93.33759307899999,
              36.992012024000076
            ],
            [
              -93.34140014599996,
              36.81731033300008
            ],
            [
              -93.30509948699995,
              36.816913605000025
            ],
            [
              -93.30469512899998,
              36.80801391600005
            ],
            [
              -93.30719757099996,
              36.73791122400007
            ],
            [
              -93.30929565399998,
              36.725410461000024
            ],
            [
              -93.31529998799994,
              36.49911117600004
            ],
            [
              -93.58399963399995,
              36.49921035800003
            ],
            [
              -93.57379913299997,
              36.82001113900003
            ],
            [
              -93.60929870599995,
              36.82031250000006
            ],
            [
              -93.61289977999996,
              36.82161331200007
            ],
            [
              -93.61009979199997,
              36.99581146200006
            ]
          ]
        ]
      }
    },
    {
      "type": "Feature",
      "properties": {
        "STATE": "MO",
        "CWA": "SGF",
        "COUNTYNAME": "Taney",
        "FIPS": "29213",
        "TIME_ZONE": "C"
      },
      "geometry": {
        "type": "Polygon",
        "coordinates": [
          [
            [
              -93.30509948699995,
              36.816913605000025
            ],
            [
              -92.76449584999995,
              36.80601120000006
            ],
            [
              -92.772895813,
              36.49781036400003
            ],
            [
              -93.31529998799994,
              36.49911117600004
            ],
            [
              -93.30929565399998,
              36.725410461000024
            ],
            [
              -93.30719757099996,
              36.73791122400007
            ],
            [
              -93.30509948699995,
              36.816913605000025
            ]
          ]
        ]
      }
    },
    {
      "type": "Feature",
      "properties": {
        "STATE": "MO",
        "CWA": "SGF",
        "COUNTYNAME": "Texas",
        "FIPS": "29215",
        "TIME_ZONE": "C"
      },
      "geometry": {
        "type": "Polygon",
        "coordinates": [
          [
            [
              -92.17689514199998,
              37.605213165000066
            ],
            [
              -91.86269378699996,
              37.59891128500004
            ],
            [
              -91.80909728999995,
              37.599712372000056
            ],
            [
              -91.75539398199999,
              37.59851074200003
            ],
            [
              -91.75499725299994,
              37.42471313500005
            ],
            [
              -91.64679717999996,
              37.422710419000055
            ],
            [
              -91.64759826699998,
              37.24911117600004
            ],
            [
              -91.65159606899994,
              37.24821090700004
            ],
            [
              -91.65639495799996,
              37.04911041300005
            ],
            [
              -91.87429809599996,
              37.05071258500004
            ],
            [
              -91.98499298099995,
              37.055713654000044
            ],
            [
              -92.12519836399997,
              37.056613922000054
            ],
            [
              -92.25090026899994,
              37.059612274000074
            ],
            [
              -92.24749755899995,
              37.25001144400005
            ],
            [
              -92.24849700899995,
              37.25481414800004
            ],
            [
              -92.25299835199996,
              37.255210876000035
            ],
            [
              -92.25189971899994,
              37.33891296400003
            ],
            [
              -92.253196716,
              37.38741302500006
            ],
            [
              -92.24939727799995,
              37.60451126100003
            ],
            [
              -92.17689514199998,
              37.605213165000066
            ]
          ]
        ]
      }
    },
    {
      "type": "Feature",
      "properties": {
        "STATE": "MO",
        "CWA": "SGF",
        "COUNTYNAME": "Vernon",
        "FIPS": "29217",
        "TIME_ZONE": "C"
      },
      "geometry": {
        "type": "Polygon",
        "coordinates": [
          [
            [
              -94.61409759499998,
              38.060112
            ],
            [
              -94.24489593499999,
              38.05091095000006
            ],
            [
              -94.23979949999995,
              38.04971313500005
            ],
            [
              -94.23709869399994,
              38.04461288500005
            ],
            [
              -94.23279571499995,
              38.047111511000026
            ],
            [
              -94.23019409199998,
              38.04551315300006
            ],
            [
              -94.23099517799994,
              38.04281234700005
            ],
            [
              -94.23739623999995,
              38.04111099200003
            ],
            [
              -94.24009704599996,
              38.038414001000035
            ],
            [
              -94.23880004899996,
              38.03601074200003
            ],
            [
              -94.23339843799994,
              38.03301239000007
            ],
            [
              -94.23569488499999,
              38.031711578000056
            ],
            [
              -94.24219512899998,
              38.032913208000025
            ],
            [
              -94.24399566699998,
              38.03181076000004
            ],
            [
              -94.244499207,
              38.02881240800008
            ],
            [
              -94.23919677699996,
              38.02641296400003
            ],
            [
              -94.22729492199994,
              38.02641296400003
            ],
            [
              -94.22509765599995,
              38.02811050400004
            ],
            [
              -94.22699737499994,
              38.035011292000036
            ],
            [
              -94.22589874299996,
              38.038414001000035
            ],
            [
              -94.22299957299998,
              38.04001236000005
            ],
            [
              -94.21979522699996,
              38.03891372700008
            ],
            [
              -94.21749877899998,
              38.034214020000036
            ],
            [
              -94.21489715599995,
              38.03441238400006
            ],
            [
              -94.21360015899995,
              38.039012909000064
            ],
            [
              -94.210395813,
              38.042510986000025
            ],
            [
              -94.210395813,
              38.05121231100003
            ],
            [
              -94.20009612999996,
              38.054512024000076
            ],
            [
              -94.19559478799994,
              38.05361175500008
            ],
            [
              -94.19559478799994,
              38.05121231100003
            ],
            [
              -94.19979858399995,
              38.048412323000036
            ],
            [
              -94.20049285899995,
              38.04491043100006
            ],
            [
              -94.19789886499996,
              38.03521347000003
            ],
            [
              -94.195297241,
              38.03521347000003
            ],
            [
              -94.19369506799995,
              38.04371261600005
            ],
            [
              -94.19029998799994,
              38.04581069900007
            ],
            [
              -94.18049621599994,
              38.04641342200006
            ],
            [
              -94.166000366,
              38.05121231100003
            ],
            [
              -94.15760040299995,
              38.05671310400004
            ],
            [
              -94.15079498299997,
              38.05381393400006
            ],
            [
              -94.13509368899997,
              38.058113098000035
            ],
            [
              -94.12939453099995,
              38.056613922000054
            ],
            [
              -94.12599945099998,
              38.05131149300007
            ],
            [
              -94.12199401899994,
              38.04911041300005
            ],
            [
              -94.11599731399997,
              38.04831314100005
            ],
            [
              -94.118598938,
              38.043811798000036
            ],
            [
              -94.11649322499994,
              38.04101181000004
            ],
            [
              -94.109695435,
              38.03731155400004
            ],
            [
              -94.10619354199997,
              38.037513733000026
            ],
            [
              -94.10379791299994,
              38.04081344600007
            ],
            [
              -94.10369872999996,
              38.04751205400004
            ],
            [
              -94.10099792499994,
              38.047813416000054
            ],
            [
              -94.09409332299998,
              38.040111542000034
            ],
            [
              -94.08699798599997,
              38.04071044900007
            ],
            [
              -94.08809661899994,
              38.03631210300006
            ],
            [
              -94.08559417699996,
              38.03281402600004
            ],
            [
              -94.07589721699998,
              38.03311157200005
            ],
            [
              -94.07129669199998,
              38.03631210300006
            ],
            [
              -94.06799316399997,
              38.03661346400003
            ],
            [
              -94.065696716,
              38.03531265300006
            ],
            [
              -94.06419372599998,
              38.03161239600007
            ],
            [
              -94.06119537399996,
              38.032012939000026
            ],
            [
              -94.06009674099994,
              38.035713196000074
            ],
            [
              -94.05829620399999,
              38.036510468000074
            ],
            [
              -94.07339477499994,
              37.75571060200008
            ],
            [
              -94.06869506799995,
              37.75551223800005
            ],
            [
              -94.07379913299997,
              37.63971328700006
            ],
            [
              -94.28119659399994,
              37.64701080300006
            ],
            [
              -94.61759948699995,
              37.653713226000036
            ],
            [
              -94.61759948699995,
              37.78641128500004
            ],
            [
              -94.61409759499998,
              38.060112
            ]
          ]
        ]
      }
    },
    {
      "type": "Feature",
      "properties": {
        "STATE": "MO",
        "CWA": "SGF",
        "COUNTYNAME": "Webster",
        "FIPS": "29225",
        "TIME_ZONE": "C"
      },
      "geometry": {
        "type": "Polygon",
        "coordinates": [
          [
            [
              -93.07159423799999,
              37.48711395300006
            ],
            [
              -92.68639373799994,
              37.48151397700008
            ],
            [
              -92.69229888899997,
              37.26571273800005
            ],
            [
              -92.69219970699999,
              37.26341247600004
            ],
            [
              -92.67899322499994,
              37.26311111500007
            ],
            [
              -92.68589782699996,
              37.06701278700007
            ],
            [
              -92.90299987799995,
              37.07061386100003
            ],
            [
              -92.902893066,
              37.08521270800003
            ],
            [
              -92.96299743699996,
              37.087612156000034
            ],
            [
              -93.06529998799994,
              37.088710785000046
            ],
            [
              -93.06149291999998,
              37.269611359000066
            ],
            [
              -93.07679748499999,
              37.27021026600005
            ],
            [
              -93.07159423799999,
              37.48711395300006
            ]
          ]
        ]
      }
    },
    {
      "type": "Feature",
      "properties": {
        "STATE": "MO",
        "CWA": "SGF",
        "COUNTYNAME": "Wright",
        "FIPS": "29229",
        "TIME_ZONE": "C"
      },
      "geometry": {
        "type": "Polygon",
        "coordinates": [
          [
            [
              -92.68639373799994,
              37.48151397700008
            ],
            [
              -92.37519836399997,
              37.47371292100007
            ],
            [
              -92.25239562999997,
              37.47301101700003
            ],
            [
              -92.25299835199996,
              37.255210876000035
            ],
            [
              -92.24849700899995,
              37.25481414800004
            ],
            [
              -92.24749755899995,
              37.25001144400005
            ],
            [
              -92.25090026899994,
              37.059612274000074
            ],
            [
              -92.68589782699996,
              37.06701278700007
            ],
            [
              -92.67899322499994,
              37.26311111500007
            ],
            [
              -92.69219970699999,
              37.26341247600004
            ],
            [
              -92.69229888899997,
              37.26571273800005
            ],
            [
              -92.68639373799994,
              37.48151397700008
            ]
          ]
        ]
      }
    },
    {
      "type": "Feature",
      "properties": {
        "STATE": "MO",
        "CWA": "SGF",
        "COUNTYNAME": "Dade",
        "FIPS": "29057",
        "TIME_ZONE": "C"
      },
      "geometry": {
        "type": "Polygon",
        "coordinates": [
          [
            [
              -94.07529449499998,
              37.580513
            ],
            [
              -93.79859924299996,
              37.577510834000066
            ],
            [
              -93.62129974399994,
              37.57281112700008
            ],
            [
              -93.61599731399997,
              37.573810577000074
            ],
            [
              -93.62559509299996,
              37.28191375700004
            ],
            [
              -94.08379363999995,
              37.29071044900007
            ],
            [
              -94.07529449499998,
              37.580513
            ]
          ]
        ]
      }
    },
    {
      "type": "Feature",
      "properties": {
        "STATE": "MO",
        "CWA": "SGF",
        "COUNTYNAME": "Dallas",
        "FIPS": "29059",
        "TIME_ZONE": "C"
      },
      "geometry": {
        "type": "Polygon",
        "coordinates": [
          [
            [
              -93.18249511699997,
              37.90421295200008
            ],
            [
              -93.07249450699999,
              37.90261077900004
            ],
            [
              -92.85540008499999,
              37.89571380600006
            ],
            [
              -92.85989379899996,
              37.721210480000025
            ],
            [
              -92.84629821799996,
              37.720111847000055
            ],
            [
              -92.85359954799998,
              37.48401260400004
            ],
            [
              -93.07159423799999,
              37.48711395300006
            ],
            [
              -93.07429504399994,
              37.41541290300006
            ],
            [
              -93.18280029299996,
              37.417312622000054
            ],
            [
              -93.17319488499999,
              37.72951126100003
            ],
            [
              -93.19039916999998,
              37.730010986000025
            ],
            [
              -93.19129943799999,
              37.733512878000056
            ],
            [
              -93.18249511699997,
              37.90421295200008
            ]
          ]
        ]
      }
    },
    {
      "type": "Feature",
      "properties": {
        "STATE": "MO",
        "CWA": "SGF",
        "COUNTYNAME": "Lawrence",
        "FIPS": "29109",
        "TIME_ZONE": "C"
      },
      "geometry": {
        "type": "Polygon",
        "coordinates": [
          [
            [
              -94.05239868199999,
              37.29001236000005
            ],
            [
              -93.60540008499999,
              37.28151321400003
            ],
            [
              -93.61100006099997,
              36.92331314100005
            ],
            [
              -94.06259918199999,
              36.932212830000026
            ],
            [
              -94.05239868199999,
              37.29001236000005
            ]
          ]
        ]
      }
    },
    {
      "type": "Feature",
      "properties": {
        "STATE": "KS",
        "CWA": "SGF",
        "COUNTYNAME": "Bourbon",
        "FIPS": "20011",
        "TIME_ZONE": "C"
      },
      "geometry": {
        "type": "Polygon",
        "coordinates": [
          [
            [
              -95.07769775399998,
              38.03771209700005
            ],
            [
              -94.613998413,
              38.03691101100003
            ],
            [
              -94.61759948699995,
              37.78641128500004
            ],
            [
              -94.61769866899994,
              37.67311096200007
            ],
            [
              -94.88349914599996,
              37.674911499000075
            ],
            [
              -95.08789825399998,
              37.67451095600006
            ],
            [
              -95.08779907199994,
              37.819911957000045
            ],
            [
              -95.08039856,
              37.82001113900003
            ],
            [
              -95.07979583699995,
              37.828712463000045
            ],
            [
              -95.07769775399998,
              38.03771209700005
            ]
          ]
        ]
      }
    },
    {
      "type": "Feature",
      "properties": {
        "STATE": "KS",
        "CWA": "SGF",
        "COUNTYNAME": "Cherokee",
        "FIPS": "20021",
        "TIME_ZONE": "C"
      },
      "geometry": {
        "type": "Polygon",
        "coordinates": [
          [
            [
              -94.89419555699999,
              37.33991241500007
            ],
            [
              -94.61789703399995,
              37.33761215200008
            ],
            [
              -94.61809539799998,
              36.99671173100006
            ],
            [
              -94.62519836399997,
              36.99871063200004
            ],
            [
              -95.07349395799997,
              36.99971389800004
            ],
            [
              -95.07469940199996,
              37.33971023600003
            ],
            [
              -94.89419555699999,
              37.33991241500007
            ]
          ]
        ]
      }
    },
    {
      "type": "Feature",
      "properties": {
        "STATE": "KS",
        "CWA": "SGF",
        "COUNTYNAME": "Crawford",
        "FIPS": "20037",
        "TIME_ZONE": "C"
      },
      "geometry": {
        "type": "Polygon",
        "coordinates": [
          [
            [
              -95.08789825399998,
              37.67451095600006
            ],
            [
              -94.61769866899994,
              37.67311096200007
            ],
            [
              -94.61669921899994,
              37.50001144400005
            ],
            [
              -94.61789703399995,
              37.33761215200008
            ],
            [
              -94.89419555699999,
              37.33991241500007
            ],
            [
              -95.07469940199996,
              37.33971023600003
            ],
            [
              -95.07589721699998,
              37.38381195100004
            ],
            [
              -95.08849334699994,
              37.38381195100004
            ],
            [
              -95.08789825399998,
              37.67451095600006
            ]
          ]
        ]
      }
    },
    {
      "type": "Feature",
      "properties": {
        "STATE": "MO",
        "CWA": "SGF",
        "COUNTYNAME": "Jasper",
        "FIPS": "29097",
        "TIME_ZONE": "C"
      },
      "geometry": {
        "type": "Polygon",
        "coordinates": [
          [
            [
              -94.38069915799997,
              37.356113434000065
            ],
            [
              -94.08219909699994,
              37.349311829000044
            ],
            [
              -94.08379363999995,
              37.29071044900007
            ],
            [
              -94.05239868199999,
              37.29001236000005
            ],
            [
              -94.05919647199994,
              37.04851150500008
            ],
            [
              -94.25919341999997,
              37.05301284800004
            ],
            [
              -94.50459289599996,
              37.054813385000045
            ],
            [
              -94.61789703399995,
              37.05711364700005
            ],
            [
              -94.61750030499996,
              37.36431121800007
            ],
            [
              -94.38069915799997,
              37.356113434000065
            ]
          ]
        ]
      }
    }
  ],
  "metadata": {
    "schema_version": "0.1.0",
    "wfo": "SGF",
    "layer": "counties",
    "source": "https://www.weather.gov/source/gis/Shapefiles/County/c_16ap26.zip",
    "public_release_status": "public-source-derived"
  }
}