{
  "type": "FeatureCollection",
  "metadata": {
    "schema_version": "0.2.4",
    "year": 2026,
    "month": 6,
    "wfo": "DDC",
    "start_utc": "2026-06-01T00:00:00Z",
    "end_utc": "2026-07-01T00:00:00Z",
    "generated_utc": "2026-06-16T14:26:29Z",
    "mode": "storm_data_prep",
    "public_release_status": "public-source-derived",
    "time_note": "Storm Data entry times should be reviewed in local Standard Time (ST), not daylight time. Candidate reports include standard_time_display.",
    "tornado_track_policy": "Tornado tracks must come from DAT. NCEI begin/end coordinates are not used as a tornado track substitute.",
    "source": "https://mesonet.agron.iastate.edu/cgi-bin/request/gis/lsr.py?wfo=DDC&sts=2026-06-01T00%3A00%3A00Z&ets=2026-07-01T00%3A00%3A00Z&fmt=csv"
  },
  "features": [
    {
      "type": "Feature",
      "id": "iem-lsr-DDC-1",
      "properties": {
        "report_id": "iem-lsr-DDC-1",
        "report_type": "HAIL",
        "event_category": "hail",
        "valid_utc": "202606011320",
        "standard_time_display": "2026-06-01 07:20 CST",
        "wfo": "DDC",
        "county_or_zone": "Ellis",
        "city": "Antonino",
        "state": "KS",
        "magnitude": 0.7,
        "magnitude_units": null,
        "source": "Public",
        "event_narrative": "Public report of Dime potentially Penny sized hail via social media."
      },
      "geometry": {
        "type": "Point",
        "coordinates": [
          -99.39,
          38.79
        ]
      }
    },
    {
      "type": "Feature",
      "id": "iem-lsr-DDC-2",
      "properties": {
        "report_id": "iem-lsr-DDC-2",
        "report_type": "HAIL",
        "event_category": "hail",
        "valid_utc": "202606012200",
        "standard_time_display": "2026-06-01 16:00 CST",
        "wfo": "DDC",
        "county_or_zone": "Lane",
        "city": "8 S Dighton",
        "state": "KS",
        "magnitude": 1.0,
        "magnitude_units": null,
        "source": "Public",
        "event_narrative": null
      },
      "geometry": {
        "type": "Point",
        "coordinates": [
          -100.47,
          38.37
        ]
      }
    },
    {
      "type": "Feature",
      "id": "iem-lsr-DDC-3",
      "properties": {
        "report_id": "iem-lsr-DDC-3",
        "report_type": "TSTM WND GST",
        "event_category": "thunderstorm_wind",
        "valid_utc": "202606012220",
        "standard_time_display": "2026-06-01 15:20 MST",
        "wfo": "DDC",
        "county_or_zone": "Hamilton",
        "city": "1 S Coolidge",
        "state": "KS",
        "magnitude": 66.0,
        "magnitude_units": null,
        "source": "Mesonet",
        "event_narrative": "Station K5COO."
      },
      "geometry": {
        "type": "Point",
        "coordinates": [
          -102.01,
          38.03
        ]
      }
    },
    {
      "type": "Feature",
      "id": "iem-lsr-DDC-4",
      "properties": {
        "report_id": "iem-lsr-DDC-4",
        "report_type": "TSTM WND GST",
        "event_category": "thunderstorm_wind",
        "valid_utc": "202606012235",
        "standard_time_display": "2026-06-01 16:35 CST",
        "wfo": "DDC",
        "county_or_zone": "Hamilton",
        "city": "1 WSW Kendall",
        "state": "KS",
        "magnitude": 64.0,
        "magnitude_units": null,
        "source": "Mesonet",
        "event_narrative": "Davis weather station."
      },
      "geometry": {
        "type": "Point",
        "coordinates": [
          -101.57,
          37.93
        ]
      }
    },
    {
      "type": "Feature",
      "id": "iem-lsr-DDC-5",
      "properties": {
        "report_id": "iem-lsr-DDC-5",
        "report_type": "HAIL",
        "event_category": "hail",
        "valid_utc": "202606012241",
        "standard_time_display": "2026-06-01 16:41 CST",
        "wfo": "DDC",
        "county_or_zone": "Lane",
        "city": "2 S Amy",
        "state": "KS",
        "magnitude": 1.0,
        "magnitude_units": null,
        "source": "Public",
        "event_narrative": null
      },
      "geometry": {
        "type": "Point",
        "coordinates": [
          -100.6,
          38.45
        ]
      }
    },
    {
      "type": "Feature",
      "id": "iem-lsr-DDC-6",
      "properties": {
        "report_id": "iem-lsr-DDC-6",
        "report_type": "TSTM WND GST",
        "event_category": "thunderstorm_wind",
        "valid_utc": "202606012307",
        "standard_time_display": "2026-06-01 17:07 CST",
        "wfo": "DDC",
        "county_or_zone": "Lane",
        "city": "3 SSE Dighton",
        "state": "KS",
        "magnitude": 76.0,
        "magnitude_units": null,
        "source": "Public",
        "event_narrative": null
      },
      "geometry": {
        "type": "Point",
        "coordinates": [
          -100.45,
          38.44
        ]
      }
    },
    {
      "type": "Feature",
      "id": "iem-lsr-DDC-7",
      "properties": {
        "report_id": "iem-lsr-DDC-7",
        "report_type": "HAIL",
        "event_category": "hail",
        "valid_utc": "202606012315",
        "standard_time_display": "2026-06-01 17:15 CST",
        "wfo": "DDC",
        "county_or_zone": "Lane",
        "city": "10 S Dighton",
        "state": "KS",
        "magnitude": 1.0,
        "magnitude_units": null,
        "source": "Public",
        "event_narrative": null
      },
      "geometry": {
        "type": "Point",
        "coordinates": [
          -100.44,
          38.34
        ]
      }
    },
    {
      "type": "Feature",
      "id": "iem-lsr-DDC-8",
      "properties": {
        "report_id": "iem-lsr-DDC-8",
        "report_type": "TSTM WND GST",
        "event_category": "thunderstorm_wind",
        "valid_utc": "202606012320",
        "standard_time_display": "2026-06-01 17:20 CST",
        "wfo": "DDC",
        "county_or_zone": "Lane",
        "city": "10 S Dighton",
        "state": "KS",
        "magnitude": 80.0,
        "magnitude_units": null,
        "source": "Public",
        "event_narrative": null
      },
      "geometry": {
        "type": "Point",
        "coordinates": [
          -100.44,
          38.35
        ]
      }
    },
    {
      "type": "Feature",
      "id": "iem-lsr-DDC-9",
      "properties": {
        "report_id": "iem-lsr-DDC-9",
        "report_type": "TSTM WND DMG",
        "event_category": "thunderstorm_wind",
        "valid_utc": "202606012339",
        "standard_time_display": "2026-06-01 17:39 CST",
        "wfo": "DDC",
        "county_or_zone": "Stanton",
        "city": "Johnson City",
        "state": "KS",
        "magnitude": null,
        "magnitude_units": null,
        "source": "Law Enforcement",
        "event_narrative": "Several trees down."
      },
      "geometry": {
        "type": "Point",
        "coordinates": [
          -101.75,
          37.57
        ]
      }
    },
    {
      "type": "Feature",
      "id": "iem-lsr-DDC-10",
      "properties": {
        "report_id": "iem-lsr-DDC-10",
        "report_type": "FLASH FLOOD",
        "event_category": "flooding",
        "valid_utc": "202606012354",
        "standard_time_display": "2026-06-01 17:54 CST",
        "wfo": "DDC",
        "county_or_zone": "Lane",
        "city": "Dighton",
        "state": "KS",
        "magnitude": null,
        "magnitude_units": null,
        "source": "Law Enforcement",
        "event_narrative": "Water over roads."
      },
      "geometry": {
        "type": "Point",
        "coordinates": [
          -100.47,
          38.48
        ]
      }
    },
    {
      "type": "Feature",
      "id": "iem-lsr-DDC-11",
      "properties": {
        "report_id": "iem-lsr-DDC-11",
        "report_type": "TSTM WND DMG",
        "event_category": "thunderstorm_wind",
        "valid_utc": "202606020000",
        "standard_time_display": "2026-06-01 17:00 MST",
        "wfo": "DDC",
        "county_or_zone": "Hamilton",
        "city": "Coolidge",
        "state": "KS",
        "magnitude": null,
        "magnitude_units": null,
        "source": "Public",
        "event_narrative": "Camper flipped over. Timed estimated."
      },
      "geometry": {
        "type": "Point",
        "coordinates": [
          -102.01,
          38.04
        ]
      }
    },
    {
      "type": "Feature",
      "id": "iem-lsr-DDC-12",
      "properties": {
        "report_id": "iem-lsr-DDC-12",
        "report_type": "HAIL",
        "event_category": "hail",
        "valid_utc": "202606020003",
        "standard_time_display": "2026-06-01 18:03 CST",
        "wfo": "DDC",
        "county_or_zone": "Ness",
        "city": "8 SSW Beeler",
        "state": "KS",
        "magnitude": 1.75,
        "magnitude_units": null,
        "source": "Public",
        "event_narrative": null
      },
      "geometry": {
        "type": "Point",
        "coordinates": [
          -100.23,
          38.33
        ]
      }
    },
    {
      "type": "Feature",
      "id": "iem-lsr-DDC-13",
      "properties": {
        "report_id": "iem-lsr-DDC-13",
        "report_type": "TSTM WND GST",
        "event_category": "thunderstorm_wind",
        "valid_utc": "202606020016",
        "standard_time_display": "2026-06-01 18:16 CST",
        "wfo": "DDC",
        "county_or_zone": "Scott",
        "city": "2 WNW Grigston",
        "state": "KS",
        "magnitude": 61.0,
        "magnitude_units": null,
        "source": "Public",
        "event_narrative": null
      },
      "geometry": {
        "type": "Point",
        "coordinates": [
          -100.75,
          38.5
        ]
      }
    },
    {
      "type": "Feature",
      "id": "iem-lsr-DDC-14",
      "properties": {
        "report_id": "iem-lsr-DDC-14",
        "report_type": "TSTM WND GST",
        "event_category": "thunderstorm_wind",
        "valid_utc": "202606020021",
        "standard_time_display": "2026-06-01 18:21 CST",
        "wfo": "DDC",
        "county_or_zone": "Finney",
        "city": "3 NW Pierceville",
        "state": "KS",
        "magnitude": 70.0,
        "magnitude_units": null,
        "source": "ASOS",
        "event_narrative": "ASOS station KGCK Garden City."
      },
      "geometry": {
        "type": "Point",
        "coordinates": [
          -100.72,
          37.92
        ]
      }
    },
    {
      "type": "Feature",
      "id": "iem-lsr-DDC-15",
      "properties": {
        "report_id": "iem-lsr-DDC-15",
        "report_type": "TSTM WND GST",
        "event_category": "thunderstorm_wind",
        "valid_utc": "202606020026",
        "standard_time_display": "2026-06-01 18:26 CST",
        "wfo": "DDC",
        "county_or_zone": "Ford",
        "city": "3 E Dodge City",
        "state": "KS",
        "magnitude": 58.0,
        "magnitude_units": null,
        "source": "ASOS",
        "event_narrative": "KDDC ASOS."
      },
      "geometry": {
        "type": "Point",
        "coordinates": [
          -99.97,
          37.76
        ]
      }
    },
    {
      "type": "Feature",
      "id": "iem-lsr-DDC-16",
      "properties": {
        "report_id": "iem-lsr-DDC-16",
        "report_type": "HAIL",
        "event_category": "hail",
        "valid_utc": "202606020045",
        "standard_time_display": "2026-06-01 18:45 CST",
        "wfo": "DDC",
        "county_or_zone": "Hodgeman",
        "city": "14 NW Jetmore",
        "state": "KS",
        "magnitude": 1.0,
        "magnitude_units": null,
        "source": "Public",
        "event_narrative": null
      },
      "geometry": {
        "type": "Point",
        "coordinates": [
          -100.1,
          38.2
        ]
      }
    },
    {
      "type": "Feature",
      "id": "iem-lsr-DDC-17",
      "properties": {
        "report_id": "iem-lsr-DDC-17",
        "report_type": "TSTM WND GST",
        "event_category": "thunderstorm_wind",
        "valid_utc": "202606020045",
        "standard_time_display": "2026-06-01 18:45 CST",
        "wfo": "DDC",
        "county_or_zone": "Hodgeman",
        "city": "9 NW Bellefont",
        "state": "KS",
        "magnitude": 59.0,
        "magnitude_units": null,
        "source": "Mesonet",
        "event_narrative": "Ambient Station - Rogers Weather Station."
      },
      "geometry": {
        "type": "Point",
        "coordinates": [
          -99.75,
          37.98
        ]
      }
    },
    {
      "type": "Feature",
      "id": "iem-lsr-DDC-18",
      "properties": {
        "report_id": "iem-lsr-DDC-18",
        "report_type": "HAIL",
        "event_category": "hail",
        "valid_utc": "202606020050",
        "standard_time_display": "2026-06-01 18:50 CST",
        "wfo": "DDC",
        "county_or_zone": "Morton",
        "city": "10 W Richfield",
        "state": "KS",
        "magnitude": 1.5,
        "magnitude_units": null,
        "source": "Public",
        "event_narrative": null
      },
      "geometry": {
        "type": "Point",
        "coordinates": [
          -101.97,
          37.27
        ]
      }
    },
    {
      "type": "Feature",
      "id": "iem-lsr-DDC-19",
      "properties": {
        "report_id": "iem-lsr-DDC-19",
        "report_type": "TSTM WND GST",
        "event_category": "thunderstorm_wind",
        "valid_utc": "202606020055",
        "standard_time_display": "2026-06-01 18:55 CST",
        "wfo": "DDC",
        "county_or_zone": "Gray",
        "city": "4 NE Cimarron",
        "state": "KS",
        "magnitude": 64.0,
        "magnitude_units": null,
        "source": "Public",
        "event_narrative": null
      },
      "geometry": {
        "type": "Point",
        "coordinates": [
          -100.29,
          37.85
        ]
      }
    },
    {
      "type": "Feature",
      "id": "iem-lsr-DDC-20",
      "properties": {
        "report_id": "iem-lsr-DDC-20",
        "report_type": "TSTM WND GST",
        "event_category": "thunderstorm_wind",
        "valid_utc": "202606020059",
        "standard_time_display": "2026-06-01 18:59 CST",
        "wfo": "DDC",
        "county_or_zone": "Rush",
        "city": "4 NNW Alexander",
        "state": "KS",
        "magnitude": 78.0,
        "magnitude_units": null,
        "source": "Mesonet",
        "event_narrative": "Ambient Station - Auston Farms."
      },
      "geometry": {
        "type": "Point",
        "coordinates": [
          -99.58,
          38.52
        ]
      }
    },
    {
      "type": "Feature",
      "id": "iem-lsr-DDC-21",
      "properties": {
        "report_id": "iem-lsr-DDC-21",
        "report_type": "TSTM WND GST",
        "event_category": "thunderstorm_wind",
        "valid_utc": "202606020105",
        "standard_time_display": "2026-06-01 19:05 CST",
        "wfo": "DDC",
        "county_or_zone": "Hodgeman",
        "city": "9 ESE Kalvesta",
        "state": "KS",
        "magnitude": 58.0,
        "magnitude_units": null,
        "source": "Public",
        "event_narrative": null
      },
      "geometry": {
        "type": "Point",
        "coordinates": [
          -100.15,
          38.0
        ]
      }
    },
    {
      "type": "Feature",
      "id": "iem-lsr-DDC-22",
      "properties": {
        "report_id": "iem-lsr-DDC-22",
        "report_type": "HAIL",
        "event_category": "hail",
        "valid_utc": "202606020112",
        "standard_time_display": "2026-06-01 19:12 CST",
        "wfo": "DDC",
        "county_or_zone": "Gray",
        "city": "Ingalls",
        "state": "KS",
        "magnitude": 1.0,
        "magnitude_units": null,
        "source": "Public",
        "event_narrative": null
      },
      "geometry": {
        "type": "Point",
        "coordinates": [
          -100.45,
          37.83
        ]
      }
    },
    {
      "type": "Feature",
      "id": "iem-lsr-DDC-23",
      "properties": {
        "report_id": "iem-lsr-DDC-23",
        "report_type": "TSTM WND GST",
        "event_category": "thunderstorm_wind",
        "valid_utc": "202606020114",
        "standard_time_display": "2026-06-01 19:14 CST",
        "wfo": "DDC",
        "county_or_zone": "Meade",
        "city": "7 N Missler",
        "state": "KS",
        "magnitude": 64.0,
        "magnitude_units": null,
        "source": "Mesonet",
        "event_narrative": "Davis Weather Station."
      },
      "geometry": {
        "type": "Point",
        "coordinates": [
          -100.44,
          37.42
        ]
      }
    },
    {
      "type": "Feature",
      "id": "iem-lsr-DDC-24",
      "properties": {
        "report_id": "iem-lsr-DDC-24",
        "report_type": "TSTM WND GST",
        "event_category": "thunderstorm_wind",
        "valid_utc": "202606020123",
        "standard_time_display": "2026-06-01 19:23 CST",
        "wfo": "DDC",
        "county_or_zone": "Ford",
        "city": "2 NNE Dodge City",
        "state": "KS",
        "magnitude": 77.0,
        "magnitude_units": null,
        "source": "Public",
        "event_narrative": null
      },
      "geometry": {
        "type": "Point",
        "coordinates": [
          -100.0,
          37.79
        ]
      }
    },
    {
      "type": "Feature",
      "id": "iem-lsr-DDC-25",
      "properties": {
        "report_id": "iem-lsr-DDC-25",
        "report_type": "TSTM WND GST",
        "event_category": "thunderstorm_wind",
        "valid_utc": "202606020126",
        "standard_time_display": "2026-06-01 19:26 CST",
        "wfo": "DDC",
        "county_or_zone": "Ford",
        "city": "3 E Dodge City",
        "state": "KS",
        "magnitude": 58.0,
        "magnitude_units": null,
        "source": "ASOS",
        "event_narrative": "Corrects previous tstm wnd gst report from 3 E Dodge City. KDDC ASOS."
      },
      "geometry": {
        "type": "Point",
        "coordinates": [
          -99.97,
          37.76
        ]
      }
    },
    {
      "type": "Feature",
      "id": "iem-lsr-DDC-26",
      "properties": {
        "report_id": "iem-lsr-DDC-26",
        "report_type": "TSTM WND GST",
        "event_category": "thunderstorm_wind",
        "valid_utc": "202606020130",
        "standard_time_display": "2026-06-01 19:30 CST",
        "wfo": "DDC",
        "county_or_zone": "Ford",
        "city": "3 W Wright",
        "state": "KS",
        "magnitude": 59.0,
        "magnitude_units": null,
        "source": "Public",
        "event_narrative": null
      },
      "geometry": {
        "type": "Point",
        "coordinates": [
          -99.94,
          37.78
        ]
      }
    },
    {
      "type": "Feature",
      "id": "iem-lsr-DDC-27",
      "properties": {
        "report_id": "iem-lsr-DDC-27",
        "report_type": "TSTM WND GST",
        "event_category": "thunderstorm_wind",
        "valid_utc": "202606020146",
        "standard_time_display": "2026-06-01 19:46 CST",
        "wfo": "DDC",
        "county_or_zone": "Hodgeman",
        "city": "9 W Jetmore",
        "state": "KS",
        "magnitude": 59.0,
        "magnitude_units": null,
        "source": "Public",
        "event_narrative": null
      },
      "geometry": {
        "type": "Point",
        "coordinates": [
          -100.06,
          38.07
        ]
      }
    },
    {
      "type": "Feature",
      "id": "iem-lsr-DDC-28",
      "properties": {
        "report_id": "iem-lsr-DDC-28",
        "report_type": "TSTM WND GST",
        "event_category": "thunderstorm_wind",
        "valid_utc": "202606020152",
        "standard_time_display": "2026-06-01 19:52 CST",
        "wfo": "DDC",
        "county_or_zone": "Ford",
        "city": "3 ENE Dodge City",
        "state": "KS",
        "magnitude": 66.0,
        "magnitude_units": null,
        "source": "ASOS",
        "event_narrative": "ASOS station KDDC Dodge City Regional Airport."
      },
      "geometry": {
        "type": "Point",
        "coordinates": [
          -99.97,
          37.77
        ]
      }
    },
    {
      "type": "Feature",
      "id": "iem-lsr-DDC-29",
      "properties": {
        "report_id": "iem-lsr-DDC-29",
        "report_type": "RAIN",
        "event_category": "other",
        "valid_utc": "202606020200",
        "standard_time_display": "2026-06-01 20:00 CST",
        "wfo": "DDC",
        "county_or_zone": "Lane",
        "city": "3 SE Grigston",
        "state": "KS",
        "magnitude": 4.0,
        "magnitude_units": null,
        "source": "Public",
        "event_narrative": null
      },
      "geometry": {
        "type": "Point",
        "coordinates": [
          -100.68,
          38.45
        ]
      }
    },
    {
      "type": "Feature",
      "id": "iem-lsr-DDC-30",
      "properties": {
        "report_id": "iem-lsr-DDC-30",
        "report_type": "TSTM WND GST",
        "event_category": "thunderstorm_wind",
        "valid_utc": "202606020209",
        "standard_time_display": "2026-06-01 20:09 CST",
        "wfo": "DDC",
        "county_or_zone": "Ford",
        "city": "4 N Minneola",
        "state": "KS",
        "magnitude": 63.0,
        "magnitude_units": null,
        "source": "Public",
        "event_narrative": null
      },
      "geometry": {
        "type": "Point",
        "coordinates": [
          -100.02,
          37.5
        ]
      }
    },
    {
      "type": "Feature",
      "id": "iem-lsr-DDC-31",
      "properties": {
        "report_id": "iem-lsr-DDC-31",
        "report_type": "TSTM WND GST",
        "event_category": "thunderstorm_wind",
        "valid_utc": "202606020215",
        "standard_time_display": "2026-06-01 20:15 CST",
        "wfo": "DDC",
        "county_or_zone": "Ford",
        "city": "3 W Bloom",
        "state": "KS",
        "magnitude": 67.0,
        "magnitude_units": null,
        "source": "Mesonet",
        "event_narrative": "Mesonet station DW9907 Bloom."
      },
      "geometry": {
        "type": "Point",
        "coordinates": [
          -99.96,
          37.49
        ]
      }
    },
    {
      "type": "Feature",
      "id": "iem-lsr-DDC-32",
      "properties": {
        "report_id": "iem-lsr-DDC-32",
        "report_type": "TSTM WND GST",
        "event_category": "thunderstorm_wind",
        "valid_utc": "202606020215",
        "standard_time_display": "2026-06-01 20:15 CST",
        "wfo": "DDC",
        "county_or_zone": "Ford",
        "city": "4 N Minneola",
        "state": "KS",
        "magnitude": 67.0,
        "magnitude_units": null,
        "source": "Public",
        "event_narrative": null
      },
      "geometry": {
        "type": "Point",
        "coordinates": [
          -100.01,
          37.5
        ]
      }
    },
    {
      "type": "Feature",
      "id": "iem-lsr-DDC-33",
      "properties": {
        "report_id": "iem-lsr-DDC-33",
        "report_type": "TSTM WND GST",
        "event_category": "thunderstorm_wind",
        "valid_utc": "202606020216",
        "standard_time_display": "2026-06-01 20:16 CST",
        "wfo": "DDC",
        "county_or_zone": "Clark",
        "city": "2 WSW Minneola",
        "state": "KS",
        "magnitude": 63.0,
        "magnitude_units": null,
        "source": "Mesonet",
        "event_narrative": "Mesonet station UP313 2.1 W Minneola (UPR)."
      },
      "geometry": {
        "type": "Point",
        "coordinates": [
          -100.05,
          37.43
        ]
      }
    },
    {
      "type": "Feature",
      "id": "iem-lsr-DDC-34",
      "properties": {
        "report_id": "iem-lsr-DDC-34",
        "report_type": "TSTM WND GST",
        "event_category": "thunderstorm_wind",
        "valid_utc": "202606020216",
        "standard_time_display": "2026-06-01 20:16 CST",
        "wfo": "DDC",
        "county_or_zone": "Meade",
        "city": "6 NE Fowler",
        "state": "KS",
        "magnitude": 63.0,
        "magnitude_units": null,
        "source": "Public",
        "event_narrative": null
      },
      "geometry": {
        "type": "Point",
        "coordinates": [
          -100.12,
          37.44
        ]
      }
    },
    {
      "type": "Feature",
      "id": "iem-lsr-DDC-35",
      "properties": {
        "report_id": "iem-lsr-DDC-35",
        "report_type": "RAIN",
        "event_category": "other",
        "valid_utc": "202606020229",
        "standard_time_display": "2026-06-01 20:29 CST",
        "wfo": "DDC",
        "county_or_zone": "Ford",
        "city": "Spearville",
        "state": "KS",
        "magnitude": 1.5,
        "magnitude_units": null,
        "source": "Emergency Mngr",
        "event_narrative": "1.5 inches fell in 1 hour."
      },
      "geometry": {
        "type": "Point",
        "coordinates": [
          -99.76,
          37.85
        ]
      }
    },
    {
      "type": "Feature",
      "id": "iem-lsr-DDC-36",
      "properties": {
        "report_id": "iem-lsr-DDC-36",
        "report_type": "TSTM WND GST",
        "event_category": "thunderstorm_wind",
        "valid_utc": "202606020230",
        "standard_time_display": "2026-06-01 20:30 CST",
        "wfo": "DDC",
        "county_or_zone": "Hodgeman",
        "city": "9 NW Bellefont",
        "state": "KS",
        "magnitude": 59.0,
        "magnitude_units": null,
        "source": "Public",
        "event_narrative": null
      },
      "geometry": {
        "type": "Point",
        "coordinates": [
          -99.76,
          37.98
        ]
      }
    },
    {
      "type": "Feature",
      "id": "iem-lsr-DDC-37",
      "properties": {
        "report_id": "iem-lsr-DDC-37",
        "report_type": "TSTM WND GST",
        "event_category": "thunderstorm_wind",
        "valid_utc": "202606020245",
        "standard_time_display": "2026-06-01 20:45 CST",
        "wfo": "DDC",
        "county_or_zone": "Ford",
        "city": "Bucklin",
        "state": "KS",
        "magnitude": 57.0,
        "magnitude_units": null,
        "source": "Mesonet",
        "event_narrative": null
      },
      "geometry": {
        "type": "Point",
        "coordinates": [
          -99.64,
          37.55
        ]
      }
    },
    {
      "type": "Feature",
      "id": "iem-lsr-DDC-38",
      "properties": {
        "report_id": "iem-lsr-DDC-38",
        "report_type": "TSTM WND GST",
        "event_category": "thunderstorm_wind",
        "valid_utc": "202606020300",
        "standard_time_display": "2026-06-01 21:00 CST",
        "wfo": "DDC",
        "county_or_zone": "Ford",
        "city": "3 NNE Minneola",
        "state": "KS",
        "magnitude": 67.0,
        "magnitude_units": null,
        "source": "Public",
        "event_narrative": null
      },
      "geometry": {
        "type": "Point",
        "coordinates": [
          -99.98,
          37.48
        ]
      }
    },
    {
      "type": "Feature",
      "id": "iem-lsr-DDC-39",
      "properties": {
        "report_id": "iem-lsr-DDC-39",
        "report_type": "TSTM WND GST",
        "event_category": "thunderstorm_wind",
        "valid_utc": "202606020315",
        "standard_time_display": "2026-06-01 21:15 CST",
        "wfo": "DDC",
        "county_or_zone": "Kiowa",
        "city": "8 SSW Centerview",
        "state": "KS",
        "magnitude": 59.0,
        "magnitude_units": null,
        "source": "Public",
        "event_narrative": null
      },
      "geometry": {
        "type": "Point",
        "coordinates": [
          -99.35,
          37.72
        ]
      }
    },
    {
      "type": "Feature",
      "id": "iem-lsr-DDC-40",
      "properties": {
        "report_id": "iem-lsr-DDC-40",
        "report_type": "TSTM WND GST",
        "event_category": "thunderstorm_wind",
        "valid_utc": "202606020322",
        "standard_time_display": "2026-06-01 21:22 CST",
        "wfo": "DDC",
        "county_or_zone": "Kiowa",
        "city": "Greensburg",
        "state": "KS",
        "magnitude": 64.0,
        "magnitude_units": null,
        "source": "Public",
        "event_narrative": null
      },
      "geometry": {
        "type": "Point",
        "coordinates": [
          -99.3,
          37.6
        ]
      }
    },
    {
      "type": "Feature",
      "id": "iem-lsr-DDC-41",
      "properties": {
        "report_id": "iem-lsr-DDC-41",
        "report_type": "TSTM WND GST",
        "event_category": "thunderstorm_wind",
        "valid_utc": "202606020331",
        "standard_time_display": "2026-06-01 21:31 CST",
        "wfo": "DDC",
        "county_or_zone": "Rush",
        "city": "3 WNW Nekoma",
        "state": "KS",
        "magnitude": 57.0,
        "magnitude_units": null,
        "source": "Public",
        "event_narrative": null
      },
      "geometry": {
        "type": "Point",
        "coordinates": [
          -99.49,
          38.49
        ]
      }
    },
    {
      "type": "Feature",
      "id": "iem-lsr-DDC-42",
      "properties": {
        "report_id": "iem-lsr-DDC-42",
        "report_type": "TSTM WND GST",
        "event_category": "thunderstorm_wind",
        "valid_utc": "202606020342",
        "standard_time_display": "2026-06-01 21:42 CST",
        "wfo": "DDC",
        "county_or_zone": "Edwards",
        "city": "3 NW Centerview",
        "state": "KS",
        "magnitude": 58.0,
        "magnitude_units": null,
        "source": "Public",
        "event_narrative": null
      },
      "geometry": {
        "type": "Point",
        "coordinates": [
          -99.3,
          37.85
        ]
      }
    },
    {
      "type": "Feature",
      "id": "iem-lsr-DDC-43",
      "properties": {
        "report_id": "iem-lsr-DDC-43",
        "report_type": "TSTM WND GST",
        "event_category": "thunderstorm_wind",
        "valid_utc": "202606020351",
        "standard_time_display": "2026-06-01 21:51 CST",
        "wfo": "DDC",
        "county_or_zone": "Pawnee",
        "city": "3 E Zook",
        "state": "KS",
        "magnitude": 60.0,
        "magnitude_units": null,
        "source": "Public",
        "event_narrative": null
      },
      "geometry": {
        "type": "Point",
        "coordinates": [
          -99.04,
          38.06
        ]
      }
    },
    {
      "type": "Feature",
      "id": "iem-lsr-DDC-44",
      "properties": {
        "report_id": "iem-lsr-DDC-44",
        "report_type": "TSTM WND GST",
        "event_category": "thunderstorm_wind",
        "valid_utc": "202606020351",
        "standard_time_display": "2026-06-01 21:51 CST",
        "wfo": "DDC",
        "county_or_zone": "Edwards",
        "city": "3 ESE Belpre",
        "state": "KS",
        "magnitude": 68.0,
        "magnitude_units": null,
        "source": "Public",
        "event_narrative": null
      },
      "geometry": {
        "type": "Point",
        "coordinates": [
          -99.05,
          37.93
        ]
      }
    },
    {
      "type": "Feature",
      "id": "iem-lsr-DDC-45",
      "properties": {
        "report_id": "iem-lsr-DDC-45",
        "report_type": "TSTM WND GST",
        "event_category": "thunderstorm_wind",
        "valid_utc": "202606020354",
        "standard_time_display": "2026-06-01 21:54 CST",
        "wfo": "DDC",
        "county_or_zone": "Pawnee",
        "city": "3 E Zook",
        "state": "KS",
        "magnitude": 64.0,
        "magnitude_units": null,
        "source": "Mesonet",
        "event_narrative": "Davis Weather Station."
      },
      "geometry": {
        "type": "Point",
        "coordinates": [
          -99.04,
          38.06
        ]
      }
    },
    {
      "type": "Feature",
      "id": "iem-lsr-DDC-46",
      "properties": {
        "report_id": "iem-lsr-DDC-46",
        "report_type": "TSTM WND GST",
        "event_category": "thunderstorm_wind",
        "valid_utc": "202606020400",
        "standard_time_display": "2026-06-01 22:00 CST",
        "wfo": "DDC",
        "county_or_zone": "Stafford",
        "city": "2 NNW Macksville",
        "state": "KS",
        "magnitude": 70.0,
        "magnitude_units": null,
        "source": "Public",
        "event_narrative": null
      },
      "geometry": {
        "type": "Point",
        "coordinates": [
          -98.99,
          37.99
        ]
      }
    },
    {
      "type": "Feature",
      "id": "iem-lsr-DDC-47",
      "properties": {
        "report_id": "iem-lsr-DDC-47",
        "report_type": "TSTM WND GST",
        "event_category": "thunderstorm_wind",
        "valid_utc": "202606020433",
        "standard_time_display": "2026-06-01 22:33 CST",
        "wfo": "DDC",
        "county_or_zone": "Pratt",
        "city": "4 ENE Cullison",
        "state": "KS",
        "magnitude": 62.0,
        "magnitude_units": null,
        "source": "Public",
        "event_narrative": null
      },
      "geometry": {
        "type": "Point",
        "coordinates": [
          -98.83,
          37.65
        ]
      }
    },
    {
      "type": "Feature",
      "id": "iem-lsr-DDC-48",
      "properties": {
        "report_id": "iem-lsr-DDC-48",
        "report_type": "TSTM WND GST",
        "event_category": "thunderstorm_wind",
        "valid_utc": "202606020436",
        "standard_time_display": "2026-06-01 22:36 CST",
        "wfo": "DDC",
        "county_or_zone": "Stafford",
        "city": "2 NNW Macksville",
        "state": "KS",
        "magnitude": 74.0,
        "magnitude_units": null,
        "source": "Public",
        "event_narrative": null
      },
      "geometry": {
        "type": "Point",
        "coordinates": [
          -98.99,
          37.99
        ]
      }
    },
    {
      "type": "Feature",
      "id": "iem-lsr-DDC-49",
      "properties": {
        "report_id": "iem-lsr-DDC-49",
        "report_type": "TSTM WND GST",
        "event_category": "thunderstorm_wind",
        "valid_utc": "202606020443",
        "standard_time_display": "2026-06-01 22:43 CST",
        "wfo": "DDC",
        "county_or_zone": "Pratt",
        "city": "3 S Pratt",
        "state": "KS",
        "magnitude": 61.0,
        "magnitude_units": null,
        "source": "Public",
        "event_narrative": null
      },
      "geometry": {
        "type": "Point",
        "coordinates": [
          -98.74,
          37.61
        ]
      }
    },
    {
      "type": "Feature",
      "id": "iem-lsr-DDC-50",
      "properties": {
        "report_id": "iem-lsr-DDC-50",
        "report_type": "TSTM WND GST",
        "event_category": "thunderstorm_wind",
        "valid_utc": "202606020515",
        "standard_time_display": "2026-06-01 23:15 CST",
        "wfo": "DDC",
        "county_or_zone": "Pratt",
        "city": "2 NNE Preston",
        "state": "KS",
        "magnitude": 60.0,
        "magnitude_units": null,
        "source": "Mesonet",
        "event_narrative": "Davis Weather Station."
      },
      "geometry": {
        "type": "Point",
        "coordinates": [
          -98.54,
          37.78
        ]
      }
    },
    {
      "type": "Feature",
      "id": "iem-lsr-DDC-51",
      "properties": {
        "report_id": "iem-lsr-DDC-51",
        "report_type": "HAIL",
        "event_category": "hail",
        "valid_utc": "202606020523",
        "standard_time_display": "2026-06-01 23:23 CST",
        "wfo": "DDC",
        "county_or_zone": "Stafford",
        "city": "1 SW Stafford",
        "state": "KS",
        "magnitude": 1.0,
        "magnitude_units": null,
        "source": "Public",
        "event_narrative": "Report from mPING: Quarter (1.00 in.)."
      },
      "geometry": {
        "type": "Point",
        "coordinates": [
          -98.6,
          37.95
        ]
      }
    },
    {
      "type": "Feature",
      "id": "iem-lsr-DDC-52",
      "properties": {
        "report_id": "iem-lsr-DDC-52",
        "report_type": "TSTM WND GST",
        "event_category": "thunderstorm_wind",
        "valid_utc": "202606020759",
        "standard_time_display": "2026-06-02 01:59 CST",
        "wfo": "DDC",
        "county_or_zone": "Ford",
        "city": "4 N Minneola",
        "state": "KS",
        "magnitude": 68.0,
        "magnitude_units": null,
        "source": "Mesonet",
        "event_narrative": "Davis Weather Station."
      },
      "geometry": {
        "type": "Point",
        "coordinates": [
          -100.01,
          37.5
        ]
      }
    },
    {
      "type": "Feature",
      "id": "iem-lsr-DDC-53",
      "properties": {
        "report_id": "iem-lsr-DDC-53",
        "report_type": "TSTM WND GST",
        "event_category": "thunderstorm_wind",
        "valid_utc": "202606020820",
        "standard_time_display": "2026-06-02 02:20 CST",
        "wfo": "DDC",
        "county_or_zone": "Meade",
        "city": "7 N Missler",
        "state": "KS",
        "magnitude": 63.0,
        "magnitude_units": null,
        "source": "Mesonet",
        "event_narrative": "Davis Weather Station."
      },
      "geometry": {
        "type": "Point",
        "coordinates": [
          -100.44,
          37.42
        ]
      }
    },
    {
      "type": "Feature",
      "id": "iem-lsr-DDC-54",
      "properties": {
        "report_id": "iem-lsr-DDC-54",
        "report_type": "TSTM WND GST",
        "event_category": "thunderstorm_wind",
        "valid_utc": "202606031935",
        "standard_time_display": "2026-06-03 13:35 CST",
        "wfo": "DDC",
        "county_or_zone": "Seward",
        "city": "1 N Kismet",
        "state": "KS",
        "magnitude": 62.0,
        "magnitude_units": null,
        "source": "Public",
        "event_narrative": null
      },
      "geometry": {
        "type": "Point",
        "coordinates": [
          -100.7,
          37.22
        ]
      }
    },
    {
      "type": "Feature",
      "id": "iem-lsr-DDC-55",
      "properties": {
        "report_id": "iem-lsr-DDC-55",
        "report_type": "TSTM WND DMG",
        "event_category": "thunderstorm_wind",
        "valid_utc": "202606031942",
        "standard_time_display": "2026-06-03 13:42 CST",
        "wfo": "DDC",
        "county_or_zone": "Grant",
        "city": "Ulysses",
        "state": "KS",
        "magnitude": null,
        "magnitude_units": null,
        "source": "Public",
        "event_narrative": "Delayed report. Social media report_ with pictures_ showed large section of a roof torn off a garage."
      },
      "geometry": {
        "type": "Point",
        "coordinates": [
          -101.36,
          37.58
        ]
      }
    },
    {
      "type": "Feature",
      "id": "iem-lsr-DDC-56",
      "properties": {
        "report_id": "iem-lsr-DDC-56",
        "report_type": "TSTM WND DMG",
        "event_category": "thunderstorm_wind",
        "valid_utc": "202606031945",
        "standard_time_display": "2026-06-03 13:45 CST",
        "wfo": "DDC",
        "county_or_zone": "Grant",
        "city": "Ulysses",
        "state": "KS",
        "magnitude": null,
        "magnitude_units": null,
        "source": "Public",
        "event_narrative": "Corrects time of previous tstm wnd dmg report from Ulysses. Tree damage with pictures from social media."
      },
      "geometry": {
        "type": "Point",
        "coordinates": [
          -101.36,
          37.58
        ]
      }
    },
    {
      "type": "Feature",
      "id": "iem-lsr-DDC-57",
      "properties": {
        "report_id": "iem-lsr-DDC-57",
        "report_type": "TSTM WND GST",
        "event_category": "thunderstorm_wind",
        "valid_utc": "202606031949",
        "standard_time_display": "2026-06-03 13:49 CST",
        "wfo": "DDC",
        "county_or_zone": "Grant",
        "city": "2 ESE Ulysses",
        "state": "KS",
        "magnitude": 58.0,
        "magnitude_units": null,
        "source": "Mesonet",
        "event_narrative": "AWN Site - Videra Weather."
      },
      "geometry": {
        "type": "Point",
        "coordinates": [
          -101.32,
          37.57
        ]
      }
    },
    {
      "type": "Feature",
      "id": "iem-lsr-DDC-58",
      "properties": {
        "report_id": "iem-lsr-DDC-58",
        "report_type": "TSTM WND DMG",
        "event_category": "thunderstorm_wind",
        "valid_utc": "202606031949",
        "standard_time_display": "2026-06-03 13:49 CST",
        "wfo": "DDC",
        "county_or_zone": "Grant",
        "city": "Ulysses",
        "state": "KS",
        "magnitude": null,
        "magnitude_units": null,
        "source": "Public",
        "event_narrative": "Tree damage."
      },
      "geometry": {
        "type": "Point",
        "coordinates": [
          -101.36,
          37.58
        ]
      }
    },
    {
      "type": "Feature",
      "id": "iem-lsr-DDC-59",
      "properties": {
        "report_id": "iem-lsr-DDC-59",
        "report_type": "TSTM WND GST",
        "event_category": "thunderstorm_wind",
        "valid_utc": "202606031955",
        "standard_time_display": "2026-06-03 13:55 CST",
        "wfo": "DDC",
        "county_or_zone": "Grant",
        "city": "2 NW Ulysses",
        "state": "KS",
        "magnitude": 56.0,
        "magnitude_units": null,
        "source": "Public",
        "event_narrative": null
      },
      "geometry": {
        "type": "Point",
        "coordinates": [
          -101.39,
          37.6
        ]
      }
    },
    {
      "type": "Feature",
      "id": "iem-lsr-DDC-60",
      "properties": {
        "report_id": "iem-lsr-DDC-60",
        "report_type": "TSTM WND GST",
        "event_category": "thunderstorm_wind",
        "valid_utc": "202606032000",
        "standard_time_display": "2026-06-03 14:00 CST",
        "wfo": "DDC",
        "county_or_zone": "Grant",
        "city": "9 NNW Ulysses",
        "state": "KS",
        "magnitude": 54.0,
        "magnitude_units": null,
        "source": "Public",
        "event_narrative": null
      },
      "geometry": {
        "type": "Point",
        "coordinates": [
          -101.42,
          37.7
        ]
      }
    },
    {
      "type": "Feature",
      "id": "iem-lsr-DDC-61",
      "properties": {
        "report_id": "iem-lsr-DDC-61",
        "report_type": "HAIL",
        "event_category": "hail",
        "valid_utc": "202606090625",
        "standard_time_display": "2026-06-09 00:25 CST",
        "wfo": "DDC",
        "county_or_zone": "Ellis",
        "city": "1 N Hays",
        "state": "KS",
        "magnitude": 1.0,
        "magnitude_units": null,
        "source": "Public",
        "event_narrative": null
      },
      "geometry": {
        "type": "Point",
        "coordinates": [
          -99.32,
          38.9
        ]
      }
    },
    {
      "type": "Feature",
      "id": "iem-lsr-DDC-62",
      "properties": {
        "report_id": "iem-lsr-DDC-62",
        "report_type": "HAIL",
        "event_category": "hail",
        "valid_utc": "202606090640",
        "standard_time_display": "2026-06-09 00:40 CST",
        "wfo": "DDC",
        "county_or_zone": "Ellis",
        "city": "2 WNW Catherine",
        "state": "KS",
        "magnitude": 1.75,
        "magnitude_units": null,
        "source": "Public",
        "event_narrative": "social media photos of hail ranging from quarter to golf ball size."
      },
      "geometry": {
        "type": "Point",
        "coordinates": [
          -99.25,
          38.93
        ]
      }
    },
    {
      "type": "Feature",
      "id": "iem-lsr-DDC-63",
      "properties": {
        "report_id": "iem-lsr-DDC-63",
        "report_type": "HAIL",
        "event_category": "hail",
        "valid_utc": "202606092058",
        "standard_time_display": "2026-06-09 14:58 CST",
        "wfo": "DDC",
        "county_or_zone": "Grant",
        "city": "4 NW Cave",
        "state": "KS",
        "magnitude": 1.0,
        "magnitude_units": null,
        "source": "Public",
        "event_narrative": null
      },
      "geometry": {
        "type": "Point",
        "coordinates": [
          -101.21,
          37.4
        ]
      }
    },
    {
      "type": "Feature",
      "id": "iem-lsr-DDC-64",
      "properties": {
        "report_id": "iem-lsr-DDC-64",
        "report_type": "TSTM WND GST",
        "event_category": "thunderstorm_wind",
        "valid_utc": "202606092154",
        "standard_time_display": "2026-06-09 15:54 CST",
        "wfo": "DDC",
        "county_or_zone": "Finney",
        "city": "3 NW Pierceville",
        "state": "KS",
        "magnitude": 58.0,
        "magnitude_units": null,
        "source": "ASOS",
        "event_narrative": "ASOS station KGCK Garden City."
      },
      "geometry": {
        "type": "Point",
        "coordinates": [
          -100.72,
          37.92
        ]
      }
    },
    {
      "type": "Feature",
      "id": "iem-lsr-DDC-65",
      "properties": {
        "report_id": "iem-lsr-DDC-65",
        "report_type": "TSTM WND GST",
        "event_category": "thunderstorm_wind",
        "valid_utc": "202606092155",
        "standard_time_display": "2026-06-09 15:55 CST",
        "wfo": "DDC",
        "county_or_zone": "Gray",
        "city": "8 SW Ingalls",
        "state": "KS",
        "magnitude": 60.0,
        "magnitude_units": null,
        "source": "Public",
        "event_narrative": "Ambient Weather Network station."
      },
      "geometry": {
        "type": "Point",
        "coordinates": [
          -100.56,
          37.74
        ]
      }
    },
    {
      "type": "Feature",
      "id": "iem-lsr-DDC-66",
      "properties": {
        "report_id": "iem-lsr-DDC-66",
        "report_type": "TSTM WND GST",
        "event_category": "thunderstorm_wind",
        "valid_utc": "202606092215",
        "standard_time_display": "2026-06-09 16:15 CST",
        "wfo": "DDC",
        "county_or_zone": "Finney",
        "city": "3 NW Pierceville",
        "state": "KS",
        "magnitude": 61.0,
        "magnitude_units": null,
        "source": "ASOS",
        "event_narrative": "ASOS station KGCK Garden City."
      },
      "geometry": {
        "type": "Point",
        "coordinates": [
          -100.72,
          37.92
        ]
      }
    },
    {
      "type": "Feature",
      "id": "iem-lsr-DDC-67",
      "properties": {
        "report_id": "iem-lsr-DDC-67",
        "report_type": "TSTM WND DMG",
        "event_category": "thunderstorm_wind",
        "valid_utc": "202606092220",
        "standard_time_display": "2026-06-09 16:20 CST",
        "wfo": "DDC",
        "county_or_zone": "Gray",
        "city": "Montezuma",
        "state": "KS",
        "magnitude": null,
        "magnitude_units": null,
        "source": "Public",
        "event_narrative": "Picture relayed via social media of multiple large branches of a healthy tree broken."
      },
      "geometry": {
        "type": "Point",
        "coordinates": [
          -100.44,
          37.6
        ]
      }
    },
    {
      "type": "Feature",
      "id": "iem-lsr-DDC-68",
      "properties": {
        "report_id": "iem-lsr-DDC-68",
        "report_type": "TSTM WND GST",
        "event_category": "thunderstorm_wind",
        "valid_utc": "202606092230",
        "standard_time_display": "2026-06-09 16:30 CST",
        "wfo": "DDC",
        "county_or_zone": "Stevens",
        "city": "9 N Hugoton",
        "state": "KS",
        "magnitude": 61.0,
        "magnitude_units": null,
        "source": "Mesonet",
        "event_narrative": "Kansas State Mesonet."
      },
      "geometry": {
        "type": "Point",
        "coordinates": [
          -101.38,
          37.3
        ]
      }
    },
    {
      "type": "Feature",
      "id": "iem-lsr-DDC-69",
      "properties": {
        "report_id": "iem-lsr-DDC-69",
        "report_type": "TSTM WND GST",
        "event_category": "thunderstorm_wind",
        "valid_utc": "202606092235",
        "standard_time_display": "2026-06-09 16:35 CST",
        "wfo": "DDC",
        "county_or_zone": "Hodgeman",
        "city": "4 ESE Kalvesta",
        "state": "KS",
        "magnitude": 67.0,
        "magnitude_units": null,
        "source": "Mesonet",
        "event_narrative": "Davis Weatherlink station."
      },
      "geometry": {
        "type": "Point",
        "coordinates": [
          -100.22,
          38.04
        ]
      }
    },
    {
      "type": "Feature",
      "id": "iem-lsr-DDC-70",
      "properties": {
        "report_id": "iem-lsr-DDC-70",
        "report_type": "TSTM WND GST",
        "event_category": "thunderstorm_wind",
        "valid_utc": "202606092315",
        "standard_time_display": "2026-06-09 17:15 CST",
        "wfo": "DDC",
        "county_or_zone": "Hodgeman",
        "city": "1 NNW Jetmore",
        "state": "KS",
        "magnitude": 61.0,
        "magnitude_units": null,
        "source": "Mesonet",
        "event_narrative": "Kansas State Mesonet."
      },
      "geometry": {
        "type": "Point",
        "coordinates": [
          -99.9,
          38.1
        ]
      }
    },
    {
      "type": "Feature",
      "id": "iem-lsr-DDC-71",
      "properties": {
        "report_id": "iem-lsr-DDC-71",
        "report_type": "TSTM WND GST",
        "event_category": "thunderstorm_wind",
        "valid_utc": "202606092328",
        "standard_time_display": "2026-06-09 17:28 CST",
        "wfo": "DDC",
        "county_or_zone": "Ellis",
        "city": "Ellis",
        "state": "KS",
        "magnitude": 65.0,
        "magnitude_units": null,
        "source": "Public",
        "event_narrative": "Social media report with video of estimated 60-70 mph winds gusts in Ellis."
      },
      "geometry": {
        "type": "Point",
        "coordinates": [
          -99.56,
          38.94
        ]
      }
    },
    {
      "type": "Feature",
      "id": "iem-lsr-DDC-72",
      "properties": {
        "report_id": "iem-lsr-DDC-72",
        "report_type": "TSTM WND GST",
        "event_category": "thunderstorm_wind",
        "valid_utc": "202606092329",
        "standard_time_display": "2026-06-09 17:29 CST",
        "wfo": "DDC",
        "county_or_zone": "Ellis",
        "city": "2 WSW Ellis",
        "state": "KS",
        "magnitude": 59.0,
        "magnitude_units": null,
        "source": "Mesonet",
        "event_narrative": "Davis Weatherlink station."
      },
      "geometry": {
        "type": "Point",
        "coordinates": [
          -99.59,
          38.93
        ]
      }
    },
    {
      "type": "Feature",
      "id": "iem-lsr-DDC-73",
      "properties": {
        "report_id": "iem-lsr-DDC-73",
        "report_type": "TSTM WND GST",
        "event_category": "thunderstorm_wind",
        "valid_utc": "202606092331",
        "standard_time_display": "2026-06-09 17:31 CST",
        "wfo": "DDC",
        "county_or_zone": "Rush",
        "city": "2 SW Schoenchen",
        "state": "KS",
        "magnitude": 61.0,
        "magnitude_units": null,
        "source": "Mesonet",
        "event_narrative": "Davis Weatherlink station."
      },
      "geometry": {
        "type": "Point",
        "coordinates": [
          -99.36,
          38.69
        ]
      }
    },
    {
      "type": "Feature",
      "id": "iem-lsr-DDC-74",
      "properties": {
        "report_id": "iem-lsr-DDC-74",
        "report_type": "TSTM WND GST",
        "event_category": "thunderstorm_wind",
        "valid_utc": "202606092332",
        "standard_time_display": "2026-06-09 17:32 CST",
        "wfo": "DDC",
        "county_or_zone": "Ellis",
        "city": "3 NNE Yocemento",
        "state": "KS",
        "magnitude": 59.0,
        "magnitude_units": null,
        "source": "Mesonet",
        "event_narrative": "Davis Weatherlink station."
      },
      "geometry": {
        "type": "Point",
        "coordinates": [
          -99.41,
          38.95
        ]
      }
    },
    {
      "type": "Feature",
      "id": "iem-lsr-DDC-75",
      "properties": {
        "report_id": "iem-lsr-DDC-75",
        "report_type": "TSTM WND GST",
        "event_category": "thunderstorm_wind",
        "valid_utc": "202606092335",
        "standard_time_display": "2026-06-09 17:35 CST",
        "wfo": "DDC",
        "county_or_zone": "Ellis",
        "city": "1 E Yocemento",
        "state": "KS",
        "magnitude": 64.0,
        "magnitude_units": null,
        "source": "Mesonet",
        "event_narrative": "Mesonet station UP856 0.8 E Yocemento (UPR)."
      },
      "geometry": {
        "type": "Point",
        "coordinates": [
          -99.41,
          38.91
        ]
      }
    },
    {
      "type": "Feature",
      "id": "iem-lsr-DDC-76",
      "properties": {
        "report_id": "iem-lsr-DDC-76",
        "report_type": "TSTM WND GST",
        "event_category": "thunderstorm_wind",
        "valid_utc": "202606092339",
        "standard_time_display": "2026-06-09 17:39 CST",
        "wfo": "DDC",
        "county_or_zone": "Pawnee",
        "city": "3 SW Burdett",
        "state": "KS",
        "magnitude": 65.0,
        "magnitude_units": null,
        "source": "Public",
        "event_narrative": "Davis Weatherlink station."
      },
      "geometry": {
        "type": "Point",
        "coordinates": [
          -99.56,
          38.16
        ]
      }
    },
    {
      "type": "Feature",
      "id": "iem-lsr-DDC-77",
      "properties": {
        "report_id": "iem-lsr-DDC-77",
        "report_type": "TSTM WND GST",
        "event_category": "thunderstorm_wind",
        "valid_utc": "202606092347",
        "standard_time_display": "2026-06-09 17:47 CST",
        "wfo": "DDC",
        "county_or_zone": "Pawnee",
        "city": "3 SW Burdett",
        "state": "KS",
        "magnitude": 65.0,
        "magnitude_units": null,
        "source": "Mesonet",
        "event_narrative": null
      },
      "geometry": {
        "type": "Point",
        "coordinates": [
          -99.56,
          38.16
        ]
      }
    },
    {
      "type": "Feature",
      "id": "iem-lsr-DDC-78",
      "properties": {
        "report_id": "iem-lsr-DDC-78",
        "report_type": "TSTM WND GST",
        "event_category": "thunderstorm_wind",
        "valid_utc": "202606100041",
        "standard_time_display": "2026-06-09 18:41 CST",
        "wfo": "DDC",
        "county_or_zone": "Ford",
        "city": "3 ENE Dodge City",
        "state": "KS",
        "magnitude": 59.0,
        "magnitude_units": null,
        "source": "ASOS",
        "event_narrative": "ASOS station KDDC Dodge City Regional Airport."
      },
      "geometry": {
        "type": "Point",
        "coordinates": [
          -99.97,
          37.77
        ]
      }
    },
    {
      "type": "Feature",
      "id": "iem-lsr-DDC-79",
      "properties": {
        "report_id": "iem-lsr-DDC-79",
        "report_type": "TSTM WND DMG",
        "event_category": "thunderstorm_wind",
        "valid_utc": "202606100052",
        "standard_time_display": "2026-06-09 18:52 CST",
        "wfo": "DDC",
        "county_or_zone": "Hodgeman",
        "city": "12 NNE Kalvesta",
        "state": "KS",
        "magnitude": null,
        "magnitude_units": null,
        "source": "Public",
        "event_narrative": "Social media report of power poles broken in western Hodgeman County at the intersection of V road and 202 road. Time estimated from radar."
      },
      "geometry": {
        "type": "Point",
        "coordinates": [
          -100.19,
          38.22
        ]
      }
    },
    {
      "type": "Feature",
      "id": "iem-lsr-DDC-80",
      "properties": {
        "report_id": "iem-lsr-DDC-80",
        "report_type": "TSTM WND GST",
        "event_category": "thunderstorm_wind",
        "valid_utc": "202606100556",
        "standard_time_display": "2026-06-09 23:56 CST",
        "wfo": "DDC",
        "county_or_zone": "Seward",
        "city": "2 WSW Liberal",
        "state": "KS",
        "magnitude": 61.0,
        "magnitude_units": null,
        "source": "AWOS",
        "event_narrative": "AWOS station KLBL Liberal_ mesoscale convective vortex winds."
      },
      "geometry": {
        "type": "Point",
        "coordinates": [
          -100.97,
          37.03
        ]
      }
    },
    {
      "type": "Feature",
      "id": "iem-lsr-DDC-81",
      "properties": {
        "report_id": "iem-lsr-DDC-81",
        "report_type": "TSTM WND GST",
        "event_category": "thunderstorm_wind",
        "valid_utc": "202606100557",
        "standard_time_display": "2026-06-09 23:57 CST",
        "wfo": "DDC",
        "county_or_zone": "Seward",
        "city": "3 SW Liberal",
        "state": "KS",
        "magnitude": 72.0,
        "magnitude_units": null,
        "source": "Mesonet",
        "event_narrative": "Mesonet station UP352 2.7 SW Liberal (UPR)_ mesoscale convective vortex winds."
      },
      "geometry": {
        "type": "Point",
        "coordinates": [
          -100.97,
          37.01
        ]
      }
    },
    {
      "type": "Feature",
      "id": "iem-lsr-DDC-82",
      "properties": {
        "report_id": "iem-lsr-DDC-82",
        "report_type": "TSTM WND GST",
        "event_category": "thunderstorm_wind",
        "valid_utc": "202606100604",
        "standard_time_display": "2026-06-10 00:04 CST",
        "wfo": "DDC",
        "county_or_zone": "Seward",
        "city": "1 WSW Hayne",
        "state": "KS",
        "magnitude": 58.0,
        "magnitude_units": null,
        "source": "Mesonet",
        "event_narrative": "Mesonet station UP407 0.6 SW Hayne (UPR)_ mesoscale convective vortex winds."
      },
      "geometry": {
        "type": "Point",
        "coordinates": [
          -100.81,
          37.1
        ]
      }
    },
    {
      "type": "Feature",
      "id": "iem-lsr-DDC-83",
      "properties": {
        "report_id": "iem-lsr-DDC-83",
        "report_type": "TSTM WND GST",
        "event_category": "thunderstorm_wind",
        "valid_utc": "202606100605",
        "standard_time_display": "2026-06-10 00:05 CST",
        "wfo": "DDC",
        "county_or_zone": "Seward",
        "city": "4 NE Hayne",
        "state": "KS",
        "magnitude": 67.0,
        "magnitude_units": null,
        "source": "Mesonet",
        "event_narrative": "Mesonet station UR350 Kismws_ mesoscale convective vortex winds."
      },
      "geometry": {
        "type": "Point",
        "coordinates": [
          -100.75,
          37.15
        ]
      }
    },
    {
      "type": "Feature",
      "id": "iem-lsr-DDC-84",
      "properties": {
        "report_id": "iem-lsr-DDC-84",
        "report_type": "TSTM WND GST",
        "event_category": "thunderstorm_wind",
        "valid_utc": "202606100655",
        "standard_time_display": "2026-06-10 00:55 CST",
        "wfo": "DDC",
        "county_or_zone": "Meade",
        "city": "2 SSE Meade State Park",
        "state": "KS",
        "magnitude": 60.0,
        "magnitude_units": null,
        "source": "Mesonet",
        "event_narrative": "mesoscale convective vortex winds."
      },
      "geometry": {
        "type": "Point",
        "coordinates": [
          -100.42,
          37.14
        ]
      }
    },
    {
      "type": "Feature",
      "id": "iem-lsr-DDC-85",
      "properties": {
        "report_id": "iem-lsr-DDC-85",
        "report_type": "NON-TSTM WND GST",
        "event_category": "thunderstorm_wind",
        "valid_utc": "202606111354",
        "standard_time_display": "2026-06-11 07:54 CST",
        "wfo": "DDC",
        "county_or_zone": "Finney",
        "city": "3 NW Pierceville",
        "state": "KS",
        "magnitude": 58.0,
        "magnitude_units": null,
        "source": "ASOS",
        "event_narrative": "ASOS station KGCK Garden City."
      },
      "geometry": {
        "type": "Point",
        "coordinates": [
          -100.72,
          37.92
        ]
      }
    },
    {
      "type": "Feature",
      "id": "iem-lsr-DDC-86",
      "properties": {
        "report_id": "iem-lsr-DDC-86",
        "report_type": "HAIL",
        "event_category": "hail",
        "valid_utc": "202606130107",
        "standard_time_display": "2026-06-12 19:07 CST",
        "wfo": "DDC",
        "county_or_zone": "Morton",
        "city": "Elkhart",
        "state": "KS",
        "magnitude": 1.75,
        "magnitude_units": null,
        "source": "Public",
        "event_narrative": null
      },
      "geometry": {
        "type": "Point",
        "coordinates": [
          -101.9,
          37.0
        ]
      }
    },
    {
      "type": "Feature",
      "id": "iem-lsr-DDC-87",
      "properties": {
        "report_id": "iem-lsr-DDC-87",
        "report_type": "HAIL",
        "event_category": "hail",
        "valid_utc": "202606130114",
        "standard_time_display": "2026-06-12 19:14 CST",
        "wfo": "DDC",
        "county_or_zone": "Morton",
        "city": "Elkhart",
        "state": "KS",
        "magnitude": 1.0,
        "magnitude_units": null,
        "source": "Public",
        "event_narrative": null
      },
      "geometry": {
        "type": "Point",
        "coordinates": [
          -101.9,
          37.0
        ]
      }
    },
    {
      "type": "Feature",
      "id": "iem-lsr-DDC-88",
      "properties": {
        "report_id": "iem-lsr-DDC-88",
        "report_type": "HAIL",
        "event_category": "hail",
        "valid_utc": "202606130122",
        "standard_time_display": "2026-06-12 19:22 CST",
        "wfo": "DDC",
        "county_or_zone": "Morton",
        "city": "10 WSW Richfield",
        "state": "KS",
        "magnitude": 1.0,
        "magnitude_units": null,
        "source": "Public",
        "event_narrative": null
      },
      "geometry": {
        "type": "Point",
        "coordinates": [
          -101.95,
          37.23
        ]
      }
    },
    {
      "type": "Feature",
      "id": "iem-lsr-DDC-89",
      "properties": {
        "report_id": "iem-lsr-DDC-89",
        "report_type": "FLASH FLOOD",
        "event_category": "flooding",
        "valid_utc": "202606130242",
        "standard_time_display": "2026-06-12 20:42 CST",
        "wfo": "DDC",
        "county_or_zone": "Morton",
        "city": "Elkhart",
        "state": "KS",
        "magnitude": null,
        "magnitude_units": null,
        "source": "Law Enforcement",
        "event_narrative": "Water over local roads."
      },
      "geometry": {
        "type": "Point",
        "coordinates": [
          -101.9,
          37.0
        ]
      }
    },
    {
      "type": "Feature",
      "id": "iem-lsr-DDC-90",
      "properties": {
        "report_id": "iem-lsr-DDC-90",
        "report_type": "NON-TSTM WND GST",
        "event_category": "thunderstorm_wind",
        "valid_utc": "202606130335",
        "standard_time_display": "2026-06-12 21:35 CST",
        "wfo": "DDC",
        "county_or_zone": "Grant",
        "city": "2 NNW Ulysses",
        "state": "KS",
        "magnitude": 63.0,
        "magnitude_units": null,
        "source": "Public",
        "event_narrative": "63 mph wind gust measured at the airport at Ulysses."
      },
      "geometry": {
        "type": "Point",
        "coordinates": [
          -101.37,
          37.6
        ]
      }
    },
    {
      "type": "Feature",
      "id": "iem-lsr-DDC-91",
      "properties": {
        "report_id": "iem-lsr-DDC-91",
        "report_type": "TSTM WND GST",
        "event_category": "thunderstorm_wind",
        "valid_utc": "202606130459",
        "standard_time_display": "2026-06-12 22:59 CST",
        "wfo": "DDC",
        "county_or_zone": "Ford",
        "city": "3 ENE Dodge City",
        "state": "KS",
        "magnitude": 67.0,
        "magnitude_units": null,
        "source": "ASOS",
        "event_narrative": "ASOS station KDDC Dodge City Regional Airport."
      },
      "geometry": {
        "type": "Point",
        "coordinates": [
          -99.97,
          37.77
        ]
      }
    },
    {
      "type": "Feature",
      "id": "iem-lsr-DDC-92",
      "properties": {
        "report_id": "iem-lsr-DDC-92",
        "report_type": "TSTM WND GST",
        "event_category": "thunderstorm_wind",
        "valid_utc": "202606130500",
        "standard_time_display": "2026-06-12 23:00 CST",
        "wfo": "DDC",
        "county_or_zone": "Ford",
        "city": "3 ENE Dodge City",
        "state": "KS",
        "magnitude": 58.0,
        "magnitude_units": null,
        "source": "ASOS",
        "event_narrative": null
      },
      "geometry": {
        "type": "Point",
        "coordinates": [
          -99.96,
          37.78
        ]
      }
    },
    {
      "type": "Feature",
      "id": "iem-lsr-DDC-93",
      "properties": {
        "report_id": "iem-lsr-DDC-93",
        "report_type": "TSTM WND GST",
        "event_category": "thunderstorm_wind",
        "valid_utc": "202606130525",
        "standard_time_display": "2026-06-12 23:25 CST",
        "wfo": "DDC",
        "county_or_zone": "Ford",
        "city": "3 ENE Dodge City",
        "state": "KS",
        "magnitude": 64.0,
        "magnitude_units": null,
        "source": "ASOS",
        "event_narrative": null
      },
      "geometry": {
        "type": "Point",
        "coordinates": [
          -99.96,
          37.78
        ]
      }
    },
    {
      "type": "Feature",
      "id": "iem-lsr-DDC-94",
      "properties": {
        "report_id": "iem-lsr-DDC-94",
        "report_type": "TSTM WND GST",
        "event_category": "thunderstorm_wind",
        "valid_utc": "202606130545",
        "standard_time_display": "2026-06-12 23:45 CST",
        "wfo": "DDC",
        "county_or_zone": "Ford",
        "city": "3 W Bloom",
        "state": "KS",
        "magnitude": 61.0,
        "magnitude_units": null,
        "source": "Public",
        "event_narrative": null
      },
      "geometry": {
        "type": "Point",
        "coordinates": [
          -99.95,
          37.49
        ]
      }
    },
    {
      "type": "Feature",
      "id": "iem-lsr-DDC-95",
      "properties": {
        "report_id": "iem-lsr-DDC-95",
        "report_type": "HAIL",
        "event_category": "hail",
        "valid_utc": "202606132207",
        "standard_time_display": "2026-06-13 16:07 CST",
        "wfo": "DDC",
        "county_or_zone": "Haskell",
        "city": "5 S Sublette",
        "state": "KS",
        "magnitude": 1.0,
        "magnitude_units": null,
        "source": "Storm Chaser",
        "event_narrative": null
      },
      "geometry": {
        "type": "Point",
        "coordinates": [
          -100.85,
          37.41
        ]
      }
    },
    {
      "type": "Feature",
      "id": "iem-lsr-DDC-96",
      "properties": {
        "report_id": "iem-lsr-DDC-96",
        "report_type": "HAIL",
        "event_category": "hail",
        "valid_utc": "202606132245",
        "standard_time_display": "2026-06-13 16:45 CST",
        "wfo": "DDC",
        "county_or_zone": "Hodgeman",
        "city": "10 N Spearville",
        "state": "KS",
        "magnitude": 1.5,
        "magnitude_units": null,
        "source": "Public",
        "event_narrative": "Roughly 1.5 hail via a picture on social media."
      },
      "geometry": {
        "type": "Point",
        "coordinates": [
          -99.76,
          37.99
        ]
      }
    },
    {
      "type": "Feature",
      "id": "iem-lsr-DDC-97",
      "properties": {
        "report_id": "iem-lsr-DDC-97",
        "report_type": "LANDSPOUT",
        "event_category": "other",
        "valid_utc": "202606132245",
        "standard_time_display": "2026-06-13 16:45 CST",
        "wfo": "DDC",
        "county_or_zone": "Hodgeman",
        "city": "13 N Dodge City",
        "state": "KS",
        "magnitude": null,
        "magnitude_units": null,
        "source": "Official NWS Obs",
        "event_narrative": "Landspout tornado was also visible from the office window of NWS Dodge City."
      },
      "geometry": {
        "type": "Point",
        "coordinates": [
          -100.04,
          37.94
        ]
      }
    },
    {
      "type": "Feature",
      "id": "iem-lsr-DDC-98",
      "properties": {
        "report_id": "iem-lsr-DDC-98",
        "report_type": "HAIL",
        "event_category": "hail",
        "valid_utc": "202606132325",
        "standard_time_display": "2026-06-13 17:25 CST",
        "wfo": "DDC",
        "county_or_zone": "Ford",
        "city": "Spearville",
        "state": "KS",
        "magnitude": 1.5,
        "magnitude_units": null,
        "source": "Public",
        "event_narrative": "Report made through social media."
      },
      "geometry": {
        "type": "Point",
        "coordinates": [
          -99.75,
          37.85
        ]
      }
    },
    {
      "type": "Feature",
      "id": "iem-lsr-DDC-99",
      "properties": {
        "report_id": "iem-lsr-DDC-99",
        "report_type": "HAIL",
        "event_category": "hail",
        "valid_utc": "202606132328",
        "standard_time_display": "2026-06-13 17:28 CST",
        "wfo": "DDC",
        "county_or_zone": "Ford",
        "city": "Spearville",
        "state": "KS",
        "magnitude": 1.0,
        "magnitude_units": null,
        "source": "Public",
        "event_narrative": null
      },
      "geometry": {
        "type": "Point",
        "coordinates": [
          -99.75,
          37.85
        ]
      }
    },
    {
      "type": "Feature",
      "id": "iem-lsr-DDC-100",
      "properties": {
        "report_id": "iem-lsr-DDC-100",
        "report_type": "HAIL",
        "event_category": "hail",
        "valid_utc": "202606132339",
        "standard_time_display": "2026-06-13 17:39 CST",
        "wfo": "DDC",
        "county_or_zone": "Pawnee",
        "city": "Rozel",
        "state": "KS",
        "magnitude": 1.0,
        "magnitude_units": null,
        "source": "Public",
        "event_narrative": null
      },
      "geometry": {
        "type": "Point",
        "coordinates": [
          -99.4,
          38.2
        ]
      }
    },
    {
      "type": "Feature",
      "id": "iem-lsr-DDC-101",
      "properties": {
        "report_id": "iem-lsr-DDC-101",
        "report_type": "HAIL",
        "event_category": "hail",
        "valid_utc": "202606132349",
        "standard_time_display": "2026-06-13 17:49 CST",
        "wfo": "DDC",
        "county_or_zone": "Pawnee",
        "city": "6 S Rozel",
        "state": "KS",
        "magnitude": 1.0,
        "magnitude_units": null,
        "source": "Public",
        "event_narrative": null
      },
      "geometry": {
        "type": "Point",
        "coordinates": [
          -99.39,
          38.11
        ]
      }
    },
    {
      "type": "Feature",
      "id": "iem-lsr-DDC-102",
      "properties": {
        "report_id": "iem-lsr-DDC-102",
        "report_type": "TSTM WND GST",
        "event_category": "thunderstorm_wind",
        "valid_utc": "202606140024",
        "standard_time_display": "2026-06-13 18:24 CST",
        "wfo": "DDC",
        "county_or_zone": "Stafford",
        "city": "1 N Macksville",
        "state": "KS",
        "magnitude": 63.0,
        "magnitude_units": null,
        "source": "Public",
        "event_narrative": null
      },
      "geometry": {
        "type": "Point",
        "coordinates": [
          -98.97,
          37.97
        ]
      }
    },
    {
      "type": "Feature",
      "id": "iem-lsr-DDC-103",
      "properties": {
        "report_id": "iem-lsr-DDC-103",
        "report_type": "TSTM WND GST",
        "event_category": "thunderstorm_wind",
        "valid_utc": "202606140043",
        "standard_time_display": "2026-06-13 18:43 CST",
        "wfo": "DDC",
        "county_or_zone": "Stafford",
        "city": "1 N Macksville",
        "state": "KS",
        "magnitude": 67.0,
        "magnitude_units": null,
        "source": "Public",
        "event_narrative": null
      },
      "geometry": {
        "type": "Point",
        "coordinates": [
          -98.97,
          37.97
        ]
      }
    },
    {
      "type": "Feature",
      "id": "iem-lsr-DDC-104",
      "properties": {
        "report_id": "iem-lsr-DDC-104",
        "report_type": "HAIL",
        "event_category": "hail",
        "valid_utc": "202606140100",
        "standard_time_display": "2026-06-13 19:00 CST",
        "wfo": "DDC",
        "county_or_zone": "Pratt",
        "city": "3 NNW Pratt",
        "state": "KS",
        "magnitude": 1.25,
        "magnitude_units": null,
        "source": "Public",
        "event_narrative": "A picture on social media of roughly 1.25 inch hail."
      },
      "geometry": {
        "type": "Point",
        "coordinates": [
          -98.76,
          37.68
        ]
      }
    },
    {
      "type": "Feature",
      "id": "iem-lsr-DDC-105",
      "properties": {
        "report_id": "iem-lsr-DDC-105",
        "report_type": "TSTM WND GST",
        "event_category": "thunderstorm_wind",
        "valid_utc": "202606140115",
        "standard_time_display": "2026-06-13 19:15 CST",
        "wfo": "DDC",
        "county_or_zone": "Pratt",
        "city": "2 S Pratt",
        "state": "KS",
        "magnitude": 58.0,
        "magnitude_units": null,
        "source": "Public",
        "event_narrative": null
      },
      "geometry": {
        "type": "Point",
        "coordinates": [
          -98.74,
          37.61
        ]
      }
    },
    {
      "type": "Feature",
      "id": "iem-lsr-DDC-106",
      "properties": {
        "report_id": "iem-lsr-DDC-106",
        "report_type": "TSTM WND GST",
        "event_category": "thunderstorm_wind",
        "valid_utc": "202606140146",
        "standard_time_display": "2026-06-13 19:46 CST",
        "wfo": "DDC",
        "county_or_zone": "Stanton",
        "city": "10 SSW Big Bow",
        "state": "KS",
        "magnitude": 60.0,
        "magnitude_units": null,
        "source": "Public",
        "event_narrative": null
      },
      "geometry": {
        "type": "Point",
        "coordinates": [
          -101.62,
          37.43
        ]
      }
    },
    {
      "type": "Feature",
      "id": "iem-lsr-DDC-107",
      "properties": {
        "report_id": "iem-lsr-DDC-107",
        "report_type": "TSTM WND GST",
        "event_category": "thunderstorm_wind",
        "valid_utc": "202606140156",
        "standard_time_display": "2026-06-13 19:56 CST",
        "wfo": "DDC",
        "county_or_zone": "Barber",
        "city": "2 E Medicine Lodge",
        "state": "KS",
        "magnitude": 63.0,
        "magnitude_units": null,
        "source": "ASOS",
        "event_narrative": "ASOS station KP28 Medicine Lodge."
      },
      "geometry": {
        "type": "Point",
        "coordinates": [
          -98.55,
          37.28
        ]
      }
    }
  ]
}