{
  "type": "FeatureCollection",
  "metadata": {
    "schema_version": "0.2.4",
    "year": 2026,
    "month": 8,
    "wfo": "PDT",
    "start_utc": "2026-08-01T00:00:00Z",
    "end_utc": "2026-09-01T00:00:00Z",
    "generated_utc": "2026-08-26T09:55:40Z",
    "mode": "storm_data_prep",
    "public_release_status": "public-source-derived",
    "time_note": "Storm Data entry times should be reviewed in local Standard Time (ST), not daylight time. Candidate reports include standard_time_display.",
    "tornado_track_policy": "Tornado tracks must come from DAT. NCEI begin/end coordinates are not used as a tornado track substitute.",
    "source": "https://mesonet.agron.iastate.edu/cgi-bin/request/gis/lsr.py?wfo=PDT&sts=2026-08-01T00%3A00%3A00Z&ets=2026-09-01T00%3A00%3A00Z&fmt=csv"
  },
  "features": [
    {
      "type": "Feature",
      "id": "iem-lsr-PDT-1",
      "properties": {
        "report_id": "iem-lsr-PDT-1",
        "report_type": "HAIL",
        "event_category": "hail",
        "valid_utc": "202608142055",
        "standard_time_display": "2026-08-14 12:55 PST",
        "wfo": "PDT",
        "county_or_zone": "Union",
        "city": "1 S North Powder",
        "state": "OR",
        "magnitude": 0.88,
        "magnitude_units": null,
        "source": "Public",
        "event_narrative": "Reported at the gas station."
      },
      "geometry": {
        "type": "Point",
        "coordinates": [
          -117.92,
          45.02
        ]
      }
    },
    {
      "type": "Feature",
      "id": "iem-lsr-PDT-2",
      "properties": {
        "report_id": "iem-lsr-PDT-2",
        "report_type": "RAIN",
        "event_category": "other",
        "valid_utc": "202608152034",
        "standard_time_display": "2026-08-15 12:34 PST",
        "wfo": "PDT",
        "county_or_zone": "Wallowa",
        "city": "1 W Lostine",
        "state": "OR",
        "magnitude": 0.83,
        "magnitude_units": null,
        "source": "Trained Spotter",
        "event_narrative": "Rain received in the last hour. Reported pea size hail and minor yard flooding."
      },
      "geometry": {
        "type": "Point",
        "coordinates": [
          -117.45,
          45.49
        ]
      }
    }
  ]
}