{
  "type": "FeatureCollection",
  "metadata": {
    "schema_version": "0.2.4",
    "year": 2026,
    "month": 8,
    "wfo": "GYX",
    "start_utc": "2026-08-01T00:00:00Z",
    "end_utc": "2026-09-01T00:00:00Z",
    "generated_utc": "2026-08-04T11:32:45Z",
    "mode": "storm_data_prep",
    "public_release_status": "public-source-derived",
    "time_note": "Storm Data entry times should be reviewed in local Standard Time (ST), not daylight time. Candidate reports include standard_time_display.",
    "tornado_track_policy": "Tornado tracks must come from DAT. NCEI begin/end coordinates are not used as a tornado track substitute.",
    "source": "https://mesonet.agron.iastate.edu/cgi-bin/request/gis/lsr.py?wfo=GYX&sts=2026-08-01T00%3A00%3A00Z&ets=2026-09-01T00%3A00%3A00Z&fmt=csv"
  },
  "features": [
    {
      "type": "Feature",
      "id": "iem-lsr-GYX-1",
      "properties": {
        "report_id": "iem-lsr-GYX-1",
        "report_type": "RAIN",
        "event_category": "other",
        "valid_utc": "202608031100",
        "standard_time_display": "2026-08-03 06:00 EST",
        "wfo": "GYX",
        "county_or_zone": "Merrimack",
        "city": "1 NW Contoocook",
        "state": "NH",
        "magnitude": 2.23,
        "magnitude_units": null,
        "source": "Trained Spotter",
        "event_narrative": null
      },
      "geometry": {
        "type": "Point",
        "coordinates": [
          -71.72,
          43.23
        ]
      }
    },
    {
      "type": "Feature",
      "id": "iem-lsr-GYX-2",
      "properties": {
        "report_id": "iem-lsr-GYX-2",
        "report_type": "FLOOD",
        "event_category": "flooding",
        "valid_utc": "202608031208",
        "standard_time_display": "2026-08-03 07:08 EST",
        "wfo": "GYX",
        "county_or_zone": "Hillsborough",
        "city": "3 NNW Nashua",
        "state": "NH",
        "magnitude": null,
        "magnitude_units": null,
        "source": "Public",
        "event_narrative": "Flooding along Amherst Street_ manhole cover blown out."
      },
      "geometry": {
        "type": "Point",
        "coordinates": [
          -71.52,
          42.79
        ]
      }
    },
    {
      "type": "Feature",
      "id": "iem-lsr-GYX-3",
      "properties": {
        "report_id": "iem-lsr-GYX-3",
        "report_type": "FLOOD",
        "event_category": "flooding",
        "valid_utc": "202608031321",
        "standard_time_display": "2026-08-03 08:21 EST",
        "wfo": "GYX",
        "county_or_zone": "Hillsborough",
        "city": "1 NW Hudson",
        "state": "NH",
        "magnitude": null,
        "magnitude_units": null,
        "source": "Public",
        "event_narrative": "Business flooded and temporarily closed off Derry Street."
      },
      "geometry": {
        "type": "Point",
        "coordinates": [
          -71.44,
          42.77
        ]
      }
    },
    {
      "type": "Feature",
      "id": "iem-lsr-GYX-4",
      "properties": {
        "report_id": "iem-lsr-GYX-4",
        "report_type": "FLOOD",
        "event_category": "flooding",
        "valid_utc": "202608031334",
        "standard_time_display": "2026-08-03 08:34 EST",
        "wfo": "GYX",
        "county_or_zone": "Hillsborough",
        "city": "1 SSE Nashua",
        "state": "NH",
        "magnitude": null,
        "magnitude_units": null,
        "source": "Public",
        "event_narrative": "Harris Brook flooding Northeastern Boulevard in Nashua near Murphy Drive."
      },
      "geometry": {
        "type": "Point",
        "coordinates": [
          -71.49,
          42.74
        ]
      }
    },
    {
      "type": "Feature",
      "id": "iem-lsr-GYX-5",
      "properties": {
        "report_id": "iem-lsr-GYX-5",
        "report_type": "RAIN",
        "event_category": "other",
        "valid_utc": "202608031340",
        "standard_time_display": "2026-08-03 08:40 EST",
        "wfo": "GYX",
        "county_or_zone": "Hillsborough",
        "city": "1 E Hudson",
        "state": "NH",
        "magnitude": 2.89,
        "magnitude_units": null,
        "source": "Mesonet",
        "event_narrative": "Mesonet station CW0655 Hudson."
      },
      "geometry": {
        "type": "Point",
        "coordinates": [
          -71.41,
          42.76
        ]
      }
    },
    {
      "type": "Feature",
      "id": "iem-lsr-GYX-6",
      "properties": {
        "report_id": "iem-lsr-GYX-6",
        "report_type": "RAIN",
        "event_category": "other",
        "valid_utc": "202608031345",
        "standard_time_display": "2026-08-03 08:45 EST",
        "wfo": "GYX",
        "county_or_zone": "Merrimack",
        "city": "1 W Northfield",
        "state": "NH",
        "magnitude": 2.78,
        "magnitude_units": null,
        "source": "Mesonet",
        "event_narrative": "Mesonet station CW7324 Northfield."
      },
      "geometry": {
        "type": "Point",
        "coordinates": [
          -71.62,
          43.43
        ]
      }
    },
    {
      "type": "Feature",
      "id": "iem-lsr-GYX-7",
      "properties": {
        "report_id": "iem-lsr-GYX-7",
        "report_type": "RAIN",
        "event_category": "other",
        "valid_utc": "202608031345",
        "standard_time_display": "2026-08-03 08:45 EST",
        "wfo": "GYX",
        "county_or_zone": "Hillsborough",
        "city": "3 NW Bedford",
        "state": "NH",
        "magnitude": 2.86,
        "magnitude_units": null,
        "source": "Mesonet",
        "event_narrative": "Mesonet station GW0590 Bedfgord."
      },
      "geometry": {
        "type": "Point",
        "coordinates": [
          -71.54,
          42.98
        ]
      }
    },
    {
      "type": "Feature",
      "id": "iem-lsr-GYX-8",
      "properties": {
        "report_id": "iem-lsr-GYX-8",
        "report_type": "RAIN",
        "event_category": "other",
        "valid_utc": "202608031345",
        "standard_time_display": "2026-08-03 08:45 EST",
        "wfo": "GYX",
        "county_or_zone": "Hillsborough",
        "city": "4 WNW Bedford",
        "state": "NH",
        "magnitude": 3.18,
        "magnitude_units": null,
        "source": "Mesonet",
        "event_narrative": "Mesonet station AW655 BEDFORD."
      },
      "geometry": {
        "type": "Point",
        "coordinates": [
          -71.56,
          42.97
        ]
      }
    },
    {
      "type": "Feature",
      "id": "iem-lsr-GYX-9",
      "properties": {
        "report_id": "iem-lsr-GYX-9",
        "report_type": "RAIN",
        "event_category": "other",
        "valid_utc": "202608031345",
        "standard_time_display": "2026-08-03 08:45 EST",
        "wfo": "GYX",
        "county_or_zone": "Hillsborough",
        "city": "1 SE Hollis",
        "state": "NH",
        "magnitude": 3.31,
        "magnitude_units": null,
        "source": "Mesonet",
        "event_narrative": "Mesonet station FW9148 Hollis."
      },
      "geometry": {
        "type": "Point",
        "coordinates": [
          -71.57,
          42.73
        ]
      }
    },
    {
      "type": "Feature",
      "id": "iem-lsr-GYX-10",
      "properties": {
        "report_id": "iem-lsr-GYX-10",
        "report_type": "RAIN",
        "event_category": "other",
        "valid_utc": "202608031345",
        "standard_time_display": "2026-08-03 08:45 EST",
        "wfo": "GYX",
        "county_or_zone": "Hillsborough",
        "city": "1 E Nashua",
        "state": "NH",
        "magnitude": 3.84,
        "magnitude_units": null,
        "source": "Mesonet",
        "event_narrative": "Mesonet station GW4861 NASHUA."
      },
      "geometry": {
        "type": "Point",
        "coordinates": [
          -71.47,
          42.75
        ]
      }
    },
    {
      "type": "Feature",
      "id": "iem-lsr-GYX-11",
      "properties": {
        "report_id": "iem-lsr-GYX-11",
        "report_type": "RAIN",
        "event_category": "other",
        "valid_utc": "202608031345",
        "standard_time_display": "2026-08-03 08:45 EST",
        "wfo": "GYX",
        "county_or_zone": "Rockingham",
        "city": "3 SE Londonderry",
        "state": "NH",
        "magnitude": 4.04,
        "magnitude_units": null,
        "source": "Mesonet",
        "event_narrative": "Mesonet station FW9206 Windham."
      },
      "geometry": {
        "type": "Point",
        "coordinates": [
          -71.33,
          42.84
        ]
      }
    },
    {
      "type": "Feature",
      "id": "iem-lsr-GYX-12",
      "properties": {
        "report_id": "iem-lsr-GYX-12",
        "report_type": "RAIN",
        "event_category": "other",
        "valid_utc": "202608031346",
        "standard_time_display": "2026-08-03 08:46 EST",
        "wfo": "GYX",
        "county_or_zone": "Hillsborough",
        "city": "1 WNW Hudson",
        "state": "NH",
        "magnitude": 4.31,
        "magnitude_units": null,
        "source": "Mesonet",
        "event_narrative": "Mesonet station GW6133 NASHUA."
      },
      "geometry": {
        "type": "Point",
        "coordinates": [
          -71.46,
          42.77
        ]
      }
    },
    {
      "type": "Feature",
      "id": "iem-lsr-GYX-13",
      "properties": {
        "report_id": "iem-lsr-GYX-13",
        "report_type": "RAIN",
        "event_category": "other",
        "valid_utc": "202608031348",
        "standard_time_display": "2026-08-03 08:48 EST",
        "wfo": "GYX",
        "county_or_zone": "Hillsborough",
        "city": "2 E Nashua",
        "state": "NH",
        "magnitude": 4.26,
        "magnitude_units": null,
        "source": "Mesonet",
        "event_narrative": "Mesonet station EW0791 Nashua."
      },
      "geometry": {
        "type": "Point",
        "coordinates": [
          -71.46,
          42.75
        ]
      }
    },
    {
      "type": "Feature",
      "id": "iem-lsr-GYX-14",
      "properties": {
        "report_id": "iem-lsr-GYX-14",
        "report_type": "RAIN",
        "event_category": "other",
        "valid_utc": "202608031350",
        "standard_time_display": "2026-08-03 08:50 EST",
        "wfo": "GYX",
        "county_or_zone": "Hillsborough",
        "city": "2 NNW Hudson",
        "state": "NH",
        "magnitude": 2.75,
        "magnitude_units": null,
        "source": "Mesonet",
        "event_narrative": "Mesonet station CW8371 Hudson."
      },
      "geometry": {
        "type": "Point",
        "coordinates": [
          -71.45,
          42.79
        ]
      }
    },
    {
      "type": "Feature",
      "id": "iem-lsr-GYX-15",
      "properties": {
        "report_id": "iem-lsr-GYX-15",
        "report_type": "RAIN",
        "event_category": "other",
        "valid_utc": "202608031350",
        "standard_time_display": "2026-08-03 08:50 EST",
        "wfo": "GYX",
        "county_or_zone": "Hillsborough",
        "city": "2 SSW Hudson",
        "state": "NH",
        "magnitude": 3.15,
        "magnitude_units": null,
        "source": "Mesonet",
        "event_narrative": "Mesonet station NSHFS 1 SSW Hudson."
      },
      "geometry": {
        "type": "Point",
        "coordinates": [
          -71.45,
          42.74
        ]
      }
    },
    {
      "type": "Feature",
      "id": "iem-lsr-GYX-16",
      "properties": {
        "report_id": "iem-lsr-GYX-16",
        "report_type": "RAIN",
        "event_category": "other",
        "valid_utc": "202608031350",
        "standard_time_display": "2026-08-03 08:50 EST",
        "wfo": "GYX",
        "county_or_zone": "Hillsborough",
        "city": "2 SSE Hollis",
        "state": "NH",
        "magnitude": 3.54,
        "magnitude_units": null,
        "source": "Mesonet",
        "event_narrative": "Mesonet station AX367 HOLLIS."
      },
      "geometry": {
        "type": "Point",
        "coordinates": [
          -71.57,
          42.71
        ]
      }
    },
    {
      "type": "Feature",
      "id": "iem-lsr-GYX-17",
      "properties": {
        "report_id": "iem-lsr-GYX-17",
        "report_type": "RAIN",
        "event_category": "other",
        "valid_utc": "202608031354",
        "standard_time_display": "2026-08-03 08:54 EST",
        "wfo": "GYX",
        "county_or_zone": "Hillsborough",
        "city": "3 SSE Nashua",
        "state": "NH",
        "magnitude": 3.09,
        "magnitude_units": null,
        "source": "Trained Spotter",
        "event_narrative": null
      },
      "geometry": {
        "type": "Point",
        "coordinates": [
          -71.46,
          42.71
        ]
      }
    },
    {
      "type": "Feature",
      "id": "iem-lsr-GYX-18",
      "properties": {
        "report_id": "iem-lsr-GYX-18",
        "report_type": "RAIN",
        "event_category": "other",
        "valid_utc": "202608031425",
        "standard_time_display": "2026-08-03 09:25 EST",
        "wfo": "GYX",
        "county_or_zone": "Hillsborough",
        "city": "1 SSE Nashua",
        "state": "NH",
        "magnitude": 3.36,
        "magnitude_units": null,
        "source": "NWS Employee",
        "event_narrative": "NWS CWSU off Northeastern Blvd."
      },
      "geometry": {
        "type": "Point",
        "coordinates": [
          -71.48,
          42.74
        ]
      }
    },
    {
      "type": "Feature",
      "id": "iem-lsr-GYX-19",
      "properties": {
        "report_id": "iem-lsr-GYX-19",
        "report_type": "RAIN",
        "event_category": "other",
        "valid_utc": "202608031550",
        "standard_time_display": "2026-08-03 10:50 EST",
        "wfo": "GYX",
        "county_or_zone": "Cheshire",
        "city": "3 S Fitzwilliam",
        "state": "NH",
        "magnitude": 2.56,
        "magnitude_units": null,
        "source": "Amateur Radio",
        "event_narrative": null
      },
      "geometry": {
        "type": "Point",
        "coordinates": [
          -72.16,
          42.74
        ]
      }
    },
    {
      "type": "Feature",
      "id": "iem-lsr-GYX-20",
      "properties": {
        "report_id": "iem-lsr-GYX-20",
        "report_type": "TSTM WND DMG",
        "event_category": "thunderstorm_wind",
        "valid_utc": "202608031835",
        "standard_time_display": "2026-08-03 13:35 EST",
        "wfo": "GYX",
        "county_or_zone": "Grafton",
        "city": "5 NNW Lisbon",
        "state": "NH",
        "magnitude": null,
        "magnitude_units": null,
        "source": "Fire Dept/Rescue",
        "event_narrative": "Tree and wires down blocking Under The Mountain Rd in Lyman. Time estimated from radar."
      },
      "geometry": {
        "type": "Point",
        "coordinates": [
          -71.96,
          44.27
        ]
      }
    },
    {
      "type": "Feature",
      "id": "iem-lsr-GYX-21",
      "properties": {
        "report_id": "iem-lsr-GYX-21",
        "report_type": "TSTM WND DMG",
        "event_category": "thunderstorm_wind",
        "valid_utc": "202608031840",
        "standard_time_display": "2026-08-03 13:40 EST",
        "wfo": "GYX",
        "county_or_zone": "Grafton",
        "city": "2 E Newbury",
        "state": "NH",
        "magnitude": null,
        "magnitude_units": null,
        "source": "Amateur Radio",
        "event_narrative": "Relayed Social media photos of downed trees on Benton Rd (NH-116). Time estimated from radar."
      },
      "geometry": {
        "type": "Point",
        "coordinates": [
          -72.01,
          44.09
        ]
      }
    },
    {
      "type": "Feature",
      "id": "iem-lsr-GYX-22",
      "properties": {
        "report_id": "iem-lsr-GYX-22",
        "report_type": "TSTM WND DMG",
        "event_category": "thunderstorm_wind",
        "valid_utc": "202608031847",
        "standard_time_display": "2026-08-03 13:47 EST",
        "wfo": "GYX",
        "county_or_zone": "Grafton",
        "city": "Benton",
        "state": "NH",
        "magnitude": null,
        "magnitude_units": null,
        "source": "Public",
        "event_narrative": "Observed tree on wires on Coventry Rd about 1/2 mile from Benton town center. Time estimated from radar."
      },
      "geometry": {
        "type": "Point",
        "coordinates": [
          -71.91,
          44.1
        ]
      }
    },
    {
      "type": "Feature",
      "id": "iem-lsr-GYX-23",
      "properties": {
        "report_id": "iem-lsr-GYX-23",
        "report_type": "TSTM WND DMG",
        "event_category": "thunderstorm_wind",
        "valid_utc": "202608031855",
        "standard_time_display": "2026-08-03 13:55 EST",
        "wfo": "GYX",
        "county_or_zone": "Coos",
        "city": "1 W Groveton",
        "state": "NH",
        "magnitude": null,
        "magnitude_units": null,
        "source": "Public",
        "event_narrative": "Observed utility poles downed on Craggy Road in Groveton. Time estimated from radar."
      },
      "geometry": {
        "type": "Point",
        "coordinates": [
          -71.54,
          44.6
        ]
      }
    },
    {
      "type": "Feature",
      "id": "iem-lsr-GYX-24",
      "properties": {
        "report_id": "iem-lsr-GYX-24",
        "report_type": "TSTM WND DMG",
        "event_category": "thunderstorm_wind",
        "valid_utc": "202608031917",
        "standard_time_display": "2026-08-03 14:17 EST",
        "wfo": "GYX",
        "county_or_zone": "Coos",
        "city": "1 W Stark",
        "state": "NH",
        "magnitude": null,
        "magnitude_units": null,
        "source": "Public",
        "event_narrative": "OBSERVED MULTIPLE TREES DOWN JUST OFF THE EASTBOUND SHOULDER OF STARK HIGHWAY (NH 110)."
      },
      "geometry": {
        "type": "Point",
        "coordinates": [
          -71.43,
          44.6
        ]
      }
    },
    {
      "type": "Feature",
      "id": "iem-lsr-GYX-25",
      "properties": {
        "report_id": "iem-lsr-GYX-25",
        "report_type": "RAIN",
        "event_category": "other",
        "valid_utc": "202608032150",
        "standard_time_display": "2026-08-03 16:50 EST",
        "wfo": "GYX",
        "county_or_zone": "Belknap",
        "city": "3 SW Laconia",
        "state": "NH",
        "magnitude": 2.5,
        "magnitude_units": null,
        "source": "Trained Spotter",
        "event_narrative": null
      },
      "geometry": {
        "type": "Point",
        "coordinates": [
          -71.51,
          43.49
        ]
      }
    },
    {
      "type": "Feature",
      "id": "iem-lsr-GYX-26",
      "properties": {
        "report_id": "iem-lsr-GYX-26",
        "report_type": "RAIN",
        "event_category": "other",
        "valid_utc": "202608032204",
        "standard_time_display": "2026-08-03 17:04 EST",
        "wfo": "GYX",
        "county_or_zone": "Hillsborough",
        "city": "1 SW Brookline",
        "state": "NH",
        "magnitude": 3.5,
        "magnitude_units": null,
        "source": "Trained Spotter",
        "event_narrative": "Total since rain began around 4AM this morning."
      },
      "geometry": {
        "type": "Point",
        "coordinates": [
          -71.69,
          42.72
        ]
      }
    }
  ]
}