{
  "type": "FeatureCollection",
  "metadata": {
    "schema_version": "0.2.4",
    "year": 2026,
    "month": 6,
    "wfo": "IWX",
    "start_utc": "2026-06-01T00:00:00Z",
    "end_utc": "2026-07-01T00:00:00Z",
    "generated_utc": "2026-06-11T12:54:58Z",
    "mode": "storm_data_prep",
    "public_release_status": "public-source-derived",
    "time_note": "Storm Data entry times should be reviewed in local Standard Time (ST), not daylight time. Candidate reports include standard_time_display.",
    "tornado_track_policy": "Tornado tracks must come from DAT. NCEI begin/end coordinates are not used as a tornado track substitute.",
    "source": "https://mesonet.agron.iastate.edu/cgi-bin/request/gis/lsr.py?wfo=IWX&sts=2026-06-01T00%3A00%3A00Z&ets=2026-07-01T00%3A00%3A00Z&fmt=csv"
  },
  "features": [
    {
      "type": "Feature",
      "id": "iem-lsr-IWX-1",
      "properties": {
        "report_id": "iem-lsr-IWX-1",
        "report_type": "TSTM WND GST",
        "event_category": "thunderstorm_wind",
        "valid_utc": "202606061315",
        "standard_time_display": "2026-06-06 07:15 CST",
        "wfo": "IWX",
        "county_or_zone": "Grant",
        "city": "2 NNE Michaelsville",
        "state": "IN",
        "magnitude": 59.0,
        "magnitude_units": null,
        "source": "AWOS",
        "event_narrative": "AWOS station KMZZ Grant County Municipal Apt."
      },
      "geometry": {
        "type": "Point",
        "coordinates": [
          -85.68,
          40.48
        ]
      }
    },
    {
      "type": "Feature",
      "id": "iem-lsr-IWX-2",
      "properties": {
        "report_id": "iem-lsr-IWX-2",
        "report_type": "TSTM WND DMG",
        "event_category": "thunderstorm_wind",
        "valid_utc": "202606061315",
        "standard_time_display": "2026-06-06 07:15 CST",
        "wfo": "IWX",
        "county_or_zone": "Grant",
        "city": "Marion",
        "state": "IN",
        "magnitude": null,
        "magnitude_units": null,
        "source": "Public",
        "event_narrative": "A few large tree branches (with some rot visible in picture) reported down near West 14th Street and Jackson Street in Marion. Time estimated via radar."
      },
      "geometry": {
        "type": "Point",
        "coordinates": [
          -85.67,
          40.55
        ]
      }
    },
    {
      "type": "Feature",
      "id": "iem-lsr-IWX-3",
      "properties": {
        "report_id": "iem-lsr-IWX-3",
        "report_type": "TSTM WND DMG",
        "event_category": "thunderstorm_wind",
        "valid_utc": "202606062230",
        "standard_time_display": "2026-06-06 17:30 EST",
        "wfo": "IWX",
        "county_or_zone": "Henry",
        "city": "Malinta",
        "state": "OH",
        "magnitude": null,
        "magnitude_units": null,
        "source": "Emergency Mngr",
        "event_narrative": "damage to a barn."
      },
      "geometry": {
        "type": "Point",
        "coordinates": [
          -84.04,
          41.32
        ]
      }
    },
    {
      "type": "Feature",
      "id": "iem-lsr-IWX-4",
      "properties": {
        "report_id": "iem-lsr-IWX-4",
        "report_type": "TSTM WND GST",
        "event_category": "thunderstorm_wind",
        "valid_utc": "202606070135",
        "standard_time_display": "2026-06-06 20:35 EST",
        "wfo": "IWX",
        "county_or_zone": "Van Wert",
        "city": "1 W Van Wert",
        "state": "OH",
        "magnitude": 53.0,
        "magnitude_units": null,
        "source": "AWOS",
        "event_narrative": null
      },
      "geometry": {
        "type": "Point",
        "coordinates": [
          -84.61,
          40.86
        ]
      }
    },
    {
      "type": "Feature",
      "id": "iem-lsr-IWX-5",
      "properties": {
        "report_id": "iem-lsr-IWX-5",
        "report_type": "TSTM WND DMG",
        "event_category": "thunderstorm_wind",
        "valid_utc": "202606070135",
        "standard_time_display": "2026-06-06 20:35 EST",
        "wfo": "IWX",
        "county_or_zone": "Van Wert",
        "city": "Van Wert",
        "state": "OH",
        "magnitude": null,
        "magnitude_units": null,
        "source": "Emergency Mngr",
        "event_narrative": "Emergency management reported a few power lines down along with a tree in Van Wert. Time estimated from radar."
      },
      "geometry": {
        "type": "Point",
        "coordinates": [
          -84.58,
          40.86
        ]
      }
    },
    {
      "type": "Feature",
      "id": "iem-lsr-IWX-6",
      "properties": {
        "report_id": "iem-lsr-IWX-6",
        "report_type": "HAIL",
        "event_category": "hail",
        "valid_utc": "202606070139",
        "standard_time_display": "2026-06-06 20:39 EST",
        "wfo": "IWX",
        "county_or_zone": "Van Wert",
        "city": "1 E Van Wert",
        "state": "OH",
        "magnitude": 0.75,
        "magnitude_units": null,
        "source": "Public",
        "event_narrative": "Report from mPING: Dime (0.75 in.)."
      },
      "geometry": {
        "type": "Point",
        "coordinates": [
          -84.57,
          40.87
        ]
      }
    },
    {
      "type": "Feature",
      "id": "iem-lsr-IWX-7",
      "properties": {
        "report_id": "iem-lsr-IWX-7",
        "report_type": "MARINE TSTM WIND",
        "event_category": "marine",
        "valid_utc": "202606102130",
        "standard_time_display": "2026-06-10 15:30 CST",
        "wfo": "IWX",
        "county_or_zone": "LMZ046",
        "city": "5 WNW Long Beach",
        "state": "IN",
        "magnitude": 56.0,
        "magnitude_units": null,
        "source": "Buoy",
        "event_narrative": "Buoy 45170."
      },
      "geometry": {
        "type": "Point",
        "coordinates": [
          -86.94,
          41.77
        ]
      }
    },
    {
      "type": "Feature",
      "id": "iem-lsr-IWX-8",
      "properties": {
        "report_id": "iem-lsr-IWX-8",
        "report_type": "MARINE TSTM WIND",
        "event_category": "marine",
        "valid_utc": "202606102200",
        "standard_time_display": "2026-06-10 16:00 CST",
        "wfo": "IWX",
        "county_or_zone": "LMZ043",
        "city": "4 NW Bridgman",
        "state": "MI",
        "magnitude": 42.0,
        "magnitude_units": null,
        "source": "Buoy",
        "event_narrative": "Buoy 45026."
      },
      "geometry": {
        "type": "Point",
        "coordinates": [
          -86.62,
          41.98
        ]
      }
    },
    {
      "type": "Feature",
      "id": "iem-lsr-IWX-9",
      "properties": {
        "report_id": "iem-lsr-IWX-9",
        "report_type": "TSTM WND GST",
        "event_category": "thunderstorm_wind",
        "valid_utc": "202606102203",
        "standard_time_display": "2026-06-10 16:03 CST",
        "wfo": "IWX",
        "county_or_zone": "Berrien",
        "city": "1 NW Benton Heights",
        "state": "MI",
        "magnitude": 63.0,
        "magnitude_units": null,
        "source": "ASOS",
        "event_narrative": null
      },
      "geometry": {
        "type": "Point",
        "coordinates": [
          -86.43,
          42.13
        ]
      }
    },
    {
      "type": "Feature",
      "id": "iem-lsr-IWX-10",
      "properties": {
        "report_id": "iem-lsr-IWX-10",
        "report_type": "MARINE TSTM WIND",
        "event_category": "marine",
        "valid_utc": "202606102205",
        "standard_time_display": "2026-06-10 16:05 CST",
        "wfo": "IWX",
        "county_or_zone": "Berrien",
        "city": "16 W Keeler",
        "state": "MI",
        "magnitude": 47.0,
        "magnitude_units": null,
        "source": "Mesonet",
        "event_narrative": "Mesonet station DVI11762 Saint Joseph."
      },
      "geometry": {
        "type": "Point",
        "coordinates": [
          -86.47,
          42.13
        ]
      }
    },
    {
      "type": "Feature",
      "id": "iem-lsr-IWX-11",
      "properties": {
        "report_id": "iem-lsr-IWX-11",
        "report_type": "TSTM WND GST",
        "event_category": "thunderstorm_wind",
        "valid_utc": "202606102213",
        "standard_time_display": "2026-06-10 16:13 CST",
        "wfo": "IWX",
        "county_or_zone": "Berrien",
        "city": "Watervliet",
        "state": "MI",
        "magnitude": 60.0,
        "magnitude_units": null,
        "source": "Trained Spotter",
        "event_narrative": null
      },
      "geometry": {
        "type": "Point",
        "coordinates": [
          -86.26,
          42.19
        ]
      }
    },
    {
      "type": "Feature",
      "id": "iem-lsr-IWX-12",
      "properties": {
        "report_id": "iem-lsr-IWX-12",
        "report_type": "TSTM WND GST",
        "event_category": "thunderstorm_wind",
        "valid_utc": "202606102218",
        "standard_time_display": "2026-06-10 16:18 CST",
        "wfo": "IWX",
        "county_or_zone": "Starke",
        "city": "2 ESE Brems",
        "state": "IN",
        "magnitude": 75.0,
        "magnitude_units": null,
        "source": "AWOS",
        "event_narrative": "Starke County Airport."
      },
      "geometry": {
        "type": "Point",
        "coordinates": [
          -86.66,
          41.33
        ]
      }
    },
    {
      "type": "Feature",
      "id": "iem-lsr-IWX-13",
      "properties": {
        "report_id": "iem-lsr-IWX-13",
        "report_type": "TSTM WND GST",
        "event_category": "thunderstorm_wind",
        "valid_utc": "202606102220",
        "standard_time_display": "2026-06-10 16:20 CST",
        "wfo": "IWX",
        "county_or_zone": "La Porte",
        "city": "Kingsford Heights",
        "state": "IN",
        "magnitude": 60.0,
        "magnitude_units": null,
        "source": "Trained Spotter",
        "event_narrative": null
      },
      "geometry": {
        "type": "Point",
        "coordinates": [
          -86.69,
          41.48
        ]
      }
    },
    {
      "type": "Feature",
      "id": "iem-lsr-IWX-14",
      "properties": {
        "report_id": "iem-lsr-IWX-14",
        "report_type": "TSTM WND DMG",
        "event_category": "thunderstorm_wind",
        "valid_utc": "202606102240",
        "standard_time_display": "2026-06-10 16:40 CST",
        "wfo": "IWX",
        "county_or_zone": "Marshall",
        "city": "Plymouth",
        "state": "IN",
        "magnitude": null,
        "magnitude_units": null,
        "source": "Emergency Mngr",
        "event_narrative": "several trees downed in the plymouth area."
      },
      "geometry": {
        "type": "Point",
        "coordinates": [
          -86.31,
          41.34
        ]
      }
    },
    {
      "type": "Feature",
      "id": "iem-lsr-IWX-15",
      "properties": {
        "report_id": "iem-lsr-IWX-15",
        "report_type": "TSTM WND DMG",
        "event_category": "thunderstorm_wind",
        "valid_utc": "202606102300",
        "standard_time_display": "2026-06-10 17:00 CST",
        "wfo": "IWX",
        "county_or_zone": "Fulton",
        "city": "1 W Rochester",
        "state": "IN",
        "magnitude": null,
        "magnitude_units": null,
        "source": "Amateur Radio",
        "event_narrative": "powerlines downed."
      },
      "geometry": {
        "type": "Point",
        "coordinates": [
          -86.21,
          41.06
        ]
      }
    },
    {
      "type": "Feature",
      "id": "iem-lsr-IWX-16",
      "properties": {
        "report_id": "iem-lsr-IWX-16",
        "report_type": "TSTM WND DMG",
        "event_category": "thunderstorm_wind",
        "valid_utc": "202606102300",
        "standard_time_display": "2026-06-10 17:00 CST",
        "wfo": "IWX",
        "county_or_zone": "Marshall",
        "city": "Bourbon",
        "state": "IN",
        "magnitude": null,
        "magnitude_units": null,
        "source": "Emergency Mngr",
        "event_narrative": "powerlines down."
      },
      "geometry": {
        "type": "Point",
        "coordinates": [
          -86.11,
          41.3
        ]
      }
    },
    {
      "type": "Feature",
      "id": "iem-lsr-IWX-17",
      "properties": {
        "report_id": "iem-lsr-IWX-17",
        "report_type": "TSTM WND DMG",
        "event_category": "thunderstorm_wind",
        "valid_utc": "202606102305",
        "standard_time_display": "2026-06-10 17:05 CST",
        "wfo": "IWX",
        "county_or_zone": "St. Joseph",
        "city": "Constantine",
        "state": "MI",
        "magnitude": null,
        "magnitude_units": null,
        "source": "Emergency Mngr",
        "event_narrative": "multiple greenhouses destroyed and multiple trees down across roads."
      },
      "geometry": {
        "type": "Point",
        "coordinates": [
          -85.67,
          41.84
        ]
      }
    },
    {
      "type": "Feature",
      "id": "iem-lsr-IWX-18",
      "properties": {
        "report_id": "iem-lsr-IWX-18",
        "report_type": "TSTM WND GST",
        "event_category": "thunderstorm_wind",
        "valid_utc": "202606102315",
        "standard_time_display": "2026-06-10 17:15 CST",
        "wfo": "IWX",
        "county_or_zone": "Kosciusko",
        "city": "1 SE Monoquet",
        "state": "IN",
        "magnitude": 61.0,
        "magnitude_units": null,
        "source": "AWOS",
        "event_narrative": "Warsaw Municipal Airport."
      },
      "geometry": {
        "type": "Point",
        "coordinates": [
          -85.84,
          41.27
        ]
      }
    },
    {
      "type": "Feature",
      "id": "iem-lsr-IWX-19",
      "properties": {
        "report_id": "iem-lsr-IWX-19",
        "report_type": "TSTM WND GST",
        "event_category": "thunderstorm_wind",
        "valid_utc": "202606102315",
        "standard_time_display": "2026-06-10 17:15 CST",
        "wfo": "IWX",
        "county_or_zone": "Elkhart",
        "city": "2 WNW Benton",
        "state": "IN",
        "magnitude": 66.0,
        "magnitude_units": null,
        "source": "ASOS",
        "event_narrative": "Goshen Municipal Airport."
      },
      "geometry": {
        "type": "Point",
        "coordinates": [
          -85.8,
          41.53
        ]
      }
    },
    {
      "type": "Feature",
      "id": "iem-lsr-IWX-20",
      "properties": {
        "report_id": "iem-lsr-IWX-20",
        "report_type": "TSTM WND GST",
        "event_category": "thunderstorm_wind",
        "valid_utc": "202606102320",
        "standard_time_display": "2026-06-10 17:20 CST",
        "wfo": "IWX",
        "county_or_zone": "Kosciusko",
        "city": "2 N North Webster",
        "state": "IN",
        "magnitude": 52.0,
        "magnitude_units": null,
        "source": "Official NWS Obs",
        "event_narrative": null
      },
      "geometry": {
        "type": "Point",
        "coordinates": [
          -85.7,
          41.36
        ]
      }
    },
    {
      "type": "Feature",
      "id": "iem-lsr-IWX-21",
      "properties": {
        "report_id": "iem-lsr-IWX-21",
        "report_type": "TSTM WND DMG",
        "event_category": "thunderstorm_wind",
        "valid_utc": "202606102330",
        "standard_time_display": "2026-06-10 17:30 CST",
        "wfo": "IWX",
        "county_or_zone": "St. Joseph",
        "city": "Sturgis",
        "state": "MI",
        "magnitude": null,
        "magnitude_units": null,
        "source": "911 Call Center",
        "event_narrative": "several reports of powerlines downed."
      },
      "geometry": {
        "type": "Point",
        "coordinates": [
          -85.42,
          41.8
        ]
      }
    },
    {
      "type": "Feature",
      "id": "iem-lsr-IWX-22",
      "properties": {
        "report_id": "iem-lsr-IWX-22",
        "report_type": "TSTM WND GST",
        "event_category": "thunderstorm_wind",
        "valid_utc": "202606110010",
        "standard_time_display": "2026-06-10 18:10 CST",
        "wfo": "IWX",
        "county_or_zone": "Allen",
        "city": "2 ENE Nine Mile",
        "state": "IN",
        "magnitude": 52.0,
        "magnitude_units": null,
        "source": "ASOS",
        "event_narrative": "Fort Wayne International Airport."
      },
      "geometry": {
        "type": "Point",
        "coordinates": [
          -85.19,
          40.98
        ]
      }
    }
  ]
}