{
  "type": "FeatureCollection",
  "metadata": {
    "schema_version": "0.2.4",
    "year": 2026,
    "month": 7,
    "wfo": "DVN",
    "start_utc": "2026-07-01T00:00:00Z",
    "end_utc": "2026-08-01T00:00:00Z",
    "generated_utc": "2026-07-03T11:41:12Z",
    "mode": "storm_data_prep",
    "public_release_status": "public-source-derived",
    "time_note": "Storm Data entry times should be reviewed in local Standard Time (ST), not daylight time. Candidate reports include standard_time_display.",
    "tornado_track_policy": "Tornado tracks must come from DAT. NCEI begin/end coordinates are not used as a tornado track substitute.",
    "source": "https://mesonet.agron.iastate.edu/cgi-bin/request/gis/lsr.py?wfo=DVN&sts=2026-07-01T00%3A00%3A00Z&ets=2026-08-01T00%3A00%3A00Z&fmt=csv"
  },
  "features": [
    {
      "type": "Feature",
      "id": "iem-lsr-DVN-1",
      "properties": {
        "report_id": "iem-lsr-DVN-1",
        "report_type": "RAIN",
        "event_category": "other",
        "valid_utc": "202607030138",
        "standard_time_display": "2026-07-02 19:38 CST",
        "wfo": "DVN",
        "county_or_zone": "Linn",
        "city": "2 N Central City",
        "state": "IA",
        "magnitude": 2.15,
        "magnitude_units": null,
        "source": "Trained Spotter",
        "event_narrative": "Storm total accumulation through 8:30pm CDT."
      },
      "geometry": {
        "type": "Point",
        "coordinates": [
          -91.52,
          42.24
        ]
      }
    },
    {
      "type": "Feature",
      "id": "iem-lsr-DVN-2",
      "properties": {
        "report_id": "iem-lsr-DVN-2",
        "report_type": "RAIN",
        "event_category": "other",
        "valid_utc": "202607030200",
        "standard_time_display": "2026-07-02 20:00 CST",
        "wfo": "DVN",
        "county_or_zone": "Benton",
        "city": "Urbana",
        "state": "IA",
        "magnitude": 2.61,
        "magnitude_units": null,
        "source": "Amateur Radio",
        "event_narrative": "Storm Total Rainfall. Received 0.91 inches in the past hour."
      },
      "geometry": {
        "type": "Point",
        "coordinates": [
          -91.88,
          42.22
        ]
      }
    }
  ]
}