{
  "type": "FeatureCollection",
  "metadata": {
    "schema_version": "0.2.4",
    "year": 2026,
    "month": 10,
    "wfo": "EAX",
    "start_utc": "2026-10-01T00:00:00Z",
    "end_utc": "2026-11-01T00:00:00Z",
    "generated_utc": "2026-10-05T18:22:54Z",
    "mode": "storm_data_prep",
    "public_release_status": "public-source-derived",
    "time_note": "Storm Data entry times should be reviewed in local Standard Time (ST), not daylight time. Candidate reports include standard_time_display.",
    "tornado_track_policy": "Tornado tracks must come from DAT. NCEI begin/end coordinates are not used as a tornado track substitute.",
    "source": "https://mesonet.agron.iastate.edu/cgi-bin/request/gis/lsr.py?wfo=EAX&sts=2026-10-01T00%3A00%3A00Z&ets=2026-11-01T00%3A00%3A00Z&fmt=csv"
  },
  "features": [
    {
      "type": "Feature",
      "id": "iem-lsr-EAX-1",
      "properties": {
        "report_id": "iem-lsr-EAX-1",
        "report_type": "FLASH FLOOD",
        "event_category": "flooding",
        "valid_utc": "202610011307",
        "standard_time_display": "2026-10-01 07:07 CST",
        "wfo": "EAX",
        "county_or_zone": "Atchison",
        "city": "Potter",
        "state": "KS",
        "magnitude": null,
        "magnitude_units": null,
        "source": "Emergency Mngr",
        "event_narrative": "Emergency manager reports multiple flooded roads around Potter."
      },
      "geometry": {
        "type": "Point",
        "coordinates": [
          -95.15,
          39.43
        ]
      }
    },
    {
      "type": "Feature",
      "id": "iem-lsr-EAX-2",
      "properties": {
        "report_id": "iem-lsr-EAX-2",
        "report_type": "FLOOD",
        "event_category": "flooding",
        "valid_utc": "202610011958",
        "standard_time_display": "2026-10-01 13:58 CST",
        "wfo": "EAX",
        "county_or_zone": "Buchanan",
        "city": "1 E Agency",
        "state": "MO",
        "magnitude": null,
        "magnitude_units": null,
        "source": "Public",
        "event_narrative": "MoDOT reports HWY H closed over the Platte River from HWY MM to 90 SE Rd due to flooding."
      },
      "geometry": {
        "type": "Point",
        "coordinates": [
          -94.73,
          39.64
        ]
      }
    },
    {
      "type": "Feature",
      "id": "iem-lsr-EAX-3",
      "properties": {
        "report_id": "iem-lsr-EAX-3",
        "report_type": "FLOOD",
        "event_category": "flooding",
        "valid_utc": "202610012010",
        "standard_time_display": "2026-10-01 14:10 CST",
        "wfo": "EAX",
        "county_or_zone": "Carroll",
        "city": "5 N Norborne",
        "state": "MO",
        "magnitude": null,
        "magnitude_units": null,
        "source": "Dept of Highways",
        "event_narrative": "MoDOT reports HWY E closed from HWY D to PP due flooding."
      },
      "geometry": {
        "type": "Point",
        "coordinates": [
          -93.67,
          39.38
        ]
      }
    }
  ]
}