{
  "type": "FeatureCollection",
  "metadata": {
    "schema_version": "0.2.4",
    "year": 2026,
    "month": 6,
    "wfo": "HUN",
    "start_utc": "2026-06-01T00:00:00Z",
    "end_utc": "2026-07-01T00:00:00Z",
    "generated_utc": "2026-06-02T12:51:39Z",
    "mode": "storm_data_prep",
    "public_release_status": "public-source-derived",
    "time_note": "Storm Data entry times should be reviewed in local Standard Time (ST), not daylight time. Candidate reports include standard_time_display.",
    "tornado_track_policy": "Tornado tracks must come from DAT. NCEI begin/end coordinates are not used as a tornado track substitute.",
    "source": "https://mesonet.agron.iastate.edu/cgi-bin/request/gis/lsr.py?wfo=HUN&sts=2026-06-01T00%3A00%3A00Z&ets=2026-07-01T00%3A00%3A00Z&fmt=csv"
  },
  "features": [
    {
      "type": "Feature",
      "id": "iem-lsr-HUN-1",
      "properties": {
        "report_id": "iem-lsr-HUN-1",
        "report_type": "TSTM WND DMG",
        "event_category": "thunderstorm_wind",
        "valid_utc": "202606010103",
        "standard_time_display": "2026-05-31 19:03 CST",
        "wfo": "HUN",
        "county_or_zone": "Jackson",
        "city": "3 N Pisgah",
        "state": "AL",
        "magnitude": null,
        "magnitude_units": null,
        "source": "Emergency Mngr",
        "event_narrative": "Tree down along CR 457 in Pisgah. Time estimated by radar."
      },
      "geometry": {
        "type": "Point",
        "coordinates": [
          -85.84,
          34.73
        ]
      }
    },
    {
      "type": "Feature",
      "id": "iem-lsr-HUN-2",
      "properties": {
        "report_id": "iem-lsr-HUN-2",
        "report_type": "TSTM WND DMG",
        "event_category": "thunderstorm_wind",
        "valid_utc": "202606010117",
        "standard_time_display": "2026-05-31 19:17 CST",
        "wfo": "HUN",
        "county_or_zone": "Jackson",
        "city": "7 W Skyline",
        "state": "AL",
        "magnitude": null,
        "magnitude_units": null,
        "source": "Public",
        "event_narrative": "Tree down at the intersection of CR 4 and AL Hwy 65 in the Holly Tree community."
      },
      "geometry": {
        "type": "Point",
        "coordinates": [
          -86.25,
          34.8
        ]
      }
    },
    {
      "type": "Feature",
      "id": "iem-lsr-HUN-3",
      "properties": {
        "report_id": "iem-lsr-HUN-3",
        "report_type": "TSTM WND DMG",
        "event_category": "thunderstorm_wind",
        "valid_utc": "202606010122",
        "standard_time_display": "2026-05-31 19:22 CST",
        "wfo": "HUN",
        "county_or_zone": "Jackson",
        "city": "5 SW Skyline",
        "state": "AL",
        "magnitude": null,
        "magnitude_units": null,
        "source": "Emergency Mngr",
        "event_narrative": "Multiple trees down along CR 8. Time estimated from radar."
      },
      "geometry": {
        "type": "Point",
        "coordinates": [
          -86.19,
          34.74
        ]
      }
    },
    {
      "type": "Feature",
      "id": "iem-lsr-HUN-4",
      "properties": {
        "report_id": "iem-lsr-HUN-4",
        "report_type": "TSTM WND DMG",
        "event_category": "thunderstorm_wind",
        "valid_utc": "202606010140",
        "standard_time_display": "2026-05-31 19:40 CST",
        "wfo": "HUN",
        "county_or_zone": "Jackson",
        "city": "4 WNW Dutton",
        "state": "AL",
        "magnitude": null,
        "magnitude_units": null,
        "source": "Public",
        "event_narrative": "Multiple trees down along AL Hwy 35 in Scottsboro. Time estimated by radar."
      },
      "geometry": {
        "type": "Point",
        "coordinates": [
          -85.97,
          34.63
        ]
      }
    },
    {
      "type": "Feature",
      "id": "iem-lsr-HUN-5",
      "properties": {
        "report_id": "iem-lsr-HUN-5",
        "report_type": "TSTM WND DMG",
        "event_category": "thunderstorm_wind",
        "valid_utc": "202606011645",
        "standard_time_display": "2026-06-01 10:45 CST",
        "wfo": "HUN",
        "county_or_zone": "Lincoln",
        "city": "5 NW Huntland",
        "state": "TN",
        "magnitude": null,
        "magnitude_units": null,
        "source": "Emergency Mngr",
        "event_narrative": "Large trees down on 300 block of Shady Grove Rd."
      },
      "geometry": {
        "type": "Point",
        "coordinates": [
          -86.33,
          35.11
        ]
      }
    },
    {
      "type": "Feature",
      "id": "iem-lsr-HUN-6",
      "properties": {
        "report_id": "iem-lsr-HUN-6",
        "report_type": "TSTM WND DMG",
        "event_category": "thunderstorm_wind",
        "valid_utc": "202606011707",
        "standard_time_display": "2026-06-01 11:07 CST",
        "wfo": "HUN",
        "county_or_zone": "Lauderdale",
        "city": "5 WNW Lexington",
        "state": "AL",
        "magnitude": null,
        "magnitude_units": null,
        "source": "911 Call Center",
        "event_narrative": "Tree down blocking the road on CR 136 at Nature Change."
      },
      "geometry": {
        "type": "Point",
        "coordinates": [
          -87.45,
          34.98
        ]
      }
    },
    {
      "type": "Feature",
      "id": "iem-lsr-HUN-7",
      "properties": {
        "report_id": "iem-lsr-HUN-7",
        "report_type": "TSTM WND DMG",
        "event_category": "thunderstorm_wind",
        "valid_utc": "202606011708",
        "standard_time_display": "2026-06-01 11:08 CST",
        "wfo": "HUN",
        "county_or_zone": "Lauderdale",
        "city": "5 WNW Lexington",
        "state": "AL",
        "magnitude": null,
        "magnitude_units": null,
        "source": "911 Call Center",
        "event_narrative": "Tree down blocking both lanes of the intersection of CR 136 and 39."
      },
      "geometry": {
        "type": "Point",
        "coordinates": [
          -87.45,
          34.98
        ]
      }
    },
    {
      "type": "Feature",
      "id": "iem-lsr-HUN-8",
      "properties": {
        "report_id": "iem-lsr-HUN-8",
        "report_type": "TSTM WND DMG",
        "event_category": "thunderstorm_wind",
        "valid_utc": "202606011710",
        "standard_time_display": "2026-06-01 11:10 CST",
        "wfo": "HUN",
        "county_or_zone": "Lauderdale",
        "city": "3 WNW Anderson",
        "state": "AL",
        "magnitude": null,
        "magnitude_units": null,
        "source": "911 Call Center",
        "event_narrative": "Tree down on 200 block of County Rd 507."
      },
      "geometry": {
        "type": "Point",
        "coordinates": [
          -87.32,
          34.93
        ]
      }
    },
    {
      "type": "Feature",
      "id": "iem-lsr-HUN-9",
      "properties": {
        "report_id": "iem-lsr-HUN-9",
        "report_type": "TSTM WND DMG",
        "event_category": "thunderstorm_wind",
        "valid_utc": "202606011711",
        "standard_time_display": "2026-06-01 11:11 CST",
        "wfo": "HUN",
        "county_or_zone": "Lauderdale",
        "city": "7 N Killen",
        "state": "AL",
        "magnitude": null,
        "magnitude_units": null,
        "source": "911 Call Center",
        "event_narrative": "Tree fell on a house in the 13000 block of CR 47. Other trees down in the vicinity."
      },
      "geometry": {
        "type": "Point",
        "coordinates": [
          -87.52,
          34.97
        ]
      }
    },
    {
      "type": "Feature",
      "id": "iem-lsr-HUN-10",
      "properties": {
        "report_id": "iem-lsr-HUN-10",
        "report_type": "TSTM WND DMG",
        "event_category": "thunderstorm_wind",
        "valid_utc": "202606011717",
        "standard_time_display": "2026-06-01 11:17 CST",
        "wfo": "HUN",
        "county_or_zone": "Lauderdale",
        "city": "1 NE Anderson",
        "state": "AL",
        "magnitude": null,
        "magnitude_units": null,
        "source": "911 Call Center",
        "event_narrative": "Tree down at CR 52 at 156."
      },
      "geometry": {
        "type": "Point",
        "coordinates": [
          -87.26,
          34.92
        ]
      }
    },
    {
      "type": "Feature",
      "id": "iem-lsr-HUN-11",
      "properties": {
        "report_id": "iem-lsr-HUN-11",
        "report_type": "TSTM WND DMG",
        "event_category": "thunderstorm_wind",
        "valid_utc": "202606011718",
        "standard_time_display": "2026-06-01 11:18 CST",
        "wfo": "HUN",
        "county_or_zone": "Lauderdale",
        "city": "4 E Killen",
        "state": "AL",
        "magnitude": null,
        "magnitude_units": null,
        "source": "911 Call Center",
        "event_narrative": "Power lines down at the stop sign across from the store on 72."
      },
      "geometry": {
        "type": "Point",
        "coordinates": [
          -87.45,
          34.86
        ]
      }
    },
    {
      "type": "Feature",
      "id": "iem-lsr-HUN-12",
      "properties": {
        "report_id": "iem-lsr-HUN-12",
        "report_type": "TSTM WND DMG",
        "event_category": "thunderstorm_wind",
        "valid_utc": "202606011719",
        "standard_time_display": "2026-06-01 11:19 CST",
        "wfo": "HUN",
        "county_or_zone": "Lauderdale",
        "city": "5 N Killen",
        "state": "AL",
        "magnitude": null,
        "magnitude_units": null,
        "source": "911 Call Center",
        "event_narrative": "Tree down across the road blocking one lane_ pending removal by tractor."
      },
      "geometry": {
        "type": "Point",
        "coordinates": [
          -87.54,
          34.93
        ]
      }
    },
    {
      "type": "Feature",
      "id": "iem-lsr-HUN-13",
      "properties": {
        "report_id": "iem-lsr-HUN-13",
        "report_type": "TSTM WND DMG",
        "event_category": "thunderstorm_wind",
        "valid_utc": "202606011722",
        "standard_time_display": "2026-06-01 11:22 CST",
        "wfo": "HUN",
        "county_or_zone": "Lauderdale",
        "city": "1 ENE Anderson",
        "state": "AL",
        "magnitude": null,
        "magnitude_units": null,
        "source": "911 Call Center",
        "event_narrative": "Two trees down on CR 530 and 52. Caller is stuck between them. No injuries."
      },
      "geometry": {
        "type": "Point",
        "coordinates": [
          -87.25,
          34.92
        ]
      }
    },
    {
      "type": "Feature",
      "id": "iem-lsr-HUN-14",
      "properties": {
        "report_id": "iem-lsr-HUN-14",
        "report_type": "TSTM WND DMG",
        "event_category": "thunderstorm_wind",
        "valid_utc": "202606011723",
        "standard_time_display": "2026-06-01 11:23 CST",
        "wfo": "HUN",
        "county_or_zone": "Lauderdale",
        "city": "6 W Underwood-Petersvil",
        "state": "AL",
        "magnitude": null,
        "magnitude_units": null,
        "source": "911 Call Center",
        "event_narrative": "Trees down completely covering CR 15 and CR 112."
      },
      "geometry": {
        "type": "Point",
        "coordinates": [
          -87.8,
          34.88
        ]
      }
    },
    {
      "type": "Feature",
      "id": "iem-lsr-HUN-15",
      "properties": {
        "report_id": "iem-lsr-HUN-15",
        "report_type": "TSTM WND DMG",
        "event_category": "thunderstorm_wind",
        "valid_utc": "202606011727",
        "standard_time_display": "2026-06-01 11:27 CST",
        "wfo": "HUN",
        "county_or_zone": "Lauderdale",
        "city": "3 NNE Killen",
        "state": "AL",
        "magnitude": null,
        "magnitude_units": null,
        "source": "911 Call Center",
        "event_narrative": "Tree down in the roadway blocking both lanes of traffic in the 3000 block of CR 25."
      },
      "geometry": {
        "type": "Point",
        "coordinates": [
          -87.52,
          34.91
        ]
      }
    },
    {
      "type": "Feature",
      "id": "iem-lsr-HUN-16",
      "properties": {
        "report_id": "iem-lsr-HUN-16",
        "report_type": "TSTM WND DMG",
        "event_category": "thunderstorm_wind",
        "valid_utc": "202606011730",
        "standard_time_display": "2026-06-01 11:30 CST",
        "wfo": "HUN",
        "county_or_zone": "Lauderdale",
        "city": "6 W Rogersville",
        "state": "AL",
        "magnitude": null,
        "magnitude_units": null,
        "source": "911 Call Center",
        "event_narrative": "Tree limb hanging and blocking road at intersection of CR 581 and CR 585."
      },
      "geometry": {
        "type": "Point",
        "coordinates": [
          -87.39,
          34.82
        ]
      }
    },
    {
      "type": "Feature",
      "id": "iem-lsr-HUN-17",
      "properties": {
        "report_id": "iem-lsr-HUN-17",
        "report_type": "TSTM WND DMG",
        "event_category": "thunderstorm_wind",
        "valid_utc": "202606011732",
        "standard_time_display": "2026-06-01 11:32 CST",
        "wfo": "HUN",
        "county_or_zone": "Lauderdale",
        "city": "3 E Lexington",
        "state": "AL",
        "magnitude": null,
        "magnitude_units": null,
        "source": "911 Call Center",
        "event_narrative": "Tree down blocking one lane of Hwy 64 near the intersection of CR 501."
      },
      "geometry": {
        "type": "Point",
        "coordinates": [
          -87.31,
          34.97
        ]
      }
    },
    {
      "type": "Feature",
      "id": "iem-lsr-HUN-18",
      "properties": {
        "report_id": "iem-lsr-HUN-18",
        "report_type": "RAIN",
        "event_category": "other",
        "valid_utc": "202606011733",
        "standard_time_display": "2026-06-01 11:33 CST",
        "wfo": "HUN",
        "county_or_zone": "Madison",
        "city": "4 W Meridianville",
        "state": "AL",
        "magnitude": 1.0,
        "magnitude_units": null,
        "source": "Emergency Mngr",
        "event_narrative": "Heavy rainfall caused several inches of water to pond_ causing nuisance flooding at the intersection of Patterson Lane at Pulaski Pike."
      },
      "geometry": {
        "type": "Point",
        "coordinates": [
          -86.64,
          34.88
        ]
      }
    },
    {
      "type": "Feature",
      "id": "iem-lsr-HUN-19",
      "properties": {
        "report_id": "iem-lsr-HUN-19",
        "report_type": "TSTM WND DMG",
        "event_category": "thunderstorm_wind",
        "valid_utc": "202606011742",
        "standard_time_display": "2026-06-01 11:42 CST",
        "wfo": "HUN",
        "county_or_zone": "Franklin",
        "city": "2 NW Huntland",
        "state": "TN",
        "magnitude": null,
        "magnitude_units": null,
        "source": "Broadcast Media",
        "event_narrative": "Trees down on Pleasant Ridge Road. Power poles are broken due to the trees falling on them."
      },
      "geometry": {
        "type": "Point",
        "coordinates": [
          -86.29,
          35.07
        ]
      }
    },
    {
      "type": "Feature",
      "id": "iem-lsr-HUN-20",
      "properties": {
        "report_id": "iem-lsr-HUN-20",
        "report_type": "TSTM WND DMG",
        "event_category": "thunderstorm_wind",
        "valid_utc": "202606011742",
        "standard_time_display": "2026-06-01 11:42 CST",
        "wfo": "HUN",
        "county_or_zone": "Lincoln",
        "city": "3 NNW Fayetteville",
        "state": "TN",
        "magnitude": null,
        "magnitude_units": null,
        "source": "Broadcast Media",
        "event_narrative": "Large tree uprooted at the corner of Deer Trace Road and Lovers Lane."
      },
      "geometry": {
        "type": "Point",
        "coordinates": [
          -86.58,
          35.19
        ]
      }
    },
    {
      "type": "Feature",
      "id": "iem-lsr-HUN-21",
      "properties": {
        "report_id": "iem-lsr-HUN-21",
        "report_type": "TSTM WND DMG",
        "event_category": "thunderstorm_wind",
        "valid_utc": "202606011742",
        "standard_time_display": "2026-06-01 11:42 CST",
        "wfo": "HUN",
        "county_or_zone": "Lauderdale",
        "city": "8 W Lexington",
        "state": "AL",
        "magnitude": null,
        "magnitude_units": null,
        "source": "911 Call Center",
        "event_narrative": "Tree down on a house in the 5500 block of CR 130. Trees also down on power lines."
      },
      "geometry": {
        "type": "Point",
        "coordinates": [
          -87.51,
          34.99
        ]
      }
    },
    {
      "type": "Feature",
      "id": "iem-lsr-HUN-22",
      "properties": {
        "report_id": "iem-lsr-HUN-22",
        "report_type": "TSTM WND DMG",
        "event_category": "thunderstorm_wind",
        "valid_utc": "202606011743",
        "standard_time_display": "2026-06-01 11:43 CST",
        "wfo": "HUN",
        "county_or_zone": "Lawrence",
        "city": "5 SW Town Creek",
        "state": "AL",
        "magnitude": null,
        "magnitude_units": null,
        "source": "Emergency Mngr",
        "event_narrative": "Trees down blocking the road at Hwy 157 at CR 235."
      },
      "geometry": {
        "type": "Point",
        "coordinates": [
          -87.47,
          34.62
        ]
      }
    },
    {
      "type": "Feature",
      "id": "iem-lsr-HUN-23",
      "properties": {
        "report_id": "iem-lsr-HUN-23",
        "report_type": "TSTM WND DMG",
        "event_category": "thunderstorm_wind",
        "valid_utc": "202606011745",
        "standard_time_display": "2026-06-01 11:45 CST",
        "wfo": "HUN",
        "county_or_zone": "Lincoln",
        "city": "9 W Huntland",
        "state": "TN",
        "magnitude": null,
        "magnitude_units": null,
        "source": "Emergency Mngr",
        "event_narrative": "Multiple trees down within the Flintville community."
      },
      "geometry": {
        "type": "Point",
        "coordinates": [
          -86.42,
          35.06
        ]
      }
    },
    {
      "type": "Feature",
      "id": "iem-lsr-HUN-24",
      "properties": {
        "report_id": "iem-lsr-HUN-24",
        "report_type": "TSTM WND DMG",
        "event_category": "thunderstorm_wind",
        "valid_utc": "202606011747",
        "standard_time_display": "2026-06-01 11:47 CST",
        "wfo": "HUN",
        "county_or_zone": "Lauderdale",
        "city": "4 WNW Lexington",
        "state": "AL",
        "magnitude": null,
        "magnitude_units": null,
        "source": "911 Call Center",
        "event_narrative": "Tree down blocking both lanes near the intersection of CF 136 and 620."
      },
      "geometry": {
        "type": "Point",
        "coordinates": [
          -87.44,
          34.98
        ]
      }
    },
    {
      "type": "Feature",
      "id": "iem-lsr-HUN-25",
      "properties": {
        "report_id": "iem-lsr-HUN-25",
        "report_type": "TSTM WND DMG",
        "event_category": "thunderstorm_wind",
        "valid_utc": "202606011750",
        "standard_time_display": "2026-06-01 11:50 CST",
        "wfo": "HUN",
        "county_or_zone": "Limestone",
        "city": "10 ESE Rogersville",
        "state": "AL",
        "magnitude": null,
        "magnitude_units": null,
        "source": "Public",
        "event_narrative": "Metal hay barn destroyed at a farm on Snake Road at Shaw Road on the NW side of that intersection. Trees down also at this location."
      },
      "geometry": {
        "type": "Point",
        "coordinates": [
          -87.13,
          34.78
        ]
      }
    },
    {
      "type": "Feature",
      "id": "iem-lsr-HUN-26",
      "properties": {
        "report_id": "iem-lsr-HUN-26",
        "report_type": "TSTM WND DMG",
        "event_category": "thunderstorm_wind",
        "valid_utc": "202606011750",
        "standard_time_display": "2026-06-01 11:50 CST",
        "wfo": "HUN",
        "county_or_zone": "Morgan",
        "city": "3 SE Trinity",
        "state": "AL",
        "magnitude": null,
        "magnitude_units": null,
        "source": "911 Call Center",
        "event_narrative": "Tree laying down on communication line."
      },
      "geometry": {
        "type": "Point",
        "coordinates": [
          -87.05,
          34.56
        ]
      }
    },
    {
      "type": "Feature",
      "id": "iem-lsr-HUN-27",
      "properties": {
        "report_id": "iem-lsr-HUN-27",
        "report_type": "TSTM WND DMG",
        "event_category": "thunderstorm_wind",
        "valid_utc": "202606011758",
        "standard_time_display": "2026-06-01 11:58 CST",
        "wfo": "HUN",
        "county_or_zone": "Morgan",
        "city": "2 ESE Flint City",
        "state": "AL",
        "magnitude": null,
        "magnitude_units": null,
        "source": "911 Call Center",
        "event_narrative": "Large tree down on 2400 block of Red Bank Rd."
      },
      "geometry": {
        "type": "Point",
        "coordinates": [
          -86.94,
          34.5
        ]
      }
    },
    {
      "type": "Feature",
      "id": "iem-lsr-HUN-28",
      "properties": {
        "report_id": "iem-lsr-HUN-28",
        "report_type": "TSTM WND DMG",
        "event_category": "thunderstorm_wind",
        "valid_utc": "202606011800",
        "standard_time_display": "2026-06-01 12:00 CST",
        "wfo": "HUN",
        "county_or_zone": "Morgan",
        "city": "2 W Flint City",
        "state": "AL",
        "magnitude": null,
        "magnitude_units": null,
        "source": "911 Call Center",
        "event_narrative": "Tree down on 1100 block of Bird Spring Rd."
      },
      "geometry": {
        "type": "Point",
        "coordinates": [
          -87.01,
          34.51
        ]
      }
    },
    {
      "type": "Feature",
      "id": "iem-lsr-HUN-29",
      "properties": {
        "report_id": "iem-lsr-HUN-29",
        "report_type": "TSTM WND DMG",
        "event_category": "thunderstorm_wind",
        "valid_utc": "202606011800",
        "standard_time_display": "2026-06-01 12:00 CST",
        "wfo": "HUN",
        "county_or_zone": "Morgan",
        "city": "5 WSW Flint City",
        "state": "AL",
        "magnitude": null,
        "magnitude_units": null,
        "source": "911 Call Center",
        "event_narrative": "Large tree and powerlines down across both lanes of road in the 800 block of Neel School Rd."
      },
      "geometry": {
        "type": "Point",
        "coordinates": [
          -87.06,
          34.49
        ]
      }
    },
    {
      "type": "Feature",
      "id": "iem-lsr-HUN-30",
      "properties": {
        "report_id": "iem-lsr-HUN-30",
        "report_type": "TSTM WND DMG",
        "event_category": "thunderstorm_wind",
        "valid_utc": "202606011802",
        "standard_time_display": "2026-06-01 12:02 CST",
        "wfo": "HUN",
        "county_or_zone": "Madison",
        "city": "4 S Madison",
        "state": "AL",
        "magnitude": null,
        "magnitude_units": null,
        "source": "Emergency Mngr",
        "event_narrative": "Trees down at Trademark Drive at Martin Road."
      },
      "geometry": {
        "type": "Point",
        "coordinates": [
          -86.75,
          34.65
        ]
      }
    },
    {
      "type": "Feature",
      "id": "iem-lsr-HUN-31",
      "properties": {
        "report_id": "iem-lsr-HUN-31",
        "report_type": "TSTM WND DMG",
        "event_category": "thunderstorm_wind",
        "valid_utc": "202606011802",
        "standard_time_display": "2026-06-01 12:02 CST",
        "wfo": "HUN",
        "county_or_zone": "Morgan",
        "city": "6 W Flint City",
        "state": "AL",
        "magnitude": null,
        "magnitude_units": null,
        "source": "911 Call Center",
        "event_narrative": "Tree fell and brought down powerlines on Neel School Rd_ near intersection of Kirby Bridge Rd."
      },
      "geometry": {
        "type": "Point",
        "coordinates": [
          -87.08,
          34.5
        ]
      }
    },
    {
      "type": "Feature",
      "id": "iem-lsr-HUN-32",
      "properties": {
        "report_id": "iem-lsr-HUN-32",
        "report_type": "TSTM WND DMG",
        "event_category": "thunderstorm_wind",
        "valid_utc": "202606011802",
        "standard_time_display": "2026-06-01 12:02 CST",
        "wfo": "HUN",
        "county_or_zone": "Morgan",
        "city": "6 WSW Flint City",
        "state": "AL",
        "magnitude": null,
        "magnitude_units": null,
        "source": "Public",
        "event_narrative": "Tree down near intersection of Eddy Rd and Kirby Bridge Rd_ blocking roadway."
      },
      "geometry": {
        "type": "Point",
        "coordinates": [
          -87.08,
          34.49
        ]
      }
    },
    {
      "type": "Feature",
      "id": "iem-lsr-HUN-33",
      "properties": {
        "report_id": "iem-lsr-HUN-33",
        "report_type": "TSTM WND DMG",
        "event_category": "thunderstorm_wind",
        "valid_utc": "202606011803",
        "standard_time_display": "2026-06-01 12:03 CST",
        "wfo": "HUN",
        "county_or_zone": "Morgan",
        "city": "2 NW Somerville",
        "state": "AL",
        "magnitude": null,
        "magnitude_units": null,
        "source": "911 Call Center",
        "event_narrative": "Tree down on house and cars on 100 block of Still Meadow Rd."
      },
      "geometry": {
        "type": "Point",
        "coordinates": [
          -86.84,
          34.49
        ]
      }
    },
    {
      "type": "Feature",
      "id": "iem-lsr-HUN-34",
      "properties": {
        "report_id": "iem-lsr-HUN-34",
        "report_type": "TSTM WND DMG",
        "event_category": "thunderstorm_wind",
        "valid_utc": "202606011803",
        "standard_time_display": "2026-06-01 12:03 CST",
        "wfo": "HUN",
        "county_or_zone": "Lauderdale",
        "city": "3 N Anderson",
        "state": "AL",
        "magnitude": null,
        "magnitude_units": null,
        "source": "911 Call Center",
        "event_narrative": "Trees down at the intersection of CR 49 and 515."
      },
      "geometry": {
        "type": "Point",
        "coordinates": [
          -87.27,
          34.96
        ]
      }
    },
    {
      "type": "Feature",
      "id": "iem-lsr-HUN-35",
      "properties": {
        "report_id": "iem-lsr-HUN-35",
        "report_type": "TSTM WND DMG",
        "event_category": "thunderstorm_wind",
        "valid_utc": "202606011804",
        "standard_time_display": "2026-06-01 12:04 CST",
        "wfo": "HUN",
        "county_or_zone": "Morgan",
        "city": "1 SSE Trinity",
        "state": "AL",
        "magnitude": null,
        "magnitude_units": null,
        "source": "Public",
        "event_narrative": "Tree fall and complete blockage of road at intersection of Old Hwy 24 and N Mountain Dr."
      },
      "geometry": {
        "type": "Point",
        "coordinates": [
          -87.09,
          34.59
        ]
      }
    },
    {
      "type": "Feature",
      "id": "iem-lsr-HUN-36",
      "properties": {
        "report_id": "iem-lsr-HUN-36",
        "report_type": "TSTM WND DMG",
        "event_category": "thunderstorm_wind",
        "valid_utc": "202606011805",
        "standard_time_display": "2026-06-01 12:05 CST",
        "wfo": "HUN",
        "county_or_zone": "Morgan",
        "city": "2 WNW Decatur",
        "state": "AL",
        "magnitude": null,
        "magnitude_units": null,
        "source": "Emergency Mngr",
        "event_narrative": "Trees down on a house in the 1600 block of Runnymead Avenue."
      },
      "geometry": {
        "type": "Point",
        "coordinates": [
          -87.02,
          34.58
        ]
      }
    },
    {
      "type": "Feature",
      "id": "iem-lsr-HUN-37",
      "properties": {
        "report_id": "iem-lsr-HUN-37",
        "report_type": "TSTM WND DMG",
        "event_category": "thunderstorm_wind",
        "valid_utc": "202606011805",
        "standard_time_display": "2026-06-01 12:05 CST",
        "wfo": "HUN",
        "county_or_zone": "Morgan",
        "city": "3 NE Hartselle",
        "state": "AL",
        "magnitude": null,
        "magnitude_units": null,
        "source": "911 Call Center",
        "event_narrative": "Tree down on south bound lane of I-65_ about a mile before 328 exit."
      },
      "geometry": {
        "type": "Point",
        "coordinates": [
          -86.9,
          34.47
        ]
      }
    },
    {
      "type": "Feature",
      "id": "iem-lsr-HUN-38",
      "properties": {
        "report_id": "iem-lsr-HUN-38",
        "report_type": "TSTM WND DMG",
        "event_category": "thunderstorm_wind",
        "valid_utc": "202606011805",
        "standard_time_display": "2026-06-01 12:05 CST",
        "wfo": "HUN",
        "county_or_zone": "Limestone",
        "city": "5 W Athens",
        "state": "AL",
        "magnitude": null,
        "magnitude_units": null,
        "source": "Public",
        "event_narrative": "Trees down on a shed."
      },
      "geometry": {
        "type": "Point",
        "coordinates": [
          -87.04,
          34.78
        ]
      }
    },
    {
      "type": "Feature",
      "id": "iem-lsr-HUN-39",
      "properties": {
        "report_id": "iem-lsr-HUN-39",
        "report_type": "TSTM WND DMG",
        "event_category": "thunderstorm_wind",
        "valid_utc": "202606011806",
        "standard_time_display": "2026-06-01 12:06 CST",
        "wfo": "HUN",
        "county_or_zone": "Morgan",
        "city": "1 ESE Trinity",
        "state": "AL",
        "magnitude": null,
        "magnitude_units": null,
        "source": "911 Call Center",
        "event_narrative": "Tree down blocking the roadway in the 300 block of Tower Street."
      },
      "geometry": {
        "type": "Point",
        "coordinates": [
          -87.08,
          34.59
        ]
      }
    },
    {
      "type": "Feature",
      "id": "iem-lsr-HUN-40",
      "properties": {
        "report_id": "iem-lsr-HUN-40",
        "report_type": "TSTM WND DMG",
        "event_category": "thunderstorm_wind",
        "valid_utc": "202606011806",
        "standard_time_display": "2026-06-01 12:06 CST",
        "wfo": "HUN",
        "county_or_zone": "Morgan",
        "city": "5 SW Flint City",
        "state": "AL",
        "magnitude": null,
        "magnitude_units": null,
        "source": "911 Call Center",
        "event_narrative": "Tree down on Iron Man Rd_ near intersection of Wynn Wallace Rd."
      },
      "geometry": {
        "type": "Point",
        "coordinates": [
          -87.04,
          34.46
        ]
      }
    },
    {
      "type": "Feature",
      "id": "iem-lsr-HUN-41",
      "properties": {
        "report_id": "iem-lsr-HUN-41",
        "report_type": "TSTM WND DMG",
        "event_category": "thunderstorm_wind",
        "valid_utc": "202606011808",
        "standard_time_display": "2026-06-01 12:08 CST",
        "wfo": "HUN",
        "county_or_zone": "Morgan",
        "city": "2 NNE Hartselle",
        "state": "AL",
        "magnitude": null,
        "magnitude_units": null,
        "source": "911 Call Center",
        "event_narrative": "Large tree across Bethel Rd NE near intersection of Indian Hills Rd NE."
      },
      "geometry": {
        "type": "Point",
        "coordinates": [
          -86.92,
          34.46
        ]
      }
    },
    {
      "type": "Feature",
      "id": "iem-lsr-HUN-42",
      "properties": {
        "report_id": "iem-lsr-HUN-42",
        "report_type": "TSTM WND DMG",
        "event_category": "thunderstorm_wind",
        "valid_utc": "202606011809",
        "standard_time_display": "2026-06-01 12:09 CST",
        "wfo": "HUN",
        "county_or_zone": "Morgan",
        "city": "2 NNW Priceville",
        "state": "AL",
        "magnitude": null,
        "magnitude_units": null,
        "source": "911 Call Center",
        "event_narrative": "POWER LINES DOWN ACROSS THE ROADWAY; 2600 block of N BETHEL RD."
      },
      "geometry": {
        "type": "Point",
        "coordinates": [
          -86.9,
          34.55
        ]
      }
    },
    {
      "type": "Feature",
      "id": "iem-lsr-HUN-43",
      "properties": {
        "report_id": "iem-lsr-HUN-43",
        "report_type": "TSTM WND DMG",
        "event_category": "thunderstorm_wind",
        "valid_utc": "202606011810",
        "standard_time_display": "2026-06-01 12:10 CST",
        "wfo": "HUN",
        "county_or_zone": "Morgan",
        "city": "2 NE Somerville",
        "state": "AL",
        "magnitude": null,
        "magnitude_units": null,
        "source": "911 Call Center",
        "event_narrative": "Tree down blocking roadway on 300 block of Gilchrist Rd_ powerlines down."
      },
      "geometry": {
        "type": "Point",
        "coordinates": [
          -86.78,
          34.49
        ]
      }
    },
    {
      "type": "Feature",
      "id": "iem-lsr-HUN-44",
      "properties": {
        "report_id": "iem-lsr-HUN-44",
        "report_type": "TSTM WND DMG",
        "event_category": "thunderstorm_wind",
        "valid_utc": "202606011811",
        "standard_time_display": "2026-06-01 12:11 CST",
        "wfo": "HUN",
        "county_or_zone": "Lauderdale",
        "city": "5 WSW Anderson",
        "state": "AL",
        "magnitude": null,
        "magnitude_units": null,
        "source": "911 Call Center",
        "event_narrative": "Trees down blocking both lanes of CR 35 and 76."
      },
      "geometry": {
        "type": "Point",
        "coordinates": [
          -87.35,
          34.89
        ]
      }
    },
    {
      "type": "Feature",
      "id": "iem-lsr-HUN-45",
      "properties": {
        "report_id": "iem-lsr-HUN-45",
        "report_type": "TSTM WND DMG",
        "event_category": "thunderstorm_wind",
        "valid_utc": "202606011815",
        "standard_time_display": "2026-06-01 12:15 CST",
        "wfo": "HUN",
        "county_or_zone": "Morgan",
        "city": "4 SE Falkville",
        "state": "AL",
        "magnitude": null,
        "magnitude_units": null,
        "source": "911 Call Center",
        "event_narrative": "Large tree down on Pleasant Country Rd near intersection with S Robinson Rd."
      },
      "geometry": {
        "type": "Point",
        "coordinates": [
          -86.86,
          34.34
        ]
      }
    },
    {
      "type": "Feature",
      "id": "iem-lsr-HUN-46",
      "properties": {
        "report_id": "iem-lsr-HUN-46",
        "report_type": "TSTM WND DMG",
        "event_category": "thunderstorm_wind",
        "valid_utc": "202606011816",
        "standard_time_display": "2026-06-01 12:16 CST",
        "wfo": "HUN",
        "county_or_zone": "Morgan",
        "city": "5 SW Flint City",
        "state": "AL",
        "magnitude": null,
        "magnitude_units": null,
        "source": "911 Call Center",
        "event_narrative": "Tree down blocking right late_ and partial blockage to the left lane."
      },
      "geometry": {
        "type": "Point",
        "coordinates": [
          -87.04,
          34.46
        ]
      }
    },
    {
      "type": "Feature",
      "id": "iem-lsr-HUN-47",
      "properties": {
        "report_id": "iem-lsr-HUN-47",
        "report_type": "TSTM WND DMG",
        "event_category": "thunderstorm_wind",
        "valid_utc": "202606011817",
        "standard_time_display": "2026-06-01 12:17 CST",
        "wfo": "HUN",
        "county_or_zone": "Morgan",
        "city": "1 NW Hartselle",
        "state": "AL",
        "magnitude": null,
        "magnitude_units": null,
        "source": "911 Call Center",
        "event_narrative": "tree down blocking the road way."
      },
      "geometry": {
        "type": "Point",
        "coordinates": [
          -86.95,
          34.45
        ]
      }
    },
    {
      "type": "Feature",
      "id": "iem-lsr-HUN-48",
      "properties": {
        "report_id": "iem-lsr-HUN-48",
        "report_type": "TSTM WND DMG",
        "event_category": "thunderstorm_wind",
        "valid_utc": "202606011817",
        "standard_time_display": "2026-06-01 12:17 CST",
        "wfo": "HUN",
        "county_or_zone": "Morgan",
        "city": "3 SSE Priceville",
        "state": "AL",
        "magnitude": null,
        "magnitude_units": null,
        "source": "911 Call Center",
        "event_narrative": "Tree down causing total blockage to road."
      },
      "geometry": {
        "type": "Point",
        "coordinates": [
          -86.86,
          34.49
        ]
      }
    },
    {
      "type": "Feature",
      "id": "iem-lsr-HUN-49",
      "properties": {
        "report_id": "iem-lsr-HUN-49",
        "report_type": "TSTM WND DMG",
        "event_category": "thunderstorm_wind",
        "valid_utc": "202606011820",
        "standard_time_display": "2026-06-01 12:20 CST",
        "wfo": "HUN",
        "county_or_zone": "Morgan",
        "city": "3 SW Falkville",
        "state": "AL",
        "magnitude": null,
        "magnitude_units": null,
        "source": "911 Call Center",
        "event_narrative": "Tree down blocking Burney Mountain Rd."
      },
      "geometry": {
        "type": "Point",
        "coordinates": [
          -86.95,
          34.34
        ]
      }
    },
    {
      "type": "Feature",
      "id": "iem-lsr-HUN-50",
      "properties": {
        "report_id": "iem-lsr-HUN-50",
        "report_type": "TSTM WND DMG",
        "event_category": "thunderstorm_wind",
        "valid_utc": "202606011820",
        "standard_time_display": "2026-06-01 12:20 CST",
        "wfo": "HUN",
        "county_or_zone": "Marshall",
        "city": "5 SE Grant",
        "state": "AL",
        "magnitude": null,
        "magnitude_units": null,
        "source": "Emergency Mngr",
        "event_narrative": "*** 2 INJ *** 9 RVs reported to be totaled_ large trees down at Little Mountain Mariana; 2 reported injuries."
      },
      "geometry": {
        "type": "Point",
        "coordinates": [
          -86.19,
          34.46
        ]
      }
    },
    {
      "type": "Feature",
      "id": "iem-lsr-HUN-51",
      "properties": {
        "report_id": "iem-lsr-HUN-51",
        "report_type": "TSTM WND DMG",
        "event_category": "thunderstorm_wind",
        "valid_utc": "202606011826",
        "standard_time_display": "2026-06-01 12:26 CST",
        "wfo": "HUN",
        "county_or_zone": "Lawrence",
        "city": "2 NW Trinity",
        "state": "AL",
        "magnitude": null,
        "magnitude_units": null,
        "source": "911 Call Center",
        "event_narrative": "Tree down across railroad tracks near this NUCOR Tubular Products Trinity."
      },
      "geometry": {
        "type": "Point",
        "coordinates": [
          -87.12,
          34.62
        ]
      }
    },
    {
      "type": "Feature",
      "id": "iem-lsr-HUN-52",
      "properties": {
        "report_id": "iem-lsr-HUN-52",
        "report_type": "TSTM WND DMG",
        "event_category": "thunderstorm_wind",
        "valid_utc": "202606011834",
        "standard_time_display": "2026-06-01 12:34 CST",
        "wfo": "HUN",
        "county_or_zone": "Morgan",
        "city": "3 NNW Priceville",
        "state": "AL",
        "magnitude": null,
        "magnitude_units": null,
        "source": "911 Call Center",
        "event_narrative": "Tree down blocking the roadway at New Bethel Road and Cypress Drive."
      },
      "geometry": {
        "type": "Point",
        "coordinates": [
          -86.9,
          34.56
        ]
      }
    },
    {
      "type": "Feature",
      "id": "iem-lsr-HUN-53",
      "properties": {
        "report_id": "iem-lsr-HUN-53",
        "report_type": "TSTM WND DMG",
        "event_category": "thunderstorm_wind",
        "valid_utc": "202606011834",
        "standard_time_display": "2026-06-01 12:34 CST",
        "wfo": "HUN",
        "county_or_zone": "Morgan",
        "city": "6 NNW West Point",
        "state": "AL",
        "magnitude": null,
        "magnitude_units": null,
        "source": "911 Call Center",
        "event_narrative": "Trees down across southbound lanes of Hwy 157 in Battleground."
      },
      "geometry": {
        "type": "Point",
        "coordinates": [
          -87.0,
          34.31
        ]
      }
    },
    {
      "type": "Feature",
      "id": "iem-lsr-HUN-54",
      "properties": {
        "report_id": "iem-lsr-HUN-54",
        "report_type": "TSTM WND DMG",
        "event_category": "thunderstorm_wind",
        "valid_utc": "202606011844",
        "standard_time_display": "2026-06-01 12:44 CST",
        "wfo": "HUN",
        "county_or_zone": "Morgan",
        "city": "2 NW Eva",
        "state": "AL",
        "magnitude": null,
        "magnitude_units": null,
        "source": "911 Call Center",
        "event_narrative": "Tree down blocking part of Frost Rd."
      },
      "geometry": {
        "type": "Point",
        "coordinates": [
          -86.78,
          34.35
        ]
      }
    },
    {
      "type": "Feature",
      "id": "iem-lsr-HUN-55",
      "properties": {
        "report_id": "iem-lsr-HUN-55",
        "report_type": "TSTM WND DMG",
        "event_category": "thunderstorm_wind",
        "valid_utc": "202606011848",
        "standard_time_display": "2026-06-01 12:48 CST",
        "wfo": "HUN",
        "county_or_zone": "Cullman",
        "city": "2 NE Baileyton",
        "state": "AL",
        "magnitude": null,
        "magnitude_units": null,
        "source": "Public",
        "event_narrative": "Tree down on Apple Grove Rd."
      },
      "geometry": {
        "type": "Point",
        "coordinates": [
          -86.58,
          34.28
        ]
      }
    }
  ]
}