{
  "type": "FeatureCollection",
  "metadata": {
    "schema_version": "0.2.4",
    "year": 2026,
    "month": 6,
    "wfo": "SGF",
    "start_utc": "2026-06-01T00:00:00Z",
    "end_utc": "2026-07-01T00:00:00Z",
    "generated_utc": "2026-06-09T12:16:25Z",
    "mode": "storm_data_prep",
    "public_release_status": "public-source-derived",
    "time_note": "Storm Data entry times should be reviewed in local Standard Time (ST), not daylight time. Candidate reports include standard_time_display.",
    "tornado_track_policy": "Tornado tracks must come from DAT. NCEI begin/end coordinates are not used as a tornado track substitute.",
    "source": "https://mesonet.agron.iastate.edu/cgi-bin/request/gis/lsr.py?wfo=SGF&sts=2026-06-01T00%3A00%3A00Z&ets=2026-07-01T00%3A00%3A00Z&fmt=csv"
  },
  "features": [
    {
      "type": "Feature",
      "id": "iem-lsr-SGF-1",
      "properties": {
        "report_id": "iem-lsr-SGF-1",
        "report_type": "HAIL",
        "event_category": "hail",
        "valid_utc": "202606011900",
        "standard_time_display": "2026-06-01 13:00 CST",
        "wfo": "SGF",
        "county_or_zone": "Douglas",
        "city": "5 ENE Vanzant",
        "state": "MO",
        "magnitude": 1.75,
        "magnitude_units": null,
        "source": "Fire Dept/Rescue",
        "event_narrative": "Report of golf ball sized hail at Highway 76 and Highway EE. Time estimated from radar."
      },
      "geometry": {
        "type": "Point",
        "coordinates": [
          -92.22,
          36.99
        ]
      }
    },
    {
      "type": "Feature",
      "id": "iem-lsr-SGF-2",
      "properties": {
        "report_id": "iem-lsr-SGF-2",
        "report_type": "FLOOD",
        "event_category": "flooding",
        "valid_utc": "202606072324",
        "standard_time_display": "2026-06-07 17:24 CST",
        "wfo": "SGF",
        "county_or_zone": "Howell",
        "city": "West Plains",
        "state": "MO",
        "magnitude": null,
        "magnitude_units": null,
        "source": "Emergency Mngr",
        "event_narrative": "EM reports flash flooding in West Plains (business and home) and street flooding."
      },
      "geometry": {
        "type": "Point",
        "coordinates": [
          -91.86,
          36.73
        ]
      }
    },
    {
      "type": "Feature",
      "id": "iem-lsr-SGF-3",
      "properties": {
        "report_id": "iem-lsr-SGF-3",
        "report_type": "TORNADO",
        "event_category": "tornado",
        "valid_utc": "202606072340",
        "standard_time_display": "2026-06-07 17:40 CST",
        "wfo": "SGF",
        "county_or_zone": "Greene",
        "city": "1 ESE Battlefield",
        "state": "MO",
        "magnitude": null,
        "magnitude_units": null,
        "source": "NWS Storm Survey",
        "event_narrative": "Tree debris from a EF0 tornado was visible along Farm Road 131 southeast of Battlefield_ MO. Eyewitness account depicted the tornado as it crossed Plainview Road at James Road. max winds were estimat"
      },
      "geometry": {
        "type": "Point",
        "coordinates": [
          -93.35,
          37.11
        ]
      }
    },
    {
      "type": "Feature",
      "id": "iem-lsr-SGF-4",
      "properties": {
        "report_id": "iem-lsr-SGF-4",
        "report_type": "TSTM WND DMG",
        "event_category": "thunderstorm_wind",
        "valid_utc": "202606080003",
        "standard_time_display": "2026-06-07 18:03 CST",
        "wfo": "SGF",
        "county_or_zone": "Christian",
        "city": "2 NE Spokane",
        "state": "MO",
        "magnitude": null,
        "magnitude_units": null,
        "source": "Public",
        "event_narrative": "Relayed report of thunderstorm damage in the Shire Circle road area_ between Spokane and Highlandville. Potential tornado damage to be surveyed. Time estimated from radar."
      },
      "geometry": {
        "type": "Point",
        "coordinates": [
          -93.27,
          36.89
        ]
      }
    },
    {
      "type": "Feature",
      "id": "iem-lsr-SGF-5",
      "properties": {
        "report_id": "iem-lsr-SGF-5",
        "report_type": "TORNADO",
        "event_category": "tornado",
        "valid_utc": "202606080050",
        "standard_time_display": "2026-06-07 18:50 CST",
        "wfo": "SGF",
        "county_or_zone": "Christian",
        "city": "1 E Sparta",
        "state": "MO",
        "magnitude": null,
        "magnitude_units": null,
        "source": "Emergency Mngr",
        "event_narrative": "Radar confirmed tornado. Trees down on road."
      },
      "geometry": {
        "type": "Point",
        "coordinates": [
          -93.06,
          37.0
        ]
      }
    },
    {
      "type": "Feature",
      "id": "iem-lsr-SGF-6",
      "properties": {
        "report_id": "iem-lsr-SGF-6",
        "report_type": "FLOOD",
        "event_category": "flooding",
        "valid_utc": "202606080132",
        "standard_time_display": "2026-06-07 19:32 CST",
        "wfo": "SGF",
        "county_or_zone": "Christian",
        "city": "3 SSW Rogersville",
        "state": "MO",
        "magnitude": null,
        "magnitude_units": null,
        "source": "Law Enforcement",
        "event_narrative": "Water on Highway U."
      },
      "geometry": {
        "type": "Point",
        "coordinates": [
          -93.07,
          37.07
        ]
      }
    },
    {
      "type": "Feature",
      "id": "iem-lsr-SGF-7",
      "properties": {
        "report_id": "iem-lsr-SGF-7",
        "report_type": "RAIN",
        "event_category": "other",
        "valid_utc": "202606080222",
        "standard_time_display": "2026-06-07 20:22 CST",
        "wfo": "SGF",
        "county_or_zone": "Webster",
        "city": "1 W Fordland",
        "state": "MO",
        "magnitude": 3.6,
        "magnitude_units": null,
        "source": "Emergency Mngr",
        "event_narrative": null
      },
      "geometry": {
        "type": "Point",
        "coordinates": [
          -92.96,
          37.16
        ]
      }
    },
    {
      "type": "Feature",
      "id": "iem-lsr-SGF-8",
      "properties": {
        "report_id": "iem-lsr-SGF-8",
        "report_type": "FLASH FLOOD",
        "event_category": "flooding",
        "valid_utc": "202606080240",
        "standard_time_display": "2026-06-07 20:40 CST",
        "wfo": "SGF",
        "county_or_zone": "Laclede",
        "city": "Conway",
        "state": "MO",
        "magnitude": null,
        "magnitude_units": null,
        "source": "Fire Dept/Rescue",
        "event_narrative": "Water over the road and surrounding a few houses."
      },
      "geometry": {
        "type": "Point",
        "coordinates": [
          -92.83,
          37.5
        ]
      }
    },
    {
      "type": "Feature",
      "id": "iem-lsr-SGF-9",
      "properties": {
        "report_id": "iem-lsr-SGF-9",
        "report_type": "FLASH FLOOD",
        "event_category": "flooding",
        "valid_utc": "202606080255",
        "standard_time_display": "2026-06-07 20:55 CST",
        "wfo": "SGF",
        "county_or_zone": "Miller",
        "city": "3 WNW Aurora Springs",
        "state": "MO",
        "magnitude": null,
        "magnitude_units": null,
        "source": "911 Call Center",
        "event_narrative": "Intersection of highway Y and Z flooded and impassable."
      },
      "geometry": {
        "type": "Point",
        "coordinates": [
          -92.64,
          38.33
        ]
      }
    },
    {
      "type": "Feature",
      "id": "iem-lsr-SGF-10",
      "properties": {
        "report_id": "iem-lsr-SGF-10",
        "report_type": "FLASH FLOOD",
        "event_category": "flooding",
        "valid_utc": "202606080907",
        "standard_time_display": "2026-06-08 03:07 CST",
        "wfo": "SGF",
        "county_or_zone": "Crawford",
        "city": "Pittsburg",
        "state": "KS",
        "magnitude": null,
        "magnitude_units": null,
        "source": "Public",
        "event_narrative": "Pictures received via social media of expansive water of unknown depth in a neighborhood. Water was pictured to enter the basement."
      },
      "geometry": {
        "type": "Point",
        "coordinates": [
          -94.71,
          37.41
        ]
      }
    },
    {
      "type": "Feature",
      "id": "iem-lsr-SGF-11",
      "properties": {
        "report_id": "iem-lsr-SGF-11",
        "report_type": "TSTM WND DMG",
        "event_category": "thunderstorm_wind",
        "valid_utc": "202606081017",
        "standard_time_display": "2026-06-08 04:17 CST",
        "wfo": "SGF",
        "county_or_zone": "Newton",
        "city": "2 E Neosho",
        "state": "MO",
        "magnitude": null,
        "magnitude_units": null,
        "source": "Public",
        "event_narrative": "mPing report of power poles down or broken."
      },
      "geometry": {
        "type": "Point",
        "coordinates": [
          -94.33,
          36.87
        ]
      }
    },
    {
      "type": "Feature",
      "id": "iem-lsr-SGF-12",
      "properties": {
        "report_id": "iem-lsr-SGF-12",
        "report_type": "TSTM WND DMG",
        "event_category": "thunderstorm_wind",
        "valid_utc": "202606081041",
        "standard_time_display": "2026-06-08 04:41 CST",
        "wfo": "SGF",
        "county_or_zone": "Barry",
        "city": "1 S Monett",
        "state": "MO",
        "magnitude": null,
        "magnitude_units": null,
        "source": "911 Call Center",
        "event_narrative": "Time estimated by radar_ delayed report. Tree limb over wire in road."
      },
      "geometry": {
        "type": "Point",
        "coordinates": [
          -93.93,
          36.91
        ]
      }
    },
    {
      "type": "Feature",
      "id": "iem-lsr-SGF-13",
      "properties": {
        "report_id": "iem-lsr-SGF-13",
        "report_type": "FLASH FLOOD",
        "event_category": "flooding",
        "valid_utc": "202606081055",
        "standard_time_display": "2026-06-08 04:55 CST",
        "wfo": "SGF",
        "county_or_zone": "Newton",
        "city": "Neosho",
        "state": "MO",
        "magnitude": null,
        "magnitude_units": null,
        "source": "Emergency Mngr",
        "event_narrative": "Multiple roads reported to be flooding in Neosho."
      },
      "geometry": {
        "type": "Point",
        "coordinates": [
          -94.37,
          36.87
        ]
      }
    },
    {
      "type": "Feature",
      "id": "iem-lsr-SGF-14",
      "properties": {
        "report_id": "iem-lsr-SGF-14",
        "report_type": "FLASH FLOOD",
        "event_category": "flooding",
        "valid_utc": "202606081140",
        "standard_time_display": "2026-06-08 05:40 CST",
        "wfo": "SGF",
        "county_or_zone": "Newton",
        "city": "2 SSW Redings Mill",
        "state": "MO",
        "magnitude": null,
        "magnitude_units": null,
        "source": "Fire Dept/Rescue",
        "event_narrative": "Fire rescue reported multiple vehicle water rescues ongoing."
      },
      "geometry": {
        "type": "Point",
        "coordinates": [
          -94.53,
          37.0
        ]
      }
    },
    {
      "type": "Feature",
      "id": "iem-lsr-SGF-15",
      "properties": {
        "report_id": "iem-lsr-SGF-15",
        "report_type": "FLASH FLOOD",
        "event_category": "flooding",
        "valid_utc": "202606081144",
        "standard_time_display": "2026-06-08 05:44 CST",
        "wfo": "SGF",
        "county_or_zone": "Newton",
        "city": "5 NNW Racine",
        "state": "MO",
        "magnitude": null,
        "magnitude_units": null,
        "source": "Fire Dept/Rescue",
        "event_narrative": "Fire rescue reported multiple homes flood and victims stranded in vehicles."
      },
      "geometry": {
        "type": "Point",
        "coordinates": [
          -94.55,
          36.96
        ]
      }
    },
    {
      "type": "Feature",
      "id": "iem-lsr-SGF-16",
      "properties": {
        "report_id": "iem-lsr-SGF-16",
        "report_type": "TSTM WND DMG",
        "event_category": "thunderstorm_wind",
        "valid_utc": "202606081145",
        "standard_time_display": "2026-06-08 05:45 CST",
        "wfo": "SGF",
        "county_or_zone": "Greene",
        "city": "3 NNE Battlefield",
        "state": "MO",
        "magnitude": null,
        "magnitude_units": null,
        "source": "Trained Spotter",
        "event_narrative": "Report of a downed tree branch that resulted in damage to parked vehicles. Time estimated from radar."
      },
      "geometry": {
        "type": "Point",
        "coordinates": [
          -93.34,
          37.16
        ]
      }
    },
    {
      "type": "Feature",
      "id": "iem-lsr-SGF-17",
      "properties": {
        "report_id": "iem-lsr-SGF-17",
        "report_type": "FLASH FLOOD",
        "event_category": "flooding",
        "valid_utc": "202606081220",
        "standard_time_display": "2026-06-08 06:20 CST",
        "wfo": "SGF",
        "county_or_zone": "Greene",
        "city": "3 S Springfield",
        "state": "MO",
        "magnitude": null,
        "magnitude_units": null,
        "source": "Emergency Mngr",
        "event_narrative": "Multiple reports of intersections flooded."
      },
      "geometry": {
        "type": "Point",
        "coordinates": [
          -93.3,
          37.15
        ]
      }
    },
    {
      "type": "Feature",
      "id": "iem-lsr-SGF-18",
      "properties": {
        "report_id": "iem-lsr-SGF-18",
        "report_type": "FLASH FLOOD",
        "event_category": "flooding",
        "valid_utc": "202606081230",
        "standard_time_display": "2026-06-08 06:30 CST",
        "wfo": "SGF",
        "county_or_zone": "Cherokee",
        "city": "3 N Treece",
        "state": "KS",
        "magnitude": null,
        "magnitude_units": null,
        "source": "Public",
        "event_narrative": "Video from social media shows substantial road inundation_ up to knee level_ and water rescues on 10th street near Tar Creek."
      },
      "geometry": {
        "type": "Point",
        "coordinates": [
          -94.85,
          37.04
        ]
      }
    },
    {
      "type": "Feature",
      "id": "iem-lsr-SGF-19",
      "properties": {
        "report_id": "iem-lsr-SGF-19",
        "report_type": "FLASH FLOOD",
        "event_category": "flooding",
        "valid_utc": "202606081230",
        "standard_time_display": "2026-06-08 06:30 CST",
        "wfo": "SGF",
        "county_or_zone": "Greene",
        "city": "3 SSE Springfield",
        "state": "MO",
        "magnitude": null,
        "magnitude_units": null,
        "source": "911 Call Center",
        "event_narrative": "Corrects previous flash flood report from 3 SSE Springfield. Multiple reports of street flooding with water overflowing out of drainage ditches. Widespread reports across portions of southern Springf"
      },
      "geometry": {
        "type": "Point",
        "coordinates": [
          -93.28,
          37.16
        ]
      }
    },
    {
      "type": "Feature",
      "id": "iem-lsr-SGF-20",
      "properties": {
        "report_id": "iem-lsr-SGF-20",
        "report_type": "FLASH FLOOD",
        "event_category": "flooding",
        "valid_utc": "202606081230",
        "standard_time_display": "2026-06-08 06:30 CST",
        "wfo": "SGF",
        "county_or_zone": "Greene",
        "city": "3 SSE Springfield",
        "state": "MO",
        "magnitude": null,
        "magnitude_units": null,
        "source": "911 Call Center",
        "event_narrative": "Multiple reports of street flooding with water overflowing out of drainage ditches. Widespread reports across portions of southern Springfield metro."
      },
      "geometry": {
        "type": "Point",
        "coordinates": [
          -93.28,
          37.16
        ]
      }
    },
    {
      "type": "Feature",
      "id": "iem-lsr-SGF-21",
      "properties": {
        "report_id": "iem-lsr-SGF-21",
        "report_type": "FLASH FLOOD",
        "event_category": "flooding",
        "valid_utc": "202606081233",
        "standard_time_display": "2026-06-08 06:33 CST",
        "wfo": "SGF",
        "county_or_zone": "Lawrence",
        "city": "3 S Freistatt",
        "state": "MO",
        "magnitude": null,
        "magnitude_units": null,
        "source": "911 Call Center",
        "event_narrative": "Lawrence 1090 is impassable just north of Lawrence 2210_ vehicles needing to turn around to avoid water."
      },
      "geometry": {
        "type": "Point",
        "coordinates": [
          -93.9,
          36.97
        ]
      }
    },
    {
      "type": "Feature",
      "id": "iem-lsr-SGF-22",
      "properties": {
        "report_id": "iem-lsr-SGF-22",
        "report_type": "FLASH FLOOD",
        "event_category": "flooding",
        "valid_utc": "202606081318",
        "standard_time_display": "2026-06-08 07:18 CST",
        "wfo": "SGF",
        "county_or_zone": "Christian",
        "city": "3 SE Ozark",
        "state": "MO",
        "magnitude": null,
        "magnitude_units": null,
        "source": "Emergency Mngr",
        "event_narrative": "Multiple reports in the Ozark and Nixa area with flooded roadways."
      },
      "geometry": {
        "type": "Point",
        "coordinates": [
          -93.17,
          36.99
        ]
      }
    },
    {
      "type": "Feature",
      "id": "iem-lsr-SGF-23",
      "properties": {
        "report_id": "iem-lsr-SGF-23",
        "report_type": "FLASH FLOOD",
        "event_category": "flooding",
        "valid_utc": "202606081320",
        "standard_time_display": "2026-06-08 07:20 CST",
        "wfo": "SGF",
        "county_or_zone": "Greene",
        "city": "1 N Galloway",
        "state": "MO",
        "magnitude": null,
        "magnitude_units": null,
        "source": "911 Call Center",
        "event_narrative": "Report of water rescue at Sequiota Park for the two cyclists. Water is receding slowly. Cyclists were rescued as of 844an."
      },
      "geometry": {
        "type": "Point",
        "coordinates": [
          -93.24,
          37.15
        ]
      }
    },
    {
      "type": "Feature",
      "id": "iem-lsr-SGF-24",
      "properties": {
        "report_id": "iem-lsr-SGF-24",
        "report_type": "FLASH FLOOD",
        "event_category": "flooding",
        "valid_utc": "202606081333",
        "standard_time_display": "2026-06-08 07:33 CST",
        "wfo": "SGF",
        "county_or_zone": "Webster",
        "city": "2 NW Fordland",
        "state": "MO",
        "magnitude": null,
        "magnitude_units": null,
        "source": "Emergency Mngr",
        "event_narrative": "Report of flash flooding and water rushing over the roadway in multiple locations along New Hope Road_ to the west of Fordland."
      },
      "geometry": {
        "type": "Point",
        "coordinates": [
          -92.96,
          37.17
        ]
      }
    },
    {
      "type": "Feature",
      "id": "iem-lsr-SGF-25",
      "properties": {
        "report_id": "iem-lsr-SGF-25",
        "report_type": "RAIN",
        "event_category": "other",
        "valid_utc": "202606081350",
        "standard_time_display": "2026-06-08 07:50 CST",
        "wfo": "SGF",
        "county_or_zone": "Greene",
        "city": "1 SW Galloway",
        "state": "MO",
        "magnitude": 4.36,
        "magnitude_units": null,
        "source": "Public",
        "event_narrative": "Family member of NWS employee reported 4.36 inches in their rain gauge for 24 hr measurement."
      },
      "geometry": {
        "type": "Point",
        "coordinates": [
          -93.25,
          37.13
        ]
      }
    },
    {
      "type": "Feature",
      "id": "iem-lsr-SGF-26",
      "properties": {
        "report_id": "iem-lsr-SGF-26",
        "report_type": "FLOOD",
        "event_category": "flooding",
        "valid_utc": "202606081409",
        "standard_time_display": "2026-06-08 08:09 CST",
        "wfo": "SGF",
        "county_or_zone": "Lawrence",
        "city": "Hoberg",
        "state": "MO",
        "magnitude": null,
        "magnitude_units": null,
        "source": "911 Call Center",
        "event_narrative": "2137 E of Hoberg Bridge_ water over the Spring River bridge."
      },
      "geometry": {
        "type": "Point",
        "coordinates": [
          -93.84,
          37.07
        ]
      }
    },
    {
      "type": "Feature",
      "id": "iem-lsr-SGF-27",
      "properties": {
        "report_id": "iem-lsr-SGF-27",
        "report_type": "FLASH FLOOD",
        "event_category": "flooding",
        "valid_utc": "202606081443",
        "standard_time_display": "2026-06-08 08:43 CST",
        "wfo": "SGF",
        "county_or_zone": "Christian",
        "city": "2 NNW Nixa",
        "state": "MO",
        "magnitude": null,
        "magnitude_units": null,
        "source": "Public",
        "event_narrative": "Report from Nixa Schools of flooded roadway on West Tracker Road near 160 in Nixa."
      },
      "geometry": {
        "type": "Point",
        "coordinates": [
          -93.31,
          37.07
        ]
      }
    },
    {
      "type": "Feature",
      "id": "iem-lsr-SGF-28",
      "properties": {
        "report_id": "iem-lsr-SGF-28",
        "report_type": "FLASH FLOOD",
        "event_category": "flooding",
        "valid_utc": "202606081609",
        "standard_time_display": "2026-06-08 10:09 CST",
        "wfo": "SGF",
        "county_or_zone": "Barry",
        "city": "2 E Wheaton",
        "state": "MO",
        "magnitude": null,
        "magnitude_units": null,
        "source": "Fire Dept/Rescue",
        "event_narrative": "Water rescue at low water crossing near FR 1040 and Highway W."
      },
      "geometry": {
        "type": "Point",
        "coordinates": [
          -94.01,
          36.76
        ]
      }
    },
    {
      "type": "Feature",
      "id": "iem-lsr-SGF-29",
      "properties": {
        "report_id": "iem-lsr-SGF-29",
        "report_type": "FLASH FLOOD",
        "event_category": "flooding",
        "valid_utc": "202606081623",
        "standard_time_display": "2026-06-08 10:23 CST",
        "wfo": "SGF",
        "county_or_zone": "Newton",
        "city": "Shoal Creek Estate",
        "state": "MO",
        "magnitude": null,
        "magnitude_units": null,
        "source": "Emergency Mngr",
        "event_narrative": "Report with pictures of flooding that washed out a roadway and a culvert pipe on River Road east of Gateway. Debris noted on the roadways as well from flood waters."
      },
      "geometry": {
        "type": "Point",
        "coordinates": [
          -94.49,
          37.02
        ]
      }
    },
    {
      "type": "Feature",
      "id": "iem-lsr-SGF-30",
      "properties": {
        "report_id": "iem-lsr-SGF-30",
        "report_type": "FLOOD",
        "event_category": "flooding",
        "valid_utc": "202606082006",
        "standard_time_display": "2026-06-08 14:06 CST",
        "wfo": "SGF",
        "county_or_zone": "Lawrence",
        "city": "2 ENE Stotts City",
        "state": "MO",
        "magnitude": null,
        "magnitude_units": null,
        "source": "911 Call Center",
        "event_narrative": "On Highway V_ from 1080 towards Mt. Vernon flooding in multiple locations."
      },
      "geometry": {
        "type": "Point",
        "coordinates": [
          -93.91,
          37.12
        ]
      }
    }
  ]
}