{
  "type": "FeatureCollection",
  "metadata": {
    "schema_version": "0.2.4",
    "year": 2026,
    "month": 9,
    "wfo": "FGZ",
    "start_utc": "2026-09-01T00:00:00Z",
    "end_utc": "2026-10-01T00:00:00Z",
    "generated_utc": "2026-09-16T14:11:14Z",
    "mode": "storm_data_prep",
    "public_release_status": "public-source-derived",
    "time_note": "Storm Data entry times should be reviewed in local Standard Time (ST), not daylight time. Candidate reports include standard_time_display.",
    "tornado_track_policy": "Tornado tracks must come from DAT. NCEI begin/end coordinates are not used as a tornado track substitute.",
    "source": "https://mesonet.agron.iastate.edu/cgi-bin/request/gis/lsr.py?wfo=FGZ&sts=2026-09-01T00%3A00%3A00Z&ets=2026-10-01T00%3A00%3A00Z&fmt=csv"
  },
  "features": [
    {
      "type": "Feature",
      "id": "iem-lsr-FGZ-1",
      "properties": {
        "report_id": "iem-lsr-FGZ-1",
        "report_type": "FLASH FLOOD",
        "event_category": "flooding",
        "valid_utc": "202609011000",
        "standard_time_display": "2026-09-01 03:00 MST",
        "wfo": "FGZ",
        "county_or_zone": "Coconino",
        "city": "1 NW Lees Ferry",
        "state": "AZ",
        "magnitude": null,
        "magnitude_units": null,
        "source": "Other Federal",
        "event_narrative": "Lees Ferry Paria River gauge (PLFA3) reported a rise of 2.71 ft/1701 cfs in 30 minutes from 0230-0300 MST. Occurred in response to upstream rainfall in Utah."
      },
      "geometry": {
        "type": "Point",
        "coordinates": [
          -111.59,
          36.87
        ]
      }
    },
    {
      "type": "Feature",
      "id": "iem-lsr-FGZ-2",
      "properties": {
        "report_id": "iem-lsr-FGZ-2",
        "report_type": "FLASH FLOOD",
        "event_category": "flooding",
        "valid_utc": "202609112035",
        "standard_time_display": "2026-09-11 13:35 MST",
        "wfo": "FGZ",
        "county_or_zone": "Navajo",
        "city": "4 NE Linden",
        "state": "AZ",
        "magnitude": null,
        "magnitude_units": null,
        "source": "Law Enforcement",
        "event_narrative": "Lone Pine Dam Rd at Linden Draw is closed due to flooding."
      },
      "geometry": {
        "type": "Point",
        "coordinates": [
          -110.11,
          34.32
        ]
      }
    },
    {
      "type": "Feature",
      "id": "iem-lsr-FGZ-3",
      "properties": {
        "report_id": "iem-lsr-FGZ-3",
        "report_type": "FLASH FLOOD",
        "event_category": "flooding",
        "valid_utc": "202609120200",
        "standard_time_display": "2026-09-11 19:00 MST",
        "wfo": "FGZ",
        "county_or_zone": "Gila",
        "city": "8 W Strawberry",
        "state": "AZ",
        "magnitude": null,
        "magnitude_units": null,
        "source": "Other Federal",
        "event_narrative": "Gauge FCSA3 (Fossil Creek) rose 1.47 feet and increased 952 CFS."
      },
      "geometry": {
        "type": "Point",
        "coordinates": [
          -111.63,
          34.39
        ]
      }
    },
    {
      "type": "Feature",
      "id": "iem-lsr-FGZ-4",
      "properties": {
        "report_id": "iem-lsr-FGZ-4",
        "report_type": "FLASH FLOOD",
        "event_category": "flooding",
        "valid_utc": "202609130000",
        "standard_time_display": "2026-09-12 17:00 MST",
        "wfo": "FGZ",
        "county_or_zone": "Yavapai",
        "city": "3 NE Poland Junction",
        "state": "AZ",
        "magnitude": null,
        "magnitude_units": null,
        "source": "Other Federal",
        "event_narrative": "Gauge AFHA3 (Agua Fria near Humboldt) rose 2.2 feet."
      },
      "geometry": {
        "type": "Point",
        "coordinates": [
          -112.24,
          34.49
        ]
      }
    },
    {
      "type": "Feature",
      "id": "iem-lsr-FGZ-5",
      "properties": {
        "report_id": "iem-lsr-FGZ-5",
        "report_type": "FLASH FLOOD",
        "event_category": "flooding",
        "valid_utc": "202609130000",
        "standard_time_display": "2026-09-12 17:00 MST",
        "wfo": "FGZ",
        "county_or_zone": "Yavapai",
        "city": "5 ENE Dewey-Humboldt",
        "state": "AZ",
        "magnitude": null,
        "magnitude_units": null,
        "source": "Broadcast Media",
        "event_narrative": "Flash Flood on Yarber Wash in Dewey."
      },
      "geometry": {
        "type": "Point",
        "coordinates": [
          -112.16,
          34.55
        ]
      }
    },
    {
      "type": "Feature",
      "id": "iem-lsr-FGZ-6",
      "properties": {
        "report_id": "iem-lsr-FGZ-6",
        "report_type": "FLASH FLOOD",
        "event_category": "flooding",
        "valid_utc": "202609130300",
        "standard_time_display": "2026-09-12 20:00 MST",
        "wfo": "FGZ",
        "county_or_zone": "Gila",
        "city": "Carrizo",
        "state": "AZ",
        "magnitude": null,
        "magnitude_units": null,
        "source": "Other Federal",
        "event_narrative": "Carrizo Creek stream gauge measured a 2.55 ft/982 cfs rise in 30 minutes."
      },
      "geometry": {
        "type": "Point",
        "coordinates": [
          -110.28,
          33.99
        ]
      }
    },
    {
      "type": "Feature",
      "id": "iem-lsr-FGZ-7",
      "properties": {
        "report_id": "iem-lsr-FGZ-7",
        "report_type": "FLASH FLOOD",
        "event_category": "flooding",
        "valid_utc": "202609130330",
        "standard_time_display": "2026-09-12 20:30 MST",
        "wfo": "FGZ",
        "county_or_zone": "Gila",
        "city": "14 SSW Cibecue",
        "state": "AZ",
        "magnitude": null,
        "magnitude_units": null,
        "source": "Public",
        "event_narrative": "Cibecue Creek gauge (CBQA3) measured a rise of 5.04 ft/3683 cfs in 45 minutes."
      },
      "geometry": {
        "type": "Point",
        "coordinates": [
          -110.56,
          33.84
        ]
      }
    },
    {
      "type": "Feature",
      "id": "iem-lsr-FGZ-8",
      "properties": {
        "report_id": "iem-lsr-FGZ-8",
        "report_type": "FLASH FLOOD",
        "event_category": "flooding",
        "valid_utc": "202609131845",
        "standard_time_display": "2026-09-13 11:45 MST",
        "wfo": "FGZ",
        "county_or_zone": "Yavapai",
        "city": "1 ENE Chino Valley",
        "state": "AZ",
        "magnitude": null,
        "magnitude_units": null,
        "source": "Local Official",
        "event_narrative": "Santa Cruz Wash flowing over Perkinsville Road."
      },
      "geometry": {
        "type": "Point",
        "coordinates": [
          -112.43,
          34.77
        ]
      }
    },
    {
      "type": "Feature",
      "id": "iem-lsr-FGZ-9",
      "properties": {
        "report_id": "iem-lsr-FGZ-9",
        "report_type": "HAIL",
        "event_category": "hail",
        "valid_utc": "202609132000",
        "standard_time_display": "2026-09-13 13:00 MST",
        "wfo": "FGZ",
        "county_or_zone": "Yavapai",
        "city": "Mayer",
        "state": "AZ",
        "magnitude": 1.0,
        "magnitude_units": null,
        "source": "Public",
        "event_narrative": "Social media report."
      },
      "geometry": {
        "type": "Point",
        "coordinates": [
          -112.23,
          34.4
        ]
      }
    },
    {
      "type": "Feature",
      "id": "iem-lsr-FGZ-10",
      "properties": {
        "report_id": "iem-lsr-FGZ-10",
        "report_type": "FLASH FLOOD",
        "event_category": "flooding",
        "valid_utc": "202609132045",
        "standard_time_display": "2026-09-13 13:45 MST",
        "wfo": "FGZ",
        "county_or_zone": "Yavapai",
        "city": "1 NW Mayer",
        "state": "AZ",
        "magnitude": null,
        "magnitude_units": null,
        "source": "Law Enforcement",
        "event_narrative": "Central Avenue flooded at Big Bug Creek_ road damaged and closed."
      },
      "geometry": {
        "type": "Point",
        "coordinates": [
          -112.24,
          34.41
        ]
      }
    },
    {
      "type": "Feature",
      "id": "iem-lsr-FGZ-11",
      "properties": {
        "report_id": "iem-lsr-FGZ-11",
        "report_type": "FLASH FLOOD",
        "event_category": "flooding",
        "valid_utc": "202609132110",
        "standard_time_display": "2026-09-13 14:10 MST",
        "wfo": "FGZ",
        "county_or_zone": "Yavapai",
        "city": "Mayer",
        "state": "AZ",
        "magnitude": null,
        "magnitude_units": null,
        "source": "Other Federal",
        "event_narrative": "Stream gauge on Big Bug Creek rose 3 feet. Social media video of flash flood at this location."
      },
      "geometry": {
        "type": "Point",
        "coordinates": [
          -112.23,
          34.4
        ]
      }
    },
    {
      "type": "Feature",
      "id": "iem-lsr-FGZ-12",
      "properties": {
        "report_id": "iem-lsr-FGZ-12",
        "report_type": "FLASH FLOOD",
        "event_category": "flooding",
        "valid_utc": "202609132145",
        "standard_time_display": "2026-09-13 14:45 MST",
        "wfo": "FGZ",
        "county_or_zone": "Coconino",
        "city": "Lower Antelope Canyon",
        "state": "AZ",
        "magnitude": null,
        "magnitude_units": null,
        "source": "Park/Forest Srvc",
        "event_narrative": "Flooding in Owl Canyon into Antelope Canyon. Reported by Navajo Tribal Parks."
      },
      "geometry": {
        "type": "Point",
        "coordinates": [
          -111.42,
          36.91
        ]
      }
    },
    {
      "type": "Feature",
      "id": "iem-lsr-FGZ-13",
      "properties": {
        "report_id": "iem-lsr-FGZ-13",
        "report_type": "FLASH FLOOD",
        "event_category": "flooding",
        "valid_utc": "202609132210",
        "standard_time_display": "2026-09-13 15:10 MST",
        "wfo": "FGZ",
        "county_or_zone": "Yavapai",
        "city": "1 SSE Cordes Junction",
        "state": "AZ",
        "magnitude": null,
        "magnitude_units": null,
        "source": "Public",
        "event_narrative": "Social media video of flash flood on Big Bug Creek."
      },
      "geometry": {
        "type": "Point",
        "coordinates": [
          -112.12,
          34.32
        ]
      }
    },
    {
      "type": "Feature",
      "id": "iem-lsr-FGZ-14",
      "properties": {
        "report_id": "iem-lsr-FGZ-14",
        "report_type": "FLASH FLOOD",
        "event_category": "flooding",
        "valid_utc": "202609140845",
        "standard_time_display": "2026-09-14 01:45 MST",
        "wfo": "FGZ",
        "county_or_zone": "Coconino",
        "city": "7 NW Supai",
        "state": "AZ",
        "magnitude": null,
        "magnitude_units": null,
        "source": "Other Federal",
        "event_narrative": "Stream gauge on Havasu Creek at the Colorado River recorded a 3 ft rise to 790 cfs."
      },
      "geometry": {
        "type": "Point",
        "coordinates": [
          -112.76,
          36.31
        ]
      }
    },
    {
      "type": "Feature",
      "id": "iem-lsr-FGZ-15",
      "properties": {
        "report_id": "iem-lsr-FGZ-15",
        "report_type": "FLASH FLOOD",
        "event_category": "flooding",
        "valid_utc": "202609152338",
        "standard_time_display": "2026-09-15 16:38 MST",
        "wfo": "FGZ",
        "county_or_zone": "Navajo",
        "city": "1 E Fort Apache",
        "state": "AZ",
        "magnitude": null,
        "magnitude_units": null,
        "source": "Public",
        "event_narrative": "Photos of flooding across Ft. Apache Road at Stago Rd. intersection via social media."
      },
      "geometry": {
        "type": "Point",
        "coordinates": [
          -109.96,
          33.79
        ]
      }
    }
  ]
}