{
  "type": "FeatureCollection",
  "metadata": {
    "schema_version": "0.2.4",
    "year": 2026,
    "month": 7,
    "wfo": "CAR",
    "start_utc": "2026-07-01T00:00:00Z",
    "end_utc": "2026-08-01T00:00:00Z",
    "generated_utc": "2026-07-16T11:10:07Z",
    "mode": "storm_data_prep",
    "public_release_status": "public-source-derived",
    "time_note": "Storm Data entry times should be reviewed in local Standard Time (ST), not daylight time. Candidate reports include standard_time_display.",
    "tornado_track_policy": "Tornado tracks must come from DAT. NCEI begin/end coordinates are not used as a tornado track substitute.",
    "source": "https://mesonet.agron.iastate.edu/cgi-bin/request/gis/lsr.py?wfo=CAR&sts=2026-07-01T00%3A00%3A00Z&ets=2026-08-01T00%3A00%3A00Z&fmt=csv"
  },
  "features": [
    {
      "type": "Feature",
      "id": "iem-lsr-CAR-1",
      "properties": {
        "report_id": "iem-lsr-CAR-1",
        "report_type": "TSTM WND DMG",
        "event_category": "thunderstorm_wind",
        "valid_utc": "202607150605",
        "standard_time_display": "2026-07-15 01:05 EST",
        "wfo": "CAR",
        "county_or_zone": "Aroostook",
        "city": "1 NNE Caribou",
        "state": "ME",
        "magnitude": null,
        "magnitude_units": null,
        "source": "Public",
        "event_narrative": "Photo via social media shows one 10-14 inch poplar diameter tree down blocking Garden Circle."
      },
      "geometry": {
        "type": "Point",
        "coordinates": [
          -68.01,
          46.87
        ]
      }
    },
    {
      "type": "Feature",
      "id": "iem-lsr-CAR-2",
      "properties": {
        "report_id": "iem-lsr-CAR-2",
        "report_type": "TSTM WND DMG",
        "event_category": "thunderstorm_wind",
        "valid_utc": "202607150605",
        "standard_time_display": "2026-07-15 01:05 EST",
        "wfo": "CAR",
        "county_or_zone": "Aroostook",
        "city": "Caribou",
        "state": "ME",
        "magnitude": null,
        "magnitude_units": null,
        "source": "Public",
        "event_narrative": "Several trees_ including big branches broken off of healthy trees_ throughout town."
      },
      "geometry": {
        "type": "Point",
        "coordinates": [
          -68.01,
          46.86
        ]
      }
    }
  ]
}