{
  "type": "FeatureCollection",
  "metadata": {
    "schema_version": "0.2.4",
    "year": 2026,
    "month": 3,
    "wfo": "DTX",
    "start_utc": "2026-03-01T00:00:00Z",
    "end_utc": "2026-04-01T00:00:00Z",
    "generated_utc": "2026-05-31T11:09:13Z",
    "mode": "storm_data_prep",
    "public_release_status": "public-source-derived",
    "time_note": "Storm Data entry times should be reviewed in local Standard Time (ST), not daylight time. Candidate reports include standard_time_display.",
    "tornado_track_policy": "Tornado tracks must come from DAT. NCEI begin/end coordinates are not used as a tornado track substitute.",
    "source": "https://mesonet.agron.iastate.edu/cgi-bin/request/gis/lsr.py?wfo=DTX&sts=2026-03-01T00%3A00%3A00Z&ets=2026-04-01T00%3A00%3A00Z&fmt=csv"
  },
  "features": [
    {
      "type": "Feature",
      "id": "iem-lsr-DTX-1",
      "properties": {
        "report_id": "iem-lsr-DTX-1",
        "report_type": "SNOW",
        "event_category": "winter",
        "valid_utc": "202603010418",
        "standard_time_display": "2026-02-28 23:18 EST",
        "wfo": "DTX",
        "county_or_zone": "Macomb",
        "city": "5 NE Sterling Heights",
        "state": "MI",
        "magnitude": 1.0,
        "magnitude_units": null,
        "source": "Public",
        "event_narrative": "6 hour snowfall total."
      },
      "geometry": {
        "type": "Point",
        "coordinates": [
          -82.96,
          42.63
        ]
      }
    },
    {
      "type": "Feature",
      "id": "iem-lsr-DTX-2",
      "properties": {
        "report_id": "iem-lsr-DTX-2",
        "report_type": "SNOW",
        "event_category": "winter",
        "valid_utc": "202603010423",
        "standard_time_display": "2026-02-28 23:23 EST",
        "wfo": "DTX",
        "county_or_zone": "Livingston",
        "city": "1 NE Howell",
        "state": "MI",
        "magnitude": 2.7,
        "magnitude_units": null,
        "source": "NWS Employee",
        "event_narrative": "6 hour snowfall total."
      },
      "geometry": {
        "type": "Point",
        "coordinates": [
          -83.92,
          42.62
        ]
      }
    },
    {
      "type": "Feature",
      "id": "iem-lsr-DTX-3",
      "properties": {
        "report_id": "iem-lsr-DTX-3",
        "report_type": "SNOW",
        "event_category": "winter",
        "valid_utc": "202603010500",
        "standard_time_display": "2026-03-01 00:00 EST",
        "wfo": "DTX",
        "county_or_zone": "Genesee",
        "city": "Flint Bishop Airport",
        "state": "MI",
        "magnitude": 2.0,
        "magnitude_units": null,
        "source": "Official NWS Obs",
        "event_narrative": "6 hour snowfall total."
      },
      "geometry": {
        "type": "Point",
        "coordinates": [
          -83.75,
          42.97
        ]
      }
    },
    {
      "type": "Feature",
      "id": "iem-lsr-DTX-4",
      "properties": {
        "report_id": "iem-lsr-DTX-4",
        "report_type": "SNOW",
        "event_category": "winter",
        "valid_utc": "202603010500",
        "standard_time_display": "2026-03-01 00:00 EST",
        "wfo": "DTX",
        "county_or_zone": "Oakland",
        "city": "4 E White Lake",
        "state": "MI",
        "magnitude": 3.3,
        "magnitude_units": null,
        "source": "Official NWS Obs",
        "event_narrative": "6 hour snowfall total."
      },
      "geometry": {
        "type": "Point",
        "coordinates": [
          -83.43,
          42.65
        ]
      }
    },
    {
      "type": "Feature",
      "id": "iem-lsr-DTX-5",
      "properties": {
        "report_id": "iem-lsr-DTX-5",
        "report_type": "SNOW",
        "event_category": "winter",
        "valid_utc": "202603010700",
        "standard_time_display": "2026-03-01 02:00 EST",
        "wfo": "DTX",
        "county_or_zone": "Lapeer",
        "city": "5 W Lapeer",
        "state": "MI",
        "magnitude": 2.5,
        "magnitude_units": null,
        "source": "Trained Spotter",
        "event_narrative": "6 hour snowfall total."
      },
      "geometry": {
        "type": "Point",
        "coordinates": [
          -83.42,
          43.05
        ]
      }
    },
    {
      "type": "Feature",
      "id": "iem-lsr-DTX-6",
      "properties": {
        "report_id": "iem-lsr-DTX-6",
        "report_type": "SNOW",
        "event_category": "winter",
        "valid_utc": "202603011100",
        "standard_time_display": "2026-03-01 06:00 EST",
        "wfo": "DTX",
        "county_or_zone": "Oakland",
        "city": "1 N Berkley",
        "state": "MI",
        "magnitude": 1.2,
        "magnitude_units": null,
        "source": "CoCoRaHS",
        "event_narrative": "24 hour total snowfall."
      },
      "geometry": {
        "type": "Point",
        "coordinates": [
          -83.18,
          42.5
        ]
      }
    },
    {
      "type": "Feature",
      "id": "iem-lsr-DTX-7",
      "properties": {
        "report_id": "iem-lsr-DTX-7",
        "report_type": "SNOW",
        "event_category": "winter",
        "valid_utc": "202603011100",
        "standard_time_display": "2026-03-01 06:00 EST",
        "wfo": "DTX",
        "county_or_zone": "Oakland",
        "city": "1 ENE Lake Orion",
        "state": "MI",
        "magnitude": 3.1,
        "magnitude_units": null,
        "source": "CoCoRaHS",
        "event_narrative": "24 hour total snowfall."
      },
      "geometry": {
        "type": "Point",
        "coordinates": [
          -83.24,
          42.78
        ]
      }
    },
    {
      "type": "Feature",
      "id": "iem-lsr-DTX-8",
      "properties": {
        "report_id": "iem-lsr-DTX-8",
        "report_type": "SNOW",
        "event_category": "winter",
        "valid_utc": "202603011145",
        "standard_time_display": "2026-03-01 06:45 EST",
        "wfo": "DTX",
        "county_or_zone": "Oakland",
        "city": "7 NE Holly",
        "state": "MI",
        "magnitude": 2.7,
        "magnitude_units": null,
        "source": "CoCoRaHS",
        "event_narrative": "24 hour total snowfall."
      },
      "geometry": {
        "type": "Point",
        "coordinates": [
          -83.53,
          42.87
        ]
      }
    },
    {
      "type": "Feature",
      "id": "iem-lsr-DTX-9",
      "properties": {
        "report_id": "iem-lsr-DTX-9",
        "report_type": "SNOW",
        "event_category": "winter",
        "valid_utc": "202603011200",
        "standard_time_display": "2026-03-01 07:00 EST",
        "wfo": "DTX",
        "county_or_zone": "Sanilac",
        "city": "Lexington",
        "state": "MI",
        "magnitude": 1.0,
        "magnitude_units": null,
        "source": "Co-Op Observer",
        "event_narrative": "24 hour total snowfall."
      },
      "geometry": {
        "type": "Point",
        "coordinates": [
          -82.53,
          43.27
        ]
      }
    },
    {
      "type": "Feature",
      "id": "iem-lsr-DTX-10",
      "properties": {
        "report_id": "iem-lsr-DTX-10",
        "report_type": "SNOW",
        "event_category": "winter",
        "valid_utc": "202603011200",
        "standard_time_display": "2026-03-01 07:00 EST",
        "wfo": "DTX",
        "county_or_zone": "Genesee",
        "city": "Linden",
        "state": "MI",
        "magnitude": 1.0,
        "magnitude_units": null,
        "source": "Co-Op Observer",
        "event_narrative": "24 hour total snowfall."
      },
      "geometry": {
        "type": "Point",
        "coordinates": [
          -83.78,
          42.82
        ]
      }
    },
    {
      "type": "Feature",
      "id": "iem-lsr-DTX-11",
      "properties": {
        "report_id": "iem-lsr-DTX-11",
        "report_type": "SNOW",
        "event_category": "winter",
        "valid_utc": "202603011200",
        "standard_time_display": "2026-03-01 07:00 EST",
        "wfo": "DTX",
        "county_or_zone": "Oakland",
        "city": "3 S Farmington Hills",
        "state": "MI",
        "magnitude": 1.1,
        "magnitude_units": null,
        "source": "CoCoRaHS",
        "event_narrative": "24 hour total snowfall."
      },
      "geometry": {
        "type": "Point",
        "coordinates": [
          -83.38,
          42.45
        ]
      }
    },
    {
      "type": "Feature",
      "id": "iem-lsr-DTX-12",
      "properties": {
        "report_id": "iem-lsr-DTX-12",
        "report_type": "SNOW",
        "event_category": "winter",
        "valid_utc": "202603011200",
        "standard_time_display": "2026-03-01 07:00 EST",
        "wfo": "DTX",
        "county_or_zone": "Wayne",
        "city": "2 NNW Livonia",
        "state": "MI",
        "magnitude": 1.3,
        "magnitude_units": null,
        "source": "CoCoRaHS",
        "event_narrative": "24 hour total snowfall."
      },
      "geometry": {
        "type": "Point",
        "coordinates": [
          -83.37,
          42.4
        ]
      }
    },
    {
      "type": "Feature",
      "id": "iem-lsr-DTX-13",
      "properties": {
        "report_id": "iem-lsr-DTX-13",
        "report_type": "SNOW",
        "event_category": "winter",
        "valid_utc": "202603011200",
        "standard_time_display": "2026-03-01 07:00 EST",
        "wfo": "DTX",
        "county_or_zone": "Oakland",
        "city": "Farmington",
        "state": "MI",
        "magnitude": 1.4,
        "magnitude_units": null,
        "source": "Co-Op Observer",
        "event_narrative": "24 hour total snowfall."
      },
      "geometry": {
        "type": "Point",
        "coordinates": [
          -83.38,
          42.46
        ]
      }
    },
    {
      "type": "Feature",
      "id": "iem-lsr-DTX-14",
      "properties": {
        "report_id": "iem-lsr-DTX-14",
        "report_type": "SNOW",
        "event_category": "winter",
        "valid_utc": "202603011200",
        "standard_time_display": "2026-03-01 07:00 EST",
        "wfo": "DTX",
        "county_or_zone": "Saginaw",
        "city": "Chesaning",
        "state": "MI",
        "magnitude": 1.5,
        "magnitude_units": null,
        "source": "Co-Op Observer",
        "event_narrative": "24 hour total snowfall."
      },
      "geometry": {
        "type": "Point",
        "coordinates": [
          -84.12,
          43.18
        ]
      }
    },
    {
      "type": "Feature",
      "id": "iem-lsr-DTX-15",
      "properties": {
        "report_id": "iem-lsr-DTX-15",
        "report_type": "SNOW",
        "event_category": "winter",
        "valid_utc": "202603011200",
        "standard_time_display": "2026-03-01 07:00 EST",
        "wfo": "DTX",
        "county_or_zone": "Washtenaw",
        "city": "5 W Plymouth",
        "state": "MI",
        "magnitude": 1.8,
        "magnitude_units": null,
        "source": "CoCoRaHS",
        "event_narrative": "24 hour total snowfall."
      },
      "geometry": {
        "type": "Point",
        "coordinates": [
          -83.57,
          42.37
        ]
      }
    },
    {
      "type": "Feature",
      "id": "iem-lsr-DTX-16",
      "properties": {
        "report_id": "iem-lsr-DTX-16",
        "report_type": "SNOW",
        "event_category": "winter",
        "valid_utc": "202603011200",
        "standard_time_display": "2026-03-01 07:00 EST",
        "wfo": "DTX",
        "county_or_zone": "Genesee",
        "city": "Goodrich",
        "state": "MI",
        "magnitude": 1.8,
        "magnitude_units": null,
        "source": "Co-Op Observer",
        "event_narrative": "24 hour total snowfall."
      },
      "geometry": {
        "type": "Point",
        "coordinates": [
          -83.51,
          42.92
        ]
      }
    },
    {
      "type": "Feature",
      "id": "iem-lsr-DTX-17",
      "properties": {
        "report_id": "iem-lsr-DTX-17",
        "report_type": "SNOW",
        "event_category": "winter",
        "valid_utc": "202603011200",
        "standard_time_display": "2026-03-01 07:00 EST",
        "wfo": "DTX",
        "county_or_zone": "Livingston",
        "city": "Fowlerville",
        "state": "MI",
        "magnitude": 1.9,
        "magnitude_units": null,
        "source": "CoCoRaHS",
        "event_narrative": "24 hour total snowfall."
      },
      "geometry": {
        "type": "Point",
        "coordinates": [
          -84.07,
          42.66
        ]
      }
    },
    {
      "type": "Feature",
      "id": "iem-lsr-DTX-18",
      "properties": {
        "report_id": "iem-lsr-DTX-18",
        "report_type": "SNOW",
        "event_category": "winter",
        "valid_utc": "202603011200",
        "standard_time_display": "2026-03-01 07:00 EST",
        "wfo": "DTX",
        "county_or_zone": "Genesee",
        "city": "4 N Burton",
        "state": "MI",
        "magnitude": 2.0,
        "magnitude_units": null,
        "source": "Co-Op Observer",
        "event_narrative": "24 hour total snowfall."
      },
      "geometry": {
        "type": "Point",
        "coordinates": [
          -83.62,
          43.05
        ]
      }
    },
    {
      "type": "Feature",
      "id": "iem-lsr-DTX-19",
      "properties": {
        "report_id": "iem-lsr-DTX-19",
        "report_type": "SNOW",
        "event_category": "winter",
        "valid_utc": "202603011200",
        "standard_time_display": "2026-03-01 07:00 EST",
        "wfo": "DTX",
        "county_or_zone": "Lapeer",
        "city": "Lapeer",
        "state": "MI",
        "magnitude": 2.0,
        "magnitude_units": null,
        "source": "Co-Op Observer",
        "event_narrative": "24 hour total snowfall."
      },
      "geometry": {
        "type": "Point",
        "coordinates": [
          -83.32,
          43.05
        ]
      }
    },
    {
      "type": "Feature",
      "id": "iem-lsr-DTX-20",
      "properties": {
        "report_id": "iem-lsr-DTX-20",
        "report_type": "SNOW",
        "event_category": "winter",
        "valid_utc": "202603011200",
        "standard_time_display": "2026-03-01 07:00 EST",
        "wfo": "DTX",
        "county_or_zone": "Shiawassee",
        "city": "Owosso",
        "state": "MI",
        "magnitude": 2.0,
        "magnitude_units": null,
        "source": "Co-Op Observer",
        "event_narrative": "24 hour total snowfall."
      },
      "geometry": {
        "type": "Point",
        "coordinates": [
          -84.18,
          43.0
        ]
      }
    },
    {
      "type": "Feature",
      "id": "iem-lsr-DTX-21",
      "properties": {
        "report_id": "iem-lsr-DTX-21",
        "report_type": "SNOW",
        "event_category": "winter",
        "valid_utc": "202603011200",
        "standard_time_display": "2026-03-01 07:00 EST",
        "wfo": "DTX",
        "county_or_zone": "Genesee",
        "city": "2 SW Davison",
        "state": "MI",
        "magnitude": 2.2,
        "magnitude_units": null,
        "source": "CoCoRaHS",
        "event_narrative": "24 hour total snowfall."
      },
      "geometry": {
        "type": "Point",
        "coordinates": [
          -83.54,
          43.01
        ]
      }
    },
    {
      "type": "Feature",
      "id": "iem-lsr-DTX-22",
      "properties": {
        "report_id": "iem-lsr-DTX-22",
        "report_type": "SNOW",
        "event_category": "winter",
        "valid_utc": "202603011200",
        "standard_time_display": "2026-03-01 07:00 EST",
        "wfo": "DTX",
        "county_or_zone": "Shiawassee",
        "city": "1 NW Owosso",
        "state": "MI",
        "magnitude": 2.6,
        "magnitude_units": null,
        "source": "CoCoRaHS",
        "event_narrative": "24 hour total snowfall."
      },
      "geometry": {
        "type": "Point",
        "coordinates": [
          -84.19,
          43.01
        ]
      }
    },
    {
      "type": "Feature",
      "id": "iem-lsr-DTX-23",
      "properties": {
        "report_id": "iem-lsr-DTX-23",
        "report_type": "SNOW",
        "event_category": "winter",
        "valid_utc": "202603011200",
        "standard_time_display": "2026-03-01 07:00 EST",
        "wfo": "DTX",
        "county_or_zone": "Livingston",
        "city": "1 NW Whitmore Lake",
        "state": "MI",
        "magnitude": 3.0,
        "magnitude_units": null,
        "source": "Co-Op Observer",
        "event_narrative": "24 hour total snowfall."
      },
      "geometry": {
        "type": "Point",
        "coordinates": [
          -83.76,
          42.44
        ]
      }
    },
    {
      "type": "Feature",
      "id": "iem-lsr-DTX-24",
      "properties": {
        "report_id": "iem-lsr-DTX-24",
        "report_type": "SNOW",
        "event_category": "winter",
        "valid_utc": "202603011200",
        "standard_time_display": "2026-03-01 07:00 EST",
        "wfo": "DTX",
        "county_or_zone": "Livingston",
        "city": "4 WSW Howell",
        "state": "MI",
        "magnitude": 3.0,
        "magnitude_units": null,
        "source": "CoCoRaHS",
        "event_narrative": "24 hour total snowfall."
      },
      "geometry": {
        "type": "Point",
        "coordinates": [
          -83.94,
          42.61
        ]
      }
    },
    {
      "type": "Feature",
      "id": "iem-lsr-DTX-25",
      "properties": {
        "report_id": "iem-lsr-DTX-25",
        "report_type": "SNOW",
        "event_category": "winter",
        "valid_utc": "202603011200",
        "standard_time_display": "2026-03-01 07:00 EST",
        "wfo": "DTX",
        "county_or_zone": "Oakland",
        "city": "2 ESE Commerce",
        "state": "MI",
        "magnitude": 3.1,
        "magnitude_units": null,
        "source": "CoCoRaHS",
        "event_narrative": "24 hour total snowfall."
      },
      "geometry": {
        "type": "Point",
        "coordinates": [
          -83.49,
          42.59
        ]
      }
    },
    {
      "type": "Feature",
      "id": "iem-lsr-DTX-26",
      "properties": {
        "report_id": "iem-lsr-DTX-26",
        "report_type": "SNOW",
        "event_category": "winter",
        "valid_utc": "202603011200",
        "standard_time_display": "2026-03-01 07:00 EST",
        "wfo": "DTX",
        "county_or_zone": "Oakland",
        "city": "1 NE Clarkston",
        "state": "MI",
        "magnitude": 3.4,
        "magnitude_units": null,
        "source": "CoCoRaHS",
        "event_narrative": "24 hour total snowfall."
      },
      "geometry": {
        "type": "Point",
        "coordinates": [
          -83.4,
          42.75
        ]
      }
    },
    {
      "type": "Feature",
      "id": "iem-lsr-DTX-27",
      "properties": {
        "report_id": "iem-lsr-DTX-27",
        "report_type": "SNOW",
        "event_category": "winter",
        "valid_utc": "202603011200",
        "standard_time_display": "2026-03-01 07:00 EST",
        "wfo": "DTX",
        "county_or_zone": "Oakland",
        "city": "1 NE Waterford",
        "state": "MI",
        "magnitude": 3.4,
        "magnitude_units": null,
        "source": "CoCoRaHS",
        "event_narrative": "24 hour total snowfall."
      },
      "geometry": {
        "type": "Point",
        "coordinates": [
          -83.37,
          42.67
        ]
      }
    },
    {
      "type": "Feature",
      "id": "iem-lsr-DTX-28",
      "properties": {
        "report_id": "iem-lsr-DTX-28",
        "report_type": "SNOW",
        "event_category": "winter",
        "valid_utc": "202603011230",
        "standard_time_display": "2026-03-01 07:30 EST",
        "wfo": "DTX",
        "county_or_zone": "Oakland",
        "city": "2 S Ortonville",
        "state": "MI",
        "magnitude": 2.8,
        "magnitude_units": null,
        "source": "CoCoRaHS",
        "event_narrative": "24 hour total snowfall."
      },
      "geometry": {
        "type": "Point",
        "coordinates": [
          -83.44,
          42.82
        ]
      }
    },
    {
      "type": "Feature",
      "id": "iem-lsr-DTX-29",
      "properties": {
        "report_id": "iem-lsr-DTX-29",
        "report_type": "SNOW",
        "event_category": "winter",
        "valid_utc": "202603011300",
        "standard_time_display": "2026-03-01 08:00 EST",
        "wfo": "DTX",
        "county_or_zone": "Washtenaw",
        "city": "4 NNE Chelsea",
        "state": "MI",
        "magnitude": 1.0,
        "magnitude_units": null,
        "source": "CoCoRaHS",
        "event_narrative": "24 hour total snowfall."
      },
      "geometry": {
        "type": "Point",
        "coordinates": [
          -84.02,
          42.31
        ]
      }
    },
    {
      "type": "Feature",
      "id": "iem-lsr-DTX-30",
      "properties": {
        "report_id": "iem-lsr-DTX-30",
        "report_type": "SNOW",
        "event_category": "winter",
        "valid_utc": "202603011300",
        "standard_time_display": "2026-03-01 08:00 EST",
        "wfo": "DTX",
        "county_or_zone": "Genesee",
        "city": "6 WSW Fenton",
        "state": "MI",
        "magnitude": 2.2,
        "magnitude_units": null,
        "source": "CoCoRaHS",
        "event_narrative": "24 hour total snowfall."
      },
      "geometry": {
        "type": "Point",
        "coordinates": [
          -83.71,
          42.8
        ]
      }
    },
    {
      "type": "Feature",
      "id": "iem-lsr-DTX-31",
      "properties": {
        "report_id": "iem-lsr-DTX-31",
        "report_type": "SNOW",
        "event_category": "winter",
        "valid_utc": "202603011300",
        "standard_time_display": "2026-03-01 08:00 EST",
        "wfo": "DTX",
        "county_or_zone": "Oakland",
        "city": "4 NW Clarkston",
        "state": "MI",
        "magnitude": 3.8,
        "magnitude_units": null,
        "source": "CoCoRaHS",
        "event_narrative": "24 hour total snowfall."
      },
      "geometry": {
        "type": "Point",
        "coordinates": [
          -83.47,
          42.77
        ]
      }
    },
    {
      "type": "Feature",
      "id": "iem-lsr-DTX-32",
      "properties": {
        "report_id": "iem-lsr-DTX-32",
        "report_type": "SNOW",
        "event_category": "winter",
        "valid_utc": "202603011330",
        "standard_time_display": "2026-03-01 08:30 EST",
        "wfo": "DTX",
        "county_or_zone": "Macomb",
        "city": "Shelby Township",
        "state": "MI",
        "magnitude": 1.9,
        "magnitude_units": null,
        "source": "Trained Spotter",
        "event_narrative": "24 hour total snowfall."
      },
      "geometry": {
        "type": "Point",
        "coordinates": [
          -83.03,
          42.67
        ]
      }
    },
    {
      "type": "Feature",
      "id": "iem-lsr-DTX-33",
      "properties": {
        "report_id": "iem-lsr-DTX-33",
        "report_type": "SNOW",
        "event_category": "winter",
        "valid_utc": "202603011330",
        "standard_time_display": "2026-03-01 08:30 EST",
        "wfo": "DTX",
        "county_or_zone": "Shiawassee",
        "city": "6 WNW Durand",
        "state": "MI",
        "magnitude": 2.0,
        "magnitude_units": null,
        "source": "CoCoRaHS",
        "event_narrative": "24 hour total snowfall."
      },
      "geometry": {
        "type": "Point",
        "coordinates": [
          -83.99,
          42.91
        ]
      }
    },
    {
      "type": "Feature",
      "id": "iem-lsr-DTX-34",
      "properties": {
        "report_id": "iem-lsr-DTX-34",
        "report_type": "SNOW",
        "event_category": "winter",
        "valid_utc": "202603011330",
        "standard_time_display": "2026-03-01 08:30 EST",
        "wfo": "DTX",
        "county_or_zone": "Oakland",
        "city": "2 N Wixom",
        "state": "MI",
        "magnitude": 3.2,
        "magnitude_units": null,
        "source": "Trained Spotter",
        "event_narrative": "24 hour total snowfall."
      },
      "geometry": {
        "type": "Point",
        "coordinates": [
          -83.54,
          42.55
        ]
      }
    },
    {
      "type": "Feature",
      "id": "iem-lsr-DTX-35",
      "properties": {
        "report_id": "iem-lsr-DTX-35",
        "report_type": "SNOW",
        "event_category": "winter",
        "valid_utc": "202603011349",
        "standard_time_display": "2026-03-01 08:49 EST",
        "wfo": "DTX",
        "county_or_zone": "Genesee",
        "city": "1 NE Grand Blanc",
        "state": "MI",
        "magnitude": 2.5,
        "magnitude_units": null,
        "source": "Broadcast Media",
        "event_narrative": "24 hour total snowfall."
      },
      "geometry": {
        "type": "Point",
        "coordinates": [
          -83.6,
          42.94
        ]
      }
    },
    {
      "type": "Feature",
      "id": "iem-lsr-DTX-36",
      "properties": {
        "report_id": "iem-lsr-DTX-36",
        "report_type": "SNOW",
        "event_category": "winter",
        "valid_utc": "202603011400",
        "standard_time_display": "2026-03-01 09:00 EST",
        "wfo": "DTX",
        "county_or_zone": "Genesee",
        "city": "2 W Flint",
        "state": "MI",
        "magnitude": 2.0,
        "magnitude_units": null,
        "source": "CoCoRaHS",
        "event_narrative": "24 hour total snowfall."
      },
      "geometry": {
        "type": "Point",
        "coordinates": [
          -83.74,
          43.02
        ]
      }
    },
    {
      "type": "Feature",
      "id": "iem-lsr-DTX-37",
      "properties": {
        "report_id": "iem-lsr-DTX-37",
        "report_type": "SNOW",
        "event_category": "winter",
        "valid_utc": "202603011408",
        "standard_time_display": "2026-03-01 09:08 EST",
        "wfo": "DTX",
        "county_or_zone": "Oakland",
        "city": "1 N Clarkston",
        "state": "MI",
        "magnitude": 2.2,
        "magnitude_units": null,
        "source": "Public",
        "event_narrative": "24 hour total snowfall."
      },
      "geometry": {
        "type": "Point",
        "coordinates": [
          -83.42,
          42.75
        ]
      }
    },
    {
      "type": "Feature",
      "id": "iem-lsr-DTX-38",
      "properties": {
        "report_id": "iem-lsr-DTX-38",
        "report_type": "SNOW",
        "event_category": "winter",
        "valid_utc": "202603011500",
        "standard_time_display": "2026-03-01 10:00 EST",
        "wfo": "DTX",
        "county_or_zone": "Lapeer",
        "city": "2 W Lapeer",
        "state": "MI",
        "magnitude": 2.1,
        "magnitude_units": null,
        "source": "Co-Op Observer",
        "event_narrative": "24 hour total snowfall."
      },
      "geometry": {
        "type": "Point",
        "coordinates": [
          -83.36,
          43.05
        ]
      }
    },
    {
      "type": "Feature",
      "id": "iem-lsr-DTX-39",
      "properties": {
        "report_id": "iem-lsr-DTX-39",
        "report_type": "SNOW",
        "event_category": "winter",
        "valid_utc": "202603011534",
        "standard_time_display": "2026-03-01 10:34 EST",
        "wfo": "DTX",
        "county_or_zone": "Oakland",
        "city": "Novi",
        "state": "MI",
        "magnitude": 2.9,
        "magnitude_units": null,
        "source": "Trained Spotter",
        "event_narrative": "24 hour total snowfall."
      },
      "geometry": {
        "type": "Point",
        "coordinates": [
          -83.49,
          42.48
        ]
      }
    },
    {
      "type": "Feature",
      "id": "iem-lsr-DTX-40",
      "properties": {
        "report_id": "iem-lsr-DTX-40",
        "report_type": "HAIL",
        "event_category": "hail",
        "valid_utc": "202603070126",
        "standard_time_display": "2026-03-06 20:26 EST",
        "wfo": "DTX",
        "county_or_zone": "Washtenaw",
        "city": "1 W Ann Arbor",
        "state": "MI",
        "magnitude": 0.88,
        "magnitude_units": null,
        "source": "Public",
        "event_narrative": null
      },
      "geometry": {
        "type": "Point",
        "coordinates": [
          -83.75,
          42.28
        ]
      }
    },
    {
      "type": "Feature",
      "id": "iem-lsr-DTX-41",
      "properties": {
        "report_id": "iem-lsr-DTX-41",
        "report_type": "HAIL",
        "event_category": "hail",
        "valid_utc": "202603070239",
        "standard_time_display": "2026-03-06 21:39 EST",
        "wfo": "DTX",
        "county_or_zone": "Macomb",
        "city": "1 NW Macomb",
        "state": "MI",
        "magnitude": 1.0,
        "magnitude_units": null,
        "source": "Public",
        "event_narrative": "Hail reported near Hayes and 26 mile road."
      },
      "geometry": {
        "type": "Point",
        "coordinates": [
          -82.98,
          42.71
        ]
      }
    },
    {
      "type": "Feature",
      "id": "iem-lsr-DTX-42",
      "properties": {
        "report_id": "iem-lsr-DTX-42",
        "report_type": "RAIN",
        "event_category": "other",
        "valid_utc": "202603110315",
        "standard_time_display": "2026-03-10 22:15 EST",
        "wfo": "DTX",
        "county_or_zone": "Saginaw",
        "city": "3 S Nelson",
        "state": "MI",
        "magnitude": 1.83,
        "magnitude_units": null,
        "source": "CoCoRaHS",
        "event_narrative": "75 minute rainfall total."
      },
      "geometry": {
        "type": "Point",
        "coordinates": [
          -84.25,
          43.3
        ]
      }
    },
    {
      "type": "Feature",
      "id": "iem-lsr-DTX-43",
      "properties": {
        "report_id": "iem-lsr-DTX-43",
        "report_type": "HAIL",
        "event_category": "hail",
        "valid_utc": "202603110422",
        "standard_time_display": "2026-03-10 23:22 EST",
        "wfo": "DTX",
        "county_or_zone": "Macomb",
        "city": "5 NE Sterling Heights",
        "state": "MI",
        "magnitude": 0.5,
        "magnitude_units": null,
        "source": "Trained Spotter",
        "event_narrative": "Social media photo of hailstone measured by tape measure."
      },
      "geometry": {
        "type": "Point",
        "coordinates": [
          -82.96,
          42.63
        ]
      }
    },
    {
      "type": "Feature",
      "id": "iem-lsr-DTX-44",
      "properties": {
        "report_id": "iem-lsr-DTX-44",
        "report_type": "RAIN",
        "event_category": "other",
        "valid_utc": "202603110653",
        "standard_time_display": "2026-03-11 01:53 EST",
        "wfo": "DTX",
        "county_or_zone": "Saginaw",
        "city": "Tri Cities Intl Airport",
        "state": "MI",
        "magnitude": 1.25,
        "magnitude_units": null,
        "source": "ASOS",
        "event_narrative": "5 hour rainfall total."
      },
      "geometry": {
        "type": "Point",
        "coordinates": [
          -84.08,
          43.53
        ]
      }
    },
    {
      "type": "Feature",
      "id": "iem-lsr-DTX-45",
      "properties": {
        "report_id": "iem-lsr-DTX-45",
        "report_type": "RAIN",
        "event_category": "other",
        "valid_utc": "202603110655",
        "standard_time_display": "2026-03-11 01:55 EST",
        "wfo": "DTX",
        "county_or_zone": "Saginaw",
        "city": "Saginaw Harry Browne Ai",
        "state": "MI",
        "magnitude": 1.57,
        "magnitude_units": null,
        "source": "AWOS",
        "event_narrative": "5 hour rainfall total."
      },
      "geometry": {
        "type": "Point",
        "coordinates": [
          -83.86,
          43.43
        ]
      }
    },
    {
      "type": "Feature",
      "id": "iem-lsr-DTX-46",
      "properties": {
        "report_id": "iem-lsr-DTX-46",
        "report_type": "FLOOD",
        "event_category": "flooding",
        "valid_utc": "202603110726",
        "standard_time_display": "2026-03-11 02:26 EST",
        "wfo": "DTX",
        "county_or_zone": "Tuscola",
        "city": "Caro",
        "state": "MI",
        "magnitude": null,
        "magnitude_units": null,
        "source": "Law Enforcement",
        "event_narrative": "Caro Police Department reported flooded roads throughout the city of Caro."
      },
      "geometry": {
        "type": "Point",
        "coordinates": [
          -83.4,
          43.49
        ]
      }
    },
    {
      "type": "Feature",
      "id": "iem-lsr-DTX-47",
      "properties": {
        "report_id": "iem-lsr-DTX-47",
        "report_type": "RAIN",
        "event_category": "other",
        "valid_utc": "202603110755",
        "standard_time_display": "2026-03-11 02:55 EST",
        "wfo": "DTX",
        "county_or_zone": "Tuscola",
        "city": "Tuscola Area Airport",
        "state": "MI",
        "magnitude": 2.27,
        "magnitude_units": null,
        "source": "AWOS",
        "event_narrative": "6 hour rainfall total."
      },
      "geometry": {
        "type": "Point",
        "coordinates": [
          -83.45,
          43.46
        ]
      }
    },
    {
      "type": "Feature",
      "id": "iem-lsr-DTX-48",
      "properties": {
        "report_id": "iem-lsr-DTX-48",
        "report_type": "RAIN",
        "event_category": "other",
        "valid_utc": "202603111855",
        "standard_time_display": "2026-03-11 13:55 EST",
        "wfo": "DTX",
        "county_or_zone": "Wayne",
        "city": "Southgate",
        "state": "MI",
        "magnitude": 1.47,
        "magnitude_units": null,
        "source": "Trained Spotter",
        "event_narrative": "13 hour rainfall total"
      },
      "geometry": {
        "type": "Point",
        "coordinates": [
          -83.19,
          42.21
        ]
      }
    },
    {
      "type": "Feature",
      "id": "iem-lsr-DTX-49",
      "properties": {
        "report_id": "iem-lsr-DTX-49",
        "report_type": "NON-TSTM WND GST",
        "event_category": "thunderstorm_wind",
        "valid_utc": "202603131200",
        "standard_time_display": "2026-03-13 07:00 EST",
        "wfo": "DTX",
        "county_or_zone": "LCZ460",
        "city": "4 ENE MOUNT CLEMENS",
        "state": "MI",
        "magnitude": 56.0,
        "magnitude_units": null,
        "source": "AWOS",
        "event_narrative": "AWOS STATION KMTC SELFRIDGE ANGB."
      },
      "geometry": {
        "type": "Point",
        "coordinates": [
          -82.82,
          42.62
        ]
      }
    },
    {
      "type": "Feature",
      "id": "iem-lsr-DTX-50",
      "properties": {
        "report_id": "iem-lsr-DTX-50",
        "report_type": "NON-TSTM WND GST",
        "event_category": "thunderstorm_wind",
        "valid_utc": "202603131204",
        "standard_time_display": "2026-03-13 07:04 EST",
        "wfo": "DTX",
        "county_or_zone": "OAKLAND",
        "city": "1 W WATERFORD",
        "state": "MI",
        "magnitude": 53.0,
        "magnitude_units": null,
        "source": "ASOS",
        "event_narrative": "ASOS STATION KPTK PONTIAC."
      },
      "geometry": {
        "type": "Point",
        "coordinates": [
          -83.42,
          42.67
        ]
      }
    },
    {
      "type": "Feature",
      "id": "iem-lsr-DTX-51",
      "properties": {
        "report_id": "iem-lsr-DTX-51",
        "report_type": "NON-TSTM WND GST",
        "event_category": "thunderstorm_wind",
        "valid_utc": "202603131625",
        "standard_time_display": "2026-03-13 11:25 EST",
        "wfo": "DTX",
        "county_or_zone": "WASHTENAW",
        "city": "4 S ANN ARBOR",
        "state": "MI",
        "magnitude": 71.0,
        "magnitude_units": null,
        "source": "AWOS",
        "event_narrative": "AWOS STATION KARB 3 S ANN ARBOR."
      },
      "geometry": {
        "type": "Point",
        "coordinates": [
          -83.74,
          42.22
        ]
      }
    },
    {
      "type": "Feature",
      "id": "iem-lsr-DTX-52",
      "properties": {
        "report_id": "iem-lsr-DTX-52",
        "report_type": "NON-TSTM WND GST",
        "event_category": "thunderstorm_wind",
        "valid_utc": "202603131635",
        "standard_time_display": "2026-03-13 11:35 EST",
        "wfo": "DTX",
        "county_or_zone": "WAYNE",
        "city": "3 NW BELLEVILLE",
        "state": "MI",
        "magnitude": 66.0,
        "magnitude_units": null,
        "source": "ASOS",
        "event_narrative": "ASOS STATION KYIP DETROIT WILLOW."
      },
      "geometry": {
        "type": "Point",
        "coordinates": [
          -83.53,
          42.23
        ]
      }
    },
    {
      "type": "Feature",
      "id": "iem-lsr-DTX-53",
      "properties": {
        "report_id": "iem-lsr-DTX-53",
        "report_type": "NON-TSTM WND GST",
        "event_category": "thunderstorm_wind",
        "valid_utc": "202603131649",
        "standard_time_display": "2026-03-13 11:49 EST",
        "wfo": "DTX",
        "county_or_zone": "WAYNE",
        "city": "2 ENE ROMULUS",
        "state": "MI",
        "magnitude": 71.0,
        "magnitude_units": null,
        "source": "ASOS",
        "event_narrative": "ASOS STATION KDTW DETROIT WAYNE."
      },
      "geometry": {
        "type": "Point",
        "coordinates": [
          -83.33,
          42.23
        ]
      }
    },
    {
      "type": "Feature",
      "id": "iem-lsr-DTX-54",
      "properties": {
        "report_id": "iem-lsr-DTX-54",
        "report_type": "NON-TSTM WND GST",
        "event_category": "thunderstorm_wind",
        "valid_utc": "202603131658",
        "standard_time_display": "2026-03-13 11:58 EST",
        "wfo": "DTX",
        "county_or_zone": "WAYNE",
        "city": "2 SSE NORTHEAST DETROIT",
        "state": "MI",
        "magnitude": 66.0,
        "magnitude_units": null,
        "source": "ASOS",
        "event_narrative": "ASOS STATION KDET DETROIT CITY AIR."
      },
      "geometry": {
        "type": "Point",
        "coordinates": [
          -83.02,
          42.4
        ]
      }
    },
    {
      "type": "Feature",
      "id": "iem-lsr-DTX-55",
      "properties": {
        "report_id": "iem-lsr-DTX-55",
        "report_type": "NON-TSTM WND GST",
        "event_category": "thunderstorm_wind",
        "valid_utc": "202603131742",
        "standard_time_display": "2026-03-13 12:42 EST",
        "wfo": "DTX",
        "county_or_zone": "MONROE",
        "city": "2 SW LAMBERTVILLE",
        "state": "MI",
        "magnitude": 51.0,
        "magnitude_units": null,
        "source": "AWOS",
        "event_narrative": "AWOS STATION KDUH LAMBERTVILLE."
      },
      "geometry": {
        "type": "Point",
        "coordinates": [
          -83.65,
          41.73
        ]
      }
    },
    {
      "type": "Feature",
      "id": "iem-lsr-DTX-56",
      "properties": {
        "report_id": "iem-lsr-DTX-56",
        "report_type": "NON-TSTM WND GST",
        "event_category": "thunderstorm_wind",
        "valid_utc": "202603131750",
        "standard_time_display": "2026-03-13 12:50 EST",
        "wfo": "DTX",
        "county_or_zone": "LENAWEE",
        "city": "3 SW ADRIAN",
        "state": "MI",
        "magnitude": 63.0,
        "magnitude_units": null,
        "source": "AWOS",
        "event_narrative": "AWOS STATION KADG 2 SW ADRIAN."
      },
      "geometry": {
        "type": "Point",
        "coordinates": [
          -84.08,
          41.87
        ]
      }
    },
    {
      "type": "Feature",
      "id": "iem-lsr-DTX-57",
      "properties": {
        "report_id": "iem-lsr-DTX-57",
        "report_type": "NON-TSTM WND GST",
        "event_category": "thunderstorm_wind",
        "valid_utc": "202603131752",
        "standard_time_display": "2026-03-13 12:52 EST",
        "wfo": "DTX",
        "county_or_zone": "MONROE",
        "city": "2 NW MONROE",
        "state": "MI",
        "magnitude": 60.0,
        "magnitude_units": null,
        "source": "AWOS",
        "event_narrative": "AWOS STATION KTTF MONROE."
      },
      "geometry": {
        "type": "Point",
        "coordinates": [
          -83.42,
          41.93
        ]
      }
    },
    {
      "type": "Feature",
      "id": "iem-lsr-DTX-58",
      "properties": {
        "report_id": "iem-lsr-DTX-58",
        "report_type": "NON-TSTM WND DMG",
        "event_category": "thunderstorm_wind",
        "valid_utc": "202603132353",
        "standard_time_display": "2026-03-13 18:53 EST",
        "wfo": "DTX",
        "county_or_zone": "Oakland",
        "city": "1 N Franklin",
        "state": "MI",
        "magnitude": null,
        "magnitude_units": null,
        "source": "Trained Spotter",
        "event_narrative": "report and photo of large healthy pine tree down across road"
      },
      "geometry": {
        "type": "Point",
        "coordinates": [
          -83.3,
          42.53
        ]
      }
    },
    {
      "type": "Feature",
      "id": "iem-lsr-DTX-59",
      "properties": {
        "report_id": "iem-lsr-DTX-59",
        "report_type": "SNOW",
        "event_category": "winter",
        "valid_utc": "202603151000",
        "standard_time_display": "2026-03-15 05:00 EST",
        "wfo": "DTX",
        "county_or_zone": "Midland",
        "city": "2 NNE Midland",
        "state": "MI",
        "magnitude": 2.8,
        "magnitude_units": null,
        "source": "Cocorahs",
        "event_narrative": "7 hour total."
      },
      "geometry": {
        "type": "Point",
        "coordinates": [
          -84.22,
          43.64
        ]
      }
    },
    {
      "type": "Feature",
      "id": "iem-lsr-DTX-60",
      "properties": {
        "report_id": "iem-lsr-DTX-60",
        "report_type": "SNOW",
        "event_category": "winter",
        "valid_utc": "202603151030",
        "standard_time_display": "2026-03-15 05:30 EST",
        "wfo": "DTX",
        "county_or_zone": "Huron",
        "city": "1 SE Pinnebog",
        "state": "MI",
        "magnitude": 0.6,
        "magnitude_units": null,
        "source": "CO-OP Observer",
        "event_narrative": "7 hour total."
      },
      "geometry": {
        "type": "Point",
        "coordinates": [
          -83.09,
          43.93
        ]
      }
    },
    {
      "type": "Feature",
      "id": "iem-lsr-DTX-61",
      "properties": {
        "report_id": "iem-lsr-DTX-61",
        "report_type": "SNOW",
        "event_category": "winter",
        "valid_utc": "202603151030",
        "standard_time_display": "2026-03-15 05:30 EST",
        "wfo": "DTX",
        "county_or_zone": "Huron",
        "city": "1 N Bad Axe",
        "state": "MI",
        "magnitude": 1.2,
        "magnitude_units": null,
        "source": "CO-OP Observer",
        "event_narrative": "7 hour total."
      },
      "geometry": {
        "type": "Point",
        "coordinates": [
          -83.0,
          43.82
        ]
      }
    },
    {
      "type": "Feature",
      "id": "iem-lsr-DTX-62",
      "properties": {
        "report_id": "iem-lsr-DTX-62",
        "report_type": "SNOW",
        "event_category": "winter",
        "valid_utc": "202603151030",
        "standard_time_display": "2026-03-15 05:30 EST",
        "wfo": "DTX",
        "county_or_zone": "Bay",
        "city": "3 ENE Auburn",
        "state": "MI",
        "magnitude": 3.5,
        "magnitude_units": null,
        "source": "CO-OP Observer",
        "event_narrative": "7 hour total."
      },
      "geometry": {
        "type": "Point",
        "coordinates": [
          -84.02,
          43.63
        ]
      }
    },
    {
      "type": "Feature",
      "id": "iem-lsr-DTX-63",
      "properties": {
        "report_id": "iem-lsr-DTX-63",
        "report_type": "SNOW",
        "event_category": "winter",
        "valid_utc": "202603151100",
        "standard_time_display": "2026-03-15 06:00 EST",
        "wfo": "DTX",
        "county_or_zone": "Midland",
        "city": "3 NNW Poseyville",
        "state": "MI",
        "magnitude": 2.0,
        "magnitude_units": null,
        "source": "Cocorahs",
        "event_narrative": "7 hour total."
      },
      "geometry": {
        "type": "Point",
        "coordinates": [
          -84.28,
          43.57
        ]
      }
    },
    {
      "type": "Feature",
      "id": "iem-lsr-DTX-64",
      "properties": {
        "report_id": "iem-lsr-DTX-64",
        "report_type": "SNOW",
        "event_category": "winter",
        "valid_utc": "202603151130",
        "standard_time_display": "2026-03-15 06:30 EST",
        "wfo": "DTX",
        "county_or_zone": "Lapeer",
        "city": "1 W Lapeer",
        "state": "MI",
        "magnitude": 1.1,
        "magnitude_units": null,
        "source": "CO-OP Observer",
        "event_narrative": "7 hour total."
      },
      "geometry": {
        "type": "Point",
        "coordinates": [
          -83.35,
          43.05
        ]
      }
    },
    {
      "type": "Feature",
      "id": "iem-lsr-DTX-65",
      "properties": {
        "report_id": "iem-lsr-DTX-65",
        "report_type": "SNOW",
        "event_category": "winter",
        "valid_utc": "202603151200",
        "standard_time_display": "2026-03-15 07:00 EST",
        "wfo": "DTX",
        "county_or_zone": "Saginaw",
        "city": "Tri Cities Intl Airport",
        "state": "MI",
        "magnitude": 2.6,
        "magnitude_units": null,
        "source": "Official NWS Obs",
        "event_narrative": "7 hour total."
      },
      "geometry": {
        "type": "Point",
        "coordinates": [
          -84.08,
          43.53
        ]
      }
    },
    {
      "type": "Feature",
      "id": "iem-lsr-DTX-66",
      "properties": {
        "report_id": "iem-lsr-DTX-66",
        "report_type": "SNOW",
        "event_category": "winter",
        "valid_utc": "202603151250",
        "standard_time_display": "2026-03-15 07:50 EST",
        "wfo": "DTX",
        "county_or_zone": "Saginaw",
        "city": "2 SW Saginaw",
        "state": "MI",
        "magnitude": 1.1,
        "magnitude_units": null,
        "source": "Trained Spotter",
        "event_narrative": "7 hour total."
      },
      "geometry": {
        "type": "Point",
        "coordinates": [
          -83.98,
          43.4
        ]
      }
    },
    {
      "type": "Feature",
      "id": "iem-lsr-DTX-67",
      "properties": {
        "report_id": "iem-lsr-DTX-67",
        "report_type": "SNOW",
        "event_category": "winter",
        "valid_utc": "202603151250",
        "standard_time_display": "2026-03-15 07:50 EST",
        "wfo": "DTX",
        "county_or_zone": "Bay",
        "city": "2 E Bay City",
        "state": "MI",
        "magnitude": 3.4,
        "magnitude_units": null,
        "source": "Trained Spotter",
        "event_narrative": "7 hour total."
      },
      "geometry": {
        "type": "Point",
        "coordinates": [
          -83.85,
          43.59
        ]
      }
    },
    {
      "type": "Feature",
      "id": "iem-lsr-DTX-68",
      "properties": {
        "report_id": "iem-lsr-DTX-68",
        "report_type": "SNOW",
        "event_category": "winter",
        "valid_utc": "202603151300",
        "standard_time_display": "2026-03-15 08:00 EST",
        "wfo": "DTX",
        "county_or_zone": "Saginaw",
        "city": "Shields",
        "state": "MI",
        "magnitude": 2.0,
        "magnitude_units": null,
        "source": "Cocorahs",
        "event_narrative": "7 hour total."
      },
      "geometry": {
        "type": "Point",
        "coordinates": [
          -84.08,
          43.42
        ]
      }
    },
    {
      "type": "Feature",
      "id": "iem-lsr-DTX-69",
      "properties": {
        "report_id": "iem-lsr-DTX-69",
        "report_type": "SNOW",
        "event_category": "winter",
        "valid_utc": "202603151300",
        "standard_time_display": "2026-03-15 08:00 EST",
        "wfo": "DTX",
        "county_or_zone": "Tuscola",
        "city": "3 S Caro",
        "state": "MI",
        "magnitude": 2.1,
        "magnitude_units": null,
        "source": "CO-OP Observer",
        "event_narrative": "7 hour total."
      },
      "geometry": {
        "type": "Point",
        "coordinates": [
          -83.4,
          43.45
        ]
      }
    },
    {
      "type": "Feature",
      "id": "iem-lsr-DTX-70",
      "properties": {
        "report_id": "iem-lsr-DTX-70",
        "report_type": "SNOW",
        "event_category": "winter",
        "valid_utc": "202603151300",
        "standard_time_display": "2026-03-15 08:00 EST",
        "wfo": "DTX",
        "county_or_zone": "Saginaw",
        "city": "4 ENE Shields",
        "state": "MI",
        "magnitude": 2.1,
        "magnitude_units": null,
        "source": "Cocorahs",
        "event_narrative": "7 hour total."
      },
      "geometry": {
        "type": "Point",
        "coordinates": [
          -84.01,
          43.44
        ]
      }
    },
    {
      "type": "Feature",
      "id": "iem-lsr-DTX-71",
      "properties": {
        "report_id": "iem-lsr-DTX-71",
        "report_type": "NON-TSTM WND GST",
        "event_category": "thunderstorm_wind",
        "valid_utc": "202603152116",
        "standard_time_display": "2026-03-15 16:16 EST",
        "wfo": "DTX",
        "county_or_zone": "Lenawee",
        "city": "Lenawee County Airport",
        "state": "MI",
        "magnitude": 62.0,
        "magnitude_units": null,
        "source": "ASOS",
        "event_narrative": "Wind gust measured at KADG ASOS."
      },
      "geometry": {
        "type": "Point",
        "coordinates": [
          -84.08,
          41.87
        ]
      }
    },
    {
      "type": "Feature",
      "id": "iem-lsr-DTX-72",
      "properties": {
        "report_id": "iem-lsr-DTX-72",
        "report_type": "NON-TSTM WND GST",
        "event_category": "thunderstorm_wind",
        "valid_utc": "202603160445",
        "standard_time_display": "2026-03-15 23:45 EST",
        "wfo": "DTX",
        "county_or_zone": "Wayne",
        "city": "Willow Run Airport",
        "state": "MI",
        "magnitude": 62.0,
        "magnitude_units": null,
        "source": "ASOS",
        "event_narrative": "Wind gust measured at Willow Run Airport KYIP."
      },
      "geometry": {
        "type": "Point",
        "coordinates": [
          -83.53,
          42.24
        ]
      }
    },
    {
      "type": "Feature",
      "id": "iem-lsr-DTX-73",
      "properties": {
        "report_id": "iem-lsr-DTX-73",
        "report_type": "HAIL",
        "event_category": "hail",
        "valid_utc": "202603262309",
        "standard_time_display": "2026-03-26 18:09 EST",
        "wfo": "DTX",
        "county_or_zone": "Lenawee",
        "city": "1 NW Blissfield",
        "state": "MI",
        "magnitude": 0.75,
        "magnitude_units": null,
        "source": "Trained Spotter",
        "event_narrative": "Report of slightly larger than dime sized hail via Spotter Network."
      },
      "geometry": {
        "type": "Point",
        "coordinates": [
          -83.88,
          41.84
        ]
      }
    },
    {
      "type": "Feature",
      "id": "iem-lsr-DTX-74",
      "properties": {
        "report_id": "iem-lsr-DTX-74",
        "report_type": "HAIL",
        "event_category": "hail",
        "valid_utc": "202603262317",
        "standard_time_display": "2026-03-26 18:17 EST",
        "wfo": "DTX",
        "county_or_zone": "Monroe",
        "city": "3 N Ottawa Lake",
        "state": "MI",
        "magnitude": 1.0,
        "magnitude_units": null,
        "source": "Public",
        "event_narrative": "Report relayed via social media with image of measured hailstone."
      },
      "geometry": {
        "type": "Point",
        "coordinates": [
          -83.73,
          41.81
        ]
      }
    },
    {
      "type": "Feature",
      "id": "iem-lsr-DTX-75",
      "properties": {
        "report_id": "iem-lsr-DTX-75",
        "report_type": "HAIL",
        "event_category": "hail",
        "valid_utc": "202603262322",
        "standard_time_display": "2026-03-26 18:22 EST",
        "wfo": "DTX",
        "county_or_zone": "Monroe",
        "city": "3 N Lambertville",
        "state": "MI",
        "magnitude": 1.0,
        "magnitude_units": null,
        "source": "Trained Spotter",
        "event_narrative": "Spotter called reporting 1 inch diameter hail for approximately 5 minutes."
      },
      "geometry": {
        "type": "Point",
        "coordinates": [
          -83.64,
          41.78
        ]
      }
    },
    {
      "type": "Feature",
      "id": "iem-lsr-DTX-76",
      "properties": {
        "report_id": "iem-lsr-DTX-76",
        "report_type": "HAIL",
        "event_category": "hail",
        "valid_utc": "202603262329",
        "standard_time_display": "2026-03-26 18:29 EST",
        "wfo": "DTX",
        "county_or_zone": "Monroe",
        "city": "Erie",
        "state": "MI",
        "magnitude": 0.75,
        "magnitude_units": null,
        "source": "Trained Spotter",
        "event_narrative": "Report of dime sized hail via Spotter Network."
      },
      "geometry": {
        "type": "Point",
        "coordinates": [
          -83.5,
          41.79
        ]
      }
    },
    {
      "type": "Feature",
      "id": "iem-lsr-DTX-77",
      "properties": {
        "report_id": "iem-lsr-DTX-77",
        "report_type": "HAIL",
        "event_category": "hail",
        "valid_utc": "202603262332",
        "standard_time_display": "2026-03-26 18:32 EST",
        "wfo": "DTX",
        "county_or_zone": "Monroe",
        "city": "Luna Pier",
        "state": "MI",
        "magnitude": 1.0,
        "magnitude_units": null,
        "source": "Public",
        "event_narrative": "Social media report of quarter sized hail."
      },
      "geometry": {
        "type": "Point",
        "coordinates": [
          -83.44,
          41.81
        ]
      }
    },
    {
      "type": "Feature",
      "id": "iem-lsr-DTX-78",
      "properties": {
        "report_id": "iem-lsr-DTX-78",
        "report_type": "TSTM WND GST",
        "event_category": "thunderstorm_wind",
        "valid_utc": "202603312222",
        "standard_time_display": "2026-03-31 17:22 EST",
        "wfo": "DTX",
        "county_or_zone": "Oakland",
        "city": "Oakland County Intl Air",
        "state": "MI",
        "magnitude": 51.0,
        "magnitude_units": null,
        "source": "ASOS",
        "event_narrative": "Measured via KPTK ASOS."
      },
      "geometry": {
        "type": "Point",
        "coordinates": [
          -83.41,
          42.66
        ]
      }
    }
  ]
}