{
  "type": "FeatureCollection",
  "name": "cwa",
  "crs": {
    "type": "name",
    "properties": {
      "name": "urn:ogc:def:crs:OGC:1.3:CRS84"
    }
  },
  "features": [
    {
      "type": "Feature",
      "properties": {
        "WFO": "DVN",
        "CWA": "DVN",
        "STATE": "Illinois",
        "ST": "IL",
        "CITYSTATE": "Quad Cities IA IL"
      },
      "geometry": {
        "type": "Polygon",
        "coordinates": [
          [
            [
              -90.76949310322408,
              42.65141296383729
            ],
            [
              -90.71899414056708,
              42.64031219475203
            ],
            [
              -90.70919799818904,
              42.636112213308024
            ],
            [
              -90.7033996579678,
              42.63151168821389
            ],
            [
              -90.70009612973257,
              42.62241363468155
            ],
            [
              -90.69199371293945,
              42.61041259836276
            ],
            [
              -90.68619537541622,
              42.590713501127254
            ],
            [
              -90.67749786373537,
              42.579612732041994
            ],
            [
              -90.66139984082997,
              42.56781387321172
            ],
            [
              -90.6590957642581,
              42.55791091925357
            ],
            [
              -90.65409851133717,
              42.54991149911643
            ],
            [
              -90.64559936491872,
              42.54411315889524
            ],
            [
              -90.6366958617246,
              42.517913817668614
            ],
            [
              -90.63689422608763,
              42.51321029681782
            ],
            [
              -90.63999938995983,
              42.5084114073606
            ],
            [
              -90.40589904810253,
              42.50691223121453
            ],
            [
              -90.0734939581796,
              42.50831222472942
            ],
            [
              -89.92649841357087,
              42.50531387333666
            ],
            [
              -89.6689987184161,
              42.50501251231765
            ],
            [
              -89.40139770494011,
              42.500213622860485
            ],
            [
              -89.398193359336,
              42.37791061438338
            ],
            [
              -89.39629364043913,
              42.20271301299522
            ],
            [
              -89.68849945128864,
              42.19911193776579
            ],
            [
              -89.68529510478521,
              42.04911041281537
            ],
            [
              -89.68689727758726,
              41.93071365371219
            ],
            [
              -89.63399505572721,
              41.9301109307749
            ],
            [
              -89.62919616716937,
              41.92871093726001
            ],
            [
              -89.63189697336657,
              41.74581146182953
            ],
            [
              -89.63239288292516,
              41.58491134618174
            ],
            [
              -89.16649627758113,
              41.584812163550566
            ],
            [
              -89.16219329858183,
              41.10411071813519
            ],
            [
              -89.35799408026253,
              41.104011536403334
            ],
            [
              -89.35129547100917,
              41.10871124322932
            ],
            [
              -89.34109497095614,
              41.112113953196456
            ],
            [
              -89.33589935277286,
              41.117313385404486
            ],
            [
              -89.3334960935698,
              41.124412537408716
            ],
            [
              -89.33300018311195,
              41.13861083961859
            ],
            [
              -89.32999420187087,
              41.14791107243809
            ],
            [
              -89.63859558082135,
              41.14851379357674
            ],
            [
              -89.63889312691623,
              41.23391342226665
            ],
            [
              -89.86779785238895,
              41.234413146749375
            ],
            [
              -89.86859893789062,
              41.149311065952986
            ],
            [
              -90.08089447030352,
              41.14971160870385
            ],
            [
              -90.20559692395886,
              41.152111052982775
            ],
            [
              -90.43769836428805,
              41.151210784849866
            ],
            [
              -90.4502944945952,
              40.27671051018194
            ],
            [
              -90.67789459156211,
              40.27861404400301
            ],
            [
              -90.90989685105882,
              40.2844123842242
            ],
            [
              -90.91269683808855,
              40.193012237824576
            ],
            [
              -91.50509643605164,
              40.20001220719763
            ],
            [
              -91.50729370104341,
              40.20931243911781
            ],
            [
              -91.5043945313825,
              40.224613189647016
            ],
            [
              -91.50419616701947,
              40.23031234723709
            ],
            [
              -91.50619506944685,
              40.23531341598141
            ],
            [
              -91.50379943829341,
              40.242610931449406
            ],
            [
              -91.49709320099038,
              40.24921035807159
            ],
            [
              -91.95069885286972,
              40.257312774864715
            ],
            [
              -91.94979858383755,
              40.300811768148606
            ],
            [
              -92.17179870584556,
              40.30411148056044
            ],
            [
              -92.34839630074862,
              40.3028106687774
            ],
            [
              -92.35009765618184,
              40.32041168185367
            ],
            [
              -92.35139465304076,
              40.48301315293469
            ],
            [
              -92.3502960214442,
              40.597312927249845
            ],
            [
              -92.17979431195789,
              40.600513457929765
            ],
            [
              -92.17819976810478,
              40.69571304302258
            ],
            [
              -92.18000030526986,
              41.162311553935126
            ],
            [
              -92.41009521512206,
              41.161811828553084
            ],
            [
              -92.41209411575079,
              41.50951385498047
            ],
            [
              -92.297492981316,
              41.509613036712324
            ],
            [
              -92.2976989764266,
              41.59701156603103
            ],
            [
              -92.29940033006113,
              41.611011504777196
            ],
            [
              -92.30009460398276,
              41.660511016670114
            ],
            [
              -92.29719543522111,
              41.97081375105381
            ],
            [
              -92.29909515411805,
              42.10031127924219
            ],
            [
              -92.29879760712384,
              42.297412871806614
            ],
            [
              -92.06449890090352,
              42.29751205443779
            ],
            [
              -92.0639953605974,
              42.46361160319299
            ],
            [
              -92.06439971917166,
              42.46801376302477
            ],
            [
              -92.08109283426683,
              42.46801376302477
            ],
            [
              -92.08149719194182,
              42.47001266455288
            ],
            [
              -92.0818939215672,
              42.642013550185254
            ],
            [
              -91.45699310274944,
              42.64371108979503
            ],
            [
              -91.03509521517202,
              42.64661407527939
            ],
            [
              -90.89739990158415,
              42.645713806247215
            ],
            [
              -90.89699554390921,
              42.675113678153764
            ],
            [
              -90.84389495858545,
              42.66311264003639
            ],
            [
              -90.76949310322408,
              42.65141296383729
            ]
          ]
        ]
      }
    }
  ],
  "metadata": {
    "schema_version": "0.1.0",
    "wfo": "DVN",
    "layer": "cwa",
    "source": "https://www.weather.gov/source/gis/Shapefiles/WSOM/w_16ap26.zip",
    "public_release_status": "public-source-derived"
  }
}