{
  "type": "FeatureCollection",
  "metadata": {
    "schema_version": "0.2.4",
    "year": 2026,
    "month": 9,
    "wfo": "MSO",
    "start_utc": "2026-09-01T00:00:00Z",
    "end_utc": "2026-10-01T00:00:00Z",
    "generated_utc": "2026-09-26T13:45:03Z",
    "mode": "storm_data_prep",
    "public_release_status": "public-source-derived",
    "time_note": "Storm Data entry times should be reviewed in local Standard Time (ST), not daylight time. Candidate reports include standard_time_display.",
    "tornado_track_policy": "Tornado tracks must come from DAT. NCEI begin/end coordinates are not used as a tornado track substitute.",
    "source": "https://mesonet.agron.iastate.edu/cgi-bin/request/gis/lsr.py?wfo=MSO&sts=2026-09-01T00%3A00%3A00Z&ets=2026-10-01T00%3A00%3A00Z&fmt=csv"
  },
  "features": [
    {
      "type": "Feature",
      "id": "iem-lsr-MSO-1",
      "properties": {
        "report_id": "iem-lsr-MSO-1",
        "report_type": "LANDSLIDE",
        "event_category": "other",
        "valid_utc": "202609021712",
        "standard_time_display": "2026-09-02 09:12 PST",
        "wfo": "MSO",
        "county_or_zone": "Lemhi",
        "city": "2 SW Shoup",
        "state": "ID",
        "magnitude": null,
        "magnitude_units": null,
        "source": "Public",
        "event_narrative": "Storm spotter on Panther Creek reported 3/4 of rain the past 24 hrs. There is a mudslide/rockslide just upstream from the Shoup store blocking the road until the USFS gets out here and clears it all"
      },
      "geometry": {
        "type": "Point",
        "coordinates": [
          -114.31,
          45.36
        ]
      }
    },
    {
      "type": "Feature",
      "id": "iem-lsr-MSO-2",
      "properties": {
        "report_id": "iem-lsr-MSO-2",
        "report_type": "DEBRIS FLOW",
        "event_category": "other",
        "valid_utc": "202609021720",
        "standard_time_display": "2026-09-02 09:20 PST",
        "wfo": "MSO",
        "county_or_zone": "Lemhi",
        "city": "4 ENE Shoup",
        "state": "ID",
        "magnitude": null,
        "magnitude_units": null,
        "source": "Park/Forest Srvc",
        "event_narrative": "Numerous debris flows covered Salmon River Road east of Shoup_ with additional debris flows reported along Panther Creek Road. MRMS radar estimated rainfall rates of 0.25 to 0.35 inches in roughly 15"
      },
      "geometry": {
        "type": "Point",
        "coordinates": [
          -114.2,
          45.4
        ]
      }
    },
    {
      "type": "Feature",
      "id": "iem-lsr-MSO-3",
      "properties": {
        "report_id": "iem-lsr-MSO-3",
        "report_type": "TSTM WND GST",
        "event_category": "thunderstorm_wind",
        "valid_utc": "202609021929",
        "standard_time_display": "2026-09-02 12:29 MST",
        "wfo": "MSO",
        "county_or_zone": "Granite",
        "city": "2 SSW Hall",
        "state": "MT",
        "magnitude": 55.0,
        "magnitude_units": null,
        "source": "Public",
        "event_narrative": null
      },
      "geometry": {
        "type": "Point",
        "coordinates": [
          -113.21,
          46.56
        ]
      }
    },
    {
      "type": "Feature",
      "id": "iem-lsr-MSO-4",
      "properties": {
        "report_id": "iem-lsr-MSO-4",
        "report_type": "TSTM WND GST",
        "event_category": "thunderstorm_wind",
        "valid_utc": "202609021929",
        "standard_time_display": "2026-09-02 12:29 MST",
        "wfo": "MSO",
        "county_or_zone": "Deer Lodge",
        "city": "4 NNW Opportunity",
        "state": "MT",
        "magnitude": 58.0,
        "magnitude_units": null,
        "source": "AWOS",
        "event_narrative": "Anaconda Bowman Field Airport AWOS K3U3 reported southwest wind sustained at 40 mph with gusts to 58 mph. At 1331 it reported a sustained wind of 44 mph. So far there have been power outages reported"
      },
      "geometry": {
        "type": "Point",
        "coordinates": [
          -112.87,
          46.15
        ]
      }
    },
    {
      "type": "Feature",
      "id": "iem-lsr-MSO-5",
      "properties": {
        "report_id": "iem-lsr-MSO-5",
        "report_type": "TSTM WND GST",
        "event_category": "thunderstorm_wind",
        "valid_utc": "202609021930",
        "standard_time_display": "2026-09-02 12:30 MST",
        "wfo": "MSO",
        "county_or_zone": "Deer Lodge",
        "city": "1 S Warm Springs",
        "state": "MT",
        "magnitude": 80.0,
        "magnitude_units": null,
        "source": "Mesonet",
        "event_narrative": null
      },
      "geometry": {
        "type": "Point",
        "coordinates": [
          -112.78,
          46.16
        ]
      }
    },
    {
      "type": "Feature",
      "id": "iem-lsr-MSO-6",
      "properties": {
        "report_id": "iem-lsr-MSO-6",
        "report_type": "TSTM WND GST",
        "event_category": "thunderstorm_wind",
        "valid_utc": "202609022000",
        "standard_time_display": "2026-09-02 13:00 MST",
        "wfo": "MSO",
        "county_or_zone": "Powell",
        "city": "5 SSE Finn",
        "state": "MT",
        "magnitude": 60.0,
        "magnitude_units": null,
        "source": "Dept of Highways",
        "event_narrative": "Avon North MDT sensor also reported 48 mph sustained wind."
      },
      "geometry": {
        "type": "Point",
        "coordinates": [
          -112.66,
          46.7
        ]
      }
    },
    {
      "type": "Feature",
      "id": "iem-lsr-MSO-7",
      "properties": {
        "report_id": "iem-lsr-MSO-7",
        "report_type": "TSTM WND GST",
        "event_category": "thunderstorm_wind",
        "valid_utc": "202609022004",
        "standard_time_display": "2026-09-02 12:04 PST",
        "wfo": "MSO",
        "county_or_zone": "Lake",
        "city": "1 SSE Woods Bay",
        "state": "MT",
        "magnitude": 54.0,
        "magnitude_units": null,
        "source": "Public",
        "event_narrative": null
      },
      "geometry": {
        "type": "Point",
        "coordinates": [
          -114.04,
          47.99
        ]
      }
    },
    {
      "type": "Feature",
      "id": "iem-lsr-MSO-8",
      "properties": {
        "report_id": "iem-lsr-MSO-8",
        "report_type": "TSTM WND GST",
        "event_category": "thunderstorm_wind",
        "valid_utc": "202609022007",
        "standard_time_display": "2026-09-02 13:07 MST",
        "wfo": "MSO",
        "county_or_zone": "Powell",
        "city": "5 WNW Finn",
        "state": "MT",
        "magnitude": 57.0,
        "magnitude_units": null,
        "source": "Public",
        "event_narrative": "Sustained winds of 45 mph."
      },
      "geometry": {
        "type": "Point",
        "coordinates": [
          -112.81,
          46.79
        ]
      }
    },
    {
      "type": "Feature",
      "id": "iem-lsr-MSO-9",
      "properties": {
        "report_id": "iem-lsr-MSO-9",
        "report_type": "TSTM WND DMG",
        "event_category": "thunderstorm_wind",
        "valid_utc": "202609022010",
        "standard_time_display": "2026-09-02 13:10 MST",
        "wfo": "MSO",
        "county_or_zone": "Silver Bow",
        "city": "2 NNE Newcomb",
        "state": "MT",
        "magnitude": null,
        "magnitude_units": null,
        "source": "Newspaper",
        "event_narrative": "Reports of several large and mature trees down at the Holy Cross Cemetery."
      },
      "geometry": {
        "type": "Point",
        "coordinates": [
          -112.5,
          45.95
        ]
      }
    },
    {
      "type": "Feature",
      "id": "iem-lsr-MSO-10",
      "properties": {
        "report_id": "iem-lsr-MSO-10",
        "report_type": "TSTM WND GST",
        "event_category": "thunderstorm_wind",
        "valid_utc": "202609022011",
        "standard_time_display": "2026-09-02 13:11 MST",
        "wfo": "MSO",
        "county_or_zone": "Silver Bow",
        "city": "3 NNE Newcomb",
        "state": "MT",
        "magnitude": 74.0,
        "magnitude_units": null,
        "source": "ASOS",
        "event_narrative": "Bert Mooney Airport ASOS."
      },
      "geometry": {
        "type": "Point",
        "coordinates": [
          -112.5,
          45.95
        ]
      }
    },
    {
      "type": "Feature",
      "id": "iem-lsr-MSO-11",
      "properties": {
        "report_id": "iem-lsr-MSO-11",
        "report_type": "TSTM WND DMG",
        "event_category": "thunderstorm_wind",
        "valid_utc": "202609022012",
        "standard_time_display": "2026-09-02 13:12 MST",
        "wfo": "MSO",
        "county_or_zone": "Silver Bow",
        "city": "2 SSE Butte",
        "state": "MT",
        "magnitude": null,
        "magnitude_units": null,
        "source": "Public",
        "event_narrative": "Reports of large tree down at Highland View Golf Course. Time estimated based on other reports in the area."
      },
      "geometry": {
        "type": "Point",
        "coordinates": [
          -112.52,
          45.98
        ]
      }
    },
    {
      "type": "Feature",
      "id": "iem-lsr-MSO-12",
      "properties": {
        "report_id": "iem-lsr-MSO-12",
        "report_type": "TSTM WND DMG",
        "event_category": "thunderstorm_wind",
        "valid_utc": "202609022015",
        "standard_time_display": "2026-09-02 13:15 MST",
        "wfo": "MSO",
        "county_or_zone": "Silver Bow",
        "city": "2 ESE Butte",
        "state": "MT",
        "magnitude": null,
        "magnitude_units": null,
        "source": "Public",
        "event_narrative": "Public report of large Aspen tree down with damage to a fence. Time estimated based on other reports in the area."
      },
      "geometry": {
        "type": "Point",
        "coordinates": [
          -112.49,
          45.99
        ]
      }
    },
    {
      "type": "Feature",
      "id": "iem-lsr-MSO-13",
      "properties": {
        "report_id": "iem-lsr-MSO-13",
        "report_type": "RAIN",
        "event_category": "other",
        "valid_utc": "202609060244",
        "standard_time_display": "2026-09-05 19:44 MST",
        "wfo": "MSO",
        "county_or_zone": "Powell",
        "city": "Deer Lodge",
        "state": "MT",
        "magnitude": 0.43,
        "magnitude_units": null,
        "source": "Public",
        "event_narrative": "Fell between 829 and 844 PM_ 15 minutes."
      },
      "geometry": {
        "type": "Point",
        "coordinates": [
          -112.73,
          46.4
        ]
      }
    },
    {
      "type": "Feature",
      "id": "iem-lsr-MSO-14",
      "properties": {
        "report_id": "iem-lsr-MSO-14",
        "report_type": "RAIN",
        "event_category": "other",
        "valid_utc": "202609060614",
        "standard_time_display": "2026-09-05 22:14 PST",
        "wfo": "MSO",
        "county_or_zone": "Ravalli",
        "city": "4 S Florence",
        "state": "MT",
        "magnitude": 0.38,
        "magnitude_units": null,
        "source": "Public",
        "event_narrative": "Fell in 10 minutes."
      },
      "geometry": {
        "type": "Point",
        "coordinates": [
          -114.09,
          46.58
        ]
      }
    },
    {
      "type": "Feature",
      "id": "iem-lsr-MSO-15",
      "properties": {
        "report_id": "iem-lsr-MSO-15",
        "report_type": "RAIN",
        "event_category": "other",
        "valid_utc": "202609060620",
        "standard_time_display": "2026-09-05 22:20 PST",
        "wfo": "MSO",
        "county_or_zone": "Ravalli",
        "city": "4 SSE Florence",
        "state": "MT",
        "magnitude": 0.39,
        "magnitude_units": null,
        "source": "Public",
        "event_narrative": "Fell in 10 minutes."
      },
      "geometry": {
        "type": "Point",
        "coordinates": [
          -114.05,
          46.58
        ]
      }
    },
    {
      "type": "Feature",
      "id": "iem-lsr-MSO-16",
      "properties": {
        "report_id": "iem-lsr-MSO-16",
        "report_type": "HAIL",
        "event_category": "hail",
        "valid_utc": "202609062320",
        "standard_time_display": "2026-09-06 16:20 MST",
        "wfo": "MSO",
        "county_or_zone": "Powell",
        "city": "Avon",
        "state": "MT",
        "magnitude": 1.75,
        "magnitude_units": null,
        "source": "Public",
        "event_narrative": null
      },
      "geometry": {
        "type": "Point",
        "coordinates": [
          -112.59,
          46.6
        ]
      }
    },
    {
      "type": "Feature",
      "id": "iem-lsr-MSO-17",
      "properties": {
        "report_id": "iem-lsr-MSO-17",
        "report_type": "HAIL",
        "event_category": "hail",
        "valid_utc": "202609062324",
        "standard_time_display": "2026-09-06 16:24 MST",
        "wfo": "MSO",
        "county_or_zone": "Deer Lodge",
        "city": "Opportunity",
        "state": "MT",
        "magnitude": 1.5,
        "magnitude_units": null,
        "source": "Public",
        "event_narrative": "Time estimated via radar. Information derived by social media report."
      },
      "geometry": {
        "type": "Point",
        "coordinates": [
          -112.83,
          46.11
        ]
      }
    },
    {
      "type": "Feature",
      "id": "iem-lsr-MSO-18",
      "properties": {
        "report_id": "iem-lsr-MSO-18",
        "report_type": "HAIL",
        "event_category": "hail",
        "valid_utc": "202609062330",
        "standard_time_display": "2026-09-06 16:30 MST",
        "wfo": "MSO",
        "county_or_zone": "Powell",
        "city": "Deer Lodge",
        "state": "MT",
        "magnitude": 0.88,
        "magnitude_units": null,
        "source": "Public",
        "event_narrative": null
      },
      "geometry": {
        "type": "Point",
        "coordinates": [
          -112.73,
          46.4
        ]
      }
    },
    {
      "type": "Feature",
      "id": "iem-lsr-MSO-19",
      "properties": {
        "report_id": "iem-lsr-MSO-19",
        "report_type": "HAIL",
        "event_category": "hail",
        "valid_utc": "202609062358",
        "standard_time_display": "2026-09-06 15:58 PST",
        "wfo": "MSO",
        "county_or_zone": "Lincoln",
        "city": "6 SSE Libby",
        "state": "MT",
        "magnitude": 0.5,
        "magnitude_units": null,
        "source": "Public",
        "event_narrative": "Lots of small hail."
      },
      "geometry": {
        "type": "Point",
        "coordinates": [
          -115.52,
          48.31
        ]
      }
    },
    {
      "type": "Feature",
      "id": "iem-lsr-MSO-20",
      "properties": {
        "report_id": "iem-lsr-MSO-20",
        "report_type": "RAIN",
        "event_category": "other",
        "valid_utc": "202609071700",
        "standard_time_display": "2026-09-07 09:00 PST",
        "wfo": "MSO",
        "county_or_zone": "Flathead",
        "city": "1 NW Bigfork",
        "state": "MT",
        "magnitude": 0.38,
        "magnitude_units": null,
        "source": "Park/Forest Srvc",
        "event_narrative": "Swan Lake Fire QD RAWS in Bigfork reported heavy rain."
      },
      "geometry": {
        "type": "Point",
        "coordinates": [
          -114.08,
          48.07
        ]
      }
    },
    {
      "type": "Feature",
      "id": "iem-lsr-MSO-21",
      "properties": {
        "report_id": "iem-lsr-MSO-21",
        "report_type": "RAIN",
        "event_category": "other",
        "valid_utc": "202609071900",
        "standard_time_display": "2026-09-07 11:00 PST",
        "wfo": "MSO",
        "county_or_zone": "Flathead",
        "city": "3 WNW Coram",
        "state": "MT",
        "magnitude": 0.5,
        "magnitude_units": null,
        "source": "Public",
        "event_narrative": "A private station east of Teakettle Mountain reported very heavy rain from noon to 1 PM."
      },
      "geometry": {
        "type": "Point",
        "coordinates": [
          -114.11,
          48.44
        ]
      }
    },
    {
      "type": "Feature",
      "id": "iem-lsr-MSO-22",
      "properties": {
        "report_id": "iem-lsr-MSO-22",
        "report_type": "RAIN",
        "event_category": "other",
        "valid_utc": "202609072000",
        "standard_time_display": "2026-09-07 13:00 MST",
        "wfo": "MSO",
        "county_or_zone": "Flathead",
        "city": "9 NE Bigfork",
        "state": "MT",
        "magnitude": 0.4,
        "magnitude_units": null,
        "source": "Mesonet",
        "event_narrative": "Noisy Basin SNOTEL at 6040 feet recorded heavy rainfall from 11 AM to 2 PM MDT and also from 5 to 7 PM. Total 24 hour rainfall as of 9 PM was 3.50 inches."
      },
      "geometry": {
        "type": "Point",
        "coordinates": [
          -113.95,
          48.16
        ]
      }
    },
    {
      "type": "Feature",
      "id": "iem-lsr-MSO-23",
      "properties": {
        "report_id": "iem-lsr-MSO-23",
        "report_type": "RAIN",
        "event_category": "other",
        "valid_utc": "202609072000",
        "standard_time_display": "2026-09-07 13:00 MST",
        "wfo": "MSO",
        "county_or_zone": "Flathead",
        "city": "5 E Coram",
        "state": "MT",
        "magnitude": 0.5,
        "magnitude_units": null,
        "source": "Public",
        "event_narrative": "Emery Creek SNOTEL at 4350 feet recorded heavy rain from 1 pm to 4 pm with rates up to 0.50 inch per hour. Total rainfall as of 10 PM MDT was 2.20 inches."
      },
      "geometry": {
        "type": "Point",
        "coordinates": [
          -113.94,
          48.43
        ]
      }
    },
    {
      "type": "Feature",
      "id": "iem-lsr-MSO-24",
      "properties": {
        "report_id": "iem-lsr-MSO-24",
        "report_type": "RAIN",
        "event_category": "other",
        "valid_utc": "202609072300",
        "standard_time_display": "2026-09-07 15:00 PST",
        "wfo": "MSO",
        "county_or_zone": "Lincoln",
        "city": "9 ENE Eureka",
        "state": "MT",
        "magnitude": 0.3,
        "magnitude_units": null,
        "source": "Mesonet",
        "event_narrative": "The Stahl Peak SNOTEL at 6030 feet recorded heavy rainfall rates from 2 to 5 PM today. Total 24 hour rainfall is at 2.10 inches."
      },
      "geometry": {
        "type": "Point",
        "coordinates": [
          -114.86,
          48.91
        ]
      }
    },
    {
      "type": "Feature",
      "id": "iem-lsr-MSO-25",
      "properties": {
        "report_id": "iem-lsr-MSO-25",
        "report_type": "NON-TSTM WND GST",
        "event_category": "thunderstorm_wind",
        "valid_utc": "202609252103",
        "standard_time_display": "2026-09-25 13:03 PST",
        "wfo": "MSO",
        "county_or_zone": "Idaho",
        "city": "25 NW Shoup",
        "state": "ID",
        "magnitude": 42.0,
        "magnitude_units": null,
        "source": "Mesonet",
        "event_narrative": null
      },
      "geometry": {
        "type": "Point",
        "coordinates": [
          -114.63,
          45.65
        ]
      }
    },
    {
      "type": "Feature",
      "id": "iem-lsr-MSO-26",
      "properties": {
        "report_id": "iem-lsr-MSO-26",
        "report_type": "NON-TSTM WND GST",
        "event_category": "thunderstorm_wind",
        "valid_utc": "202609252226",
        "standard_time_display": "2026-09-25 14:26 PST",
        "wfo": "MSO",
        "county_or_zone": "Lemhi",
        "city": "11 N Ellis",
        "state": "ID",
        "magnitude": 42.0,
        "magnitude_units": null,
        "source": "Mesonet",
        "event_narrative": null
      },
      "geometry": {
        "type": "Point",
        "coordinates": [
          -114.03,
          44.85
        ]
      }
    },
    {
      "type": "Feature",
      "id": "iem-lsr-MSO-27",
      "properties": {
        "report_id": "iem-lsr-MSO-27",
        "report_type": "NON-TSTM WND GST",
        "event_category": "thunderstorm_wind",
        "valid_utc": "202609252230",
        "standard_time_display": "2026-09-25 14:30 PST",
        "wfo": "MSO",
        "county_or_zone": "Lake",
        "city": "5 E Lonepine",
        "state": "MT",
        "magnitude": 42.0,
        "magnitude_units": null,
        "source": "Mesonet",
        "event_narrative": null
      },
      "geometry": {
        "type": "Point",
        "coordinates": [
          -114.54,
          47.72
        ]
      }
    },
    {
      "type": "Feature",
      "id": "iem-lsr-MSO-28",
      "properties": {
        "report_id": "iem-lsr-MSO-28",
        "report_type": "NON-TSTM WND GST",
        "event_category": "thunderstorm_wind",
        "valid_utc": "202609252240",
        "standard_time_display": "2026-09-25 14:40 PST",
        "wfo": "MSO",
        "county_or_zone": "Idaho",
        "city": "19 N Big Creek",
        "state": "ID",
        "magnitude": 40.0,
        "magnitude_units": null,
        "source": "Mesonet",
        "event_narrative": null
      },
      "geometry": {
        "type": "Point",
        "coordinates": [
          -115.19,
          45.38
        ]
      }
    },
    {
      "type": "Feature",
      "id": "iem-lsr-MSO-29",
      "properties": {
        "report_id": "iem-lsr-MSO-29",
        "report_type": "NON-TSTM WND GST",
        "event_category": "thunderstorm_wind",
        "valid_utc": "202609252251",
        "standard_time_display": "2026-09-25 15:51 MST",
        "wfo": "MSO",
        "county_or_zone": "Lemhi",
        "city": "6 SE North Fork",
        "state": "ID",
        "magnitude": 46.0,
        "magnitude_units": null,
        "source": "Mesonet",
        "event_narrative": null
      },
      "geometry": {
        "type": "Point",
        "coordinates": [
          -113.9,
          45.36
        ]
      }
    },
    {
      "type": "Feature",
      "id": "iem-lsr-MSO-30",
      "properties": {
        "report_id": "iem-lsr-MSO-30",
        "report_type": "NON-TSTM WND GST",
        "event_category": "thunderstorm_wind",
        "valid_utc": "202609252253",
        "standard_time_display": "2026-09-25 14:53 PST",
        "wfo": "MSO",
        "county_or_zone": "Missoula",
        "city": "6 NW Missoula",
        "state": "MT",
        "magnitude": 43.0,
        "magnitude_units": null,
        "source": "ASOS/AWOS",
        "event_narrative": null
      },
      "geometry": {
        "type": "Point",
        "coordinates": [
          -114.09,
          46.92
        ]
      }
    },
    {
      "type": "Feature",
      "id": "iem-lsr-MSO-31",
      "properties": {
        "report_id": "iem-lsr-MSO-31",
        "report_type": "NON-TSTM WND GST",
        "event_category": "thunderstorm_wind",
        "valid_utc": "202609252259",
        "standard_time_display": "2026-09-25 15:59 MST",
        "wfo": "MSO",
        "county_or_zone": "Missoula",
        "city": "5 E Evaro",
        "state": "MT",
        "magnitude": 49.0,
        "magnitude_units": null,
        "source": "Mesonet",
        "event_narrative": null
      },
      "geometry": {
        "type": "Point",
        "coordinates": [
          -113.99,
          47.04
        ]
      }
    },
    {
      "type": "Feature",
      "id": "iem-lsr-MSO-32",
      "properties": {
        "report_id": "iem-lsr-MSO-32",
        "report_type": "NON-TSTM WND GST",
        "event_category": "thunderstorm_wind",
        "valid_utc": "202609252309",
        "standard_time_display": "2026-09-25 15:09 PST",
        "wfo": "MSO",
        "county_or_zone": "Flathead",
        "city": "6 SW Trailcreek",
        "state": "MT",
        "magnitude": 46.0,
        "magnitude_units": null,
        "source": "Mesonet",
        "event_narrative": null
      },
      "geometry": {
        "type": "Point",
        "coordinates": [
          -114.51,
          48.88
        ]
      }
    },
    {
      "type": "Feature",
      "id": "iem-lsr-MSO-33",
      "properties": {
        "report_id": "iem-lsr-MSO-33",
        "report_type": "NON-TSTM WND GST",
        "event_category": "thunderstorm_wind",
        "valid_utc": "202609252315",
        "standard_time_display": "2026-09-25 15:15 PST",
        "wfo": "MSO",
        "county_or_zone": "Ravalli",
        "city": "3 E Florence",
        "state": "MT",
        "magnitude": 43.0,
        "magnitude_units": null,
        "source": "Mesonet",
        "event_narrative": null
      },
      "geometry": {
        "type": "Point",
        "coordinates": [
          -114.01,
          46.63
        ]
      }
    },
    {
      "type": "Feature",
      "id": "iem-lsr-MSO-34",
      "properties": {
        "report_id": "iem-lsr-MSO-34",
        "report_type": "NON-TSTM WND GST",
        "event_category": "thunderstorm_wind",
        "valid_utc": "202609252330",
        "standard_time_display": "2026-09-25 16:30 MST",
        "wfo": "MSO",
        "county_or_zone": "Missoula",
        "city": "1 W Bonner",
        "state": "MT",
        "magnitude": 45.0,
        "magnitude_units": null,
        "source": "Mesonet",
        "event_narrative": null
      },
      "geometry": {
        "type": "Point",
        "coordinates": [
          -113.89,
          46.87
        ]
      }
    },
    {
      "type": "Feature",
      "id": "iem-lsr-MSO-35",
      "properties": {
        "report_id": "iem-lsr-MSO-35",
        "report_type": "NON-TSTM WND GST",
        "event_category": "thunderstorm_wind",
        "valid_utc": "202609252351",
        "standard_time_display": "2026-09-25 15:51 PST",
        "wfo": "MSO",
        "county_or_zone": "Lemhi",
        "city": "11 W Shoup",
        "state": "ID",
        "magnitude": 58.0,
        "magnitude_units": null,
        "source": "Mesonet",
        "event_narrative": null
      },
      "geometry": {
        "type": "Point",
        "coordinates": [
          -114.5,
          45.34
        ]
      }
    },
    {
      "type": "Feature",
      "id": "iem-lsr-MSO-36",
      "properties": {
        "report_id": "iem-lsr-MSO-36",
        "report_type": "NON-TSTM WND GST",
        "event_category": "thunderstorm_wind",
        "valid_utc": "202609260000",
        "standard_time_display": "2026-09-25 17:00 MST",
        "wfo": "MSO",
        "county_or_zone": "Flathead",
        "city": "3 SW Blacktail - Railro",
        "state": "MT",
        "magnitude": 42.0,
        "magnitude_units": null,
        "source": "Mesonet",
        "event_narrative": null
      },
      "geometry": {
        "type": "Point",
        "coordinates": [
          -113.5,
          48.26
        ]
      }
    },
    {
      "type": "Feature",
      "id": "iem-lsr-MSO-37",
      "properties": {
        "report_id": "iem-lsr-MSO-37",
        "report_type": "NON-TSTM WND GST",
        "event_category": "thunderstorm_wind",
        "valid_utc": "202609260006",
        "standard_time_display": "2026-09-25 16:06 PST",
        "wfo": "MSO",
        "county_or_zone": "Ravalli",
        "city": "7 NE Conner",
        "state": "MT",
        "magnitude": 49.0,
        "magnitude_units": null,
        "source": "Mesonet",
        "event_narrative": null
      },
      "geometry": {
        "type": "Point",
        "coordinates": [
          -114.06,
          46.03
        ]
      }
    },
    {
      "type": "Feature",
      "id": "iem-lsr-MSO-38",
      "properties": {
        "report_id": "iem-lsr-MSO-38",
        "report_type": "NON-TSTM WND GST",
        "event_category": "thunderstorm_wind",
        "valid_utc": "202609260012",
        "standard_time_display": "2026-09-25 16:12 PST",
        "wfo": "MSO",
        "county_or_zone": "Ravalli",
        "city": "4 E Corvallis",
        "state": "MT",
        "magnitude": 45.0,
        "magnitude_units": null,
        "source": "Mesonet",
        "event_narrative": null
      },
      "geometry": {
        "type": "Point",
        "coordinates": [
          -114.04,
          46.32
        ]
      }
    },
    {
      "type": "Feature",
      "id": "iem-lsr-MSO-39",
      "properties": {
        "report_id": "iem-lsr-MSO-39",
        "report_type": "NON-TSTM WND GST",
        "event_category": "thunderstorm_wind",
        "valid_utc": "202609260020",
        "standard_time_display": "2026-09-25 17:20 MST",
        "wfo": "MSO",
        "county_or_zone": "Missoula",
        "city": "2 SE East Missoula",
        "state": "MT",
        "magnitude": 56.0,
        "magnitude_units": null,
        "source": "Mesonet",
        "event_narrative": null
      },
      "geometry": {
        "type": "Point",
        "coordinates": [
          -113.93,
          46.85
        ]
      }
    },
    {
      "type": "Feature",
      "id": "iem-lsr-MSO-40",
      "properties": {
        "report_id": "iem-lsr-MSO-40",
        "report_type": "NON-TSTM WND GST",
        "event_category": "thunderstorm_wind",
        "valid_utc": "202609260027",
        "standard_time_display": "2026-09-25 17:27 MST",
        "wfo": "MSO",
        "county_or_zone": "Granite",
        "city": "4 SE Nimrod",
        "state": "MT",
        "magnitude": 46.0,
        "magnitude_units": null,
        "source": "Mesonet",
        "event_narrative": null
      },
      "geometry": {
        "type": "Point",
        "coordinates": [
          -113.42,
          46.66
        ]
      }
    },
    {
      "type": "Feature",
      "id": "iem-lsr-MSO-41",
      "properties": {
        "report_id": "iem-lsr-MSO-41",
        "report_type": "NON-TSTM WND GST",
        "event_category": "thunderstorm_wind",
        "valid_utc": "202609260031",
        "standard_time_display": "2026-09-25 17:31 MST",
        "wfo": "MSO",
        "county_or_zone": "Powell",
        "city": "Garrison",
        "state": "MT",
        "magnitude": 43.0,
        "magnitude_units": null,
        "source": "Mesonet",
        "event_narrative": null
      },
      "geometry": {
        "type": "Point",
        "coordinates": [
          -112.81,
          46.52
        ]
      }
    }
  ]
}