{
  "type": "FeatureCollection",
  "metadata": {
    "schema_version": "0.2.4",
    "year": 2026,
    "month": 6,
    "wfo": "UNR",
    "start_utc": "2026-06-01T00:00:00Z",
    "end_utc": "2026-07-01T00:00:00Z",
    "generated_utc": "2026-06-02T12:52:38Z",
    "mode": "storm_data_prep",
    "public_release_status": "public-source-derived",
    "time_note": "Storm Data entry times should be reviewed in local Standard Time (ST), not daylight time. Candidate reports include standard_time_display.",
    "tornado_track_policy": "Tornado tracks must come from DAT. NCEI begin/end coordinates are not used as a tornado track substitute.",
    "source": "https://mesonet.agron.iastate.edu/cgi-bin/request/gis/lsr.py?wfo=UNR&sts=2026-06-01T00%3A00%3A00Z&ets=2026-07-01T00%3A00%3A00Z&fmt=csv"
  },
  "features": [
    {
      "type": "Feature",
      "id": "iem-lsr-UNR-1",
      "properties": {
        "report_id": "iem-lsr-UNR-1",
        "report_type": "RAIN",
        "event_category": "other",
        "valid_utc": "202606011200",
        "standard_time_display": "2026-06-01 05:00 MST",
        "wfo": "UNR",
        "county_or_zone": "Pennington",
        "city": "2 S Pactola Resv",
        "state": "SD",
        "magnitude": 0.53,
        "magnitude_units": null,
        "source": "CoCoRaHS",
        "event_narrative": "24-hour rainfall."
      },
      "geometry": {
        "type": "Point",
        "coordinates": [
          -103.51,
          44.04
        ]
      }
    },
    {
      "type": "Feature",
      "id": "iem-lsr-UNR-2",
      "properties": {
        "report_id": "iem-lsr-UNR-2",
        "report_type": "RAIN",
        "event_category": "other",
        "valid_utc": "202606011400",
        "standard_time_display": "2026-06-01 07:00 MST",
        "wfo": "UNR",
        "county_or_zone": "Pennington",
        "city": "7 SW Rapid City Arpt",
        "state": "SD",
        "magnitude": 0.65,
        "magnitude_units": null,
        "source": "CoCoRaHS",
        "event_narrative": "24-hour rainfall."
      },
      "geometry": {
        "type": "Point",
        "coordinates": [
          -103.15,
          43.96
        ]
      }
    },
    {
      "type": "Feature",
      "id": "iem-lsr-UNR-3",
      "properties": {
        "report_id": "iem-lsr-UNR-3",
        "report_type": "RAIN",
        "event_category": "other",
        "valid_utc": "202606011400",
        "standard_time_display": "2026-06-01 07:00 MST",
        "wfo": "UNR",
        "county_or_zone": "Pennington",
        "city": "2 WSW Sheridan Lake",
        "state": "SD",
        "magnitude": 0.71,
        "magnitude_units": null,
        "source": "CoCoRaHS",
        "event_narrative": "24-hour rainfall."
      },
      "geometry": {
        "type": "Point",
        "coordinates": [
          -103.51,
          43.95
        ]
      }
    },
    {
      "type": "Feature",
      "id": "iem-lsr-UNR-4",
      "properties": {
        "report_id": "iem-lsr-UNR-4",
        "report_type": "RAIN",
        "event_category": "other",
        "valid_utc": "202606011400",
        "standard_time_display": "2026-06-01 07:00 MST",
        "wfo": "UNR",
        "county_or_zone": "Butte",
        "city": "3 SE Nisland",
        "state": "SD",
        "magnitude": 0.76,
        "magnitude_units": null,
        "source": "CoCoRaHS",
        "event_narrative": "24-hour rainfall."
      },
      "geometry": {
        "type": "Point",
        "coordinates": [
          -103.51,
          44.65
        ]
      }
    },
    {
      "type": "Feature",
      "id": "iem-lsr-UNR-5",
      "properties": {
        "report_id": "iem-lsr-UNR-5",
        "report_type": "RAIN",
        "event_category": "other",
        "valid_utc": "202606011500",
        "standard_time_display": "2026-06-01 08:00 MST",
        "wfo": "UNR",
        "county_or_zone": "Pennington",
        "city": "1 ESE Pactola Resv",
        "state": "SD",
        "magnitude": 1.7,
        "magnitude_units": null,
        "source": "Co-Op Observer",
        "event_narrative": "24-hour rainfall."
      },
      "geometry": {
        "type": "Point",
        "coordinates": [
          -103.48,
          44.06
        ]
      }
    },
    {
      "type": "Feature",
      "id": "iem-lsr-UNR-6",
      "properties": {
        "report_id": "iem-lsr-UNR-6",
        "report_type": "RAIN",
        "event_category": "other",
        "valid_utc": "202606011600",
        "standard_time_display": "2026-06-01 09:00 MST",
        "wfo": "UNR",
        "county_or_zone": "Lawrence",
        "city": "1 NNW Dwtn Spearfish",
        "state": "SD",
        "magnitude": 1.13,
        "magnitude_units": null,
        "source": "Co-Op Observer",
        "event_narrative": "24-hour rainfall."
      },
      "geometry": {
        "type": "Point",
        "coordinates": [
          -103.87,
          44.51
        ]
      }
    },
    {
      "type": "Feature",
      "id": "iem-lsr-UNR-7",
      "properties": {
        "report_id": "iem-lsr-UNR-7",
        "report_type": "TSTM WND GST",
        "event_category": "thunderstorm_wind",
        "valid_utc": "202606020140",
        "standard_time_display": "2026-06-01 18:40 MST",
        "wfo": "UNR",
        "county_or_zone": "Fall River",
        "city": "10 ESE Oelrichs",
        "state": "SD",
        "magnitude": 54.0,
        "magnitude_units": null,
        "source": "Mesonet",
        "event_narrative": null
      },
      "geometry": {
        "type": "Point",
        "coordinates": [
          -103.05,
          43.1
        ]
      }
    }
  ]
}