{
  "type": "FeatureCollection",
  "metadata": {
    "schema_version": "0.2.4",
    "year": 2026,
    "month": 3,
    "wfo": "MFR",
    "start_utc": "2026-03-01T00:00:00Z",
    "end_utc": "2026-04-01T00:00:00Z",
    "generated_utc": "2026-05-30T10:57:11Z",
    "mode": "storm_data_prep",
    "public_release_status": "public-source-derived",
    "time_note": "Storm Data entry times should be reviewed in local Standard Time (ST), not daylight time. Candidate reports include standard_time_display.",
    "tornado_track_policy": "Tornado tracks must come from DAT. NCEI begin/end coordinates are not used as a tornado track substitute.",
    "source": "https://mesonet.agron.iastate.edu/cgi-bin/request/gis/lsr.py?wfo=MFR&sts=2026-03-01T00%3A00%3A00Z&ets=2026-04-01T00%3A00%3A00Z&fmt=csv"
  },
  "features": [
    {
      "type": "Feature",
      "id": "iem-lsr-MFR-1",
      "properties": {
        "report_id": "iem-lsr-MFR-1",
        "report_type": "RAIN",
        "event_category": "other",
        "valid_utc": "202603042330",
        "standard_time_display": "2026-03-04 15:30 PST",
        "wfo": "MFR",
        "county_or_zone": "Josephine",
        "city": "2 WSW Obrien",
        "state": "OR",
        "magnitude": 0.16,
        "magnitude_units": null,
        "source": "Trained Spotter",
        "event_narrative": "This spotter received 0.16 inches between 3 PM Tuesday and 3 PM Wednesday."
      },
      "geometry": {
        "type": "Point",
        "coordinates": [
          -123.73,
          42.06
        ]
      }
    },
    {
      "type": "Feature",
      "id": "iem-lsr-MFR-2",
      "properties": {
        "report_id": "iem-lsr-MFR-2",
        "report_type": "RAIN",
        "event_category": "other",
        "valid_utc": "202603052315",
        "standard_time_display": "2026-03-05 15:15 PST",
        "wfo": "MFR",
        "county_or_zone": "Josephine",
        "city": "2 WSW Obrien",
        "state": "OR",
        "magnitude": 0.13,
        "magnitude_units": null,
        "source": "Trained Spotter",
        "event_narrative": "This location received 0.13 inches between 3 PM Wednesday and 3 PM Thursday."
      },
      "geometry": {
        "type": "Point",
        "coordinates": [
          -123.73,
          42.06
        ]
      }
    }
  ]
}