{
  "type": "FeatureCollection",
  "metadata": {
    "schema_version": "0.2.4",
    "year": 2026,
    "month": 6,
    "wfo": "MHX",
    "start_utc": "2026-06-01T00:00:00Z",
    "end_utc": "2026-07-01T00:00:00Z",
    "generated_utc": "2026-06-22T14:51:12Z",
    "mode": "storm_data_prep",
    "public_release_status": "public-source-derived",
    "time_note": "Storm Data entry times should be reviewed in local Standard Time (ST), not daylight time. Candidate reports include standard_time_display.",
    "tornado_track_policy": "Tornado tracks must come from DAT. NCEI begin/end coordinates are not used as a tornado track substitute.",
    "source": "https://mesonet.agron.iastate.edu/cgi-bin/request/gis/lsr.py?wfo=MHX&sts=2026-06-01T00%3A00%3A00Z&ets=2026-07-01T00%3A00%3A00Z&fmt=csv"
  },
  "features": [
    {
      "type": "Feature",
      "id": "iem-lsr-MHX-1",
      "properties": {
        "report_id": "iem-lsr-MHX-1",
        "report_type": "MARINE TSTM WIND",
        "event_category": "marine",
        "valid_utc": "202606121405",
        "standard_time_display": "2026-06-12 09:05 EST",
        "wfo": "MHX",
        "county_or_zone": "AMZ230",
        "city": "8 N Mackeys",
        "state": "NC",
        "magnitude": 39.0,
        "magnitude_units": null,
        "source": "Mesonet",
        "event_narrative": "WeatherFlow Tempest station reported a 34 knot wind gust."
      },
      "geometry": {
        "type": "Point",
        "coordinates": [
          -76.61,
          36.04
        ]
      }
    },
    {
      "type": "Feature",
      "id": "iem-lsr-MHX-2",
      "properties": {
        "report_id": "iem-lsr-MHX-2",
        "report_type": "TSTM WND DMG",
        "event_category": "thunderstorm_wind",
        "valid_utc": "202606130348",
        "standard_time_display": "2026-06-12 22:48 EST",
        "wfo": "MHX",
        "county_or_zone": "Washington",
        "city": "5 ENE Hinson",
        "state": "NC",
        "magnitude": null,
        "magnitude_units": null,
        "source": "911 Call Center",
        "event_narrative": "Delayed report. Washington County reported a tree down near the intersection of HWY 32 and HWY 99."
      },
      "geometry": {
        "type": "Point",
        "coordinates": [
          -76.72,
          35.79
        ]
      }
    },
    {
      "type": "Feature",
      "id": "iem-lsr-MHX-3",
      "properties": {
        "report_id": "iem-lsr-MHX-3",
        "report_type": "MARINE TSTM WIND",
        "event_category": "marine",
        "valid_utc": "202606130403",
        "standard_time_display": "2026-06-12 23:03 EST",
        "wfo": "MHX",
        "county_or_zone": "AMZ131",
        "city": "3 WNW East Lake",
        "state": "NC",
        "magnitude": 39.0,
        "magnitude_units": null,
        "source": "Mesonet",
        "event_narrative": "Alligator River WeatherFlow station gusted to 34 knots."
      },
      "geometry": {
        "type": "Point",
        "coordinates": [
          -76.0,
          35.9
        ]
      }
    },
    {
      "type": "Feature",
      "id": "iem-lsr-MHX-4",
      "properties": {
        "report_id": "iem-lsr-MHX-4",
        "report_type": "MARINE TSTM WIND",
        "event_category": "marine",
        "valid_utc": "202606130416",
        "standard_time_display": "2026-06-12 23:16 EST",
        "wfo": "MHX",
        "county_or_zone": "AMZ231",
        "city": "2 W Nags Head",
        "state": "NC",
        "magnitude": 54.0,
        "magnitude_units": null,
        "source": "Mesonet",
        "event_narrative": "Roanoke Sound Channel WeatherFlow station reported a 47 kt wind gust."
      },
      "geometry": {
        "type": "Point",
        "coordinates": [
          -75.66,
          35.94
        ]
      }
    },
    {
      "type": "Feature",
      "id": "iem-lsr-MHX-5",
      "properties": {
        "report_id": "iem-lsr-MHX-5",
        "report_type": "TSTM WND GST",
        "event_category": "thunderstorm_wind",
        "valid_utc": "202606130427",
        "standard_time_display": "2026-06-12 23:27 EST",
        "wfo": "MHX",
        "county_or_zone": "Dare",
        "city": "Outer Banks Fishing Pie",
        "state": "NC",
        "magnitude": 60.0,
        "magnitude_units": null,
        "source": "Trained Spotter",
        "event_narrative": "Delayed report."
      },
      "geometry": {
        "type": "Point",
        "coordinates": [
          -75.58,
          35.89
        ]
      }
    },
    {
      "type": "Feature",
      "id": "iem-lsr-MHX-6",
      "properties": {
        "report_id": "iem-lsr-MHX-6",
        "report_type": "MARINE TSTM WIND",
        "event_category": "marine",
        "valid_utc": "202606130437",
        "standard_time_display": "2026-06-12 23:37 EST",
        "wfo": "MHX",
        "county_or_zone": "AMZ150",
        "city": "1 SE Oregon Inlet",
        "state": "NC",
        "magnitude": 48.0,
        "magnitude_units": null,
        "source": "Mesonet",
        "event_narrative": "Oregon Inlet CG WeatherFlow station reported at 42 kt wind gust."
      },
      "geometry": {
        "type": "Point",
        "coordinates": [
          -75.53,
          35.78
        ]
      }
    },
    {
      "type": "Feature",
      "id": "iem-lsr-MHX-7",
      "properties": {
        "report_id": "iem-lsr-MHX-7",
        "report_type": "MARINE TSTM WIND",
        "event_category": "marine",
        "valid_utc": "202606130537",
        "standard_time_display": "2026-06-13 00:37 EST",
        "wfo": "MHX",
        "county_or_zone": "AMZ135",
        "city": "1 W Waves",
        "state": "NC",
        "magnitude": 47.0,
        "magnitude_units": null,
        "source": "Mesonet",
        "event_narrative": "Waves Real Slick WeatherFlow station reported a 41 kt wind gust."
      },
      "geometry": {
        "type": "Point",
        "coordinates": [
          -75.49,
          35.57
        ]
      }
    },
    {
      "type": "Feature",
      "id": "iem-lsr-MHX-8",
      "properties": {
        "report_id": "iem-lsr-MHX-8",
        "report_type": "MARINE TSTM WIND",
        "event_category": "marine",
        "valid_utc": "202606130600",
        "standard_time_display": "2026-06-13 01:00 EST",
        "wfo": "MHX",
        "county_or_zone": "AMZ152",
        "city": "3 SE Oregon Inlet",
        "state": "NC",
        "magnitude": 46.0,
        "magnitude_units": null,
        "source": "Mesonet",
        "event_narrative": "Delayed report. A 40kt wind gust was measured at the KHK Resort WeatherFlow station."
      },
      "geometry": {
        "type": "Point",
        "coordinates": [
          -75.5,
          35.75
        ]
      }
    },
    {
      "type": "Feature",
      "id": "iem-lsr-MHX-9",
      "properties": {
        "report_id": "iem-lsr-MHX-9",
        "report_type": "HAIL",
        "event_category": "hail",
        "valid_utc": "202606141827",
        "standard_time_display": "2026-06-14 13:27 EST",
        "wfo": "MHX",
        "county_or_zone": "Onslow",
        "city": "2 WNW Pumpkin Center",
        "state": "NC",
        "magnitude": 0.7,
        "magnitude_units": null,
        "source": "Public",
        "event_narrative": "Delayed report. Dime size hail reported at the Jacksonville Commons area. Vendor tents were blown down as well."
      },
      "geometry": {
        "type": "Point",
        "coordinates": [
          -77.39,
          34.79
        ]
      }
    },
    {
      "type": "Feature",
      "id": "iem-lsr-MHX-10",
      "properties": {
        "report_id": "iem-lsr-MHX-10",
        "report_type": "TSTM WND DMG",
        "event_category": "thunderstorm_wind",
        "valid_utc": "202606141947",
        "standard_time_display": "2026-06-14 14:47 EST",
        "wfo": "MHX",
        "county_or_zone": "Beaufort",
        "city": "Aurora",
        "state": "NC",
        "magnitude": null,
        "magnitude_units": null,
        "source": "911 Call Center",
        "event_narrative": "Trees and wires down in town."
      },
      "geometry": {
        "type": "Point",
        "coordinates": [
          -76.79,
          35.3
        ]
      }
    },
    {
      "type": "Feature",
      "id": "iem-lsr-MHX-11",
      "properties": {
        "report_id": "iem-lsr-MHX-11",
        "report_type": "TSTM WND DMG",
        "event_category": "thunderstorm_wind",
        "valid_utc": "202606141956",
        "standard_time_display": "2026-06-14 14:56 EST",
        "wfo": "MHX",
        "county_or_zone": "Beaufort",
        "city": "3 WNW South Creek",
        "state": "NC",
        "magnitude": null,
        "magnitude_units": null,
        "source": "Trained Spotter",
        "event_narrative": "Large limbs down throughout the yard."
      },
      "geometry": {
        "type": "Point",
        "coordinates": [
          -76.73,
          35.36
        ]
      }
    },
    {
      "type": "Feature",
      "id": "iem-lsr-MHX-12",
      "properties": {
        "report_id": "iem-lsr-MHX-12",
        "report_type": "TSTM WND DMG",
        "event_category": "thunderstorm_wind",
        "valid_utc": "202606142012",
        "standard_time_display": "2026-06-14 15:12 EST",
        "wfo": "MHX",
        "county_or_zone": "Beaufort",
        "city": "2 NNE Pinetown",
        "state": "NC",
        "magnitude": null,
        "magnitude_units": null,
        "source": "911 Call Center",
        "event_narrative": "Tree down on house. Also a tree on a car and lines down along Long Ridge Road."
      },
      "geometry": {
        "type": "Point",
        "coordinates": [
          -76.85,
          35.64
        ]
      }
    },
    {
      "type": "Feature",
      "id": "iem-lsr-MHX-13",
      "properties": {
        "report_id": "iem-lsr-MHX-13",
        "report_type": "TSTM WND DMG",
        "event_category": "thunderstorm_wind",
        "valid_utc": "202606142015",
        "standard_time_display": "2026-06-14 15:15 EST",
        "wfo": "MHX",
        "county_or_zone": "AMZ136",
        "city": "3 SE Belhaven",
        "state": "NC",
        "magnitude": null,
        "magnitude_units": null,
        "source": "Public",
        "event_narrative": "Delayed report. A 60 foot vessel was blown onto shore near Haystack Point along the Pungo River as a severe thunderstorm moved through."
      },
      "geometry": {
        "type": "Point",
        "coordinates": [
          -76.59,
          35.51
        ]
      }
    },
    {
      "type": "Feature",
      "id": "iem-lsr-MHX-14",
      "properties": {
        "report_id": "iem-lsr-MHX-14",
        "report_type": "TSTM WND DMG",
        "event_category": "thunderstorm_wind",
        "valid_utc": "202606142015",
        "standard_time_display": "2026-06-14 15:15 EST",
        "wfo": "MHX",
        "county_or_zone": "Beaufort",
        "city": "4 SW Leechville",
        "state": "NC",
        "magnitude": null,
        "magnitude_units": null,
        "source": "Public",
        "event_narrative": "Delayed report. Several pine trees were snapped in half. Aluminum trim siding was blown off a house. A nearby public weather station was reported to have measured a 74 mph wind gust_ although this me"
      },
      "geometry": {
        "type": "Point",
        "coordinates": [
          -76.55,
          35.53
        ]
      }
    },
    {
      "type": "Feature",
      "id": "iem-lsr-MHX-15",
      "properties": {
        "report_id": "iem-lsr-MHX-15",
        "report_type": "TSTM WND DMG",
        "event_category": "thunderstorm_wind",
        "valid_utc": "202606142017",
        "standard_time_display": "2026-06-14 15:17 EST",
        "wfo": "MHX",
        "county_or_zone": "Beaufort",
        "city": "1 SE Belhaven",
        "state": "NC",
        "magnitude": null,
        "magnitude_units": null,
        "source": "911 Call Center",
        "event_narrative": "Trees and wires down in town."
      },
      "geometry": {
        "type": "Point",
        "coordinates": [
          -76.61,
          35.54
        ]
      }
    },
    {
      "type": "Feature",
      "id": "iem-lsr-MHX-16",
      "properties": {
        "report_id": "iem-lsr-MHX-16",
        "report_type": "HAIL",
        "event_category": "hail",
        "valid_utc": "202606142029",
        "standard_time_display": "2026-06-14 15:29 EST",
        "wfo": "MHX",
        "county_or_zone": "Tyrrell",
        "city": "5 SE Woodley",
        "state": "NC",
        "magnitude": 1.0,
        "magnitude_units": null,
        "source": "Public",
        "event_narrative": "Delayed report. Caller estimated dime to quarter size hail at their location. They also said the wind was very strong but did not have an estimate. They noted a lot of small tree branches blown down."
      },
      "geometry": {
        "type": "Point",
        "coordinates": [
          -76.29,
          35.83
        ]
      }
    },
    {
      "type": "Feature",
      "id": "iem-lsr-MHX-17",
      "properties": {
        "report_id": "iem-lsr-MHX-17",
        "report_type": "MARINE TSTM WIND",
        "event_category": "marine",
        "valid_utc": "202606142118",
        "standard_time_display": "2026-06-14 16:18 EST",
        "wfo": "MHX",
        "county_or_zone": "AMZ131",
        "city": "4 WSW East Lake",
        "state": "NC",
        "magnitude": 41.0,
        "magnitude_units": null,
        "source": "Mesonet",
        "event_narrative": "36 knot wind gust was reported as thunderstorms moved through the area near the Alligator River Bridge. Report came in from a WeatherFlow Station."
      },
      "geometry": {
        "type": "Point",
        "coordinates": [
          -76.02,
          35.86
        ]
      }
    },
    {
      "type": "Feature",
      "id": "iem-lsr-MHX-18",
      "properties": {
        "report_id": "iem-lsr-MHX-18",
        "report_type": "WATERSPOUT",
        "event_category": "tornado",
        "valid_utc": "202606161759",
        "standard_time_display": "2026-06-16 12:59 EST",
        "wfo": "MHX",
        "county_or_zone": "AMZ158",
        "city": "1 SSE Stella",
        "state": "NC",
        "magnitude": null,
        "magnitude_units": null,
        "source": "Emergency Mngr",
        "event_narrative": "Onslow EM relayed a report of a waterspout seen in the vicinity of the White Oak River north of Swansboro. Multiple reports and pictures were received in this area from the public as well."
      },
      "geometry": {
        "type": "Point",
        "coordinates": [
          -77.13,
          34.75
        ]
      }
    },
    {
      "type": "Feature",
      "id": "iem-lsr-MHX-19",
      "properties": {
        "report_id": "iem-lsr-MHX-19",
        "report_type": "MARINE TSTM WIND",
        "event_category": "marine",
        "valid_utc": "202606191453",
        "standard_time_display": "2026-06-19 09:53 EST",
        "wfo": "MHX",
        "county_or_zone": "AMZ188",
        "city": "31 SE Onslow Beach",
        "state": "NC",
        "magnitude": 65.0,
        "magnitude_units": null,
        "source": "Mesonet",
        "event_narrative": "Peak wind gust of 56 kt measured at the Onslow Bay Buoy (41064)."
      },
      "geometry": {
        "type": "Point",
        "coordinates": [
          -76.95,
          34.21
        ]
      }
    },
    {
      "type": "Feature",
      "id": "iem-lsr-MHX-20",
      "properties": {
        "report_id": "iem-lsr-MHX-20",
        "report_type": "MARINE TSTM WIND",
        "event_category": "marine",
        "valid_utc": "202606191534",
        "standard_time_display": "2026-06-19 10:34 EST",
        "wfo": "MHX",
        "county_or_zone": "AMZ158",
        "city": "2 E Oceana Pier",
        "state": "NC",
        "magnitude": 46.0,
        "magnitude_units": null,
        "source": "Mesonet",
        "event_narrative": "Fort Macon WeatherFlow station reported a 40 kt wind gust."
      },
      "geometry": {
        "type": "Point",
        "coordinates": [
          -76.69,
          34.7
        ]
      }
    },
    {
      "type": "Feature",
      "id": "iem-lsr-MHX-21",
      "properties": {
        "report_id": "iem-lsr-MHX-21",
        "report_type": "MARINE TSTM WIND",
        "event_category": "marine",
        "valid_utc": "202606191654",
        "standard_time_display": "2026-06-19 11:54 EST",
        "wfo": "MHX",
        "county_or_zone": "AMZ135",
        "city": "2 NNW Frisco",
        "state": "NC",
        "magnitude": 40.0,
        "magnitude_units": null,
        "source": "Mesonet",
        "event_narrative": "Peak wind gust of 35kt measured at the Frisco Woods WeatherFlow station."
      },
      "geometry": {
        "type": "Point",
        "coordinates": [
          -75.64,
          35.26
        ]
      }
    },
    {
      "type": "Feature",
      "id": "iem-lsr-MHX-22",
      "properties": {
        "report_id": "iem-lsr-MHX-22",
        "report_type": "MARINE TSTM WIND",
        "event_category": "marine",
        "valid_utc": "202606191658",
        "standard_time_display": "2026-06-19 11:58 EST",
        "wfo": "MHX",
        "county_or_zone": "AMZ135",
        "city": "1 NNE Frisco",
        "state": "NC",
        "magnitude": 39.0,
        "magnitude_units": null,
        "source": "ASOS",
        "event_narrative": "Peak wind gust of 34 kt measured at the Hatteras Airport (KHSE)."
      },
      "geometry": {
        "type": "Point",
        "coordinates": [
          -75.63,
          35.24
        ]
      }
    },
    {
      "type": "Feature",
      "id": "iem-lsr-MHX-23",
      "properties": {
        "report_id": "iem-lsr-MHX-23",
        "report_type": "MARINE TSTM WIND",
        "event_category": "marine",
        "valid_utc": "202606191717",
        "standard_time_display": "2026-06-19 12:17 EST",
        "wfo": "MHX",
        "county_or_zone": "AMZ135",
        "city": "1 W Avon",
        "state": "NC",
        "magnitude": 39.0,
        "magnitude_units": null,
        "source": "Mesonet",
        "event_narrative": "Peak gust of 34 kt measured at the Avon Sound WeatherFlow station."
      },
      "geometry": {
        "type": "Point",
        "coordinates": [
          -75.52,
          35.35
        ]
      }
    }
  ]
}