{
  "type": "FeatureCollection",
  "metadata": {
    "schema_version": "0.2.4",
    "year": 2026,
    "month": 9,
    "wfo": "LIX",
    "start_utc": "2026-09-01T00:00:00Z",
    "end_utc": "2026-10-01T00:00:00Z",
    "generated_utc": "2026-09-23T14:13:43Z",
    "mode": "storm_data_prep",
    "public_release_status": "public-source-derived",
    "time_note": "Storm Data entry times should be reviewed in local Standard Time (ST), not daylight time. Candidate reports include standard_time_display.",
    "tornado_track_policy": "Tornado tracks must come from DAT. NCEI begin/end coordinates are not used as a tornado track substitute.",
    "source": "https://mesonet.agron.iastate.edu/cgi-bin/request/gis/lsr.py?wfo=LIX&sts=2026-09-01T00%3A00%3A00Z&ets=2026-10-01T00%3A00%3A00Z&fmt=csv"
  },
  "features": [
    {
      "type": "Feature",
      "id": "iem-lsr-LIX-1",
      "properties": {
        "report_id": "iem-lsr-LIX-1",
        "report_type": "MARINE TSTM WIND",
        "event_category": "marine",
        "valid_utc": "202609010440",
        "standard_time_display": "2026-08-31 22:40 CST",
        "wfo": "LIX",
        "county_or_zone": "GMZ570",
        "city": "61 SSW Cocodrie",
        "state": "LA",
        "magnitude": 45.0,
        "magnitude_units": null,
        "source": "Ship",
        "event_narrative": "Ship Shoal observation recorded a 45 mph wind gust."
      },
      "geometry": {
        "type": "Point",
        "coordinates": [
          -91.03,
          28.43
        ]
      }
    },
    {
      "type": "Feature",
      "id": "iem-lsr-LIX-2",
      "properties": {
        "report_id": "iem-lsr-LIX-2",
        "report_type": "FLASH FLOOD",
        "event_category": "flooding",
        "valid_utc": "202609041239",
        "standard_time_display": "2026-09-04 06:39 CST",
        "wfo": "LIX",
        "county_or_zone": "Jefferson",
        "city": "1 ENE Metairie",
        "state": "LA",
        "magnitude": null,
        "magnitude_units": null,
        "source": "Broadcast Media",
        "event_narrative": "Local broadcast media reported live images of significant street flooding near Causeway Blvd and Veterans in Metairie."
      },
      "geometry": {
        "type": "Point",
        "coordinates": [
          -90.16,
          30.0
        ]
      }
    },
    {
      "type": "Feature",
      "id": "iem-lsr-LIX-3",
      "properties": {
        "report_id": "iem-lsr-LIX-3",
        "report_type": "FLASH FLOOD",
        "event_category": "flooding",
        "valid_utc": "202609051700",
        "standard_time_display": "2026-09-05 11:00 CST",
        "wfo": "LIX",
        "county_or_zone": "Jefferson",
        "city": "Harahan",
        "state": "LA",
        "magnitude": null,
        "magnitude_units": null,
        "source": "Public",
        "event_narrative": "Delayed report. Heavy rainfall produced flash flooding near the intersection of Sheringham and Doescher Drives. The water was approximately 18 inches deep."
      },
      "geometry": {
        "type": "Point",
        "coordinates": [
          -90.2,
          29.93
        ]
      }
    },
    {
      "type": "Feature",
      "id": "iem-lsr-LIX-4",
      "properties": {
        "report_id": "iem-lsr-LIX-4",
        "report_type": "FLASH FLOOD",
        "event_category": "flooding",
        "valid_utc": "202609052300",
        "standard_time_display": "2026-09-05 17:00 CST",
        "wfo": "LIX",
        "county_or_zone": "Jefferson",
        "city": "2 ESE Metairie",
        "state": "LA",
        "magnitude": null,
        "magnitude_units": null,
        "source": "Broadcast Media",
        "event_narrative": "Local broadcast media relayed flooding along Hollywood Drive in Metairie."
      },
      "geometry": {
        "type": "Point",
        "coordinates": [
          -90.14,
          29.98
        ]
      }
    },
    {
      "type": "Feature",
      "id": "iem-lsr-LIX-5",
      "properties": {
        "report_id": "iem-lsr-LIX-5",
        "report_type": "TSTM WND DMG",
        "event_category": "thunderstorm_wind",
        "valid_utc": "202609071857",
        "standard_time_display": "2026-09-07 12:57 CST",
        "wfo": "LIX",
        "county_or_zone": "West Baton Rouge",
        "city": "Brusly",
        "state": "LA",
        "magnitude": null,
        "magnitude_units": null,
        "source": "Public",
        "event_narrative": "Public report of tree limb on car and large tree limb on shed in Brusly from thunderstorm winds. Time estimated by radar."
      },
      "geometry": {
        "type": "Point",
        "coordinates": [
          -91.26,
          30.4
        ]
      }
    },
    {
      "type": "Feature",
      "id": "iem-lsr-LIX-6",
      "properties": {
        "report_id": "iem-lsr-LIX-6",
        "report_type": "TSTM WND DMG",
        "event_category": "thunderstorm_wind",
        "valid_utc": "202609071930",
        "standard_time_display": "2026-09-07 13:30 CST",
        "wfo": "LIX",
        "county_or_zone": "Tangipahoa",
        "city": "1 NNW Robert",
        "state": "LA",
        "magnitude": null,
        "magnitude_units": null,
        "source": "Law Enforcement",
        "event_narrative": "Sagging power line on Hwy 445. Time estimated by radar."
      },
      "geometry": {
        "type": "Point",
        "coordinates": [
          -90.35,
          30.52
        ]
      }
    },
    {
      "type": "Feature",
      "id": "iem-lsr-LIX-7",
      "properties": {
        "report_id": "iem-lsr-LIX-7",
        "report_type": "TSTM WND DMG",
        "event_category": "thunderstorm_wind",
        "valid_utc": "202609071939",
        "standard_time_display": "2026-09-07 13:39 CST",
        "wfo": "LIX",
        "county_or_zone": "Tangipahoa",
        "city": "2 WSW Hammond",
        "state": "LA",
        "magnitude": null,
        "magnitude_units": null,
        "source": "Broadcast Media",
        "event_narrative": "Building damage at Courtney Christian High School in Hammond. Possible tornado damage. Time estimated by radar."
      },
      "geometry": {
        "type": "Point",
        "coordinates": [
          -90.5,
          30.5
        ]
      }
    },
    {
      "type": "Feature",
      "id": "iem-lsr-LIX-8",
      "properties": {
        "report_id": "iem-lsr-LIX-8",
        "report_type": "TORNADO",
        "event_category": "tornado",
        "valid_utc": "202609071939",
        "standard_time_display": "2026-09-07 13:39 CST",
        "wfo": "LIX",
        "county_or_zone": "Tangipahoa",
        "city": "2 W Hammond",
        "state": "LA",
        "magnitude": null,
        "magnitude_units": null,
        "source": "NWS Storm Survey",
        "event_narrative": "Tornado began in a parking lot on West Thomas Street and traveled south-southwest for around 3 quarters of a mile. Damage was mostly to trees however_ minor structural damage did occur. Tornado lifte"
      },
      "geometry": {
        "type": "Point",
        "coordinates": [
          -90.5,
          30.5
        ]
      }
    },
    {
      "type": "Feature",
      "id": "iem-lsr-LIX-9",
      "properties": {
        "report_id": "iem-lsr-LIX-9",
        "report_type": "TSTM WND DMG",
        "event_category": "thunderstorm_wind",
        "valid_utc": "202609071945",
        "standard_time_display": "2026-09-07 13:45 CST",
        "wfo": "LIX",
        "county_or_zone": "Tangipahoa",
        "city": "4 WNW Hammond",
        "state": "LA",
        "magnitude": null,
        "magnitude_units": null,
        "source": "Law Enforcement",
        "event_narrative": "Trees down on Milton Rd in Hammond. Time estimated by radar."
      },
      "geometry": {
        "type": "Point",
        "coordinates": [
          -90.53,
          30.52
        ]
      }
    },
    {
      "type": "Feature",
      "id": "iem-lsr-LIX-10",
      "properties": {
        "report_id": "iem-lsr-LIX-10",
        "report_type": "TSTM WND DMG",
        "event_category": "thunderstorm_wind",
        "valid_utc": "202609071955",
        "standard_time_display": "2026-09-07 13:55 CST",
        "wfo": "LIX",
        "county_or_zone": "Tangipahoa",
        "city": "3 SSW Independence",
        "state": "LA",
        "magnitude": null,
        "magnitude_units": null,
        "source": "Broadcast Media",
        "event_narrative": "Straight-line winds caused a pine tree to snap and damage a roof on a house as well as their AC unit in Independence_ LA. Time estimated by radar."
      },
      "geometry": {
        "type": "Point",
        "coordinates": [
          -90.53,
          30.6
        ]
      }
    },
    {
      "type": "Feature",
      "id": "iem-lsr-LIX-11",
      "properties": {
        "report_id": "iem-lsr-LIX-11",
        "report_type": "TSTM WND DMG",
        "event_category": "thunderstorm_wind",
        "valid_utc": "202609072100",
        "standard_time_display": "2026-09-07 15:00 CST",
        "wfo": "LIX",
        "county_or_zone": "East Feliciana",
        "city": "Slaughter",
        "state": "LA",
        "magnitude": null,
        "magnitude_units": null,
        "source": "Public",
        "event_narrative": "Public report of multiple trees down in and around Slaughter blocking the roads and highways. Time estimated by radar."
      },
      "geometry": {
        "type": "Point",
        "coordinates": [
          -91.14,
          30.72
        ]
      }
    },
    {
      "type": "Feature",
      "id": "iem-lsr-LIX-12",
      "properties": {
        "report_id": "iem-lsr-LIX-12",
        "report_type": "FLASH FLOOD",
        "event_category": "flooding",
        "valid_utc": "202609101215",
        "standard_time_display": "2026-09-10 06:15 CST",
        "wfo": "LIX",
        "county_or_zone": "Jefferson",
        "city": "3 NNW Kenner",
        "state": "LA",
        "magnitude": null,
        "magnitude_units": null,
        "source": "Broadcast Media",
        "event_narrative": "Local broadcast media posted a picture on social media of flooding along Loyola Dr in Kenner. The water was approximately 1-2 feet deep."
      },
      "geometry": {
        "type": "Point",
        "coordinates": [
          -90.27,
          30.02
        ]
      }
    },
    {
      "type": "Feature",
      "id": "iem-lsr-LIX-13",
      "properties": {
        "report_id": "iem-lsr-LIX-13",
        "report_type": "FLASH FLOOD",
        "event_category": "flooding",
        "valid_utc": "202609101600",
        "standard_time_display": "2026-09-10 10:00 CST",
        "wfo": "LIX",
        "county_or_zone": "Harrison",
        "city": "2 WSW Pass Christian",
        "state": "MS",
        "magnitude": null,
        "magnitude_units": null,
        "source": "Broadcast Media",
        "event_narrative": "Lots of ponding water along Hwy 90 between Waveland and Gulfport."
      },
      "geometry": {
        "type": "Point",
        "coordinates": [
          -89.27,
          30.31
        ]
      }
    },
    {
      "type": "Feature",
      "id": "iem-lsr-LIX-14",
      "properties": {
        "report_id": "iem-lsr-LIX-14",
        "report_type": "FLASH FLOOD",
        "event_category": "flooding",
        "valid_utc": "202609101740",
        "standard_time_display": "2026-09-10 11:40 CST",
        "wfo": "LIX",
        "county_or_zone": "Tangipahoa",
        "city": "1 SW Hammond",
        "state": "LA",
        "magnitude": null,
        "magnitude_units": null,
        "source": "Broadcast Media",
        "event_narrative": "Approximately 6 inches of standing water on some roads in downtown Hammond."
      },
      "geometry": {
        "type": "Point",
        "coordinates": [
          -90.47,
          30.5
        ]
      }
    },
    {
      "type": "Feature",
      "id": "iem-lsr-LIX-15",
      "properties": {
        "report_id": "iem-lsr-LIX-15",
        "report_type": "WATERSPOUT",
        "event_category": "tornado",
        "valid_utc": "202609102314",
        "standard_time_display": "2026-09-10 17:14 CST",
        "wfo": "LIX",
        "county_or_zone": "GMZ554",
        "city": "23 SSE Venice",
        "state": "LA",
        "magnitude": null,
        "magnitude_units": null,
        "source": "Public",
        "event_narrative": "Delayed report. Video of a small waterspout near SW Pass from social media. Exact location estimated by radar."
      },
      "geometry": {
        "type": "Point",
        "coordinates": [
          -89.2,
          28.97
        ]
      }
    },
    {
      "type": "Feature",
      "id": "iem-lsr-LIX-16",
      "properties": {
        "report_id": "iem-lsr-LIX-16",
        "report_type": "LIGHTNING",
        "event_category": "other",
        "valid_utc": "202609142215",
        "standard_time_display": "2026-09-14 16:15 CST",
        "wfo": "LIX",
        "county_or_zone": "Harrison",
        "city": "6 NW Saint Martin",
        "state": "MS",
        "magnitude": null,
        "magnitude_units": null,
        "source": "Emergency Mngr",
        "event_narrative": "Lightning caused a natural gas-fueled fire near Hudson Krohn Rd."
      },
      "geometry": {
        "type": "Point",
        "coordinates": [
          -88.94,
          30.5
        ]
      }
    },
    {
      "type": "Feature",
      "id": "iem-lsr-LIX-17",
      "properties": {
        "report_id": "iem-lsr-LIX-17",
        "report_type": "TSTM WND DMG",
        "event_category": "thunderstorm_wind",
        "valid_utc": "202609212156",
        "standard_time_display": "2026-09-21 15:56 CST",
        "wfo": "LIX",
        "county_or_zone": "Iberville",
        "city": "1 ESE Maringouin",
        "state": "LA",
        "magnitude": null,
        "magnitude_units": null,
        "source": "Law Enforcement",
        "event_narrative": "Trees down."
      },
      "geometry": {
        "type": "Point",
        "coordinates": [
          -91.51,
          30.49
        ]
      }
    },
    {
      "type": "Feature",
      "id": "iem-lsr-LIX-18",
      "properties": {
        "report_id": "iem-lsr-LIX-18",
        "report_type": "TSTM WND DMG",
        "event_category": "thunderstorm_wind",
        "valid_utc": "202609212156",
        "standard_time_display": "2026-09-21 15:56 CST",
        "wfo": "LIX",
        "county_or_zone": "Iberville",
        "city": "1 NNW Grosse Tete",
        "state": "LA",
        "magnitude": null,
        "magnitude_units": null,
        "source": "Law Enforcement",
        "event_narrative": "Multiple trees down on Sidney Road in Gross Tete."
      },
      "geometry": {
        "type": "Point",
        "coordinates": [
          -91.44,
          30.43
        ]
      }
    },
    {
      "type": "Feature",
      "id": "iem-lsr-LIX-19",
      "properties": {
        "report_id": "iem-lsr-LIX-19",
        "report_type": "TSTM WND DMG",
        "event_category": "thunderstorm_wind",
        "valid_utc": "202609212220",
        "standard_time_display": "2026-09-21 16:20 CST",
        "wfo": "LIX",
        "county_or_zone": "Washington",
        "city": "4 NW Enon",
        "state": "LA",
        "magnitude": null,
        "magnitude_units": null,
        "source": "Emergency Mngr",
        "event_narrative": "Trees down across Burnsfield Road."
      },
      "geometry": {
        "type": "Point",
        "coordinates": [
          -90.13,
          30.77
        ]
      }
    },
    {
      "type": "Feature",
      "id": "iem-lsr-LIX-20",
      "properties": {
        "report_id": "iem-lsr-LIX-20",
        "report_type": "TSTM WND DMG",
        "event_category": "thunderstorm_wind",
        "valid_utc": "202609212241",
        "standard_time_display": "2026-09-21 16:41 CST",
        "wfo": "LIX",
        "county_or_zone": "Washington",
        "city": "2 WNW Angie",
        "state": "LA",
        "magnitude": null,
        "magnitude_units": null,
        "source": "Emergency Mngr",
        "event_narrative": "Trees down across the road."
      },
      "geometry": {
        "type": "Point",
        "coordinates": [
          -89.84,
          30.98
        ]
      }
    },
    {
      "type": "Feature",
      "id": "iem-lsr-LIX-21",
      "properties": {
        "report_id": "iem-lsr-LIX-21",
        "report_type": "TSTM WND DMG",
        "event_category": "thunderstorm_wind",
        "valid_utc": "202609212242",
        "standard_time_display": "2026-09-21 16:42 CST",
        "wfo": "LIX",
        "county_or_zone": "Washington",
        "city": "1 SW Angie",
        "state": "LA",
        "magnitude": null,
        "magnitude_units": null,
        "source": "Emergency Mngr",
        "event_narrative": "Trees down across road."
      },
      "geometry": {
        "type": "Point",
        "coordinates": [
          -89.83,
          30.95
        ]
      }
    },
    {
      "type": "Feature",
      "id": "iem-lsr-LIX-22",
      "properties": {
        "report_id": "iem-lsr-LIX-22",
        "report_type": "TSTM WND DMG",
        "event_category": "thunderstorm_wind",
        "valid_utc": "202609212315",
        "standard_time_display": "2026-09-21 17:15 CST",
        "wfo": "LIX",
        "county_or_zone": "St. Tammany",
        "city": "1 SSE Covington",
        "state": "LA",
        "magnitude": null,
        "magnitude_units": null,
        "source": "Emergency Mngr",
        "event_narrative": "Tree onto a house."
      },
      "geometry": {
        "type": "Point",
        "coordinates": [
          -90.11,
          30.47
        ]
      }
    },
    {
      "type": "Feature",
      "id": "iem-lsr-LIX-23",
      "properties": {
        "report_id": "iem-lsr-LIX-23",
        "report_type": "TSTM WND DMG",
        "event_category": "thunderstorm_wind",
        "valid_utc": "202609212320",
        "standard_time_display": "2026-09-21 17:20 CST",
        "wfo": "LIX",
        "county_or_zone": "St. Tammany",
        "city": "Covington",
        "state": "LA",
        "magnitude": null,
        "magnitude_units": null,
        "source": "Emergency Mngr",
        "event_narrative": "Tree on power line; power line down."
      },
      "geometry": {
        "type": "Point",
        "coordinates": [
          -90.12,
          30.48
        ]
      }
    },
    {
      "type": "Feature",
      "id": "iem-lsr-LIX-24",
      "properties": {
        "report_id": "iem-lsr-LIX-24",
        "report_type": "TSTM WND DMG",
        "event_category": "thunderstorm_wind",
        "valid_utc": "202609212327",
        "standard_time_display": "2026-09-21 17:27 CST",
        "wfo": "LIX",
        "county_or_zone": "St. Tammany",
        "city": "2 N Madisonville",
        "state": "LA",
        "magnitude": null,
        "magnitude_units": null,
        "source": "Emergency Mngr",
        "event_narrative": "Trees down."
      },
      "geometry": {
        "type": "Point",
        "coordinates": [
          -90.16,
          30.43
        ]
      }
    },
    {
      "type": "Feature",
      "id": "iem-lsr-LIX-25",
      "properties": {
        "report_id": "iem-lsr-LIX-25",
        "report_type": "TSTM WND DMG",
        "event_category": "thunderstorm_wind",
        "valid_utc": "202609212331",
        "standard_time_display": "2026-09-21 17:31 CST",
        "wfo": "LIX",
        "county_or_zone": "St. Tammany",
        "city": "1 N Madisonville",
        "state": "LA",
        "magnitude": null,
        "magnitude_units": null,
        "source": "Emergency Mngr",
        "event_narrative": "Tree down on power lines with power lines down."
      },
      "geometry": {
        "type": "Point",
        "coordinates": [
          -90.17,
          30.41
        ]
      }
    },
    {
      "type": "Feature",
      "id": "iem-lsr-LIX-26",
      "properties": {
        "report_id": "iem-lsr-LIX-26",
        "report_type": "TSTM WND DMG",
        "event_category": "thunderstorm_wind",
        "valid_utc": "202609212333",
        "standard_time_display": "2026-09-21 17:33 CST",
        "wfo": "LIX",
        "county_or_zone": "St. Tammany",
        "city": "2 N Madisonville",
        "state": "LA",
        "magnitude": null,
        "magnitude_units": null,
        "source": "Emergency Mngr",
        "event_narrative": "Corrects previous tstm wnd dmg report from 2 N Madisonville. Trees down."
      },
      "geometry": {
        "type": "Point",
        "coordinates": [
          -90.16,
          30.43
        ]
      }
    },
    {
      "type": "Feature",
      "id": "iem-lsr-LIX-27",
      "properties": {
        "report_id": "iem-lsr-LIX-27",
        "report_type": "TSTM WND DMG",
        "event_category": "thunderstorm_wind",
        "valid_utc": "202609212333",
        "standard_time_display": "2026-09-21 17:33 CST",
        "wfo": "LIX",
        "county_or_zone": "St. Tammany",
        "city": "2 N Madisonville",
        "state": "LA",
        "magnitude": null,
        "magnitude_units": null,
        "source": "Emergency Mngr",
        "event_narrative": "Multiple trees down across Highway 1077."
      },
      "geometry": {
        "type": "Point",
        "coordinates": [
          -90.16,
          30.42
        ]
      }
    },
    {
      "type": "Feature",
      "id": "iem-lsr-LIX-28",
      "properties": {
        "report_id": "iem-lsr-LIX-28",
        "report_type": "MARINE TSTM WIND",
        "event_category": "marine",
        "valid_utc": "202609212354",
        "standard_time_display": "2026-09-21 17:54 CST",
        "wfo": "LIX",
        "county_or_zone": "GMZ531",
        "city": "12 SSW Mandeville",
        "state": "LA",
        "magnitude": 52.0,
        "magnitude_units": null,
        "source": "Mesonet",
        "event_narrative": "52 MPH 45 knots Mesonet station XPTN Pontchartrain Causeway."
      },
      "geometry": {
        "type": "Point",
        "coordinates": [
          -90.12,
          30.2
        ]
      }
    },
    {
      "type": "Feature",
      "id": "iem-lsr-LIX-29",
      "properties": {
        "report_id": "iem-lsr-LIX-29",
        "report_type": "MARINE TSTM WIND",
        "event_category": "marine",
        "valid_utc": "202609220009",
        "standard_time_display": "2026-09-21 18:09 CST",
        "wfo": "LIX",
        "county_or_zone": "GMZ531",
        "city": "12 SSW Mandeville",
        "state": "LA",
        "magnitude": 50.0,
        "magnitude_units": null,
        "source": "Mesonet",
        "event_narrative": "50 MPH 43 MPH Mesonet station XPTN Pontchartrain Causeway."
      },
      "geometry": {
        "type": "Point",
        "coordinates": [
          -90.12,
          30.2
        ]
      }
    },
    {
      "type": "Feature",
      "id": "iem-lsr-LIX-30",
      "properties": {
        "report_id": "iem-lsr-LIX-30",
        "report_type": "MARINE TSTM WIND",
        "event_category": "marine",
        "valid_utc": "202609220023",
        "standard_time_display": "2026-09-21 18:23 CST",
        "wfo": "LIX",
        "county_or_zone": "GMZ531",
        "city": "6 WSW East New Orleans",
        "state": "LA",
        "magnitude": 39.0,
        "magnitude_units": null,
        "source": "Mesonet",
        "event_narrative": "39 MPH 34 knots Mesonet station XLKF Lakefront Airport."
      },
      "geometry": {
        "type": "Point",
        "coordinates": [
          -90.02,
          30.04
        ]
      }
    },
    {
      "type": "Feature",
      "id": "iem-lsr-LIX-31",
      "properties": {
        "report_id": "iem-lsr-LIX-31",
        "report_type": "MARINE TSTM WIND",
        "event_category": "marine",
        "valid_utc": "202609220024",
        "standard_time_display": "2026-09-21 18:24 CST",
        "wfo": "LIX",
        "county_or_zone": "GMZ531",
        "city": "4 ENE Metairie",
        "state": "LA",
        "magnitude": 42.0,
        "magnitude_units": null,
        "source": "Buoy",
        "event_narrative": "Buoy station NWCL1 New Canal Station (LA)."
      },
      "geometry": {
        "type": "Point",
        "coordinates": [
          -90.11,
          30.03
        ]
      }
    },
    {
      "type": "Feature",
      "id": "iem-lsr-LIX-32",
      "properties": {
        "report_id": "iem-lsr-LIX-32",
        "report_type": "MARINE TSTM WIND",
        "event_category": "marine",
        "valid_utc": "202609220318",
        "standard_time_display": "2026-09-21 21:18 CST",
        "wfo": "LIX",
        "county_or_zone": "GMZ532",
        "city": "11 SSE Pascagoula",
        "state": "MS",
        "magnitude": 46.0,
        "magnitude_units": null,
        "source": "Mesonet",
        "event_narrative": "Mesonet station PTBM6 Petit Bois Is (Port of Pascagoula MS)."
      },
      "geometry": {
        "type": "Point",
        "coordinates": [
          -88.5,
          30.21
        ]
      }
    },
    {
      "type": "Feature",
      "id": "iem-lsr-LIX-33",
      "properties": {
        "report_id": "iem-lsr-LIX-33",
        "report_type": "MARINE TSTM WIND",
        "event_category": "marine",
        "valid_utc": "202609220328",
        "standard_time_display": "2026-09-21 21:28 CST",
        "wfo": "LIX",
        "county_or_zone": "GMZ532",
        "city": "12 SSE Gulfport",
        "state": "MS",
        "magnitude": 48.0,
        "magnitude_units": null,
        "source": "Mesonet",
        "event_narrative": "Mesonet station XSHI Ship Island."
      },
      "geometry": {
        "type": "Point",
        "coordinates": [
          -88.98,
          30.23
        ]
      }
    },
    {
      "type": "Feature",
      "id": "iem-lsr-LIX-34",
      "properties": {
        "report_id": "iem-lsr-LIX-34",
        "report_type": "MARINE TSTM WIND",
        "event_category": "marine",
        "valid_utc": "202609220458",
        "standard_time_display": "2026-09-21 22:58 CST",
        "wfo": "LIX",
        "county_or_zone": "Orleans",
        "city": "5 SSE East New Orleans",
        "state": "LA",
        "magnitude": 45.0,
        "magnitude_units": null,
        "source": "Mesonet",
        "event_narrative": "Mesonet station XBYU Bayou Bienvenue (Vertical Lift)."
      },
      "geometry": {
        "type": "Point",
        "coordinates": [
          -89.9,
          30.0
        ]
      }
    },
    {
      "type": "Feature",
      "id": "iem-lsr-LIX-35",
      "properties": {
        "report_id": "iem-lsr-LIX-35",
        "report_type": "MARINE TSTM WIND",
        "event_category": "marine",
        "valid_utc": "202609220501",
        "standard_time_display": "2026-09-21 23:01 CST",
        "wfo": "LIX",
        "county_or_zone": "Orleans",
        "city": "6 WSW East New Orleans",
        "state": "LA",
        "magnitude": 43.0,
        "magnitude_units": null,
        "source": "ASOS",
        "event_narrative": "ASOS station KNEW New Orleans Lakefront Airport."
      },
      "geometry": {
        "type": "Point",
        "coordinates": [
          -90.03,
          30.04
        ]
      }
    }
  ]
}