{
  "type": "FeatureCollection",
  "metadata": {
    "schema_version": "0.2.4",
    "year": 2026,
    "month": 3,
    "wfo": "LIX",
    "start_utc": "2026-03-01T00:00:00Z",
    "end_utc": "2026-04-01T00:00:00Z",
    "generated_utc": "2026-05-28T12:48:04Z",
    "mode": "storm_data_prep",
    "public_release_status": "public-source-derived",
    "time_note": "Storm Data entry times should be reviewed in local Standard Time (ST), not daylight time. Candidate reports include standard_time_display.",
    "tornado_track_policy": "Tornado tracks must come from DAT. NCEI begin/end coordinates are not used as a tornado track substitute.",
    "source": "https://mesonet.agron.iastate.edu/cgi-bin/request/gis/lsr.py?wfo=LIX&sts=2026-03-01T00%3A00%3A00Z&ets=2026-04-01T00%3A00%3A00Z&fmt=csv"
  },
  "features": [
    {
      "type": "Feature",
      "id": "iem-lsr-LIX-1",
      "properties": {
        "report_id": "iem-lsr-LIX-1",
        "report_type": "FLASH FLOOD",
        "event_category": "flooding",
        "valid_utc": "202603080200",
        "standard_time_display": "2026-03-07 20:00 CST",
        "wfo": "LIX",
        "county_or_zone": "Wilkinson",
        "city": "5 ESE Woodville",
        "state": "MS",
        "magnitude": null,
        "magnitude_units": null,
        "source": "Law Enforcement",
        "event_narrative": "Sheriffs Office reports 3-6 inches of water on several county roads in Wilkinson County."
      },
      "geometry": {
        "type": "Point",
        "coordinates": [
          -91.22,
          31.09
        ]
      }
    },
    {
      "type": "Feature",
      "id": "iem-lsr-LIX-2",
      "properties": {
        "report_id": "iem-lsr-LIX-2",
        "report_type": "FLASH FLOOD",
        "event_category": "flooding",
        "valid_utc": "202603080219",
        "standard_time_display": "2026-03-07 20:19 CST",
        "wfo": "LIX",
        "county_or_zone": "Amite",
        "city": "2 SW Liberty",
        "state": "MS",
        "magnitude": null,
        "magnitude_units": null,
        "source": "Law Enforcement",
        "event_narrative": "Law enforcement in Amite County MS report Highway 569 near Liberty is closed due to flooding."
      },
      "geometry": {
        "type": "Point",
        "coordinates": [
          -90.83,
          31.14
        ]
      }
    },
    {
      "type": "Feature",
      "id": "iem-lsr-LIX-3",
      "properties": {
        "report_id": "iem-lsr-LIX-3",
        "report_type": "FLASH FLOOD",
        "event_category": "flooding",
        "valid_utc": "202603080315",
        "standard_time_display": "2026-03-07 21:15 CST",
        "wfo": "LIX",
        "county_or_zone": "Tangipahoa",
        "city": "1 NE Roseland",
        "state": "LA",
        "magnitude": null,
        "magnitude_units": null,
        "source": "Law Enforcement",
        "event_narrative": "Sheriffs Office in Tangipahoa Parish reports road closure on LA10."
      },
      "geometry": {
        "type": "Point",
        "coordinates": [
          -90.5,
          30.78
        ]
      }
    },
    {
      "type": "Feature",
      "id": "iem-lsr-LIX-4",
      "properties": {
        "report_id": "iem-lsr-LIX-4",
        "report_type": "FLASH FLOOD",
        "event_category": "flooding",
        "valid_utc": "202603080315",
        "standard_time_display": "2026-03-07 21:15 CST",
        "wfo": "LIX",
        "county_or_zone": "Tangipahoa",
        "city": "2 N Roseland",
        "state": "LA",
        "magnitude": null,
        "magnitude_units": null,
        "source": "Law Enforcement",
        "event_narrative": "Sheriffs Office in Tangipahoa Parish reports road closure on Arcola Road."
      },
      "geometry": {
        "type": "Point",
        "coordinates": [
          -90.52,
          30.79
        ]
      }
    },
    {
      "type": "Feature",
      "id": "iem-lsr-LIX-5",
      "properties": {
        "report_id": "iem-lsr-LIX-5",
        "report_type": "FLASH FLOOD",
        "event_category": "flooding",
        "valid_utc": "202603080315",
        "standard_time_display": "2026-03-07 21:15 CST",
        "wfo": "LIX",
        "county_or_zone": "Tangipahoa",
        "city": "4 ESE Tangipahoa",
        "state": "LA",
        "magnitude": null,
        "magnitude_units": null,
        "source": "Law Enforcement",
        "event_narrative": "Sheriffs Office in Tangipahoa Parish reports road closure on 1058."
      },
      "geometry": {
        "type": "Point",
        "coordinates": [
          -90.45,
          30.85
        ]
      }
    },
    {
      "type": "Feature",
      "id": "iem-lsr-LIX-6",
      "properties": {
        "report_id": "iem-lsr-LIX-6",
        "report_type": "FLASH FLOOD",
        "event_category": "flooding",
        "valid_utc": "202603080330",
        "standard_time_display": "2026-03-07 21:30 CST",
        "wfo": "LIX",
        "county_or_zone": "East Baton Rouge",
        "city": "3 WSW Baton Rouge",
        "state": "LA",
        "magnitude": null,
        "magnitude_units": null,
        "source": "Public",
        "event_narrative": "DELAYED REPORT. Per social media photo and report. 6 inches or greater of water covering Cherokee Street. Multiple vehicles disabled."
      },
      "geometry": {
        "type": "Point",
        "coordinates": [
          -91.17,
          30.44
        ]
      }
    },
    {
      "type": "Feature",
      "id": "iem-lsr-LIX-7",
      "properties": {
        "report_id": "iem-lsr-LIX-7",
        "report_type": "FLASH FLOOD",
        "event_category": "flooding",
        "valid_utc": "202603080450",
        "standard_time_display": "2026-03-07 22:50 CST",
        "wfo": "LIX",
        "county_or_zone": "East Baton Rouge",
        "city": "3 SW Baton Rouge",
        "state": "LA",
        "magnitude": null,
        "magnitude_units": null,
        "source": "Dept of Highways",
        "event_narrative": "Social Media reports from DOT that LA 427 South at South Acadian Throughway is closed due to flooding."
      },
      "geometry": {
        "type": "Point",
        "coordinates": [
          -91.15,
          30.42
        ]
      }
    },
    {
      "type": "Feature",
      "id": "iem-lsr-LIX-8",
      "properties": {
        "report_id": "iem-lsr-LIX-8",
        "report_type": "FLASH FLOOD",
        "event_category": "flooding",
        "valid_utc": "202603080600",
        "standard_time_display": "2026-03-08 00:00 CST",
        "wfo": "LIX",
        "county_or_zone": "Livingston",
        "city": "2 ENE Denham Springs",
        "state": "LA",
        "magnitude": null,
        "magnitude_units": null,
        "source": "Broadcast Media",
        "event_narrative": "Portions of Eden Church Rd were closed due to flash flooding."
      },
      "geometry": {
        "type": "Point",
        "coordinates": [
          -90.92,
          30.49
        ]
      }
    },
    {
      "type": "Feature",
      "id": "iem-lsr-LIX-9",
      "properties": {
        "report_id": "iem-lsr-LIX-9",
        "report_type": "FLASH FLOOD",
        "event_category": "flooding",
        "valid_utc": "202603080600",
        "standard_time_display": "2026-03-08 00:00 CST",
        "wfo": "LIX",
        "county_or_zone": "Livingston",
        "city": "4 SW Walker",
        "state": "LA",
        "magnitude": null,
        "magnitude_units": null,
        "source": "Public",
        "event_narrative": "Public picture of 3-4 inches of water covering their whole yard well after rain stopped_ was likely higher during the peak of the event around 1am."
      },
      "geometry": {
        "type": "Point",
        "coordinates": [
          -90.91,
          30.43
        ]
      }
    },
    {
      "type": "Feature",
      "id": "iem-lsr-LIX-10",
      "properties": {
        "report_id": "iem-lsr-LIX-10",
        "report_type": "FLASH FLOOD",
        "event_category": "flooding",
        "valid_utc": "202603080610",
        "standard_time_display": "2026-03-08 00:10 CST",
        "wfo": "LIX",
        "county_or_zone": "East Baton Rouge",
        "city": "2 S Baton Rouge",
        "state": "LA",
        "magnitude": null,
        "magnitude_units": null,
        "source": "Trained Spotter",
        "event_narrative": "Trained spotter relayed reports of flooding occurring on the campus of LSU near Nicholson Drive and Burbank Drive."
      },
      "geometry": {
        "type": "Point",
        "coordinates": [
          -91.13,
          30.42
        ]
      }
    },
    {
      "type": "Feature",
      "id": "iem-lsr-LIX-11",
      "properties": {
        "report_id": "iem-lsr-LIX-11",
        "report_type": "FLASH FLOOD",
        "event_category": "flooding",
        "valid_utc": "202603080630",
        "standard_time_display": "2026-03-08 00:30 CST",
        "wfo": "LIX",
        "county_or_zone": "East Baton Rouge",
        "city": "2 SE Baton Rouge",
        "state": "LA",
        "magnitude": null,
        "magnitude_units": null,
        "source": "Broadcast Media",
        "event_narrative": "Street flooding occuring along East Grant Street and Thomas H. Delpit Drive."
      },
      "geometry": {
        "type": "Point",
        "coordinates": [
          -91.1,
          30.43
        ]
      }
    },
    {
      "type": "Feature",
      "id": "iem-lsr-LIX-12",
      "properties": {
        "report_id": "iem-lsr-LIX-12",
        "report_type": "FLASH FLOOD",
        "event_category": "flooding",
        "valid_utc": "202603080800",
        "standard_time_display": "2026-03-08 02:00 CST",
        "wfo": "LIX",
        "county_or_zone": "Livingston",
        "city": "4 SSW Walker",
        "state": "LA",
        "magnitude": null,
        "magnitude_units": null,
        "source": "Law Enforcement",
        "event_narrative": "Portions of Brown Rd in Denham Springs remain closed due to flash flooding."
      },
      "geometry": {
        "type": "Point",
        "coordinates": [
          -90.9,
          30.43
        ]
      }
    },
    {
      "type": "Feature",
      "id": "iem-lsr-LIX-13",
      "properties": {
        "report_id": "iem-lsr-LIX-13",
        "report_type": "FLASH FLOOD",
        "event_category": "flooding",
        "valid_utc": "202603080800",
        "standard_time_display": "2026-03-08 02:00 CST",
        "wfo": "LIX",
        "county_or_zone": "Livingston",
        "city": "6 SSE Walker",
        "state": "LA",
        "magnitude": null,
        "magnitude_units": null,
        "source": "Law Enforcement",
        "event_narrative": "All of Hood Rd remains closed due to flash flooding."
      },
      "geometry": {
        "type": "Point",
        "coordinates": [
          -90.83,
          30.4
        ]
      }
    },
    {
      "type": "Feature",
      "id": "iem-lsr-LIX-14",
      "properties": {
        "report_id": "iem-lsr-LIX-14",
        "report_type": "LIGHTNING",
        "event_category": "other",
        "valid_utc": "202603092244",
        "standard_time_display": "2026-03-09 16:44 CST",
        "wfo": "LIX",
        "county_or_zone": "Tangipahoa",
        "city": "Ponchatoula",
        "state": "LA",
        "magnitude": null,
        "magnitude_units": null,
        "source": "Broadcast Media",
        "event_narrative": "Delayed report: Lightning struck a historic art gallery in Ponchatoula causing damage by fire. Time estimated from radar."
      },
      "geometry": {
        "type": "Point",
        "coordinates": [
          -90.44,
          30.44
        ]
      }
    },
    {
      "type": "Feature",
      "id": "iem-lsr-LIX-15",
      "properties": {
        "report_id": "iem-lsr-LIX-15",
        "report_type": "HAIL",
        "event_category": "hail",
        "valid_utc": "202603092330",
        "standard_time_display": "2026-03-09 17:30 CST",
        "wfo": "LIX",
        "county_or_zone": "East Feliciana",
        "city": "6 WSW Darlington",
        "state": "LA",
        "magnitude": 1.0,
        "magnitude_units": null,
        "source": "Broadcast Media",
        "event_narrative": "Broadcast media submitted viewer photo of quarter sized hail on Hatcher Road east of Clinton. Time estimated by radar."
      },
      "geometry": {
        "type": "Point",
        "coordinates": [
          -90.88,
          30.83
        ]
      }
    },
    {
      "type": "Feature",
      "id": "iem-lsr-LIX-16",
      "properties": {
        "report_id": "iem-lsr-LIX-16",
        "report_type": "TORNADO",
        "event_category": "tornado",
        "valid_utc": "202603112355",
        "standard_time_display": "2026-03-11 17:55 CST",
        "wfo": "LIX",
        "county_or_zone": "Wilkinson",
        "city": "4 WNW Crosby",
        "state": "MS",
        "magnitude": null,
        "magnitude_units": null,
        "source": "NWS Storm Survey",
        "event_narrative": "The damage path of an EF-0 tornado with estimated peak winds near 85 mph was identified on high resolution satellite imagery in northeast Wilkinson County_ just south of Perrytown_ MS."
      },
      "geometry": {
        "type": "Point",
        "coordinates": [
          -91.12,
          31.31
        ]
      }
    },
    {
      "type": "Feature",
      "id": "iem-lsr-LIX-17",
      "properties": {
        "report_id": "iem-lsr-LIX-17",
        "report_type": "TORNADO",
        "event_category": "tornado",
        "valid_utc": "202603120009",
        "standard_time_display": "2026-03-11 18:09 CST",
        "wfo": "LIX",
        "county_or_zone": "Amite",
        "city": "3 ESE Crosby",
        "state": "MS",
        "magnitude": null,
        "magnitude_units": null,
        "source": "NWS Storm Survey",
        "event_narrative": "The damage path of an EF-1 tornado with maximum sustained winds of 90 mph was identified via high resolution satellite imagery in northwest Amite County_ north of Gloster_ MS."
      },
      "geometry": {
        "type": "Point",
        "coordinates": [
          -91.01,
          31.26
        ]
      }
    },
    {
      "type": "Feature",
      "id": "iem-lsr-LIX-18",
      "properties": {
        "report_id": "iem-lsr-LIX-18",
        "report_type": "TORNADO",
        "event_category": "tornado",
        "valid_utc": "202603120027",
        "standard_time_display": "2026-03-11 18:27 CST",
        "wfo": "LIX",
        "county_or_zone": "Amite",
        "city": "7 N Liberty",
        "state": "MS",
        "magnitude": null,
        "magnitude_units": null,
        "source": "NWS Storm Survey",
        "event_narrative": "The damage path of an EF-0 tornado with maximum sustained winds near 85 mph was identified on high resolution satellite imagery in rural Amite County_ north of Liberty_ MS."
      },
      "geometry": {
        "type": "Point",
        "coordinates": [
          -90.81,
          31.26
        ]
      }
    },
    {
      "type": "Feature",
      "id": "iem-lsr-LIX-19",
      "properties": {
        "report_id": "iem-lsr-LIX-19",
        "report_type": "TSTM WND DMG",
        "event_category": "thunderstorm_wind",
        "valid_utc": "202603120037",
        "standard_time_display": "2026-03-11 18:37 CST",
        "wfo": "LIX",
        "county_or_zone": "Amite",
        "city": "6 SSE Smithdale",
        "state": "MS",
        "magnitude": null,
        "magnitude_units": null,
        "source": "Emergency Mngr",
        "event_narrative": "Damage reported on Hwy 570_ Hwy 569_ and Thompson Road. Possible tornado."
      },
      "geometry": {
        "type": "Point",
        "coordinates": [
          -90.64,
          31.27
        ]
      }
    },
    {
      "type": "Feature",
      "id": "iem-lsr-LIX-20",
      "properties": {
        "report_id": "iem-lsr-LIX-20",
        "report_type": "TSTM WND DMG",
        "event_category": "thunderstorm_wind",
        "valid_utc": "202603120041",
        "standard_time_display": "2026-03-11 18:41 CST",
        "wfo": "LIX",
        "county_or_zone": "Amite",
        "city": "5 SE Smithdale",
        "state": "MS",
        "magnitude": null,
        "magnitude_units": null,
        "source": "Emergency Mngr",
        "event_narrative": "Corrects the time on previous report. Widespread tree damage across northeastern Amite county. Trees down on North Greensburg Rd_ Moak Rd_ Hwy 570_ Thompson Rd_ Hwy 569_ Tangipahoa Rd_ Jones Rd_ Woma"
      },
      "geometry": {
        "type": "Point",
        "coordinates": [
          -90.62,
          31.29
        ]
      }
    },
    {
      "type": "Feature",
      "id": "iem-lsr-LIX-21",
      "properties": {
        "report_id": "iem-lsr-LIX-21",
        "report_type": "TORNADO",
        "event_category": "tornado",
        "valid_utc": "202603120048",
        "standard_time_display": "2026-03-11 18:48 CST",
        "wfo": "LIX",
        "county_or_zone": "Pike",
        "city": "4 NW Summit",
        "state": "MS",
        "magnitude": null,
        "magnitude_units": null,
        "source": "NWS Storm Survey",
        "event_narrative": "An NWS storm survey confirmed an EF-1 tornado touched down near Johnston Chapel Rd in northwest Pike County_ MS. This tornado continued into Summit_ MS."
      },
      "geometry": {
        "type": "Point",
        "coordinates": [
          -90.51,
          31.32
        ]
      }
    },
    {
      "type": "Feature",
      "id": "iem-lsr-LIX-22",
      "properties": {
        "report_id": "iem-lsr-LIX-22",
        "report_type": "TORNADO",
        "event_category": "tornado",
        "valid_utc": "202603120048",
        "standard_time_display": "2026-03-11 18:48 CST",
        "wfo": "LIX",
        "county_or_zone": "Pike",
        "city": "4 WSW Summit",
        "state": "MS",
        "magnitude": null,
        "magnitude_units": null,
        "source": "NWS Storm Survey",
        "event_narrative": "An NWS storm survey confirmed an EF-1 touched down near Hwy 570 and Moak Rd in Pike County_ MS. Notable tree damage was identified along Hwy 570 in association with this tornado."
      },
      "geometry": {
        "type": "Point",
        "coordinates": [
          -90.54,
          31.27
        ]
      }
    },
    {
      "type": "Feature",
      "id": "iem-lsr-LIX-23",
      "properties": {
        "report_id": "iem-lsr-LIX-23",
        "report_type": "TSTM WND DMG",
        "event_category": "thunderstorm_wind",
        "valid_utc": "202603120051",
        "standard_time_display": "2026-03-11 18:51 CST",
        "wfo": "LIX",
        "county_or_zone": "East Baton Rouge",
        "city": "6 W Zachary",
        "state": "LA",
        "magnitude": null,
        "magnitude_units": null,
        "source": "Broadcast Media",
        "event_narrative": "Multiple power poles knocked down along Port Hudson Cemetary Rd."
      },
      "geometry": {
        "type": "Point",
        "coordinates": [
          -91.25,
          30.65
        ]
      }
    },
    {
      "type": "Feature",
      "id": "iem-lsr-LIX-24",
      "properties": {
        "report_id": "iem-lsr-LIX-24",
        "report_type": "TORNADO",
        "event_category": "tornado",
        "valid_utc": "202603120051",
        "standard_time_display": "2026-03-11 18:51 CST",
        "wfo": "LIX",
        "county_or_zone": "Pike",
        "city": "3 WSW Summit",
        "state": "MS",
        "magnitude": null,
        "magnitude_units": null,
        "source": "NWS Storm Survey",
        "event_narrative": "An NWS storm survey confirmed an EF-1 tornado touched down near Hwy 570 near Dallas Jackson Dr."
      },
      "geometry": {
        "type": "Point",
        "coordinates": [
          -90.51,
          31.27
        ]
      }
    },
    {
      "type": "Feature",
      "id": "iem-lsr-LIX-25",
      "properties": {
        "report_id": "iem-lsr-LIX-25",
        "report_type": "TSTM WND DMG",
        "event_category": "thunderstorm_wind",
        "valid_utc": "202603120052",
        "standard_time_display": "2026-03-11 18:52 CST",
        "wfo": "LIX",
        "county_or_zone": "Iberville",
        "city": "1 S Maringouin",
        "state": "LA",
        "magnitude": null,
        "magnitude_units": null,
        "source": "Public",
        "event_narrative": "Tree down home in Maringouin on Wheelock Rd."
      },
      "geometry": {
        "type": "Point",
        "coordinates": [
          -91.52,
          30.47
        ]
      }
    },
    {
      "type": "Feature",
      "id": "iem-lsr-LIX-26",
      "properties": {
        "report_id": "iem-lsr-LIX-26",
        "report_type": "TSTM WND DMG",
        "event_category": "thunderstorm_wind",
        "valid_utc": "202603120053",
        "standard_time_display": "2026-03-11 18:53 CST",
        "wfo": "LIX",
        "county_or_zone": "Iberville",
        "city": "Maringouin",
        "state": "LA",
        "magnitude": null,
        "magnitude_units": null,
        "source": "Trained Spotter",
        "event_narrative": "Trained spotter reported a tree down on a home in Maringouin in Iberville Parish. Time estimated by radar."
      },
      "geometry": {
        "type": "Point",
        "coordinates": [
          -91.52,
          30.49
        ]
      }
    },
    {
      "type": "Feature",
      "id": "iem-lsr-LIX-27",
      "properties": {
        "report_id": "iem-lsr-LIX-27",
        "report_type": "TSTM WND DMG",
        "event_category": "thunderstorm_wind",
        "valid_utc": "202603120056",
        "standard_time_display": "2026-03-11 18:56 CST",
        "wfo": "LIX",
        "county_or_zone": "Pike",
        "city": "1 ENE Summit",
        "state": "MS",
        "magnitude": null,
        "magnitude_units": null,
        "source": "Newspaper",
        "event_narrative": "Multiple trees and power lines down across the campus of Southwest Mississippi Community College. Trees also fell on dorms and the library."
      },
      "geometry": {
        "type": "Point",
        "coordinates": [
          -90.44,
          31.29
        ]
      }
    },
    {
      "type": "Feature",
      "id": "iem-lsr-LIX-28",
      "properties": {
        "report_id": "iem-lsr-LIX-28",
        "report_type": "TSTM WND DMG",
        "event_category": "thunderstorm_wind",
        "valid_utc": "202603120100",
        "standard_time_display": "2026-03-11 19:00 CST",
        "wfo": "LIX",
        "county_or_zone": "East Baton Rouge",
        "city": "1 SSW Zachary",
        "state": "LA",
        "magnitude": null,
        "magnitude_units": null,
        "source": "Fire Dept/Rescue",
        "event_narrative": "Emergency management reported trees down in Zachary on Cobb Street. Time estimated by radar."
      },
      "geometry": {
        "type": "Point",
        "coordinates": [
          -91.15,
          30.65
        ]
      }
    },
    {
      "type": "Feature",
      "id": "iem-lsr-LIX-29",
      "properties": {
        "report_id": "iem-lsr-LIX-29",
        "report_type": "TSTM WND DMG",
        "event_category": "thunderstorm_wind",
        "valid_utc": "202603120112",
        "standard_time_display": "2026-03-11 19:12 CST",
        "wfo": "LIX",
        "county_or_zone": "East Feliciana",
        "city": "8 ENE Pride",
        "state": "LA",
        "magnitude": null,
        "magnitude_units": null,
        "source": "Public",
        "event_narrative": "Metal roof cover partially removed from a mobile home."
      },
      "geometry": {
        "type": "Point",
        "coordinates": [
          -90.86,
          30.74
        ]
      }
    },
    {
      "type": "Feature",
      "id": "iem-lsr-LIX-30",
      "properties": {
        "report_id": "iem-lsr-LIX-30",
        "report_type": "TSTM WND DMG",
        "event_category": "thunderstorm_wind",
        "valid_utc": "202603120115",
        "standard_time_display": "2026-03-11 19:15 CST",
        "wfo": "LIX",
        "county_or_zone": "Livingston",
        "city": "1 N Watson",
        "state": "LA",
        "magnitude": null,
        "magnitude_units": null,
        "source": "Broadcast Media",
        "event_narrative": "Large limbs down and poles lines down."
      },
      "geometry": {
        "type": "Point",
        "coordinates": [
          -90.95,
          30.59
        ]
      }
    },
    {
      "type": "Feature",
      "id": "iem-lsr-LIX-31",
      "properties": {
        "report_id": "iem-lsr-LIX-31",
        "report_type": "TORNADO",
        "event_category": "tornado",
        "valid_utc": "202603120117",
        "standard_time_display": "2026-03-11 19:17 CST",
        "wfo": "LIX",
        "county_or_zone": "St. Helena",
        "city": "1 S Easleyville",
        "state": "LA",
        "magnitude": null,
        "magnitude_units": null,
        "source": "NWS Storm Survey",
        "event_narrative": "An NWS storm survey confirmed an EF-1 tornado touched down near LA Hwy 1043 and LA Hwy 43 in St. Helena Parish."
      },
      "geometry": {
        "type": "Point",
        "coordinates": [
          -90.69,
          30.91
        ]
      }
    },
    {
      "type": "Feature",
      "id": "iem-lsr-LIX-32",
      "properties": {
        "report_id": "iem-lsr-LIX-32",
        "report_type": "TSTM WND DMG",
        "event_category": "thunderstorm_wind",
        "valid_utc": "202603120118",
        "standard_time_display": "2026-03-11 19:18 CST",
        "wfo": "LIX",
        "county_or_zone": "West Baton Rouge",
        "city": "Addis",
        "state": "LA",
        "magnitude": null,
        "magnitude_units": null,
        "source": "Broadcast Media",
        "event_narrative": "Broadcast media reported downed trees via social media post in Addis. Time estimated by radar."
      },
      "geometry": {
        "type": "Point",
        "coordinates": [
          -91.27,
          30.35
        ]
      }
    },
    {
      "type": "Feature",
      "id": "iem-lsr-LIX-33",
      "properties": {
        "report_id": "iem-lsr-LIX-33",
        "report_type": "TSTM WND DMG",
        "event_category": "thunderstorm_wind",
        "valid_utc": "202603120122",
        "standard_time_display": "2026-03-11 19:22 CST",
        "wfo": "LIX",
        "county_or_zone": "St. Helena",
        "city": "3 SE Easleyville",
        "state": "LA",
        "magnitude": null,
        "magnitude_units": null,
        "source": "Broadcast Media",
        "event_narrative": "Broadcast media reports numerous trees and powerlines down northeast of Greensburg. Possible Tornado. Time estimated by radar."
      },
      "geometry": {
        "type": "Point",
        "coordinates": [
          -90.65,
          30.89
        ]
      }
    },
    {
      "type": "Feature",
      "id": "iem-lsr-LIX-34",
      "properties": {
        "report_id": "iem-lsr-LIX-34",
        "report_type": "TSTM WND DMG",
        "event_category": "thunderstorm_wind",
        "valid_utc": "202603120124",
        "standard_time_display": "2026-03-11 19:24 CST",
        "wfo": "LIX",
        "county_or_zone": "Amite",
        "city": "Gillsberg",
        "state": "MS",
        "magnitude": null,
        "magnitude_units": null,
        "source": "Emergency Mngr",
        "event_narrative": "Multiple trees down around Gillsburg_ MS and between MS Hwy 584 and MS Hwy 568."
      },
      "geometry": {
        "type": "Point",
        "coordinates": [
          -90.65,
          31.03
        ]
      }
    },
    {
      "type": "Feature",
      "id": "iem-lsr-LIX-35",
      "properties": {
        "report_id": "iem-lsr-LIX-35",
        "report_type": "TSTM WND DMG",
        "event_category": "thunderstorm_wind",
        "valid_utc": "202603120126",
        "standard_time_display": "2026-03-11 19:26 CST",
        "wfo": "LIX",
        "county_or_zone": "Livingston",
        "city": "4 N Livingston",
        "state": "LA",
        "magnitude": null,
        "magnitude_units": null,
        "source": "Fire Dept/Rescue",
        "event_narrative": "Livingston Fire reports trees down on Weiss Rd and Ligo Rd north of Livingston. Time estimated by radar."
      },
      "geometry": {
        "type": "Point",
        "coordinates": [
          -90.75,
          30.55
        ]
      }
    },
    {
      "type": "Feature",
      "id": "iem-lsr-LIX-36",
      "properties": {
        "report_id": "iem-lsr-LIX-36",
        "report_type": "TORNADO",
        "event_category": "tornado",
        "valid_utc": "202603120129",
        "standard_time_display": "2026-03-11 19:29 CST",
        "wfo": "LIX",
        "county_or_zone": "Tangipahoa",
        "city": "3 NNW Roseland",
        "state": "LA",
        "magnitude": null,
        "magnitude_units": null,
        "source": "NWS Storm Survey",
        "event_narrative": "An NWS storm survey confirmed at least an EF-0 tornado touched down north of LA Hwy 1048 and near Interstate 55 in Tangipahoa Parish."
      },
      "geometry": {
        "type": "Point",
        "coordinates": [
          -90.53,
          30.8
        ]
      }
    },
    {
      "type": "Feature",
      "id": "iem-lsr-LIX-37",
      "properties": {
        "report_id": "iem-lsr-LIX-37",
        "report_type": "TORNADO",
        "event_category": "tornado",
        "valid_utc": "202603120129",
        "standard_time_display": "2026-03-11 19:29 CST",
        "wfo": "LIX",
        "county_or_zone": "St. Helena",
        "city": "5 WNW Roseland",
        "state": "LA",
        "magnitude": null,
        "magnitude_units": null,
        "source": "NWS Storm Survey",
        "event_narrative": "Corrects previous tornado report from 3 NNW Roseland. An NWS storm survey confirmed at least an EF-0 tornado touched down north of LA Hwy 1048 and near Interstate 55 in Tangipahoa Parish."
      },
      "geometry": {
        "type": "Point",
        "coordinates": [
          -90.59,
          30.8
        ]
      }
    },
    {
      "type": "Feature",
      "id": "iem-lsr-LIX-38",
      "properties": {
        "report_id": "iem-lsr-LIX-38",
        "report_type": "TSTM WND DMG",
        "event_category": "thunderstorm_wind",
        "valid_utc": "202603120131",
        "standard_time_display": "2026-03-11 19:31 CST",
        "wfo": "LIX",
        "county_or_zone": "Tangipahoa",
        "city": "2 W Roseland",
        "state": "LA",
        "magnitude": null,
        "magnitude_units": null,
        "source": "Emergency Mngr",
        "event_narrative": "Emergency management reported trees down in western parts of Roseland at Richardson and Bennett Roads. Time estimated by radar."
      },
      "geometry": {
        "type": "Point",
        "coordinates": [
          -90.54,
          30.77
        ]
      }
    },
    {
      "type": "Feature",
      "id": "iem-lsr-LIX-39",
      "properties": {
        "report_id": "iem-lsr-LIX-39",
        "report_type": "TSTM WND DMG",
        "event_category": "thunderstorm_wind",
        "valid_utc": "202603120131",
        "standard_time_display": "2026-03-11 19:31 CST",
        "wfo": "LIX",
        "county_or_zone": "Tangipahoa",
        "city": "5 ENE Tangipahoa",
        "state": "LA",
        "magnitude": null,
        "magnitude_units": null,
        "source": "Emergency Mngr",
        "event_narrative": "Emergency Management reported trees down along State Route 1061 and J T Conerly RD. Time estimated by radar."
      },
      "geometry": {
        "type": "Point",
        "coordinates": [
          -90.43,
          30.9
        ]
      }
    },
    {
      "type": "Feature",
      "id": "iem-lsr-LIX-40",
      "properties": {
        "report_id": "iem-lsr-LIX-40",
        "report_type": "TORNADO",
        "event_category": "tornado",
        "valid_utc": "202603120131",
        "standard_time_display": "2026-03-11 19:31 CST",
        "wfo": "LIX",
        "county_or_zone": "Livingston",
        "city": "3 SSE Montpelier",
        "state": "LA",
        "magnitude": null,
        "magnitude_units": null,
        "source": "NWS Storm Survey",
        "event_narrative": "A 65 MPH EF0 tornado touched down north of Albany_ LA and tracked southeast."
      },
      "geometry": {
        "type": "Point",
        "coordinates": [
          -90.63,
          30.64
        ]
      }
    },
    {
      "type": "Feature",
      "id": "iem-lsr-LIX-41",
      "properties": {
        "report_id": "iem-lsr-LIX-41",
        "report_type": "TSTM WND DMG",
        "event_category": "thunderstorm_wind",
        "valid_utc": "202603120133",
        "standard_time_display": "2026-03-11 19:33 CST",
        "wfo": "LIX",
        "county_or_zone": "Tangipahoa",
        "city": "1 N Roseland",
        "state": "LA",
        "magnitude": null,
        "magnitude_units": null,
        "source": "Emergency Mngr",
        "event_narrative": "Trees down On HWY 51 and Arcola Rd. Time estimated by radar."
      },
      "geometry": {
        "type": "Point",
        "coordinates": [
          -90.51,
          30.78
        ]
      }
    },
    {
      "type": "Feature",
      "id": "iem-lsr-LIX-42",
      "properties": {
        "report_id": "iem-lsr-LIX-42",
        "report_type": "TSTM WND DMG",
        "event_category": "thunderstorm_wind",
        "valid_utc": "202603120134",
        "standard_time_display": "2026-03-11 19:34 CST",
        "wfo": "LIX",
        "county_or_zone": "Tangipahoa",
        "city": "1 SSE Roseland",
        "state": "LA",
        "magnitude": null,
        "magnitude_units": null,
        "source": "Emergency Mngr",
        "event_narrative": "Emergency management reported trees down on Commercial ST and Roseland Ave in Roseland. Time estimated by radar."
      },
      "geometry": {
        "type": "Point",
        "coordinates": [
          -90.51,
          30.76
        ]
      }
    },
    {
      "type": "Feature",
      "id": "iem-lsr-LIX-43",
      "properties": {
        "report_id": "iem-lsr-LIX-43",
        "report_type": "TSTM WND DMG",
        "event_category": "thunderstorm_wind",
        "valid_utc": "202603120137",
        "standard_time_display": "2026-03-11 19:37 CST",
        "wfo": "LIX",
        "county_or_zone": "Livingston",
        "city": "6 SSE Montpelier",
        "state": "LA",
        "magnitude": null,
        "magnitude_units": null,
        "source": "Fire Dept/Rescue",
        "event_narrative": "Power lines reported down on LA Hwy 43 in northeast Livingston. Possible Tornado."
      },
      "geometry": {
        "type": "Point",
        "coordinates": [
          -90.61,
          30.6
        ]
      }
    },
    {
      "type": "Feature",
      "id": "iem-lsr-LIX-44",
      "properties": {
        "report_id": "iem-lsr-LIX-44",
        "report_type": "TORNADO",
        "event_category": "tornado",
        "valid_utc": "202603120138",
        "standard_time_display": "2026-03-11 19:38 CST",
        "wfo": "LIX",
        "county_or_zone": "Tangipahoa",
        "city": "7 E Kentwood",
        "state": "LA",
        "magnitude": null,
        "magnitude_units": null,
        "source": "NWS Storm Survey",
        "event_narrative": "An NWS storm survey confirmed an EF-0 tornado touched down near LA Hwy 38 near Lewiston_ LA in northeast Tangipahoa Parish."
      },
      "geometry": {
        "type": "Point",
        "coordinates": [
          -90.4,
          30.93
        ]
      }
    },
    {
      "type": "Feature",
      "id": "iem-lsr-LIX-45",
      "properties": {
        "report_id": "iem-lsr-LIX-45",
        "report_type": "TSTM WND DMG",
        "event_category": "thunderstorm_wind",
        "valid_utc": "202603120139",
        "standard_time_display": "2026-03-11 19:39 CST",
        "wfo": "LIX",
        "county_or_zone": "Tangipahoa",
        "city": "2 NE Roseland",
        "state": "LA",
        "magnitude": null,
        "magnitude_units": null,
        "source": "Emergency Mngr",
        "event_narrative": "Emergency management reported trees down on LA 10 and South River Rd near Roseland. Time estimated by radar."
      },
      "geometry": {
        "type": "Point",
        "coordinates": [
          -90.48,
          30.79
        ]
      }
    },
    {
      "type": "Feature",
      "id": "iem-lsr-LIX-46",
      "properties": {
        "report_id": "iem-lsr-LIX-46",
        "report_type": "TSTM WND DMG",
        "event_category": "thunderstorm_wind",
        "valid_utc": "202603120141",
        "standard_time_display": "2026-03-11 19:41 CST",
        "wfo": "LIX",
        "county_or_zone": "Tangipahoa",
        "city": "2 NE Roseland",
        "state": "LA",
        "magnitude": null,
        "magnitude_units": null,
        "source": "Law Enforcement",
        "event_narrative": "Trees reported down on LA 10 and South River Rd near Roseland_ LA. Possible Tornado."
      },
      "geometry": {
        "type": "Point",
        "coordinates": [
          -90.48,
          30.79
        ]
      }
    },
    {
      "type": "Feature",
      "id": "iem-lsr-LIX-47",
      "properties": {
        "report_id": "iem-lsr-LIX-47",
        "report_type": "TSTM WND DMG",
        "event_category": "thunderstorm_wind",
        "valid_utc": "202603120145",
        "standard_time_display": "2026-03-11 19:45 CST",
        "wfo": "LIX",
        "county_or_zone": "Tangipahoa",
        "city": "3 W Hammond",
        "state": "LA",
        "magnitude": null,
        "magnitude_units": null,
        "source": "Emergency Mngr",
        "event_narrative": "Emergency management reported trees down along Crapanzano Rd and Cannino Rd in western Hammond. Time estimated by radar."
      },
      "geometry": {
        "type": "Point",
        "coordinates": [
          -90.51,
          30.52
        ]
      }
    },
    {
      "type": "Feature",
      "id": "iem-lsr-LIX-48",
      "properties": {
        "report_id": "iem-lsr-LIX-48",
        "report_type": "TSTM WND DMG",
        "event_category": "thunderstorm_wind",
        "valid_utc": "202603120147",
        "standard_time_display": "2026-03-11 19:47 CST",
        "wfo": "LIX",
        "county_or_zone": "Tangipahoa",
        "city": "7 ESE Amite",
        "state": "LA",
        "magnitude": null,
        "magnitude_units": null,
        "source": "Emergency Mngr",
        "event_narrative": "Emergency management reports trees down along Briar Patch Cemetery Rd and Neal Rd east of Amite City. Time estimated by radar."
      },
      "geometry": {
        "type": "Point",
        "coordinates": [
          -90.4,
          30.7
        ]
      }
    },
    {
      "type": "Feature",
      "id": "iem-lsr-LIX-49",
      "properties": {
        "report_id": "iem-lsr-LIX-49",
        "report_type": "TORNADO",
        "event_category": "tornado",
        "valid_utc": "202603120155",
        "standard_time_display": "2026-03-11 19:55 CST",
        "wfo": "LIX",
        "county_or_zone": "Tangipahoa",
        "city": "8 ENE Tickfaw",
        "state": "LA",
        "magnitude": null,
        "magnitude_units": null,
        "source": "NWS Storm Survey",
        "event_narrative": "A EF-0 tornado touched down just east of Loranger."
      },
      "geometry": {
        "type": "Point",
        "coordinates": [
          -90.37,
          30.63
        ]
      }
    },
    {
      "type": "Feature",
      "id": "iem-lsr-LIX-50",
      "properties": {
        "report_id": "iem-lsr-LIX-50",
        "report_type": "TSTM WND DMG",
        "event_category": "thunderstorm_wind",
        "valid_utc": "202603120157",
        "standard_time_display": "2026-03-11 19:57 CST",
        "wfo": "LIX",
        "county_or_zone": "Tangipahoa",
        "city": "1 E Hammond",
        "state": "LA",
        "magnitude": null,
        "magnitude_units": null,
        "source": "Emergency Mngr",
        "event_narrative": "Emergency management reports trees down at US 190 at Hart Road in Hammond. Time estimated by radar."
      },
      "geometry": {
        "type": "Point",
        "coordinates": [
          -90.44,
          30.51
        ]
      }
    },
    {
      "type": "Feature",
      "id": "iem-lsr-LIX-51",
      "properties": {
        "report_id": "iem-lsr-LIX-51",
        "report_type": "TSTM WND DMG",
        "event_category": "thunderstorm_wind",
        "valid_utc": "202603120159",
        "standard_time_display": "2026-03-11 19:59 CST",
        "wfo": "LIX",
        "county_or_zone": "Tangipahoa",
        "city": "1 NNE Springfield",
        "state": "LA",
        "magnitude": null,
        "magnitude_units": null,
        "source": "Emergency Mngr",
        "event_narrative": "Emergency Management reported trees down on Macedonia Rd near Springfield. Time estimated by radar."
      },
      "geometry": {
        "type": "Point",
        "coordinates": [
          -90.54,
          30.44
        ]
      }
    },
    {
      "type": "Feature",
      "id": "iem-lsr-LIX-52",
      "properties": {
        "report_id": "iem-lsr-LIX-52",
        "report_type": "TSTM WND DMG",
        "event_category": "thunderstorm_wind",
        "valid_utc": "202603120159",
        "standard_time_display": "2026-03-11 19:59 CST",
        "wfo": "LIX",
        "county_or_zone": "Tangipahoa",
        "city": "2 SSE Hammond",
        "state": "LA",
        "magnitude": null,
        "magnitude_units": null,
        "source": "Emergency Mngr",
        "event_narrative": "Emergency management reported trees down along Yokum Rd and I-12 service Rd in Hammond. Time estimated by radar."
      },
      "geometry": {
        "type": "Point",
        "coordinates": [
          -90.44,
          30.48
        ]
      }
    },
    {
      "type": "Feature",
      "id": "iem-lsr-LIX-53",
      "properties": {
        "report_id": "iem-lsr-LIX-53",
        "report_type": "TORNADO",
        "event_category": "tornado",
        "valid_utc": "202603120203",
        "standard_time_display": "2026-03-11 20:03 CST",
        "wfo": "LIX",
        "county_or_zone": "Washington",
        "city": "2 WSW Franklinton",
        "state": "LA",
        "magnitude": null,
        "magnitude_units": null,
        "source": "NWS Storm Survey",
        "event_narrative": "Corrects previous tornado report from 1 SSW Franklinton. An NWS storm survey confirmed an EF-1 tornado touched down near LA Hwy 16 south of Franklinton_ LA in Washington Parish."
      },
      "geometry": {
        "type": "Point",
        "coordinates": [
          -90.17,
          30.84
        ]
      }
    },
    {
      "type": "Feature",
      "id": "iem-lsr-LIX-54",
      "properties": {
        "report_id": "iem-lsr-LIX-54",
        "report_type": "TSTM WND DMG",
        "event_category": "thunderstorm_wind",
        "valid_utc": "202603120207",
        "standard_time_display": "2026-03-11 20:07 CST",
        "wfo": "LIX",
        "county_or_zone": "Washington",
        "city": "1 SSW Franklinton",
        "state": "LA",
        "magnitude": null,
        "magnitude_units": null,
        "source": "Emergency Mngr",
        "event_narrative": "Emergency management reported roof blown off Florist Shop in Franklinton. Possible tornado. Time estimated by radar."
      },
      "geometry": {
        "type": "Point",
        "coordinates": [
          -90.15,
          30.83
        ]
      }
    },
    {
      "type": "Feature",
      "id": "iem-lsr-LIX-55",
      "properties": {
        "report_id": "iem-lsr-LIX-55",
        "report_type": "TSTM WND DMG",
        "event_category": "thunderstorm_wind",
        "valid_utc": "202603120207",
        "standard_time_display": "2026-03-11 20:07 CST",
        "wfo": "LIX",
        "county_or_zone": "Washington",
        "city": "1 SSW Franklinton",
        "state": "LA",
        "magnitude": null,
        "magnitude_units": null,
        "source": "Emergency Mngr",
        "event_narrative": "Emergency management reports windows blown out of a business in southern parts of Franklinton. Possible tornado. Time estimated by radar."
      },
      "geometry": {
        "type": "Point",
        "coordinates": [
          -90.15,
          30.83
        ]
      }
    },
    {
      "type": "Feature",
      "id": "iem-lsr-LIX-56",
      "properties": {
        "report_id": "iem-lsr-LIX-56",
        "report_type": "TORNADO",
        "event_category": "tornado",
        "valid_utc": "202603120207",
        "standard_time_display": "2026-03-11 20:07 CST",
        "wfo": "LIX",
        "county_or_zone": "Washington",
        "city": "1 SSW Franklinton",
        "state": "LA",
        "magnitude": null,
        "magnitude_units": null,
        "source": "NWS Storm Survey",
        "event_narrative": "An NWS storm survey confirmed an EF-1 tornado touched down near LA Hwy 16 south of Franklinton_ LA in Washington Parish."
      },
      "geometry": {
        "type": "Point",
        "coordinates": [
          -90.15,
          30.83
        ]
      }
    },
    {
      "type": "Feature",
      "id": "iem-lsr-LIX-57",
      "properties": {
        "report_id": "iem-lsr-LIX-57",
        "report_type": "TSTM WND DMG",
        "event_category": "thunderstorm_wind",
        "valid_utc": "202603120209",
        "standard_time_display": "2026-03-11 20:09 CST",
        "wfo": "LIX",
        "county_or_zone": "Tangipahoa",
        "city": "5 SSW Robert",
        "state": "LA",
        "magnitude": null,
        "magnitude_units": null,
        "source": "Public",
        "event_narrative": "Public reported trees down on North Thibodeaux road south of Robert_ LA. Time estimated by radar."
      },
      "geometry": {
        "type": "Point",
        "coordinates": [
          -90.36,
          30.44
        ]
      }
    },
    {
      "type": "Feature",
      "id": "iem-lsr-LIX-58",
      "properties": {
        "report_id": "iem-lsr-LIX-58",
        "report_type": "TORNADO",
        "event_category": "tornado",
        "valid_utc": "202603120221",
        "standard_time_display": "2026-03-11 20:21 CST",
        "wfo": "LIX",
        "county_or_zone": "St. Tammany",
        "city": "6 ESE Folsom",
        "state": "LA",
        "magnitude": null,
        "magnitude_units": null,
        "source": "NWS Storm Survey",
        "event_narrative": "Corrects previous tornado report from 6 ESE Folsom. An NWS storm survey confirmed an EF-0 tornado touched down near Blond_ LA and LA Hwy 40."
      },
      "geometry": {
        "type": "Point",
        "coordinates": [
          -90.11,
          30.59
        ]
      }
    },
    {
      "type": "Feature",
      "id": "iem-lsr-LIX-59",
      "properties": {
        "report_id": "iem-lsr-LIX-59",
        "report_type": "TORNADO",
        "event_category": "tornado",
        "valid_utc": "202603120222",
        "standard_time_display": "2026-03-11 20:22 CST",
        "wfo": "LIX",
        "county_or_zone": "St. Tammany",
        "city": "6 ESE Folsom",
        "state": "LA",
        "magnitude": null,
        "magnitude_units": null,
        "source": "NWS Storm Survey",
        "event_narrative": "An NWS storm survey confirmed an EF-0 tornado touched down near Blond_ LA and LA Hwy 40."
      },
      "geometry": {
        "type": "Point",
        "coordinates": [
          -90.11,
          30.59
        ]
      }
    },
    {
      "type": "Feature",
      "id": "iem-lsr-LIX-60",
      "properties": {
        "report_id": "iem-lsr-LIX-60",
        "report_type": "TORNADO",
        "event_category": "tornado",
        "valid_utc": "202603120228",
        "standard_time_display": "2026-03-11 20:28 CST",
        "wfo": "LIX",
        "county_or_zone": "St. Tammany",
        "city": "8 W Bush",
        "state": "LA",
        "magnitude": null,
        "magnitude_units": null,
        "source": "NWS Storm Survey",
        "event_narrative": "An NWS storm survey confirmed an EF-0 tornado touched down in north St. Tammany Parish near Hwy 1082 and Elderberry Ln."
      },
      "geometry": {
        "type": "Point",
        "coordinates": [
          -90.04,
          30.6
        ]
      }
    },
    {
      "type": "Feature",
      "id": "iem-lsr-LIX-61",
      "properties": {
        "report_id": "iem-lsr-LIX-61",
        "report_type": "TSTM WND DMG",
        "event_category": "thunderstorm_wind",
        "valid_utc": "202603120235",
        "standard_time_display": "2026-03-11 20:35 CST",
        "wfo": "LIX",
        "county_or_zone": "St. Tammany",
        "city": "1 ENE Sun",
        "state": "LA",
        "magnitude": null,
        "magnitude_units": null,
        "source": "Local Official",
        "event_narrative": "Emergency management reported doors of a general store blown open and stock scattered inside. Possible tornado. Time estimated by radar."
      },
      "geometry": {
        "type": "Point",
        "coordinates": [
          -89.89,
          30.66
        ]
      }
    },
    {
      "type": "Feature",
      "id": "iem-lsr-LIX-62",
      "properties": {
        "report_id": "iem-lsr-LIX-62",
        "report_type": "TSTM WND DMG",
        "event_category": "thunderstorm_wind",
        "valid_utc": "202603120235",
        "standard_time_display": "2026-03-11 20:35 CST",
        "wfo": "LIX",
        "county_or_zone": "St. Tammany",
        "city": "2 W Mandeville",
        "state": "LA",
        "magnitude": null,
        "magnitude_units": null,
        "source": "Public",
        "event_narrative": "Tree_ minor roof and window damage along Holly Street in Mandeville."
      },
      "geometry": {
        "type": "Point",
        "coordinates": [
          -90.11,
          30.37
        ]
      }
    },
    {
      "type": "Feature",
      "id": "iem-lsr-LIX-63",
      "properties": {
        "report_id": "iem-lsr-LIX-63",
        "report_type": "TSTM WND DMG",
        "event_category": "thunderstorm_wind",
        "valid_utc": "202603120256",
        "standard_time_display": "2026-03-11 20:56 CST",
        "wfo": "LIX",
        "county_or_zone": "Pearl River",
        "city": "4 W Mcneil",
        "state": "MS",
        "magnitude": null,
        "magnitude_units": null,
        "source": "Emergency Mngr",
        "event_narrative": "Emergency management reported trees down near McNeill On Henleyfield McNeill Rd. Time estimated by radar."
      },
      "geometry": {
        "type": "Point",
        "coordinates": [
          -89.71,
          30.68
        ]
      }
    },
    {
      "type": "Feature",
      "id": "iem-lsr-LIX-64",
      "properties": {
        "report_id": "iem-lsr-LIX-64",
        "report_type": "TSTM WND DMG",
        "event_category": "thunderstorm_wind",
        "valid_utc": "202603120257",
        "standard_time_display": "2026-03-11 20:57 CST",
        "wfo": "LIX",
        "county_or_zone": "Pearl River",
        "city": "7 WNW Picayune",
        "state": "MS",
        "magnitude": null,
        "magnitude_units": null,
        "source": "Emergency Mngr",
        "event_narrative": "Emergency management reported trees down on Oak Point Road. Time estimated by radar."
      },
      "geometry": {
        "type": "Point",
        "coordinates": [
          -89.79,
          30.57
        ]
      }
    },
    {
      "type": "Feature",
      "id": "iem-lsr-LIX-65",
      "properties": {
        "report_id": "iem-lsr-LIX-65",
        "report_type": "TSTM WND DMG",
        "event_category": "thunderstorm_wind",
        "valid_utc": "202603120303",
        "standard_time_display": "2026-03-11 21:03 CST",
        "wfo": "LIX",
        "county_or_zone": "Pearl River",
        "city": "5 WSW Mcneil",
        "state": "MS",
        "magnitude": null,
        "magnitude_units": null,
        "source": "Emergency Mngr",
        "event_narrative": "Emergency management reported trees down on Rock Ranch and George Ford Roads. Time estimated by radar."
      },
      "geometry": {
        "type": "Point",
        "coordinates": [
          -89.71,
          30.63
        ]
      }
    },
    {
      "type": "Feature",
      "id": "iem-lsr-LIX-66",
      "properties": {
        "report_id": "iem-lsr-LIX-66",
        "report_type": "MARINE TSTM WIND",
        "event_category": "marine",
        "valid_utc": "202603120308",
        "standard_time_display": "2026-03-11 21:08 CST",
        "wfo": "LIX",
        "county_or_zone": "GMZ530",
        "city": "12 SSW Mandeville",
        "state": "LA",
        "magnitude": 40.0,
        "magnitude_units": null,
        "source": "Mesonet",
        "event_narrative": "Mid Lake on the Causeway measured a wind gust of 40 mph."
      },
      "geometry": {
        "type": "Point",
        "coordinates": [
          -90.12,
          30.2
        ]
      }
    },
    {
      "type": "Feature",
      "id": "iem-lsr-LIX-67",
      "properties": {
        "report_id": "iem-lsr-LIX-67",
        "report_type": "TSTM WND DMG",
        "event_category": "thunderstorm_wind",
        "valid_utc": "202603120312",
        "standard_time_display": "2026-03-11 21:12 CST",
        "wfo": "LIX",
        "county_or_zone": "St. Tammany",
        "city": "3 S Pearl River",
        "state": "LA",
        "magnitude": null,
        "magnitude_units": null,
        "source": "NWS Employee",
        "event_narrative": "Multiple trees down along Robert Rd most of the damage was between Chanticleer Dr and Haas Rd."
      },
      "geometry": {
        "type": "Point",
        "coordinates": [
          -89.74,
          30.33
        ]
      }
    },
    {
      "type": "Feature",
      "id": "iem-lsr-LIX-68",
      "properties": {
        "report_id": "iem-lsr-LIX-68",
        "report_type": "TSTM WND DMG",
        "event_category": "thunderstorm_wind",
        "valid_utc": "202603120313",
        "standard_time_display": "2026-03-11 21:13 CST",
        "wfo": "LIX",
        "county_or_zone": "St. Tammany",
        "city": "3 S Pearl River",
        "state": "LA",
        "magnitude": null,
        "magnitude_units": null,
        "source": "Public",
        "event_narrative": "Large limbs from a Live Oak tree down_ some minor roof damage and scattered small to medium limbs down."
      },
      "geometry": {
        "type": "Point",
        "coordinates": [
          -89.75,
          30.33
        ]
      }
    },
    {
      "type": "Feature",
      "id": "iem-lsr-LIX-69",
      "properties": {
        "report_id": "iem-lsr-LIX-69",
        "report_type": "MARINE TSTM WIND",
        "event_category": "marine",
        "valid_utc": "202603120318",
        "standard_time_display": "2026-03-11 21:18 CST",
        "wfo": "LIX",
        "county_or_zone": "GMZ530",
        "city": "4 ENE Metairie",
        "state": "LA",
        "magnitude": 43.0,
        "magnitude_units": null,
        "source": "C-Man Station",
        "event_narrative": "New Canal C-Man station recorded a wind gust of 43 mph."
      },
      "geometry": {
        "type": "Point",
        "coordinates": [
          -90.11,
          30.03
        ]
      }
    },
    {
      "type": "Feature",
      "id": "iem-lsr-LIX-70",
      "properties": {
        "report_id": "iem-lsr-LIX-70",
        "report_type": "MARINE TSTM WIND",
        "event_category": "marine",
        "valid_utc": "202603120324",
        "standard_time_display": "2026-03-11 21:24 CST",
        "wfo": "LIX",
        "county_or_zone": "GMZ530",
        "city": "6 NNE New Orleans",
        "state": "LA",
        "magnitude": 52.0,
        "magnitude_units": null,
        "source": "ASOS",
        "event_narrative": "Strong marine wind gusts of 45kts at NEW airport."
      },
      "geometry": {
        "type": "Point",
        "coordinates": [
          -90.03,
          30.05
        ]
      }
    },
    {
      "type": "Feature",
      "id": "iem-lsr-LIX-71",
      "properties": {
        "report_id": "iem-lsr-LIX-71",
        "report_type": "MARINE TSTM WIND",
        "event_category": "marine",
        "valid_utc": "202603120340",
        "standard_time_display": "2026-03-11 21:40 CST",
        "wfo": "LIX",
        "county_or_zone": "Orleans",
        "city": "5 ESE East New Orleans",
        "state": "LA",
        "magnitude": 41.0,
        "magnitude_units": null,
        "source": "Mesonet",
        "event_narrative": "New Orleans Weatherstem station on Bayou Sauvage measured a wind gust of 41 mph."
      },
      "geometry": {
        "type": "Point",
        "coordinates": [
          -89.87,
          30.03
        ]
      }
    },
    {
      "type": "Feature",
      "id": "iem-lsr-LIX-72",
      "properties": {
        "report_id": "iem-lsr-LIX-72",
        "report_type": "MARINE TSTM WIND",
        "event_category": "marine",
        "valid_utc": "202603120341",
        "standard_time_display": "2026-03-11 21:41 CST",
        "wfo": "LIX",
        "county_or_zone": "St. Bernard",
        "city": "5 SSE East New Orleans",
        "state": "LA",
        "magnitude": 51.0,
        "magnitude_units": null,
        "source": "Mesonet",
        "event_narrative": "Bayou Bienvenue recorded a wind gust of 51 mph."
      },
      "geometry": {
        "type": "Point",
        "coordinates": [
          -89.9,
          30.0
        ]
      }
    },
    {
      "type": "Feature",
      "id": "iem-lsr-LIX-73",
      "properties": {
        "report_id": "iem-lsr-LIX-73",
        "report_type": "MARINE TSTM WIND",
        "event_category": "marine",
        "valid_utc": "202603120412",
        "standard_time_display": "2026-03-11 22:12 CST",
        "wfo": "LIX",
        "county_or_zone": "GMZ532",
        "city": "1 NNE Bay Saint Louis",
        "state": "MS",
        "magnitude": 85.0,
        "magnitude_units": null,
        "source": "C-Man Station",
        "event_narrative": "Bay Waveland measured a gust of 85 mph."
      },
      "geometry": {
        "type": "Point",
        "coordinates": [
          -89.33,
          30.33
        ]
      }
    },
    {
      "type": "Feature",
      "id": "iem-lsr-LIX-74",
      "properties": {
        "report_id": "iem-lsr-LIX-74",
        "report_type": "TSTM WND DMG",
        "event_category": "thunderstorm_wind",
        "valid_utc": "202603120420",
        "standard_time_display": "2026-03-11 22:20 CST",
        "wfo": "LIX",
        "county_or_zone": "Harrison",
        "city": "2 NW Gulfport",
        "state": "MS",
        "magnitude": null,
        "magnitude_units": null,
        "source": "Broadcast Media",
        "event_narrative": "Roof damage to a home and a tree down at the intersection of Texas and Madison Streets."
      },
      "geometry": {
        "type": "Point",
        "coordinates": [
          -89.09,
          30.4
        ]
      }
    },
    {
      "type": "Feature",
      "id": "iem-lsr-LIX-75",
      "properties": {
        "report_id": "iem-lsr-LIX-75",
        "report_type": "MARINE TSTM WIND",
        "event_category": "marine",
        "valid_utc": "202603120510",
        "standard_time_display": "2026-03-11 23:10 CST",
        "wfo": "LIX",
        "county_or_zone": "GMZ532",
        "city": "12 SSE Gulfport",
        "state": "MS",
        "magnitude": 50.0,
        "magnitude_units": null,
        "source": "Mesonet",
        "event_narrative": "Weatherflow station XSHI (Ship Island) recorded a wind gust of 50 mph."
      },
      "geometry": {
        "type": "Point",
        "coordinates": [
          -88.98,
          30.23
        ]
      }
    },
    {
      "type": "Feature",
      "id": "iem-lsr-LIX-76",
      "properties": {
        "report_id": "iem-lsr-LIX-76",
        "report_type": "MARINE TSTM WIND",
        "event_category": "marine",
        "valid_utc": "202603120550",
        "standard_time_display": "2026-03-11 23:50 CST",
        "wfo": "LIX",
        "county_or_zone": "GMZ532",
        "city": "11 SSE Pascagoula",
        "state": "MS",
        "magnitude": 45.0,
        "magnitude_units": null,
        "source": "C-Man Station",
        "event_narrative": "Petit Bois Island recorded a wind gust of 45 mph."
      },
      "geometry": {
        "type": "Point",
        "coordinates": [
          -88.5,
          30.21
        ]
      }
    },
    {
      "type": "Feature",
      "id": "iem-lsr-LIX-77",
      "properties": {
        "report_id": "iem-lsr-LIX-77",
        "report_type": "MARINE TSTM WIND",
        "event_category": "marine",
        "valid_utc": "202603120610",
        "standard_time_display": "2026-03-12 00:10 CST",
        "wfo": "LIX",
        "county_or_zone": "GMZ557",
        "city": "23 SSW Pascagoula",
        "state": "MS",
        "magnitude": 55.0,
        "magnitude_units": null,
        "source": "Buoy",
        "event_narrative": "University of Southern Mississippi Buoy recorded a wind gust of 55mph."
      },
      "geometry": {
        "type": "Point",
        "coordinates": [
          -88.65,
          30.04
        ]
      }
    },
    {
      "type": "Feature",
      "id": "iem-lsr-LIX-78",
      "properties": {
        "report_id": "iem-lsr-LIX-78",
        "report_type": "TSTM WND DMG",
        "event_category": "thunderstorm_wind",
        "valid_utc": "202603121241",
        "standard_time_display": "2026-03-12 06:41 CST",
        "wfo": "LIX",
        "county_or_zone": "Amite",
        "city": "5 SE Smithdale",
        "state": "MS",
        "magnitude": null,
        "magnitude_units": null,
        "source": "Emergency Mngr",
        "event_narrative": "Widespread tree damage across northeastern Amite county. Trees down on North Greensburg Rd_ Moak Rd_ Hwy 570_ Thompson Rd_ Hwy 569_ Tangipahoa Rd_ Jones Rd_ Womack Lane_ County Line Rd_ and Spring Hi"
      },
      "geometry": {
        "type": "Point",
        "coordinates": [
          -90.62,
          31.29
        ]
      }
    },
    {
      "type": "Feature",
      "id": "iem-lsr-LIX-79",
      "properties": {
        "report_id": "iem-lsr-LIX-79",
        "report_type": "MARINE TSTM WIND",
        "event_category": "marine",
        "valid_utc": "202603160728",
        "standard_time_display": "2026-03-16 01:28 CST",
        "wfo": "LIX",
        "county_or_zone": "GMZ530",
        "city": "12 SSW Mandeville",
        "state": "LA",
        "magnitude": 40.0,
        "magnitude_units": null,
        "source": "Mesonet",
        "event_narrative": "Mid point of the Causeway measured a wind gust of 40 mph."
      },
      "geometry": {
        "type": "Point",
        "coordinates": [
          -90.12,
          30.2
        ]
      }
    },
    {
      "type": "Feature",
      "id": "iem-lsr-LIX-80",
      "properties": {
        "report_id": "iem-lsr-LIX-80",
        "report_type": "MARINE TSTM WIND",
        "event_category": "marine",
        "valid_utc": "202603160753",
        "standard_time_display": "2026-03-16 01:53 CST",
        "wfo": "LIX",
        "county_or_zone": "GMZ530",
        "city": "12 SSW Mandeville",
        "state": "LA",
        "magnitude": 44.0,
        "magnitude_units": null,
        "source": "Mesonet",
        "event_narrative": "New wind gust up to 44 mph at the mid point of the Causeway."
      },
      "geometry": {
        "type": "Point",
        "coordinates": [
          -90.12,
          30.2
        ]
      }
    },
    {
      "type": "Feature",
      "id": "iem-lsr-LIX-81",
      "properties": {
        "report_id": "iem-lsr-LIX-81",
        "report_type": "MARINE TSTM WIND",
        "event_category": "marine",
        "valid_utc": "202603160759",
        "standard_time_display": "2026-03-16 01:59 CST",
        "wfo": "LIX",
        "county_or_zone": "St. Tammany",
        "city": "1 ESE Eden Isle",
        "state": "LA",
        "magnitude": 49.0,
        "magnitude_units": null,
        "source": "Mesonet",
        "event_narrative": "Oak Harbor Fire Station in Eden Isle recorded a wind gust of 49 mph."
      },
      "geometry": {
        "type": "Point",
        "coordinates": [
          -89.79,
          30.22
        ]
      }
    },
    {
      "type": "Feature",
      "id": "iem-lsr-LIX-82",
      "properties": {
        "report_id": "iem-lsr-LIX-82",
        "report_type": "TSTM WND DMG",
        "event_category": "thunderstorm_wind",
        "valid_utc": "202603160801",
        "standard_time_display": "2026-03-16 02:01 CST",
        "wfo": "LIX",
        "county_or_zone": "St. Tammany",
        "city": "1 ESE Slidell",
        "state": "LA",
        "magnitude": null,
        "magnitude_units": null,
        "source": "Public",
        "event_narrative": "Small tree down on Marsha Dr."
      },
      "geometry": {
        "type": "Point",
        "coordinates": [
          -89.76,
          30.28
        ]
      }
    },
    {
      "type": "Feature",
      "id": "iem-lsr-LIX-83",
      "properties": {
        "report_id": "iem-lsr-LIX-83",
        "report_type": "TSTM WND DMG",
        "event_category": "thunderstorm_wind",
        "valid_utc": "202603160801",
        "standard_time_display": "2026-03-16 02:01 CST",
        "wfo": "LIX",
        "county_or_zone": "St. Tammany",
        "city": "2 E Eden Isle",
        "state": "LA",
        "magnitude": null,
        "magnitude_units": null,
        "source": "NWS Employee",
        "event_narrative": "Delayed report: Report of a tree down high winds caused by severe thunderstorms. Time estimated from radar."
      },
      "geometry": {
        "type": "Point",
        "coordinates": [
          -89.76,
          30.22
        ]
      }
    },
    {
      "type": "Feature",
      "id": "iem-lsr-LIX-84",
      "properties": {
        "report_id": "iem-lsr-LIX-84",
        "report_type": "MARINE TSTM WIND",
        "event_category": "marine",
        "valid_utc": "202603160804",
        "standard_time_display": "2026-03-16 02:04 CST",
        "wfo": "LIX",
        "county_or_zone": "Orleans",
        "city": "6 WSW East New Orleans",
        "state": "LA",
        "magnitude": 60.0,
        "magnitude_units": null,
        "source": "ASOS",
        "event_narrative": "KNEW recorded a wind gust of 60 mph."
      },
      "geometry": {
        "type": "Point",
        "coordinates": [
          -90.03,
          30.04
        ]
      }
    },
    {
      "type": "Feature",
      "id": "iem-lsr-LIX-85",
      "properties": {
        "report_id": "iem-lsr-LIX-85",
        "report_type": "TSTM WND DMG",
        "event_category": "thunderstorm_wind",
        "valid_utc": "202603160805",
        "standard_time_display": "2026-03-16 02:05 CST",
        "wfo": "LIX",
        "county_or_zone": "Orleans",
        "city": "2 ENE Bridge City",
        "state": "LA",
        "magnitude": null,
        "magnitude_units": null,
        "source": "Public",
        "event_narrative": "Delayed report of multiple trees_ tree limbs and fences were downed by thunderstorm winds along St. Charles Avenue between Adams and Cherokee Streets."
      },
      "geometry": {
        "type": "Point",
        "coordinates": [
          -90.13,
          29.94
        ]
      }
    },
    {
      "type": "Feature",
      "id": "iem-lsr-LIX-86",
      "properties": {
        "report_id": "iem-lsr-LIX-86",
        "report_type": "MARINE TSTM WIND",
        "event_category": "marine",
        "valid_utc": "202603160818",
        "standard_time_display": "2026-03-16 02:18 CST",
        "wfo": "LIX",
        "county_or_zone": "GMZ530",
        "city": "4 ENE Metairie",
        "state": "LA",
        "magnitude": 44.0,
        "magnitude_units": null,
        "source": "C-Man Station",
        "event_narrative": "New Canal recorded a wind gust of 44 mph."
      },
      "geometry": {
        "type": "Point",
        "coordinates": [
          -90.11,
          30.03
        ]
      }
    },
    {
      "type": "Feature",
      "id": "iem-lsr-LIX-87",
      "properties": {
        "report_id": "iem-lsr-LIX-87",
        "report_type": "MARINE TSTM WIND",
        "event_category": "marine",
        "valid_utc": "202603160830",
        "standard_time_display": "2026-03-16 02:30 CST",
        "wfo": "LIX",
        "county_or_zone": "GMZ532",
        "city": "1 NNE Bay Saint Louis",
        "state": "MS",
        "magnitude": 40.0,
        "magnitude_units": null,
        "source": "Buoy",
        "event_narrative": "Buoy station WYCM6 Bay Waveland Yacht Club (MS)."
      },
      "geometry": {
        "type": "Point",
        "coordinates": [
          -89.33,
          30.33
        ]
      }
    },
    {
      "type": "Feature",
      "id": "iem-lsr-LIX-88",
      "properties": {
        "report_id": "iem-lsr-LIX-88",
        "report_type": "MARINE TSTM WIND",
        "event_category": "marine",
        "valid_utc": "202603160910",
        "standard_time_display": "2026-03-16 03:10 CST",
        "wfo": "LIX",
        "county_or_zone": "GMZ532",
        "city": "12 SSE Gulfport",
        "state": "MS",
        "magnitude": 45.0,
        "magnitude_units": null,
        "source": "Mesonet",
        "event_narrative": "Mesonet station XSHI Ship Island."
      },
      "geometry": {
        "type": "Point",
        "coordinates": [
          -88.98,
          30.23
        ]
      }
    },
    {
      "type": "Feature",
      "id": "iem-lsr-LIX-89",
      "properties": {
        "report_id": "iem-lsr-LIX-89",
        "report_type": "MARINE TSTM WIND",
        "event_category": "marine",
        "valid_utc": "202603161100",
        "standard_time_display": "2026-03-16 05:00 CST",
        "wfo": "LIX",
        "county_or_zone": "GMZ557",
        "city": "23 SSW Pascagoula",
        "state": "MS",
        "magnitude": 41.0,
        "magnitude_units": null,
        "source": "Buoy",
        "event_narrative": "University of South Mississippi Buoy measured a thunderstorm wind gust of 41 mph or 35 knots."
      },
      "geometry": {
        "type": "Point",
        "coordinates": [
          -88.65,
          30.04
        ]
      }
    },
    {
      "type": "Feature",
      "id": "iem-lsr-LIX-90",
      "properties": {
        "report_id": "iem-lsr-LIX-90",
        "report_type": "MARINE TSTM WIND",
        "event_category": "marine",
        "valid_utc": "202603161152",
        "standard_time_display": "2026-03-16 05:52 CST",
        "wfo": "LIX",
        "county_or_zone": "GMZ577",
        "city": "70 E Venice",
        "state": "LA",
        "magnitude": 51.0,
        "magnitude_units": null,
        "source": "Buoy",
        "event_narrative": "Buoy 42040 measured a thunderstorm wind gust of 51 mph or 44 knots."
      },
      "geometry": {
        "type": "Point",
        "coordinates": [
          -88.2,
          29.2
        ]
      }
    },
    {
      "type": "Feature",
      "id": "iem-lsr-LIX-91",
      "properties": {
        "report_id": "iem-lsr-LIX-91",
        "report_type": "MARINE TSTM WIND",
        "event_category": "marine",
        "valid_utc": "202603161235",
        "standard_time_display": "2026-03-16 06:35 CST",
        "wfo": "LIX",
        "county_or_zone": "GMZ575",
        "city": "85 SE Venice",
        "state": "LA",
        "magnitude": 44.0,
        "magnitude_units": null,
        "source": "AWOS",
        "event_narrative": "Mississippi Canyon 474 measured a thunderstorm wind gust of 44 mph or 38 knots."
      },
      "geometry": {
        "type": "Point",
        "coordinates": [
          -88.24,
          28.52
        ]
      }
    }
  ]
}