{
  "type": "FeatureCollection",
  "metadata": {
    "schema_version": "0.2.4",
    "year": 2026,
    "month": 9,
    "wfo": "EWX",
    "start_utc": "2026-09-01T00:00:00Z",
    "end_utc": "2026-10-01T00:00:00Z",
    "generated_utc": "2026-09-26T13:44:24Z",
    "mode": "storm_data_prep",
    "public_release_status": "public-source-derived",
    "time_note": "Storm Data entry times should be reviewed in local Standard Time (ST), not daylight time. Candidate reports include standard_time_display.",
    "tornado_track_policy": "Tornado tracks must come from DAT. NCEI begin/end coordinates are not used as a tornado track substitute.",
    "source": "https://mesonet.agron.iastate.edu/cgi-bin/request/gis/lsr.py?wfo=EWX&sts=2026-09-01T00%3A00%3A00Z&ets=2026-10-01T00%3A00%3A00Z&fmt=csv"
  },
  "features": [
    {
      "type": "Feature",
      "id": "iem-lsr-EWX-1",
      "properties": {
        "report_id": "iem-lsr-EWX-1",
        "report_type": "LANDSPOUT",
        "event_category": "other",
        "valid_utc": "202609022125",
        "standard_time_display": "2026-09-02 15:25 CST",
        "wfo": "EWX",
        "county_or_zone": "Williamson",
        "city": "3 ENE Serenada",
        "state": "TX",
        "magnitude": null,
        "magnitude_units": null,
        "source": "Public",
        "event_narrative": "Corrects previous landspout report from 3 ENE Serenada. Pictures and videos of a possible landspout or dust devil between SH 195 and I-35 to the north of Georgetown. Evidence could support either pos"
      },
      "geometry": {
        "type": "Point",
        "coordinates": [
          -97.65,
          30.72
        ]
      }
    },
    {
      "type": "Feature",
      "id": "iem-lsr-EWX-2",
      "properties": {
        "report_id": "iem-lsr-EWX-2",
        "report_type": "LANDSPOUT",
        "event_category": "other",
        "valid_utc": "202609022125",
        "standard_time_display": "2026-09-02 15:25 CST",
        "wfo": "EWX",
        "county_or_zone": "Williamson",
        "city": "3 ENE Serenada",
        "state": "TX",
        "magnitude": null,
        "magnitude_units": null,
        "source": "Public",
        "event_narrative": "Pictures and videos of a landspout with a weak shower in the vicinity between SH 195 and I-35 to the north of Georgetown. Estimated time based on reports and when radar matches time with shower nearb"
      },
      "geometry": {
        "type": "Point",
        "coordinates": [
          -97.65,
          30.72
        ]
      }
    },
    {
      "type": "Feature",
      "id": "iem-lsr-EWX-3",
      "properties": {
        "report_id": "iem-lsr-EWX-3",
        "report_type": "HAIL",
        "event_category": "hail",
        "valid_utc": "202609120259",
        "standard_time_display": "2026-09-11 20:59 CST",
        "wfo": "EWX",
        "county_or_zone": "Bexar",
        "city": "3 SE Converse",
        "state": "TX",
        "magnitude": 2.5,
        "magnitude_units": null,
        "source": "Public",
        "event_narrative": "Numerous social media pictures of hail ranging in the 2 to 2.5 inch range in Converse. Pictures also include damage of broken windshields and windows of cars. Location and timing estimated based on s"
      },
      "geometry": {
        "type": "Point",
        "coordinates": [
          -98.28,
          29.49
        ]
      }
    },
    {
      "type": "Feature",
      "id": "iem-lsr-EWX-4",
      "properties": {
        "report_id": "iem-lsr-EWX-4",
        "report_type": "TSTM WND GST",
        "event_category": "thunderstorm_wind",
        "valid_utc": "202609120304",
        "standard_time_display": "2026-09-11 21:04 CST",
        "wfo": "EWX",
        "county_or_zone": "Bexar",
        "city": "2 S Schertz",
        "state": "TX",
        "magnitude": 60.0,
        "magnitude_units": null,
        "source": "AWOS",
        "event_narrative": "AWOS station KRND Randolph AFB."
      },
      "geometry": {
        "type": "Point",
        "coordinates": [
          -98.27,
          29.53
        ]
      }
    },
    {
      "type": "Feature",
      "id": "iem-lsr-EWX-5",
      "properties": {
        "report_id": "iem-lsr-EWX-5",
        "report_type": "HAIL",
        "event_category": "hail",
        "valid_utc": "202609120310",
        "standard_time_display": "2026-09-11 21:10 CST",
        "wfo": "EWX",
        "county_or_zone": "Bexar",
        "city": "4 SSE Converse",
        "state": "TX",
        "magnitude": 1.75,
        "magnitude_units": null,
        "source": "Public",
        "event_narrative": "Dime to golfball sized hail reported via social media in the time window of 1005 to 1015 in the Paloma Subdivision."
      },
      "geometry": {
        "type": "Point",
        "coordinates": [
          -98.28,
          29.46
        ]
      }
    },
    {
      "type": "Feature",
      "id": "iem-lsr-EWX-6",
      "properties": {
        "report_id": "iem-lsr-EWX-6",
        "report_type": "HAIL",
        "event_category": "hail",
        "valid_utc": "202609120317",
        "standard_time_display": "2026-09-11 21:17 CST",
        "wfo": "EWX",
        "county_or_zone": "Bexar",
        "city": "2 NE Saint Hedwig",
        "state": "TX",
        "magnitude": 1.0,
        "magnitude_units": null,
        "source": "Trained Spotter",
        "event_narrative": "1 inch diameter hail near Saint Hedwig."
      },
      "geometry": {
        "type": "Point",
        "coordinates": [
          -98.18,
          29.44
        ]
      }
    },
    {
      "type": "Feature",
      "id": "iem-lsr-EWX-7",
      "properties": {
        "report_id": "iem-lsr-EWX-7",
        "report_type": "HAIL",
        "event_category": "hail",
        "valid_utc": "202609120318",
        "standard_time_display": "2026-09-11 21:18 CST",
        "wfo": "EWX",
        "county_or_zone": "Bexar",
        "city": "3 ENE Kirby",
        "state": "TX",
        "magnitude": 1.5,
        "magnitude_units": null,
        "source": "Public",
        "event_narrative": "Trained spotter reports 1 to 1.5 diameter hail."
      },
      "geometry": {
        "type": "Point",
        "coordinates": [
          -98.34,
          29.47
        ]
      }
    },
    {
      "type": "Feature",
      "id": "iem-lsr-EWX-8",
      "properties": {
        "report_id": "iem-lsr-EWX-8",
        "report_type": "HAIL",
        "event_category": "hail",
        "valid_utc": "202609120320",
        "standard_time_display": "2026-09-11 21:20 CST",
        "wfo": "EWX",
        "county_or_zone": "Bexar",
        "city": "1 WSW China Grove",
        "state": "TX",
        "magnitude": 1.0,
        "magnitude_units": null,
        "source": "Broadcast Media",
        "event_narrative": "Broadcast media relayed a report of 1 inch diameter hail near Highway 87 and Foster Road."
      },
      "geometry": {
        "type": "Point",
        "coordinates": [
          -98.36,
          29.39
        ]
      }
    }
  ]
}