{
  "type": "FeatureCollection",
  "metadata": {
    "schema_version": "0.2.4",
    "year": 2026,
    "month": 3,
    "wfo": "ILM",
    "start_utc": "2026-03-01T00:00:00Z",
    "end_utc": "2026-04-01T00:00:00Z",
    "generated_utc": "2026-05-28T12:47:56Z",
    "mode": "storm_data_prep",
    "public_release_status": "public-source-derived",
    "time_note": "Storm Data entry times should be reviewed in local Standard Time (ST), not daylight time. Candidate reports include standard_time_display.",
    "tornado_track_policy": "Tornado tracks must come from DAT. NCEI begin/end coordinates are not used as a tornado track substitute.",
    "source": "https://mesonet.agron.iastate.edu/cgi-bin/request/gis/lsr.py?wfo=ILM&sts=2026-03-01T00%3A00%3A00Z&ets=2026-04-01T00%3A00%3A00Z&fmt=csv"
  },
  "features": [
    {
      "type": "Feature",
      "id": "iem-lsr-ILM-1",
      "properties": {
        "report_id": "iem-lsr-ILM-1",
        "report_type": "TSTM WND DMG",
        "event_category": "thunderstorm_wind",
        "valid_utc": "202603082200",
        "standard_time_display": "2026-03-08 17:00 EST",
        "wfo": "ILM",
        "county_or_zone": "Horry",
        "city": "3 NNE Conway",
        "state": "SC",
        "magnitude": null,
        "magnitude_units": null,
        "source": "Public",
        "event_narrative": "Tree down in Homewood_ SC. Time estimated by radar."
      },
      "geometry": {
        "type": "Point",
        "coordinates": [
          -79.05,
          33.88
        ]
      }
    },
    {
      "type": "Feature",
      "id": "iem-lsr-ILM-2",
      "properties": {
        "report_id": "iem-lsr-ILM-2",
        "report_type": "TSTM WND DMG",
        "event_category": "thunderstorm_wind",
        "valid_utc": "202603082200",
        "standard_time_display": "2026-03-08 17:00 EST",
        "wfo": "ILM",
        "county_or_zone": "Horry",
        "city": "Conway",
        "state": "SC",
        "magnitude": null,
        "magnitude_units": null,
        "source": "Public",
        "event_narrative": "Tree down on power line at Erskrine Dr and Singleton."
      },
      "geometry": {
        "type": "Point",
        "coordinates": [
          -79.06,
          33.84
        ]
      }
    },
    {
      "type": "Feature",
      "id": "iem-lsr-ILM-3",
      "properties": {
        "report_id": "iem-lsr-ILM-3",
        "report_type": "TSTM WND DMG",
        "event_category": "thunderstorm_wind",
        "valid_utc": "202603121543",
        "standard_time_display": "2026-03-12 10:43 EST",
        "wfo": "ILM",
        "county_or_zone": "Williamsburg",
        "city": "5 SSW Kingstree",
        "state": "SC",
        "magnitude": null,
        "magnitude_units": null,
        "source": "911 Call Center",
        "event_narrative": "Several trees down in the Salters area. Possible roof damage to a home."
      },
      "geometry": {
        "type": "Point",
        "coordinates": [
          -79.86,
          33.61
        ]
      }
    },
    {
      "type": "Feature",
      "id": "iem-lsr-ILM-4",
      "properties": {
        "report_id": "iem-lsr-ILM-4",
        "report_type": "TSTM WND DMG",
        "event_category": "thunderstorm_wind",
        "valid_utc": "202603121630",
        "standard_time_display": "2026-03-12 11:30 EST",
        "wfo": "ILM",
        "county_or_zone": "Horry",
        "city": "Conway",
        "state": "SC",
        "magnitude": null,
        "magnitude_units": null,
        "source": "911 Call Center",
        "event_narrative": "Trees down in Conway"
      },
      "geometry": {
        "type": "Point",
        "coordinates": [
          -79.06,
          33.84
        ]
      }
    },
    {
      "type": "Feature",
      "id": "iem-lsr-ILM-5",
      "properties": {
        "report_id": "iem-lsr-ILM-5",
        "report_type": "TSTM WND DMG",
        "event_category": "thunderstorm_wind",
        "valid_utc": "202603121713",
        "standard_time_display": "2026-03-12 12:13 EST",
        "wfo": "ILM",
        "county_or_zone": "Bladen",
        "city": "East Arcadia",
        "state": "NC",
        "magnitude": null,
        "magnitude_units": null,
        "source": "Emergency Mngr",
        "event_narrative": "Trees down in the Buckhead/Bolten area"
      },
      "geometry": {
        "type": "Point",
        "coordinates": [
          -78.31,
          34.38
        ]
      }
    },
    {
      "type": "Feature",
      "id": "iem-lsr-ILM-6",
      "properties": {
        "report_id": "iem-lsr-ILM-6",
        "report_type": "TSTM WND DMG",
        "event_category": "thunderstorm_wind",
        "valid_utc": "202603121717",
        "standard_time_display": "2026-03-12 12:17 EST",
        "wfo": "ILM",
        "county_or_zone": "Columbus",
        "city": "2 SW East Arcadia",
        "state": "NC",
        "magnitude": null,
        "magnitude_units": null,
        "source": "Emergency Mngr",
        "event_narrative": "Down and twisted trees were reported. One home sustained minor vinyl siding damage."
      },
      "geometry": {
        "type": "Point",
        "coordinates": [
          -78.34,
          34.37
        ]
      }
    },
    {
      "type": "Feature",
      "id": "iem-lsr-ILM-7",
      "properties": {
        "report_id": "iem-lsr-ILM-7",
        "report_type": "TSTM WND DMG",
        "event_category": "thunderstorm_wind",
        "valid_utc": "202603121725",
        "standard_time_display": "2026-03-12 12:25 EST",
        "wfo": "ILM",
        "county_or_zone": "Columbus",
        "city": "2 WSW Riegelwood",
        "state": "NC",
        "magnitude": null,
        "magnitude_units": null,
        "source": "Emergency Mngr",
        "event_narrative": "Trees reported down on house and powerlines."
      },
      "geometry": {
        "type": "Point",
        "coordinates": [
          -78.27,
          34.32
        ]
      }
    },
    {
      "type": "Feature",
      "id": "iem-lsr-ILM-8",
      "properties": {
        "report_id": "iem-lsr-ILM-8",
        "report_type": "TSTM WND DMG",
        "event_category": "thunderstorm_wind",
        "valid_utc": "202603121740",
        "standard_time_display": "2026-03-12 12:40 EST",
        "wfo": "ILM",
        "county_or_zone": "Brunswick",
        "city": "4 SSE Sandy Creek",
        "state": "NC",
        "magnitude": null,
        "magnitude_units": null,
        "source": "Public",
        "event_narrative": "Trees down along Old Maco Rd_ near Shiloh Methodist Church. Time estimated by radar."
      },
      "geometry": {
        "type": "Point",
        "coordinates": [
          -78.12,
          34.23
        ]
      }
    },
    {
      "type": "Feature",
      "id": "iem-lsr-ILM-9",
      "properties": {
        "report_id": "iem-lsr-ILM-9",
        "report_type": "MARINE TSTM WIND",
        "event_category": "marine",
        "valid_utc": "202603121742",
        "standard_time_display": "2026-03-12 12:42 EST",
        "wfo": "ILM",
        "county_or_zone": "New Hanover",
        "city": "Johnny Mercer Pier",
        "state": "NC",
        "magnitude": 43.0,
        "magnitude_units": null,
        "source": "Other Federal",
        "event_narrative": null
      },
      "geometry": {
        "type": "Point",
        "coordinates": [
          -77.8,
          34.21
        ]
      }
    },
    {
      "type": "Feature",
      "id": "iem-lsr-ILM-10",
      "properties": {
        "report_id": "iem-lsr-ILM-10",
        "report_type": "TSTM WND DMG",
        "event_category": "thunderstorm_wind",
        "valid_utc": "202603121745",
        "standard_time_display": "2026-03-12 12:45 EST",
        "wfo": "ILM",
        "county_or_zone": "Pender",
        "city": "Rocky Point",
        "state": "NC",
        "magnitude": null,
        "magnitude_units": null,
        "source": "Emergency Mngr",
        "event_narrative": "Multiple trees down across the western part of the county_ including one downed tree onto a car on US HWY 177 S."
      },
      "geometry": {
        "type": "Point",
        "coordinates": [
          -77.88,
          34.43
        ]
      }
    },
    {
      "type": "Feature",
      "id": "iem-lsr-ILM-11",
      "properties": {
        "report_id": "iem-lsr-ILM-11",
        "report_type": "MARINE TSTM WIND",
        "event_category": "marine",
        "valid_utc": "202603121750",
        "standard_time_display": "2026-03-12 12:50 EST",
        "wfo": "ILM",
        "county_or_zone": "New Hanover",
        "city": "Johnny Mercer Pier",
        "state": "NC",
        "magnitude": 43.0,
        "magnitude_units": null,
        "source": "Other Federal",
        "event_narrative": null
      },
      "geometry": {
        "type": "Point",
        "coordinates": [
          -77.8,
          34.21
        ]
      }
    },
    {
      "type": "Feature",
      "id": "iem-lsr-ILM-12",
      "properties": {
        "report_id": "iem-lsr-ILM-12",
        "report_type": "TSTM WND DMG",
        "event_category": "thunderstorm_wind",
        "valid_utc": "202603121750",
        "standard_time_display": "2026-03-12 12:50 EST",
        "wfo": "ILM",
        "county_or_zone": "Pender",
        "city": "2 N Rocky Point",
        "state": "NC",
        "magnitude": null,
        "magnitude_units": null,
        "source": "Public",
        "event_narrative": "Media relayed report from the public of 2 trees down along Castle Hayne Rd near Lanier Ave. Time estimated from radar and report time."
      },
      "geometry": {
        "type": "Point",
        "coordinates": [
          -77.88,
          34.45
        ]
      }
    },
    {
      "type": "Feature",
      "id": "iem-lsr-ILM-13",
      "properties": {
        "report_id": "iem-lsr-ILM-13",
        "report_type": "TSTM WND DMG",
        "event_category": "thunderstorm_wind",
        "valid_utc": "202603121755",
        "standard_time_display": "2026-03-12 12:55 EST",
        "wfo": "ILM",
        "county_or_zone": "New Hanover",
        "city": "1 SW Seagate",
        "state": "NC",
        "magnitude": null,
        "magnitude_units": null,
        "source": "Public",
        "event_narrative": "Palm tree down in yard on Bradford Rd in Wilmington"
      },
      "geometry": {
        "type": "Point",
        "coordinates": [
          -77.85,
          34.2
        ]
      }
    },
    {
      "type": "Feature",
      "id": "iem-lsr-ILM-14",
      "properties": {
        "report_id": "iem-lsr-ILM-14",
        "report_type": "NON-TSTM WND DMG",
        "event_category": "thunderstorm_wind",
        "valid_utc": "202603121905",
        "standard_time_display": "2026-03-12 14:05 EST",
        "wfo": "ILM",
        "county_or_zone": "Columbus",
        "city": "4 NNW Whiteville",
        "state": "NC",
        "magnitude": null,
        "magnitude_units": null,
        "source": "Public",
        "event_narrative": "Strong winds behind cold front brought a tree down onto power lines on Old Lumberton Rd new 701 in Whiteville."
      },
      "geometry": {
        "type": "Point",
        "coordinates": [
          -78.73,
          34.39
        ]
      }
    },
    {
      "type": "Feature",
      "id": "iem-lsr-ILM-15",
      "properties": {
        "report_id": "iem-lsr-ILM-15",
        "report_type": "TSTM WND GST",
        "event_category": "thunderstorm_wind",
        "valid_utc": "202603162153",
        "standard_time_display": "2026-03-16 16:53 EST",
        "wfo": "ILM",
        "county_or_zone": "Florence",
        "city": "Florence",
        "state": "SC",
        "magnitude": 58.0,
        "magnitude_units": null,
        "source": "ASOS",
        "event_narrative": null
      },
      "geometry": {
        "type": "Point",
        "coordinates": [
          -79.72,
          34.19
        ]
      }
    },
    {
      "type": "Feature",
      "id": "iem-lsr-ILM-16",
      "properties": {
        "report_id": "iem-lsr-ILM-16",
        "report_type": "TSTM WND GST",
        "event_category": "thunderstorm_wind",
        "valid_utc": "202603162247",
        "standard_time_display": "2026-03-16 17:47 EST",
        "wfo": "ILM",
        "county_or_zone": "Robeson",
        "city": "Lumberton",
        "state": "NC",
        "magnitude": 58.0,
        "magnitude_units": null,
        "source": "ASOS",
        "event_narrative": null
      },
      "geometry": {
        "type": "Point",
        "coordinates": [
          -79.06,
          34.61
        ]
      }
    },
    {
      "type": "Feature",
      "id": "iem-lsr-ILM-17",
      "properties": {
        "report_id": "iem-lsr-ILM-17",
        "report_type": "TSTM WND GST",
        "event_category": "thunderstorm_wind",
        "valid_utc": "202603162254",
        "standard_time_display": "2026-03-16 17:54 EST",
        "wfo": "ILM",
        "county_or_zone": "Robeson",
        "city": "4 S LUMBERTON",
        "state": "NC",
        "magnitude": 60.0,
        "magnitude_units": null,
        "source": "Public",
        "event_narrative": null
      },
      "geometry": {
        "type": "Point",
        "coordinates": [
          -79.06,
          34.56
        ]
      }
    }
  ]
}