{
  "type": "FeatureCollection",
  "metadata": {
    "schema_version": "0.2.4",
    "year": 2026,
    "month": 7,
    "wfo": "MKX",
    "start_utc": "2026-07-01T00:00:00Z",
    "end_utc": "2026-08-01T00:00:00Z",
    "generated_utc": "2026-08-25T09:51:43Z",
    "mode": "storm_data_prep",
    "public_release_status": "public-source-derived",
    "time_note": "Storm Data entry times should be reviewed in local Standard Time (ST), not daylight time. Candidate reports include standard_time_display.",
    "tornado_track_policy": "Tornado tracks must come from DAT. NCEI begin/end coordinates are not used as a tornado track substitute.",
    "source": "https://mesonet.agron.iastate.edu/cgi-bin/request/gis/lsr.py?wfo=MKX&sts=2026-07-01T00%3A00%3A00Z&ets=2026-08-01T00%3A00%3A00Z&fmt=csv"
  },
  "features": [
    {
      "type": "Feature",
      "id": "iem-lsr-MKX-1",
      "properties": {
        "report_id": "iem-lsr-MKX-1",
        "report_type": "HAIL",
        "event_category": "hail",
        "valid_utc": "202607011415",
        "standard_time_display": "2026-07-01 08:15 CST",
        "wfo": "MKX",
        "county_or_zone": "Sheboygan",
        "city": "Elkhart Lake",
        "state": "WI",
        "magnitude": 0.88,
        "magnitude_units": null,
        "source": "Law Enforcement",
        "event_narrative": "Elkhart Lake PD reports 5 minutes of dime to nickel sized hail."
      },
      "geometry": {
        "type": "Point",
        "coordinates": [
          -88.02,
          43.83
        ]
      }
    },
    {
      "type": "Feature",
      "id": "iem-lsr-MKX-2",
      "properties": {
        "report_id": "iem-lsr-MKX-2",
        "report_type": "HAIL",
        "event_category": "hail",
        "valid_utc": "202607011517",
        "standard_time_display": "2026-07-01 09:17 CST",
        "wfo": "MKX",
        "county_or_zone": "Sauk",
        "city": "La Valle",
        "state": "WI",
        "magnitude": 1.0,
        "magnitude_units": null,
        "source": "Public",
        "event_narrative": "Time est from radar."
      },
      "geometry": {
        "type": "Point",
        "coordinates": [
          -90.13,
          43.58
        ]
      }
    },
    {
      "type": "Feature",
      "id": "iem-lsr-MKX-3",
      "properties": {
        "report_id": "iem-lsr-MKX-3",
        "report_type": "HAIL",
        "event_category": "hail",
        "valid_utc": "202607011543",
        "standard_time_display": "2026-07-01 09:43 CST",
        "wfo": "MKX",
        "county_or_zone": "Columbia",
        "city": "1 E Wisconsin Dells",
        "state": "WI",
        "magnitude": 1.0,
        "magnitude_units": null,
        "source": "Public",
        "event_narrative": "From social media. Time est from radar."
      },
      "geometry": {
        "type": "Point",
        "coordinates": [
          -89.76,
          43.63
        ]
      }
    },
    {
      "type": "Feature",
      "id": "iem-lsr-MKX-4",
      "properties": {
        "report_id": "iem-lsr-MKX-4",
        "report_type": "HAIL",
        "event_category": "hail",
        "valid_utc": "202607011630",
        "standard_time_display": "2026-07-01 10:30 CST",
        "wfo": "MKX",
        "county_or_zone": "Green Lake",
        "city": "5 SW Kingston",
        "state": "WI",
        "magnitude": 0.7,
        "magnitude_units": null,
        "source": "911 Call Center",
        "event_narrative": null
      },
      "geometry": {
        "type": "Point",
        "coordinates": [
          -89.21,
          43.66
        ]
      }
    },
    {
      "type": "Feature",
      "id": "iem-lsr-MKX-5",
      "properties": {
        "report_id": "iem-lsr-MKX-5",
        "report_type": "HAIL",
        "event_category": "hail",
        "valid_utc": "202607011637",
        "standard_time_display": "2026-07-01 10:37 CST",
        "wfo": "MKX",
        "county_or_zone": "Green Lake",
        "city": "Markesan",
        "state": "WI",
        "magnitude": 1.0,
        "magnitude_units": null,
        "source": "Public",
        "event_narrative": "From social media. Time est from radar."
      },
      "geometry": {
        "type": "Point",
        "coordinates": [
          -88.99,
          43.7
        ]
      }
    },
    {
      "type": "Feature",
      "id": "iem-lsr-MKX-6",
      "properties": {
        "report_id": "iem-lsr-MKX-6",
        "report_type": "HAIL",
        "event_category": "hail",
        "valid_utc": "202607011650",
        "standard_time_display": "2026-07-01 10:50 CST",
        "wfo": "MKX",
        "county_or_zone": "Fond du Lac",
        "city": "Brandon",
        "state": "WI",
        "magnitude": 1.5,
        "magnitude_units": null,
        "source": "Public",
        "event_narrative": "Size est from social media pics sent to local media shared by County EM. Time est from radar."
      },
      "geometry": {
        "type": "Point",
        "coordinates": [
          -88.78,
          43.73
        ]
      }
    },
    {
      "type": "Feature",
      "id": "iem-lsr-MKX-7",
      "properties": {
        "report_id": "iem-lsr-MKX-7",
        "report_type": "HAIL",
        "event_category": "hail",
        "valid_utc": "202607011700",
        "standard_time_display": "2026-07-01 11:00 CST",
        "wfo": "MKX",
        "county_or_zone": "Fond du Lac",
        "city": "4 S Rosendale",
        "state": "WI",
        "magnitude": 1.0,
        "magnitude_units": null,
        "source": "Public",
        "event_narrative": "Report from mPING: Quarter (1.00 in.)."
      },
      "geometry": {
        "type": "Point",
        "coordinates": [
          -88.68,
          43.75
        ]
      }
    },
    {
      "type": "Feature",
      "id": "iem-lsr-MKX-8",
      "properties": {
        "report_id": "iem-lsr-MKX-8",
        "report_type": "HAIL",
        "event_category": "hail",
        "valid_utc": "202607011700",
        "standard_time_display": "2026-07-01 11:00 CST",
        "wfo": "MKX",
        "county_or_zone": "Fond du Lac",
        "city": "4 S Rosendale",
        "state": "WI",
        "magnitude": 2.5,
        "magnitude_units": null,
        "source": "Public",
        "event_narrative": "Size est from social media pics sent to local media shared by County EM. Time est from radar."
      },
      "geometry": {
        "type": "Point",
        "coordinates": [
          -88.67,
          43.75
        ]
      }
    },
    {
      "type": "Feature",
      "id": "iem-lsr-MKX-9",
      "properties": {
        "report_id": "iem-lsr-MKX-9",
        "report_type": "HAIL",
        "event_category": "hail",
        "valid_utc": "202607011710",
        "standard_time_display": "2026-07-01 11:10 CST",
        "wfo": "MKX",
        "county_or_zone": "Fond du Lac",
        "city": "4 S Rosendale",
        "state": "WI",
        "magnitude": 1.25,
        "magnitude_units": null,
        "source": "Public",
        "event_narrative": "Report from mPING: Half Dollar (1.25 in.)."
      },
      "geometry": {
        "type": "Point",
        "coordinates": [
          -88.68,
          43.75
        ]
      }
    },
    {
      "type": "Feature",
      "id": "iem-lsr-MKX-10",
      "properties": {
        "report_id": "iem-lsr-MKX-10",
        "report_type": "HAIL",
        "event_category": "hail",
        "valid_utc": "202607011715",
        "standard_time_display": "2026-07-01 11:15 CST",
        "wfo": "MKX",
        "county_or_zone": "Fond du Lac",
        "city": "2 ENE Lamartine",
        "state": "WI",
        "magnitude": 2.0,
        "magnitude_units": null,
        "source": "Public",
        "event_narrative": "From social media picture. Time est from radar."
      },
      "geometry": {
        "type": "Point",
        "coordinates": [
          -88.53,
          43.75
        ]
      }
    },
    {
      "type": "Feature",
      "id": "iem-lsr-MKX-11",
      "properties": {
        "report_id": "iem-lsr-MKX-11",
        "report_type": "TSTM WND GST",
        "event_category": "thunderstorm_wind",
        "valid_utc": "202607011718",
        "standard_time_display": "2026-07-01 11:18 CST",
        "wfo": "MKX",
        "county_or_zone": "Fond du Lac",
        "city": "2 SW Fond Du Lac",
        "state": "WI",
        "magnitude": 43.0,
        "magnitude_units": null,
        "source": "ASOS",
        "event_narrative": "ASOS station KFLD Fond Du Lac Airport."
      },
      "geometry": {
        "type": "Point",
        "coordinates": [
          -88.48,
          43.77
        ]
      }
    },
    {
      "type": "Feature",
      "id": "iem-lsr-MKX-12",
      "properties": {
        "report_id": "iem-lsr-MKX-12",
        "report_type": "HAIL",
        "event_category": "hail",
        "valid_utc": "202607011720",
        "standard_time_display": "2026-07-01 11:20 CST",
        "wfo": "MKX",
        "county_or_zone": "Fond du Lac",
        "city": "2 SSW Fond Du Lac",
        "state": "WI",
        "magnitude": 2.0,
        "magnitude_units": null,
        "source": "Public",
        "event_narrative": "Picture shared by local media. Time est from radar."
      },
      "geometry": {
        "type": "Point",
        "coordinates": [
          -88.47,
          43.76
        ]
      }
    },
    {
      "type": "Feature",
      "id": "iem-lsr-MKX-13",
      "properties": {
        "report_id": "iem-lsr-MKX-13",
        "report_type": "HAIL",
        "event_category": "hail",
        "valid_utc": "202607011723",
        "standard_time_display": "2026-07-01 11:23 CST",
        "wfo": "MKX",
        "county_or_zone": "Fond du Lac",
        "city": "3 E Lamartine",
        "state": "WI",
        "magnitude": 1.0,
        "magnitude_units": null,
        "source": "Public",
        "event_narrative": "Report from mPING: Quarter (1.00 in.)."
      },
      "geometry": {
        "type": "Point",
        "coordinates": [
          -88.51,
          43.75
        ]
      }
    },
    {
      "type": "Feature",
      "id": "iem-lsr-MKX-14",
      "properties": {
        "report_id": "iem-lsr-MKX-14",
        "report_type": "HAIL",
        "event_category": "hail",
        "valid_utc": "202607011723",
        "standard_time_display": "2026-07-01 11:23 CST",
        "wfo": "MKX",
        "county_or_zone": "Fond du Lac",
        "city": "4 W Eden",
        "state": "WI",
        "magnitude": 1.0,
        "magnitude_units": null,
        "source": "Public",
        "event_narrative": "Report from mPING: Quarter (1.00 in.)."
      },
      "geometry": {
        "type": "Point",
        "coordinates": [
          -88.44,
          43.71
        ]
      }
    },
    {
      "type": "Feature",
      "id": "iem-lsr-MKX-15",
      "properties": {
        "report_id": "iem-lsr-MKX-15",
        "report_type": "HAIL",
        "event_category": "hail",
        "valid_utc": "202607011724",
        "standard_time_display": "2026-07-01 11:24 CST",
        "wfo": "MKX",
        "county_or_zone": "Fond du Lac",
        "city": "3 SSW Fond Du Lac",
        "state": "WI",
        "magnitude": 1.75,
        "magnitude_units": null,
        "source": "Trained Spotter",
        "event_narrative": "Corner of Rolling Meadows and Hickory."
      },
      "geometry": {
        "type": "Point",
        "coordinates": [
          -88.46,
          43.75
        ]
      }
    },
    {
      "type": "Feature",
      "id": "iem-lsr-MKX-16",
      "properties": {
        "report_id": "iem-lsr-MKX-16",
        "report_type": "HAIL",
        "event_category": "hail",
        "valid_utc": "202607011725",
        "standard_time_display": "2026-07-01 11:25 CST",
        "wfo": "MKX",
        "county_or_zone": "Fond du Lac",
        "city": "3 SE Fond Du Lac",
        "state": "WI",
        "magnitude": 1.75,
        "magnitude_units": null,
        "source": "Public",
        "event_narrative": "Size est from social media pics sent to local media shared by County EM. Time est from radar."
      },
      "geometry": {
        "type": "Point",
        "coordinates": [
          -88.41,
          43.75
        ]
      }
    },
    {
      "type": "Feature",
      "id": "iem-lsr-MKX-17",
      "properties": {
        "report_id": "iem-lsr-MKX-17",
        "report_type": "HAIL",
        "event_category": "hail",
        "valid_utc": "202607011725",
        "standard_time_display": "2026-07-01 11:25 CST",
        "wfo": "MKX",
        "county_or_zone": "Fond du Lac",
        "city": "3 NW Eden",
        "state": "WI",
        "magnitude": 2.0,
        "magnitude_units": null,
        "source": "Public",
        "event_narrative": "Size est from social media pics sent to local media shared by County EM. Time est from radar."
      },
      "geometry": {
        "type": "Point",
        "coordinates": [
          -88.4,
          43.72
        ]
      }
    },
    {
      "type": "Feature",
      "id": "iem-lsr-MKX-18",
      "properties": {
        "report_id": "iem-lsr-MKX-18",
        "report_type": "HAIL",
        "event_category": "hail",
        "valid_utc": "202607011725",
        "standard_time_display": "2026-07-01 11:25 CST",
        "wfo": "MKX",
        "county_or_zone": "Fond du Lac",
        "city": "4 SE Fond Du Lac",
        "state": "WI",
        "magnitude": 2.5,
        "magnitude_units": null,
        "source": "Public",
        "event_narrative": "Size est from social media pics sent to local media shared by County EM. Time est from radar."
      },
      "geometry": {
        "type": "Point",
        "coordinates": [
          -88.4,
          43.74
        ]
      }
    },
    {
      "type": "Feature",
      "id": "iem-lsr-MKX-19",
      "properties": {
        "report_id": "iem-lsr-MKX-19",
        "report_type": "HAIL",
        "event_category": "hail",
        "valid_utc": "202607011725",
        "standard_time_display": "2026-07-01 11:25 CST",
        "wfo": "MKX",
        "county_or_zone": "Fond du Lac",
        "city": "3 SE Fond Du Lac",
        "state": "WI",
        "magnitude": 3.0,
        "magnitude_units": null,
        "source": "Public",
        "event_narrative": "Picture from social media that included a ruler. Time est from radar."
      },
      "geometry": {
        "type": "Point",
        "coordinates": [
          -88.41,
          43.75
        ]
      }
    },
    {
      "type": "Feature",
      "id": "iem-lsr-MKX-20",
      "properties": {
        "report_id": "iem-lsr-MKX-20",
        "report_type": "HAIL",
        "event_category": "hail",
        "valid_utc": "202607011726",
        "standard_time_display": "2026-07-01 11:26 CST",
        "wfo": "MKX",
        "county_or_zone": "Fond du Lac",
        "city": "2 S Fond Du Lac",
        "state": "WI",
        "magnitude": 1.0,
        "magnitude_units": null,
        "source": "Public",
        "event_narrative": "Report from mPING: Quarter (1.00 in.)."
      },
      "geometry": {
        "type": "Point",
        "coordinates": [
          -88.45,
          43.76
        ]
      }
    },
    {
      "type": "Feature",
      "id": "iem-lsr-MKX-21",
      "properties": {
        "report_id": "iem-lsr-MKX-21",
        "report_type": "HAIL",
        "event_category": "hail",
        "valid_utc": "202607011728",
        "standard_time_display": "2026-07-01 11:28 CST",
        "wfo": "MKX",
        "county_or_zone": "Fond du Lac",
        "city": "4 S Fond Du Lac",
        "state": "WI",
        "magnitude": 3.25,
        "magnitude_units": null,
        "source": "Storm Chaser",
        "event_narrative": "Approx 1 mile SSW of the intersection of I-41 and US HWY 151."
      },
      "geometry": {
        "type": "Point",
        "coordinates": [
          -88.45,
          43.72
        ]
      }
    },
    {
      "type": "Feature",
      "id": "iem-lsr-MKX-22",
      "properties": {
        "report_id": "iem-lsr-MKX-22",
        "report_type": "HAIL",
        "event_category": "hail",
        "valid_utc": "202607011730",
        "standard_time_display": "2026-07-01 11:30 CST",
        "wfo": "MKX",
        "county_or_zone": "Fond du Lac",
        "city": "4 W Eden",
        "state": "WI",
        "magnitude": 1.25,
        "magnitude_units": null,
        "source": "Public",
        "event_narrative": "Report from mPING: Half Dollar (1.25 in.)."
      },
      "geometry": {
        "type": "Point",
        "coordinates": [
          -88.44,
          43.71
        ]
      }
    },
    {
      "type": "Feature",
      "id": "iem-lsr-MKX-23",
      "properties": {
        "report_id": "iem-lsr-MKX-23",
        "report_type": "HAIL",
        "event_category": "hail",
        "valid_utc": "202607011730",
        "standard_time_display": "2026-07-01 11:30 CST",
        "wfo": "MKX",
        "county_or_zone": "Fond du Lac",
        "city": "3 SE Fond Du Lac",
        "state": "WI",
        "magnitude": 1.5,
        "magnitude_units": null,
        "source": "Public",
        "event_narrative": null
      },
      "geometry": {
        "type": "Point",
        "coordinates": [
          -88.43,
          43.75
        ]
      }
    },
    {
      "type": "Feature",
      "id": "iem-lsr-MKX-24",
      "properties": {
        "report_id": "iem-lsr-MKX-24",
        "report_type": "HAIL",
        "event_category": "hail",
        "valid_utc": "202607011730",
        "standard_time_display": "2026-07-01 11:30 CST",
        "wfo": "MKX",
        "county_or_zone": "Fond du Lac",
        "city": "4 NNW Eden",
        "state": "WI",
        "magnitude": 1.5,
        "magnitude_units": null,
        "source": "Public",
        "event_narrative": "4 miles ESE of Fond du Lac. Time est from radar."
      },
      "geometry": {
        "type": "Point",
        "coordinates": [
          -88.38,
          43.74
        ]
      }
    },
    {
      "type": "Feature",
      "id": "iem-lsr-MKX-25",
      "properties": {
        "report_id": "iem-lsr-MKX-25",
        "report_type": "HAIL",
        "event_category": "hail",
        "valid_utc": "202607011738",
        "standard_time_display": "2026-07-01 11:38 CST",
        "wfo": "MKX",
        "county_or_zone": "Fond du Lac",
        "city": "3 E Fond Du Lac",
        "state": "WI",
        "magnitude": 1.5,
        "magnitude_units": null,
        "source": "Public",
        "event_narrative": "Report from mPING: Ping Pong Ball (1.50 in.)."
      },
      "geometry": {
        "type": "Point",
        "coordinates": [
          -88.4,
          43.76
        ]
      }
    },
    {
      "type": "Feature",
      "id": "iem-lsr-MKX-26",
      "properties": {
        "report_id": "iem-lsr-MKX-26",
        "report_type": "HAIL",
        "event_category": "hail",
        "valid_utc": "202607011755",
        "standard_time_display": "2026-07-01 11:55 CST",
        "wfo": "MKX",
        "county_or_zone": "Sheboygan",
        "city": "Glenbeulah",
        "state": "WI",
        "magnitude": 2.0,
        "magnitude_units": null,
        "source": "Public",
        "event_narrative": "Picture from social media. Time est from radar."
      },
      "geometry": {
        "type": "Point",
        "coordinates": [
          -88.05,
          43.79
        ]
      }
    },
    {
      "type": "Feature",
      "id": "iem-lsr-MKX-27",
      "properties": {
        "report_id": "iem-lsr-MKX-27",
        "report_type": "HAIL",
        "event_category": "hail",
        "valid_utc": "202607011758",
        "standard_time_display": "2026-07-01 11:58 CST",
        "wfo": "MKX",
        "county_or_zone": "Sheboygan",
        "city": "2 SE Elkhart Lake",
        "state": "WI",
        "magnitude": 2.25,
        "magnitude_units": null,
        "source": "Public",
        "event_narrative": "From social media picture. Time est from radar."
      },
      "geometry": {
        "type": "Point",
        "coordinates": [
          -87.98,
          43.81
        ]
      }
    },
    {
      "type": "Feature",
      "id": "iem-lsr-MKX-28",
      "properties": {
        "report_id": "iem-lsr-MKX-28",
        "report_type": "HAIL",
        "event_category": "hail",
        "valid_utc": "202607011800",
        "standard_time_display": "2026-07-01 12:00 CST",
        "wfo": "MKX",
        "county_or_zone": "Sheboygan",
        "city": "1 E Plymouth",
        "state": "WI",
        "magnitude": 1.25,
        "magnitude_units": null,
        "source": "Public",
        "event_narrative": "mPING. Time est from radar."
      },
      "geometry": {
        "type": "Point",
        "coordinates": [
          -87.94,
          43.75
        ]
      }
    },
    {
      "type": "Feature",
      "id": "iem-lsr-MKX-29",
      "properties": {
        "report_id": "iem-lsr-MKX-29",
        "report_type": "HAIL",
        "event_category": "hail",
        "valid_utc": "202607011800",
        "standard_time_display": "2026-07-01 12:00 CST",
        "wfo": "MKX",
        "county_or_zone": "Sheboygan",
        "city": "Plymouth",
        "state": "WI",
        "magnitude": 2.25,
        "magnitude_units": null,
        "source": "Public",
        "event_narrative": "Time est from radar."
      },
      "geometry": {
        "type": "Point",
        "coordinates": [
          -87.98,
          43.75
        ]
      }
    },
    {
      "type": "Feature",
      "id": "iem-lsr-MKX-30",
      "properties": {
        "report_id": "iem-lsr-MKX-30",
        "report_type": "HAIL",
        "event_category": "hail",
        "valid_utc": "202607011805",
        "standard_time_display": "2026-07-01 12:05 CST",
        "wfo": "MKX",
        "county_or_zone": "Sheboygan",
        "city": "Plymouth",
        "state": "WI",
        "magnitude": 0.75,
        "magnitude_units": null,
        "source": "Public",
        "event_narrative": "Report from mPING: Dime (0.75 in.)."
      },
      "geometry": {
        "type": "Point",
        "coordinates": [
          -87.97,
          43.74
        ]
      }
    },
    {
      "type": "Feature",
      "id": "iem-lsr-MKX-31",
      "properties": {
        "report_id": "iem-lsr-MKX-31",
        "report_type": "HAIL",
        "event_category": "hail",
        "valid_utc": "202607011805",
        "standard_time_display": "2026-07-01 12:05 CST",
        "wfo": "MKX",
        "county_or_zone": "Sheboygan",
        "city": "3 E Plymouth",
        "state": "WI",
        "magnitude": 1.0,
        "magnitude_units": null,
        "source": "Public",
        "event_narrative": "mPING. Time est from radar."
      },
      "geometry": {
        "type": "Point",
        "coordinates": [
          -87.9,
          43.75
        ]
      }
    },
    {
      "type": "Feature",
      "id": "iem-lsr-MKX-32",
      "properties": {
        "report_id": "iem-lsr-MKX-32",
        "report_type": "HAIL",
        "event_category": "hail",
        "valid_utc": "202607011805",
        "standard_time_display": "2026-07-01 12:05 CST",
        "wfo": "MKX",
        "county_or_zone": "Sheboygan",
        "city": "4 E Plymouth",
        "state": "WI",
        "magnitude": 1.75,
        "magnitude_units": null,
        "source": "Public",
        "event_narrative": "Time est from radar."
      },
      "geometry": {
        "type": "Point",
        "coordinates": [
          -87.9,
          43.75
        ]
      }
    },
    {
      "type": "Feature",
      "id": "iem-lsr-MKX-33",
      "properties": {
        "report_id": "iem-lsr-MKX-33",
        "report_type": "HAIL",
        "event_category": "hail",
        "valid_utc": "202607011815",
        "standard_time_display": "2026-07-01 12:15 CST",
        "wfo": "MKX",
        "county_or_zone": "Sheboygan",
        "city": "1 S Howards Grove",
        "state": "WI",
        "magnitude": 1.0,
        "magnitude_units": null,
        "source": "Public",
        "event_narrative": "From social media. Time est from radar."
      },
      "geometry": {
        "type": "Point",
        "coordinates": [
          -87.82,
          43.82
        ]
      }
    },
    {
      "type": "Feature",
      "id": "iem-lsr-MKX-34",
      "properties": {
        "report_id": "iem-lsr-MKX-34",
        "report_type": "HAIL",
        "event_category": "hail",
        "valid_utc": "202607011820",
        "standard_time_display": "2026-07-01 12:20 CST",
        "wfo": "MKX",
        "county_or_zone": "Sheboygan",
        "city": "2 WNW Sheboygan",
        "state": "WI",
        "magnitude": 1.0,
        "magnitude_units": null,
        "source": "Public",
        "event_narrative": "Time est from radar."
      },
      "geometry": {
        "type": "Point",
        "coordinates": [
          -87.74,
          43.76
        ]
      }
    },
    {
      "type": "Feature",
      "id": "iem-lsr-MKX-35",
      "properties": {
        "report_id": "iem-lsr-MKX-35",
        "report_type": "HAIL",
        "event_category": "hail",
        "valid_utc": "202607011820",
        "standard_time_display": "2026-07-01 12:20 CST",
        "wfo": "MKX",
        "county_or_zone": "Sheboygan",
        "city": "2 WNW Sheboygan",
        "state": "WI",
        "magnitude": 1.25,
        "magnitude_units": null,
        "source": "Public",
        "event_narrative": "mPING. Time est from radar."
      },
      "geometry": {
        "type": "Point",
        "coordinates": [
          -87.75,
          43.77
        ]
      }
    },
    {
      "type": "Feature",
      "id": "iem-lsr-MKX-36",
      "properties": {
        "report_id": "iem-lsr-MKX-36",
        "report_type": "HAIL",
        "event_category": "hail",
        "valid_utc": "202607011820",
        "standard_time_display": "2026-07-01 12:20 CST",
        "wfo": "MKX",
        "county_or_zone": "Sheboygan",
        "city": "2 N Sheboygan",
        "state": "WI",
        "magnitude": 2.0,
        "magnitude_units": null,
        "source": "Public",
        "event_narrative": "Time est from radar."
      },
      "geometry": {
        "type": "Point",
        "coordinates": [
          -87.71,
          43.78
        ]
      }
    },
    {
      "type": "Feature",
      "id": "iem-lsr-MKX-37",
      "properties": {
        "report_id": "iem-lsr-MKX-37",
        "report_type": "HAIL",
        "event_category": "hail",
        "valid_utc": "202607011820",
        "standard_time_display": "2026-07-01 12:20 CST",
        "wfo": "MKX",
        "county_or_zone": "Sheboygan",
        "city": "1 NW Sheboygan",
        "state": "WI",
        "magnitude": 2.25,
        "magnitude_units": null,
        "source": "Public",
        "event_narrative": "From social media picture. Time est from radar."
      },
      "geometry": {
        "type": "Point",
        "coordinates": [
          -87.73,
          43.77
        ]
      }
    },
    {
      "type": "Feature",
      "id": "iem-lsr-MKX-38",
      "properties": {
        "report_id": "iem-lsr-MKX-38",
        "report_type": "TSTM WND GST",
        "event_category": "thunderstorm_wind",
        "valid_utc": "202607022134",
        "standard_time_display": "2026-07-02 15:34 CST",
        "wfo": "MKX",
        "county_or_zone": "Sauk",
        "city": "7 WNW Spring Green",
        "state": "WI",
        "magnitude": 62.0,
        "magnitude_units": null,
        "source": "ASOS",
        "event_narrative": "Lone Rock Airport LNR. A second gust of 62 mph at 4:39PM."
      },
      "geometry": {
        "type": "Point",
        "coordinates": [
          -90.19,
          43.21
        ]
      }
    },
    {
      "type": "Feature",
      "id": "iem-lsr-MKX-39",
      "properties": {
        "report_id": "iem-lsr-MKX-39",
        "report_type": "TSTM WND GST",
        "event_category": "thunderstorm_wind",
        "valid_utc": "202607022140",
        "standard_time_display": "2026-07-02 15:40 CST",
        "wfo": "MKX",
        "county_or_zone": "Iowa",
        "city": "3 SE Linden",
        "state": "WI",
        "magnitude": 59.0,
        "magnitude_units": null,
        "source": "Mesonet",
        "event_narrative": "WiscoNet in Mineral Point."
      },
      "geometry": {
        "type": "Point",
        "coordinates": [
          -90.24,
          42.89
        ]
      }
    },
    {
      "type": "Feature",
      "id": "iem-lsr-MKX-40",
      "properties": {
        "report_id": "iem-lsr-MKX-40",
        "report_type": "TSTM WND GST",
        "event_category": "thunderstorm_wind",
        "valid_utc": "202607022253",
        "standard_time_display": "2026-07-02 16:53 CST",
        "wfo": "MKX",
        "county_or_zone": "Dane",
        "city": "Belleville",
        "state": "WI",
        "magnitude": 60.0,
        "magnitude_units": null,
        "source": "Public",
        "event_narrative": "Public estimates 60 MPH gusts. Time confirmed from radar."
      },
      "geometry": {
        "type": "Point",
        "coordinates": [
          -89.54,
          42.87
        ]
      }
    },
    {
      "type": "Feature",
      "id": "iem-lsr-MKX-41",
      "properties": {
        "report_id": "iem-lsr-MKX-41",
        "report_type": "TSTM WND GST",
        "event_category": "thunderstorm_wind",
        "valid_utc": "202607022255",
        "standard_time_display": "2026-07-02 16:55 CST",
        "wfo": "MKX",
        "county_or_zone": "Dane",
        "city": "2 SE Windsor",
        "state": "WI",
        "magnitude": 55.0,
        "magnitude_units": null,
        "source": "Public",
        "event_narrative": "Private weather station measures 55 MPH wind gust southeast of Windsor. Time confirmed from radar."
      },
      "geometry": {
        "type": "Point",
        "coordinates": [
          -89.31,
          43.19
        ]
      }
    },
    {
      "type": "Feature",
      "id": "iem-lsr-MKX-42",
      "properties": {
        "report_id": "iem-lsr-MKX-42",
        "report_type": "TSTM WND DMG",
        "event_category": "thunderstorm_wind",
        "valid_utc": "202607022325",
        "standard_time_display": "2026-07-02 17:25 CST",
        "wfo": "MKX",
        "county_or_zone": "Rock",
        "city": "2 ENE Janesville",
        "state": "WI",
        "magnitude": null,
        "magnitude_units": null,
        "source": "Storm Chaser",
        "event_narrative": "Storm chaser photo of large tree limb broken near Marshall Middle School in Janesville."
      },
      "geometry": {
        "type": "Point",
        "coordinates": [
          -88.99,
          42.69
        ]
      }
    },
    {
      "type": "Feature",
      "id": "iem-lsr-MKX-43",
      "properties": {
        "report_id": "iem-lsr-MKX-43",
        "report_type": "TSTM WND DMG",
        "event_category": "thunderstorm_wind",
        "valid_utc": "202607022325",
        "standard_time_display": "2026-07-02 17:25 CST",
        "wfo": "MKX",
        "county_or_zone": "Dodge",
        "city": "3 SSW Clyman",
        "state": "WI",
        "magnitude": null,
        "magnitude_units": null,
        "source": "NWS Employee",
        "event_narrative": "A few large branches 8 to 12 inches in diameter down on a power line."
      },
      "geometry": {
        "type": "Point",
        "coordinates": [
          -88.75,
          43.27
        ]
      }
    },
    {
      "type": "Feature",
      "id": "iem-lsr-MKX-44",
      "properties": {
        "report_id": "iem-lsr-MKX-44",
        "report_type": "TSTM WND GST",
        "event_category": "thunderstorm_wind",
        "valid_utc": "202607022329",
        "standard_time_display": "2026-07-02 17:29 CST",
        "wfo": "MKX",
        "county_or_zone": "Jefferson",
        "city": "3 WSW Watertown",
        "state": "WI",
        "magnitude": 55.0,
        "magnitude_units": null,
        "source": "Public",
        "event_narrative": "Private weather statement measures 55 MPH wind gust. Time confirmed from radar."
      },
      "geometry": {
        "type": "Point",
        "coordinates": [
          -88.77,
          43.18
        ]
      }
    },
    {
      "type": "Feature",
      "id": "iem-lsr-MKX-45",
      "properties": {
        "report_id": "iem-lsr-MKX-45",
        "report_type": "TSTM WND DMG",
        "event_category": "thunderstorm_wind",
        "valid_utc": "202607022345",
        "standard_time_display": "2026-07-02 17:45 CST",
        "wfo": "MKX",
        "county_or_zone": "Waukesha",
        "city": "1 W Hartland",
        "state": "WI",
        "magnitude": null,
        "magnitude_units": null,
        "source": "Trained Spotter",
        "event_narrative": "Trained spotter reports trees down on personal property. Time estimated from radar data."
      },
      "geometry": {
        "type": "Point",
        "coordinates": [
          -88.36,
          43.1
        ]
      }
    },
    {
      "type": "Feature",
      "id": "iem-lsr-MKX-46",
      "properties": {
        "report_id": "iem-lsr-MKX-46",
        "report_type": "TSTM WND DMG",
        "event_category": "thunderstorm_wind",
        "valid_utc": "202607022352",
        "standard_time_display": "2026-07-02 17:52 CST",
        "wfo": "MKX",
        "county_or_zone": "Washington",
        "city": "3 S Jackson",
        "state": "WI",
        "magnitude": null,
        "magnitude_units": null,
        "source": "Trained Spotter",
        "event_narrative": "Photographs of downed tree limbs from trained weather spotter. Time confirmed via radar data."
      },
      "geometry": {
        "type": "Point",
        "coordinates": [
          -88.16,
          43.28
        ]
      }
    },
    {
      "type": "Feature",
      "id": "iem-lsr-MKX-47",
      "properties": {
        "report_id": "iem-lsr-MKX-47",
        "report_type": "TSTM WND DMG",
        "event_category": "thunderstorm_wind",
        "valid_utc": "202607022355",
        "standard_time_display": "2026-07-02 17:55 CST",
        "wfo": "MKX",
        "county_or_zone": "Waukesha",
        "city": "2 E Pewaukee",
        "state": "WI",
        "magnitude": null,
        "magnitude_units": null,
        "source": "Public",
        "event_narrative": "Photos of 6 inch diameter tree limbs broken off trees. Time confirmed from radar data."
      },
      "geometry": {
        "type": "Point",
        "coordinates": [
          -88.21,
          43.09
        ]
      }
    },
    {
      "type": "Feature",
      "id": "iem-lsr-MKX-48",
      "properties": {
        "report_id": "iem-lsr-MKX-48",
        "report_type": "TSTM WND GST",
        "event_category": "thunderstorm_wind",
        "valid_utc": "202607030004",
        "standard_time_display": "2026-07-02 18:04 CST",
        "wfo": "MKX",
        "county_or_zone": "Waukesha",
        "city": "1 SE Menomonee Falls",
        "state": "WI",
        "magnitude": 64.0,
        "magnitude_units": null,
        "source": "Public",
        "event_narrative": "Private weather station measures 64 MPH wind gust. Time confirmed from radar."
      },
      "geometry": {
        "type": "Point",
        "coordinates": [
          -88.11,
          43.14
        ]
      }
    },
    {
      "type": "Feature",
      "id": "iem-lsr-MKX-49",
      "properties": {
        "report_id": "iem-lsr-MKX-49",
        "report_type": "HAIL",
        "event_category": "hail",
        "valid_utc": "202607030009",
        "standard_time_display": "2026-07-02 18:09 CST",
        "wfo": "MKX",
        "county_or_zone": "Washington",
        "city": "3 ESE Jackson",
        "state": "WI",
        "magnitude": 1.0,
        "magnitude_units": null,
        "source": "Trained Spotter",
        "event_narrative": "Trained spotter reports 1 inch diameter hail in Jackson."
      },
      "geometry": {
        "type": "Point",
        "coordinates": [
          -88.11,
          43.3
        ]
      }
    },
    {
      "type": "Feature",
      "id": "iem-lsr-MKX-50",
      "properties": {
        "report_id": "iem-lsr-MKX-50",
        "report_type": "TSTM WND DMG",
        "event_category": "thunderstorm_wind",
        "valid_utc": "202607031700",
        "standard_time_display": "2026-07-03 11:00 CST",
        "wfo": "MKX",
        "county_or_zone": "Rock",
        "city": "Beloit",
        "state": "WI",
        "magnitude": null,
        "magnitude_units": null,
        "source": "911 Call Center",
        "event_narrative": "Reports of trees and powerlines down in Beloit. Time estimated from radar."
      },
      "geometry": {
        "type": "Point",
        "coordinates": [
          -89.02,
          42.52
        ]
      }
    },
    {
      "type": "Feature",
      "id": "iem-lsr-MKX-51",
      "properties": {
        "report_id": "iem-lsr-MKX-51",
        "report_type": "TSTM WND DMG",
        "event_category": "thunderstorm_wind",
        "valid_utc": "202607031702",
        "standard_time_display": "2026-07-03 11:02 CST",
        "wfo": "MKX",
        "county_or_zone": "Walworth",
        "city": "1 N Sharon",
        "state": "WI",
        "magnitude": null,
        "magnitude_units": null,
        "source": "Emergency Mngr",
        "event_narrative": "Damaged outbuilding near Sharon. Time estimated from radar."
      },
      "geometry": {
        "type": "Point",
        "coordinates": [
          -88.73,
          42.51
        ]
      }
    },
    {
      "type": "Feature",
      "id": "iem-lsr-MKX-52",
      "properties": {
        "report_id": "iem-lsr-MKX-52",
        "report_type": "TSTM WND DMG",
        "event_category": "thunderstorm_wind",
        "valid_utc": "202607031702",
        "standard_time_display": "2026-07-03 11:02 CST",
        "wfo": "MKX",
        "county_or_zone": "Rock",
        "city": "Clinton",
        "state": "WI",
        "magnitude": null,
        "magnitude_units": null,
        "source": "911 Call Center",
        "event_narrative": "Reports of trees and powerlines down in Clinton. Time estimated from radar."
      },
      "geometry": {
        "type": "Point",
        "coordinates": [
          -88.87,
          42.56
        ]
      }
    },
    {
      "type": "Feature",
      "id": "iem-lsr-MKX-53",
      "properties": {
        "report_id": "iem-lsr-MKX-53",
        "report_type": "TSTM WND GST",
        "event_category": "thunderstorm_wind",
        "valid_utc": "202607031706",
        "standard_time_display": "2026-07-03 11:06 CST",
        "wfo": "MKX",
        "county_or_zone": "Walworth",
        "city": "2 SE Darien",
        "state": "WI",
        "magnitude": 100.0,
        "magnitude_units": null,
        "source": "NWS Storm Survey",
        "event_narrative": "*** 3 FATAL_ 2 INJ *** NWS Storm Survey for Walworth County: Damage from south of Darien through Lake Delavan to Como occurred due to downburst winds and not a tornado. Estimated peak winds of 90-100"
      },
      "geometry": {
        "type": "Point",
        "coordinates": [
          -88.68,
          42.57
        ]
      }
    },
    {
      "type": "Feature",
      "id": "iem-lsr-MKX-54",
      "properties": {
        "report_id": "iem-lsr-MKX-54",
        "report_type": "TSTM WND DMG",
        "event_category": "thunderstorm_wind",
        "valid_utc": "202607031709",
        "standard_time_display": "2026-07-03 11:09 CST",
        "wfo": "MKX",
        "county_or_zone": "Walworth",
        "city": "Delavan Lake",
        "state": "WI",
        "magnitude": null,
        "magnitude_units": null,
        "source": "Public",
        "event_narrative": "Reports of multiple trees and powerlines down near Delavan Lake. Time estimated from radar."
      },
      "geometry": {
        "type": "Point",
        "coordinates": [
          -88.62,
          42.6
        ]
      }
    },
    {
      "type": "Feature",
      "id": "iem-lsr-MKX-55",
      "properties": {
        "report_id": "iem-lsr-MKX-55",
        "report_type": "TSTM WND DMG",
        "event_category": "thunderstorm_wind",
        "valid_utc": "202607031710",
        "standard_time_display": "2026-07-03 11:10 CST",
        "wfo": "MKX",
        "county_or_zone": "Walworth",
        "city": "1 NNW Walworth",
        "state": "WI",
        "magnitude": null,
        "magnitude_units": null,
        "source": "Public",
        "event_narrative": "Few tree limbs down and flag pole down. Time estimated from Radar."
      },
      "geometry": {
        "type": "Point",
        "coordinates": [
          -88.6,
          42.54
        ]
      }
    },
    {
      "type": "Feature",
      "id": "iem-lsr-MKX-56",
      "properties": {
        "report_id": "iem-lsr-MKX-56",
        "report_type": "TSTM WND GST",
        "event_category": "thunderstorm_wind",
        "valid_utc": "202607031713",
        "standard_time_display": "2026-07-03 11:13 CST",
        "wfo": "MKX",
        "county_or_zone": "Walworth",
        "city": "1 S Darien",
        "state": "WI",
        "magnitude": 63.0,
        "magnitude_units": null,
        "source": "Public",
        "event_narrative": "Private Weather Station."
      },
      "geometry": {
        "type": "Point",
        "coordinates": [
          -88.71,
          42.58
        ]
      }
    },
    {
      "type": "Feature",
      "id": "iem-lsr-MKX-57",
      "properties": {
        "report_id": "iem-lsr-MKX-57",
        "report_type": "TSTM WND DMG",
        "event_category": "thunderstorm_wind",
        "valid_utc": "202607031722",
        "standard_time_display": "2026-07-03 11:22 CST",
        "wfo": "MKX",
        "county_or_zone": "Walworth",
        "city": "4 WNW Bohners Lake",
        "state": "WI",
        "magnitude": null,
        "magnitude_units": null,
        "source": "Public",
        "event_narrative": "Multiple large limbs down and a few trees snapped near the top in Lyons. Time estimated from radar."
      },
      "geometry": {
        "type": "Point",
        "coordinates": [
          -88.36,
          42.65
        ]
      }
    },
    {
      "type": "Feature",
      "id": "iem-lsr-MKX-58",
      "properties": {
        "report_id": "iem-lsr-MKX-58",
        "report_type": "TSTM WND DMG",
        "event_category": "thunderstorm_wind",
        "valid_utc": "202607031726",
        "standard_time_display": "2026-07-03 11:26 CST",
        "wfo": "MKX",
        "county_or_zone": "Walworth",
        "city": "4 NNE Lake Geneva",
        "state": "WI",
        "magnitude": null,
        "magnitude_units": null,
        "source": "Public",
        "event_narrative": "Large tree down Springfield Rd and Highway 120. Time estimated from radar."
      },
      "geometry": {
        "type": "Point",
        "coordinates": [
          -88.41,
          42.64
        ]
      }
    },
    {
      "type": "Feature",
      "id": "iem-lsr-MKX-59",
      "properties": {
        "report_id": "iem-lsr-MKX-59",
        "report_type": "TSTM WND DMG",
        "event_category": "thunderstorm_wind",
        "valid_utc": "202607031728",
        "standard_time_display": "2026-07-03 11:28 CST",
        "wfo": "MKX",
        "county_or_zone": "Walworth",
        "city": "Lake Geneva",
        "state": "WI",
        "magnitude": null,
        "magnitude_units": null,
        "source": "Amateur Radio",
        "event_narrative": "2 foot diameter tree down."
      },
      "geometry": {
        "type": "Point",
        "coordinates": [
          -88.43,
          42.59
        ]
      }
    },
    {
      "type": "Feature",
      "id": "iem-lsr-MKX-60",
      "properties": {
        "report_id": "iem-lsr-MKX-60",
        "report_type": "TSTM WND DMG",
        "event_category": "thunderstorm_wind",
        "valid_utc": "202607031729",
        "standard_time_display": "2026-07-03 11:29 CST",
        "wfo": "MKX",
        "county_or_zone": "Walworth",
        "city": "Pell Lake",
        "state": "WI",
        "magnitude": null,
        "magnitude_units": null,
        "source": "Public",
        "event_narrative": "Repots of tree branches down. Time estimated from radar."
      },
      "geometry": {
        "type": "Point",
        "coordinates": [
          -88.35,
          42.54
        ]
      }
    },
    {
      "type": "Feature",
      "id": "iem-lsr-MKX-61",
      "properties": {
        "report_id": "iem-lsr-MKX-61",
        "report_type": "TSTM WND DMG",
        "event_category": "thunderstorm_wind",
        "valid_utc": "202607031736",
        "standard_time_display": "2026-07-03 11:36 CST",
        "wfo": "MKX",
        "county_or_zone": "Racine",
        "city": "Burlington",
        "state": "WI",
        "magnitude": null,
        "magnitude_units": null,
        "source": "911 Call Center",
        "event_narrative": "Trees and powerlines down. Time estimated from radar."
      },
      "geometry": {
        "type": "Point",
        "coordinates": [
          -88.28,
          42.68
        ]
      }
    },
    {
      "type": "Feature",
      "id": "iem-lsr-MKX-62",
      "properties": {
        "report_id": "iem-lsr-MKX-62",
        "report_type": "TSTM WND GST",
        "event_category": "thunderstorm_wind",
        "valid_utc": "202607031749",
        "standard_time_display": "2026-07-03 11:49 CST",
        "wfo": "MKX",
        "county_or_zone": "Racine",
        "city": "2 SSE Eagle Lake",
        "state": "WI",
        "magnitude": 65.0,
        "magnitude_units": null,
        "source": "Public",
        "event_narrative": "Private Weather Station."
      },
      "geometry": {
        "type": "Point",
        "coordinates": [
          -88.11,
          42.68
        ]
      }
    },
    {
      "type": "Feature",
      "id": "iem-lsr-MKX-63",
      "properties": {
        "report_id": "iem-lsr-MKX-63",
        "report_type": "TSTM WND GST",
        "event_category": "thunderstorm_wind",
        "valid_utc": "202607031753",
        "standard_time_display": "2026-07-03 11:53 CST",
        "wfo": "MKX",
        "county_or_zone": "Kenosha",
        "city": "3 N Pleasant Prairie",
        "state": "WI",
        "magnitude": 58.0,
        "magnitude_units": null,
        "source": "ASOS",
        "event_narrative": "ASOS measure 50 kts."
      },
      "geometry": {
        "type": "Point",
        "coordinates": [
          -87.94,
          42.59
        ]
      }
    },
    {
      "type": "Feature",
      "id": "iem-lsr-MKX-64",
      "properties": {
        "report_id": "iem-lsr-MKX-64",
        "report_type": "TSTM WND DMG",
        "event_category": "thunderstorm_wind",
        "valid_utc": "202607031800",
        "standard_time_display": "2026-07-03 12:00 CST",
        "wfo": "MKX",
        "county_or_zone": "Racine",
        "city": "2 NW Elmwood Park",
        "state": "WI",
        "magnitude": null,
        "magnitude_units": null,
        "source": "Trained Spotter",
        "event_narrative": "Several tree limbs down a half foot or less in diameter."
      },
      "geometry": {
        "type": "Point",
        "coordinates": [
          -87.85,
          42.71
        ]
      }
    },
    {
      "type": "Feature",
      "id": "iem-lsr-MKX-65",
      "properties": {
        "report_id": "iem-lsr-MKX-65",
        "report_type": "TSTM WND DMG",
        "event_category": "thunderstorm_wind",
        "valid_utc": "202607090110",
        "standard_time_display": "2026-07-08 19:10 CST",
        "wfo": "MKX",
        "county_or_zone": "Marquette",
        "city": "3 NE Packwaukee",
        "state": "WI",
        "magnitude": null,
        "magnitude_units": null,
        "source": "911 Call Center",
        "event_narrative": "Report of downed tree at the intersection of 10th Dr & WI 23 west of Montello. Time estimated from radar data."
      },
      "geometry": {
        "type": "Point",
        "coordinates": [
          -89.42,
          43.79
        ]
      }
    },
    {
      "type": "Feature",
      "id": "iem-lsr-MKX-66",
      "properties": {
        "report_id": "iem-lsr-MKX-66",
        "report_type": "TSTM WND GST",
        "event_category": "thunderstorm_wind",
        "valid_utc": "202607090125",
        "standard_time_display": "2026-07-08 19:25 CST",
        "wfo": "MKX",
        "county_or_zone": "Green Lake",
        "city": "5 SW Kingston",
        "state": "WI",
        "magnitude": 50.0,
        "magnitude_units": null,
        "source": "911 Call Center",
        "event_narrative": "Estimated 50 mph wind gust reported in Dalton_ WI."
      },
      "geometry": {
        "type": "Point",
        "coordinates": [
          -89.21,
          43.66
        ]
      }
    },
    {
      "type": "Feature",
      "id": "iem-lsr-MKX-67",
      "properties": {
        "report_id": "iem-lsr-MKX-67",
        "report_type": "TSTM WND GST",
        "event_category": "thunderstorm_wind",
        "valid_utc": "202607090130",
        "standard_time_display": "2026-07-08 19:30 CST",
        "wfo": "MKX",
        "county_or_zone": "Columbia",
        "city": "4 S Portage",
        "state": "WI",
        "magnitude": 59.0,
        "magnitude_units": null,
        "source": "Public",
        "event_narrative": null
      },
      "geometry": {
        "type": "Point",
        "coordinates": [
          -89.48,
          43.5
        ]
      }
    },
    {
      "type": "Feature",
      "id": "iem-lsr-MKX-68",
      "properties": {
        "report_id": "iem-lsr-MKX-68",
        "report_type": "TSTM WND DMG",
        "event_category": "thunderstorm_wind",
        "valid_utc": "202607090145",
        "standard_time_display": "2026-07-08 19:45 CST",
        "wfo": "MKX",
        "county_or_zone": "Columbia",
        "city": "3 E Portage",
        "state": "WI",
        "magnitude": null,
        "magnitude_units": null,
        "source": "911 Call Center",
        "event_narrative": "Reports of several downed trees. Time estimated from radar data."
      },
      "geometry": {
        "type": "Point",
        "coordinates": [
          -89.41,
          43.56
        ]
      }
    },
    {
      "type": "Feature",
      "id": "iem-lsr-MKX-69",
      "properties": {
        "report_id": "iem-lsr-MKX-69",
        "report_type": "TSTM WND GST",
        "event_category": "thunderstorm_wind",
        "valid_utc": "202607090204",
        "standard_time_display": "2026-07-08 20:04 CST",
        "wfo": "MKX",
        "county_or_zone": "Columbia",
        "city": "3 E Lake Wisconsin",
        "state": "WI",
        "magnitude": 56.0,
        "magnitude_units": null,
        "source": "Public",
        "event_narrative": "Measured on personal weather station."
      },
      "geometry": {
        "type": "Point",
        "coordinates": [
          -89.52,
          43.38
        ]
      }
    },
    {
      "type": "Feature",
      "id": "iem-lsr-MKX-70",
      "properties": {
        "report_id": "iem-lsr-MKX-70",
        "report_type": "HAIL",
        "event_category": "hail",
        "valid_utc": "202607271526",
        "standard_time_display": "2026-07-27 09:26 CST",
        "wfo": "MKX",
        "county_or_zone": "Dodge",
        "city": "Juneau",
        "state": "WI",
        "magnitude": 1.0,
        "magnitude_units": null,
        "source": "Public",
        "event_narrative": "Two reports of one inch hail in Juneau."
      },
      "geometry": {
        "type": "Point",
        "coordinates": [
          -88.71,
          43.41
        ]
      }
    },
    {
      "type": "Feature",
      "id": "iem-lsr-MKX-71",
      "properties": {
        "report_id": "iem-lsr-MKX-71",
        "report_type": "TSTM WND GST",
        "event_category": "thunderstorm_wind",
        "valid_utc": "202607271531",
        "standard_time_display": "2026-07-27 09:31 CST",
        "wfo": "MKX",
        "county_or_zone": "Dodge",
        "city": "Juneau",
        "state": "WI",
        "magnitude": 65.0,
        "magnitude_units": null,
        "source": "Trained Spotter",
        "event_narrative": "Trained spotter estimates 65 MPH wind gusts. Time confirmed from radar data."
      },
      "geometry": {
        "type": "Point",
        "coordinates": [
          -88.71,
          43.41
        ]
      }
    },
    {
      "type": "Feature",
      "id": "iem-lsr-MKX-72",
      "properties": {
        "report_id": "iem-lsr-MKX-72",
        "report_type": "TSTM WND GST",
        "event_category": "thunderstorm_wind",
        "valid_utc": "202607271533",
        "standard_time_display": "2026-07-27 09:33 CST",
        "wfo": "MKX",
        "county_or_zone": "Waukesha",
        "city": "2 SW North Prairie",
        "state": "WI",
        "magnitude": 62.0,
        "magnitude_units": null,
        "source": "Public",
        "event_narrative": "62 MPH wind gust measured via home weather station. Time confirmed from radar data."
      },
      "geometry": {
        "type": "Point",
        "coordinates": [
          -88.43,
          42.92
        ]
      }
    },
    {
      "type": "Feature",
      "id": "iem-lsr-MKX-73",
      "properties": {
        "report_id": "iem-lsr-MKX-73",
        "report_type": "HAIL",
        "event_category": "hail",
        "valid_utc": "202607271605",
        "standard_time_display": "2026-07-27 10:05 CST",
        "wfo": "MKX",
        "county_or_zone": "Dodge",
        "city": "Neosho",
        "state": "WI",
        "magnitude": 2.75,
        "magnitude_units": null,
        "source": "Public",
        "event_narrative": "Delayed Report - Photos of hail around 2.75 inch diameter received on social media. Time of 11:05 AM was estimated from radar."
      },
      "geometry": {
        "type": "Point",
        "coordinates": [
          -88.52,
          43.31
        ]
      }
    },
    {
      "type": "Feature",
      "id": "iem-lsr-MKX-74",
      "properties": {
        "report_id": "iem-lsr-MKX-74",
        "report_type": "HAIL",
        "event_category": "hail",
        "valid_utc": "202607271611",
        "standard_time_display": "2026-07-27 10:11 CST",
        "wfo": "MKX",
        "county_or_zone": "Jefferson",
        "city": "1 SW Lac La Belle",
        "state": "WI",
        "magnitude": 1.25,
        "magnitude_units": null,
        "source": "Public",
        "event_narrative": null
      },
      "geometry": {
        "type": "Point",
        "coordinates": [
          -88.54,
          43.13
        ]
      }
    },
    {
      "type": "Feature",
      "id": "iem-lsr-MKX-75",
      "properties": {
        "report_id": "iem-lsr-MKX-75",
        "report_type": "HAIL",
        "event_category": "hail",
        "valid_utc": "202607271614",
        "standard_time_display": "2026-07-27 10:14 CST",
        "wfo": "MKX",
        "county_or_zone": "Waukesha",
        "city": "1 ESE Lac La Belle",
        "state": "WI",
        "magnitude": 1.75,
        "magnitude_units": null,
        "source": "Public",
        "event_narrative": null
      },
      "geometry": {
        "type": "Point",
        "coordinates": [
          -88.51,
          43.14
        ]
      }
    },
    {
      "type": "Feature",
      "id": "iem-lsr-MKX-76",
      "properties": {
        "report_id": "iem-lsr-MKX-76",
        "report_type": "HAIL",
        "event_category": "hail",
        "valid_utc": "202607271617",
        "standard_time_display": "2026-07-27 10:17 CST",
        "wfo": "MKX",
        "county_or_zone": "Waukesha",
        "city": "1 NE Oconomowoc",
        "state": "WI",
        "magnitude": 2.0,
        "magnitude_units": null,
        "source": "Public",
        "event_narrative": null
      },
      "geometry": {
        "type": "Point",
        "coordinates": [
          -88.49,
          43.11
        ]
      }
    },
    {
      "type": "Feature",
      "id": "iem-lsr-MKX-77",
      "properties": {
        "report_id": "iem-lsr-MKX-77",
        "report_type": "TSTM WND DMG",
        "event_category": "thunderstorm_wind",
        "valid_utc": "202607271620",
        "standard_time_display": "2026-07-27 10:20 CST",
        "wfo": "MKX",
        "county_or_zone": "Waukesha",
        "city": "3 SE Eagle",
        "state": "WI",
        "magnitude": null,
        "magnitude_units": null,
        "source": "Public",
        "event_narrative": "Public report of downed tree limbs at three different locations on Co Hwy LO from 1 mile east of Co Hwy E to 1/2 mile east of Co Hwy I. Report confirmed from radar data."
      },
      "geometry": {
        "type": "Point",
        "coordinates": [
          -88.43,
          42.86
        ]
      }
    },
    {
      "type": "Feature",
      "id": "iem-lsr-MKX-78",
      "properties": {
        "report_id": "iem-lsr-MKX-78",
        "report_type": "HAIL",
        "event_category": "hail",
        "valid_utc": "202607271621",
        "standard_time_display": "2026-07-27 10:21 CST",
        "wfo": "MKX",
        "county_or_zone": "Waukesha",
        "city": "1 W Oconomowoc",
        "state": "WI",
        "magnitude": 2.5,
        "magnitude_units": null,
        "source": "Public",
        "event_narrative": null
      },
      "geometry": {
        "type": "Point",
        "coordinates": [
          -88.51,
          43.11
        ]
      }
    },
    {
      "type": "Feature",
      "id": "iem-lsr-MKX-79",
      "properties": {
        "report_id": "iem-lsr-MKX-79",
        "report_type": "HAIL",
        "event_category": "hail",
        "valid_utc": "202607271623",
        "standard_time_display": "2026-07-27 10:23 CST",
        "wfo": "MKX",
        "county_or_zone": "Racine",
        "city": "Waterford",
        "state": "WI",
        "magnitude": 1.0,
        "magnitude_units": null,
        "source": "Public",
        "event_narrative": null
      },
      "geometry": {
        "type": "Point",
        "coordinates": [
          -88.22,
          42.76
        ]
      }
    },
    {
      "type": "Feature",
      "id": "iem-lsr-MKX-80",
      "properties": {
        "report_id": "iem-lsr-MKX-80",
        "report_type": "TSTM WND DMG",
        "event_category": "thunderstorm_wind",
        "valid_utc": "202607271626",
        "standard_time_display": "2026-07-27 10:26 CST",
        "wfo": "MKX",
        "county_or_zone": "Racine",
        "city": "4 NNW Silver Lake",
        "state": "WI",
        "magnitude": null,
        "magnitude_units": null,
        "source": "Public",
        "event_narrative": "Delayed report: Via social media large tree snapped toward base of trunk on property."
      },
      "geometry": {
        "type": "Point",
        "coordinates": [
          -88.19,
          42.61
        ]
      }
    },
    {
      "type": "Feature",
      "id": "iem-lsr-MKX-81",
      "properties": {
        "report_id": "iem-lsr-MKX-81",
        "report_type": "HAIL",
        "event_category": "hail",
        "valid_utc": "202607271628",
        "standard_time_display": "2026-07-27 10:28 CST",
        "wfo": "MKX",
        "county_or_zone": "Racine",
        "city": "Browns Lake",
        "state": "WI",
        "magnitude": 1.0,
        "magnitude_units": null,
        "source": "Public",
        "event_narrative": null
      },
      "geometry": {
        "type": "Point",
        "coordinates": [
          -88.23,
          42.69
        ]
      }
    },
    {
      "type": "Feature",
      "id": "iem-lsr-MKX-82",
      "properties": {
        "report_id": "iem-lsr-MKX-82",
        "report_type": "HAIL",
        "event_category": "hail",
        "valid_utc": "202607271629",
        "standard_time_display": "2026-07-27 10:29 CST",
        "wfo": "MKX",
        "county_or_zone": "Waukesha",
        "city": "1 S Delafield",
        "state": "WI",
        "magnitude": 1.0,
        "magnitude_units": null,
        "source": "Public",
        "event_narrative": null
      },
      "geometry": {
        "type": "Point",
        "coordinates": [
          -88.39,
          43.06
        ]
      }
    },
    {
      "type": "Feature",
      "id": "iem-lsr-MKX-83",
      "properties": {
        "report_id": "iem-lsr-MKX-83",
        "report_type": "HAIL",
        "event_category": "hail",
        "valid_utc": "202607271636",
        "standard_time_display": "2026-07-27 10:36 CST",
        "wfo": "MKX",
        "county_or_zone": "Racine",
        "city": "Eagle Lake",
        "state": "WI",
        "magnitude": 1.0,
        "magnitude_units": null,
        "source": "Public",
        "event_narrative": null
      },
      "geometry": {
        "type": "Point",
        "coordinates": [
          -88.13,
          42.71
        ]
      }
    },
    {
      "type": "Feature",
      "id": "iem-lsr-MKX-84",
      "properties": {
        "report_id": "iem-lsr-MKX-84",
        "report_type": "HAIL",
        "event_category": "hail",
        "valid_utc": "202607271643",
        "standard_time_display": "2026-07-27 10:43 CST",
        "wfo": "MKX",
        "county_or_zone": "Kenosha",
        "city": "1 NE Bristol",
        "state": "WI",
        "magnitude": 1.0,
        "magnitude_units": null,
        "source": "Public",
        "event_narrative": "Delayed report: Via social media quarter in hail reported between the interstate and CTH D on Hwy 50. Time estimated based on radar."
      },
      "geometry": {
        "type": "Point",
        "coordinates": [
          -88.03,
          42.57
        ]
      }
    },
    {
      "type": "Feature",
      "id": "iem-lsr-MKX-85",
      "properties": {
        "report_id": "iem-lsr-MKX-85",
        "report_type": "HAIL",
        "event_category": "hail",
        "valid_utc": "202607271729",
        "standard_time_display": "2026-07-27 11:29 CST",
        "wfo": "MKX",
        "county_or_zone": "Kenosha",
        "city": "4 NE Pleasant Prairie",
        "state": "WI",
        "magnitude": 1.25,
        "magnitude_units": null,
        "source": "Public",
        "event_narrative": "Report from mPING: Half Dollar (1.25 in.). Time confirmed from radar."
      },
      "geometry": {
        "type": "Point",
        "coordinates": [
          -87.91,
          42.6
        ]
      }
    },
    {
      "type": "Feature",
      "id": "iem-lsr-MKX-86",
      "properties": {
        "report_id": "iem-lsr-MKX-86",
        "report_type": "HAIL",
        "event_category": "hail",
        "valid_utc": "202607271736",
        "standard_time_display": "2026-07-27 11:36 CST",
        "wfo": "MKX",
        "county_or_zone": "Kenosha",
        "city": "1 NW Kenosha",
        "state": "WI",
        "magnitude": 1.0,
        "magnitude_units": null,
        "source": "Public",
        "event_narrative": "Report from mPING: Quarter (1.00 in.) Time confirmed from radar."
      },
      "geometry": {
        "type": "Point",
        "coordinates": [
          -87.82,
          42.6
        ]
      }
    },
    {
      "type": "Feature",
      "id": "iem-lsr-MKX-87",
      "properties": {
        "report_id": "iem-lsr-MKX-87",
        "report_type": "HAIL",
        "event_category": "hail",
        "valid_utc": "202607271739",
        "standard_time_display": "2026-07-27 11:39 CST",
        "wfo": "MKX",
        "county_or_zone": "Kenosha",
        "city": "2 SW Kenosha",
        "state": "WI",
        "magnitude": 1.0,
        "magnitude_units": null,
        "source": "Public",
        "event_narrative": "Report from mPING: Quarter (1.00 in.) Time confirmed from radar."
      },
      "geometry": {
        "type": "Point",
        "coordinates": [
          -87.84,
          42.57
        ]
      }
    },
    {
      "type": "Feature",
      "id": "iem-lsr-MKX-88",
      "properties": {
        "report_id": "iem-lsr-MKX-88",
        "report_type": "TSTM WND DMG",
        "event_category": "thunderstorm_wind",
        "valid_utc": "202607271750",
        "standard_time_display": "2026-07-27 11:50 CST",
        "wfo": "MKX",
        "county_or_zone": "Fond du Lac",
        "city": "1 W St. Peter",
        "state": "WI",
        "magnitude": null,
        "magnitude_units": null,
        "source": "Emergency Mngr",
        "event_narrative": "Delayed Report - EM report of power line down. Time estimated from radar."
      },
      "geometry": {
        "type": "Point",
        "coordinates": [
          -88.36,
          43.83
        ]
      }
    },
    {
      "type": "Feature",
      "id": "iem-lsr-MKX-89",
      "properties": {
        "report_id": "iem-lsr-MKX-89",
        "report_type": "TSTM WND DMG",
        "event_category": "thunderstorm_wind",
        "valid_utc": "202607271752",
        "standard_time_display": "2026-07-27 11:52 CST",
        "wfo": "MKX",
        "county_or_zone": "Fond du Lac",
        "city": "St. Peter",
        "state": "WI",
        "magnitude": null,
        "magnitude_units": null,
        "source": "Public",
        "event_narrative": "Delayed Report: Numerous large branches and a tree down on property. Time estimated based on radar."
      },
      "geometry": {
        "type": "Point",
        "coordinates": [
          -88.34,
          43.83
        ]
      }
    },
    {
      "type": "Feature",
      "id": "iem-lsr-MKX-90",
      "properties": {
        "report_id": "iem-lsr-MKX-90",
        "report_type": "HAIL",
        "event_category": "hail",
        "valid_utc": "202607271852",
        "standard_time_display": "2026-07-27 12:52 CST",
        "wfo": "MKX",
        "county_or_zone": "Dodge",
        "city": "Mayville",
        "state": "WI",
        "magnitude": 1.25,
        "magnitude_units": null,
        "source": "Public",
        "event_narrative": "Report from mPING: Half Dollar (1.25 in.) Time confirmed from radar."
      },
      "geometry": {
        "type": "Point",
        "coordinates": [
          -88.54,
          43.5
        ]
      }
    },
    {
      "type": "Feature",
      "id": "iem-lsr-MKX-91",
      "properties": {
        "report_id": "iem-lsr-MKX-91",
        "report_type": "HAIL",
        "event_category": "hail",
        "valid_utc": "202607271901",
        "standard_time_display": "2026-07-27 13:01 CST",
        "wfo": "MKX",
        "county_or_zone": "Dodge",
        "city": "1 W Mayville",
        "state": "WI",
        "magnitude": 1.0,
        "magnitude_units": null,
        "source": "Public",
        "event_narrative": "Report from mPING: Quarter (1.00 in.) Time confirmed from radar."
      },
      "geometry": {
        "type": "Point",
        "coordinates": [
          -88.56,
          43.5
        ]
      }
    },
    {
      "type": "Feature",
      "id": "iem-lsr-MKX-92",
      "properties": {
        "report_id": "iem-lsr-MKX-92",
        "report_type": "TSTM WND DMG",
        "event_category": "thunderstorm_wind",
        "valid_utc": "202607271942",
        "standard_time_display": "2026-07-27 13:42 CST",
        "wfo": "MKX",
        "county_or_zone": "Milwaukee",
        "city": "1 E Cudahy",
        "state": "WI",
        "magnitude": null,
        "magnitude_units": null,
        "source": "Public",
        "event_narrative": "Delayed Report: Via social media large tree limb snapped in Cudahy. Time estimated based on radar."
      },
      "geometry": {
        "type": "Point",
        "coordinates": [
          -87.85,
          42.95
        ]
      }
    },
    {
      "type": "Feature",
      "id": "iem-lsr-MKX-93",
      "properties": {
        "report_id": "iem-lsr-MKX-93",
        "report_type": "TSTM WND DMG",
        "event_category": "thunderstorm_wind",
        "valid_utc": "202607272015",
        "standard_time_display": "2026-07-27 14:15 CST",
        "wfo": "MKX",
        "county_or_zone": "Kenosha",
        "city": "Kenosha",
        "state": "WI",
        "magnitude": null,
        "magnitude_units": null,
        "source": "Public",
        "event_narrative": "Delayed Report: Numerous reports of large tree limbs and trees down across the Kenosha area between 3:00 - 3:30 PM."
      },
      "geometry": {
        "type": "Point",
        "coordinates": [
          -87.82,
          42.58
        ]
      }
    },
    {
      "type": "Feature",
      "id": "iem-lsr-MKX-94",
      "properties": {
        "report_id": "iem-lsr-MKX-94",
        "report_type": "TSTM WND DMG",
        "event_category": "thunderstorm_wind",
        "valid_utc": "202607272025",
        "standard_time_display": "2026-07-27 14:25 CST",
        "wfo": "MKX",
        "county_or_zone": "Kenosha",
        "city": "4 S Sturtevant",
        "state": "WI",
        "magnitude": null,
        "magnitude_units": null,
        "source": "Public",
        "event_narrative": "Delayed Report: Via social media reports of multiple tree limbs snapped in Somers."
      },
      "geometry": {
        "type": "Point",
        "coordinates": [
          -87.91,
          42.64
        ]
      }
    },
    {
      "type": "Feature",
      "id": "iem-lsr-MKX-95",
      "properties": {
        "report_id": "iem-lsr-MKX-95",
        "report_type": "TSTM WND DMG",
        "event_category": "thunderstorm_wind",
        "valid_utc": "202607272030",
        "standard_time_display": "2026-07-27 14:30 CST",
        "wfo": "MKX",
        "county_or_zone": "Kenosha",
        "city": "2 W Kenosha",
        "state": "WI",
        "magnitude": null,
        "magnitude_units": null,
        "source": "Public",
        "event_narrative": "Tree damage reported on corner of Pershing Blvd and 60th Street in Kenosha. Time estimated from radar."
      },
      "geometry": {
        "type": "Point",
        "coordinates": [
          -87.86,
          42.58
        ]
      }
    }
  ]
}