{
  "type": "FeatureCollection",
  "metadata": {
    "schema_version": "0.2.4",
    "year": 2026,
    "month": 5,
    "wfo": "AMA",
    "start_utc": "2026-05-01T00:00:00Z",
    "end_utc": "2026-06-01T00:00:00Z",
    "generated_utc": "2026-05-29T12:26:58Z",
    "mode": "storm_data_prep",
    "public_release_status": "public-source-derived",
    "time_note": "Storm Data entry times should be reviewed in local Standard Time (ST), not daylight time. Candidate reports include standard_time_display.",
    "tornado_track_policy": "Tornado tracks must come from DAT. NCEI begin/end coordinates are not used as a tornado track substitute.",
    "source": "https://mesonet.agron.iastate.edu/cgi-bin/request/gis/lsr.py?wfo=AMA&sts=2026-05-01T00%3A00%3A00Z&ets=2026-06-01T00%3A00%3A00Z&fmt=csv"
  },
  "features": [
    {
      "type": "Feature",
      "id": "iem-lsr-AMA-1",
      "properties": {
        "report_id": "iem-lsr-AMA-1",
        "report_type": "HAIL",
        "event_category": "hail",
        "valid_utc": "202605092330",
        "standard_time_display": "2026-05-09 17:30 CST",
        "wfo": "AMA",
        "county_or_zone": "Wheeler",
        "city": "4 NE Wheeler",
        "state": "TX",
        "magnitude": 1.75,
        "magnitude_units": null,
        "source": "Emergency Mngr",
        "event_narrative": "Golf ball size hail reported near intersection of County Road 18 and County Road J."
      },
      "geometry": {
        "type": "Point",
        "coordinates": [
          -100.22,
          35.48
        ]
      }
    },
    {
      "type": "Feature",
      "id": "iem-lsr-AMA-2",
      "properties": {
        "report_id": "iem-lsr-AMA-2",
        "report_type": "HAIL",
        "event_category": "hail",
        "valid_utc": "202605092341",
        "standard_time_display": "2026-05-09 17:41 CST",
        "wfo": "AMA",
        "county_or_zone": "Wheeler",
        "city": "7 E Wheeler",
        "state": "TX",
        "magnitude": 1.75,
        "magnitude_units": null,
        "source": "Emergency Mngr",
        "event_narrative": "Report near intersection of County Road 22 and Highway 152."
      },
      "geometry": {
        "type": "Point",
        "coordinates": [
          -100.15,
          35.45
        ]
      }
    },
    {
      "type": "Feature",
      "id": "iem-lsr-AMA-3",
      "properties": {
        "report_id": "iem-lsr-AMA-3",
        "report_type": "HAIL",
        "event_category": "hail",
        "valid_utc": "202605092341",
        "standard_time_display": "2026-05-09 17:41 CST",
        "wfo": "AMA",
        "county_or_zone": "Wheeler",
        "city": "7 E Wheeler",
        "state": "TX",
        "magnitude": 1.75,
        "magnitude_units": null,
        "source": "Trained Spotter",
        "event_narrative": "Report of golf ball size hail eat of Wheeler along TX Highway 152."
      },
      "geometry": {
        "type": "Point",
        "coordinates": [
          -100.15,
          35.44
        ]
      }
    },
    {
      "type": "Feature",
      "id": "iem-lsr-AMA-4",
      "properties": {
        "report_id": "iem-lsr-AMA-4",
        "report_type": "HAIL",
        "event_category": "hail",
        "valid_utc": "202605092348",
        "standard_time_display": "2026-05-09 17:48 CST",
        "wfo": "AMA",
        "county_or_zone": "Wheeler",
        "city": "10 E Wheeler",
        "state": "TX",
        "magnitude": 2.5,
        "magnitude_units": null,
        "source": "Trained Spotter",
        "event_narrative": "Tennis ball size hail reported 1 mile east of the intersection of Highways 152 and 592 along Highway 152."
      },
      "geometry": {
        "type": "Point",
        "coordinates": [
          -100.1,
          35.44
        ]
      }
    },
    {
      "type": "Feature",
      "id": "iem-lsr-AMA-5",
      "properties": {
        "report_id": "iem-lsr-AMA-5",
        "report_type": "HAIL",
        "event_category": "hail",
        "valid_utc": "202605101128",
        "standard_time_display": "2026-05-10 05:28 CST",
        "wfo": "AMA",
        "county_or_zone": "Hansford",
        "city": "17 E Texhoma",
        "state": "TX",
        "magnitude": 1.5,
        "magnitude_units": null,
        "source": "Emergency Mngr",
        "event_narrative": "A photo was taken around 0710CDT of hail that was still on the ground from the storm that passed through. Photo was then submitted to an Emergency Manager. Time of LSR estimated from radar for that l"
      },
      "geometry": {
        "type": "Point",
        "coordinates": [
          -101.51,
          36.49
        ]
      }
    },
    {
      "type": "Feature",
      "id": "iem-lsr-AMA-6",
      "properties": {
        "report_id": "iem-lsr-AMA-6",
        "report_type": "HAIL",
        "event_category": "hail",
        "valid_utc": "202605101143",
        "standard_time_display": "2026-05-10 05:43 CST",
        "wfo": "AMA",
        "county_or_zone": "Lipscomb",
        "city": "Follett",
        "state": "TX",
        "magnitude": 1.0,
        "magnitude_units": null,
        "source": "Law Enforcement",
        "event_narrative": null
      },
      "geometry": {
        "type": "Point",
        "coordinates": [
          -100.14,
          36.43
        ]
      }
    },
    {
      "type": "Feature",
      "id": "iem-lsr-AMA-7",
      "properties": {
        "report_id": "iem-lsr-AMA-7",
        "report_type": "NON-TSTM WND GST",
        "event_category": "thunderstorm_wind",
        "valid_utc": "202605140337",
        "standard_time_display": "2026-05-13 21:37 CST",
        "wfo": "AMA",
        "county_or_zone": "Gray",
        "city": "1 ENE Mclean",
        "state": "TX",
        "magnitude": 60.0,
        "magnitude_units": null,
        "source": "Mesonet",
        "event_narrative": "Peak wind gust of 60 mph occurred with a likely heat burst from a decayed thunderstorm."
      },
      "geometry": {
        "type": "Point",
        "coordinates": [
          -100.57,
          35.24
        ]
      }
    },
    {
      "type": "Feature",
      "id": "iem-lsr-AMA-8",
      "properties": {
        "report_id": "iem-lsr-AMA-8",
        "report_type": "TSTM WND GST",
        "event_category": "thunderstorm_wind",
        "valid_utc": "202605142036",
        "standard_time_display": "2026-05-14 13:36 MST",
        "wfo": "AMA",
        "county_or_zone": "Oldham",
        "city": "6 WSW Adrian",
        "state": "TX",
        "magnitude": 59.0,
        "magnitude_units": null,
        "source": "Mesonet",
        "event_narrative": "59 MPH wind gust measured at 6 WSW Adrian West Texas Mesonet site."
      },
      "geometry": {
        "type": "Point",
        "coordinates": [
          -102.76,
          35.25
        ]
      }
    },
    {
      "type": "Feature",
      "id": "iem-lsr-AMA-9",
      "properties": {
        "report_id": "iem-lsr-AMA-9",
        "report_type": "TSTM WND GST",
        "event_category": "thunderstorm_wind",
        "valid_utc": "202605142117",
        "standard_time_display": "2026-05-14 14:17 MST",
        "wfo": "AMA",
        "county_or_zone": "Deaf Smith",
        "city": "11 WNW Bootleg",
        "state": "TX",
        "magnitude": 60.0,
        "magnitude_units": null,
        "source": "Mesonet",
        "event_narrative": "60 MPH wind gust observed at WT Mesonet site 11 miles WNW of Bootleg_ TX."
      },
      "geometry": {
        "type": "Point",
        "coordinates": [
          -102.99,
          34.89
        ]
      }
    },
    {
      "type": "Feature",
      "id": "iem-lsr-AMA-10",
      "properties": {
        "report_id": "iem-lsr-AMA-10",
        "report_type": "TSTM WND GST",
        "event_category": "thunderstorm_wind",
        "valid_utc": "202605142128",
        "standard_time_display": "2026-05-14 14:28 MST",
        "wfo": "AMA",
        "county_or_zone": "Deaf Smith",
        "city": "11 WNW Bootleg",
        "state": "TX",
        "magnitude": 64.0,
        "magnitude_units": null,
        "source": "Mesonet",
        "event_narrative": "60 MPH wind gust observed at WT Mesonet site 11 miles WNW of Bootleg_ TX at 4:17 PM. Maximum wind gust of 64 MPH recorded at 4:28 PM. The last wind gust occurred at 4:30 PM."
      },
      "geometry": {
        "type": "Point",
        "coordinates": [
          -102.99,
          34.89
        ]
      }
    },
    {
      "type": "Feature",
      "id": "iem-lsr-AMA-11",
      "properties": {
        "report_id": "iem-lsr-AMA-11",
        "report_type": "TSTM WND GST",
        "event_category": "thunderstorm_wind",
        "valid_utc": "202605142202",
        "standard_time_display": "2026-05-14 16:02 CST",
        "wfo": "AMA",
        "county_or_zone": "Armstrong",
        "city": "10 ENE Palo Duro Canyon",
        "state": "TX",
        "magnitude": 60.0,
        "magnitude_units": null,
        "source": "Mesonet",
        "event_narrative": "Wind gust of 60 MPH measured at the WT Mesonet site 12 miles SW of Claude_ TX."
      },
      "geometry": {
        "type": "Point",
        "coordinates": [
          -101.5,
          34.98
        ]
      }
    },
    {
      "type": "Feature",
      "id": "iem-lsr-AMA-12",
      "properties": {
        "report_id": "iem-lsr-AMA-12",
        "report_type": "TSTM WND GST",
        "event_category": "thunderstorm_wind",
        "valid_utc": "202605142202",
        "standard_time_display": "2026-05-14 16:02 CST",
        "wfo": "AMA",
        "county_or_zone": "Armstrong",
        "city": "10 ENE Palo Duro Canyon",
        "state": "TX",
        "magnitude": 60.0,
        "magnitude_units": null,
        "source": "Mesonet",
        "event_narrative": "Wind gust of 60 MPH measured at the WT Mesonet site 12 miles SW of Claude_ TX."
      },
      "geometry": {
        "type": "Point",
        "coordinates": [
          -101.5,
          34.98
        ]
      }
    },
    {
      "type": "Feature",
      "id": "iem-lsr-AMA-13",
      "properties": {
        "report_id": "iem-lsr-AMA-13",
        "report_type": "TSTM WND GST",
        "event_category": "thunderstorm_wind",
        "valid_utc": "202605142207",
        "standard_time_display": "2026-05-14 15:07 MST",
        "wfo": "AMA",
        "county_or_zone": "Deaf Smith",
        "city": "2 WNW Hereford",
        "state": "TX",
        "magnitude": 61.0,
        "magnitude_units": null,
        "source": "Mesonet",
        "event_narrative": "Wind gust of 61 MPH recorded at the WT Mesonet site 2 miles NW of Hereford. Severe gusts lasted from 5:05 to 5:07 PM."
      },
      "geometry": {
        "type": "Point",
        "coordinates": [
          -102.42,
          34.83
        ]
      }
    },
    {
      "type": "Feature",
      "id": "iem-lsr-AMA-14",
      "properties": {
        "report_id": "iem-lsr-AMA-14",
        "report_type": "TSTM WND GST",
        "event_category": "thunderstorm_wind",
        "valid_utc": "202605142212",
        "standard_time_display": "2026-05-14 15:12 MST",
        "wfo": "AMA",
        "county_or_zone": "Deaf Smith",
        "city": "2 WNW Hereford",
        "state": "TX",
        "magnitude": 63.0,
        "magnitude_units": null,
        "source": "Mesonet",
        "event_narrative": "Wind gust of 63 MPH recorded at the WT Mesonet site 2 miles NW of Hereford. Severe gusts lasted from 5:05 to 5:15 PM."
      },
      "geometry": {
        "type": "Point",
        "coordinates": [
          -102.42,
          34.83
        ]
      }
    },
    {
      "type": "Feature",
      "id": "iem-lsr-AMA-15",
      "properties": {
        "report_id": "iem-lsr-AMA-15",
        "report_type": "TSTM WND GST",
        "event_category": "thunderstorm_wind",
        "valid_utc": "202605142224",
        "standard_time_display": "2026-05-14 16:24 CST",
        "wfo": "AMA",
        "county_or_zone": "Armstrong",
        "city": "Goodnight",
        "state": "TX",
        "magnitude": 58.0,
        "magnitude_units": null,
        "source": "Mesonet",
        "event_narrative": "Wind gust of 58 MPH measured at the WT Mesonet site in Goodnight_ TX."
      },
      "geometry": {
        "type": "Point",
        "coordinates": [
          -101.19,
          35.03
        ]
      }
    },
    {
      "type": "Feature",
      "id": "iem-lsr-AMA-16",
      "properties": {
        "report_id": "iem-lsr-AMA-16",
        "report_type": "TSTM WND GST",
        "event_category": "thunderstorm_wind",
        "valid_utc": "202605142224",
        "standard_time_display": "2026-05-14 16:24 CST",
        "wfo": "AMA",
        "county_or_zone": "Armstrong",
        "city": "Goodnight",
        "state": "TX",
        "magnitude": 58.0,
        "magnitude_units": null,
        "source": "Mesonet",
        "event_narrative": "Wind gust of 58 MPH measured at the WT Mesonet site in Goodnight_ TX."
      },
      "geometry": {
        "type": "Point",
        "coordinates": [
          -101.19,
          35.03
        ]
      }
    },
    {
      "type": "Feature",
      "id": "iem-lsr-AMA-17",
      "properties": {
        "report_id": "iem-lsr-AMA-17",
        "report_type": "TSTM WND GST",
        "event_category": "thunderstorm_wind",
        "valid_utc": "202605142228",
        "standard_time_display": "2026-05-14 16:28 CST",
        "wfo": "AMA",
        "county_or_zone": "Gray",
        "city": "2 ESE Pampa",
        "state": "TX",
        "magnitude": 59.0,
        "magnitude_units": null,
        "source": "Mesonet",
        "event_narrative": "wind gust of 59 MPH measured at WT Mesonet site 2 miles ESE of Pampa_ TX."
      },
      "geometry": {
        "type": "Point",
        "coordinates": [
          -100.93,
          35.54
        ]
      }
    },
    {
      "type": "Feature",
      "id": "iem-lsr-AMA-18",
      "properties": {
        "report_id": "iem-lsr-AMA-18",
        "report_type": "TSTM WND GST",
        "event_category": "thunderstorm_wind",
        "valid_utc": "202605142228",
        "standard_time_display": "2026-05-14 16:28 CST",
        "wfo": "AMA",
        "county_or_zone": "Gray",
        "city": "2 ESE Pampa",
        "state": "TX",
        "magnitude": 59.0,
        "magnitude_units": null,
        "source": "Mesonet",
        "event_narrative": "Wind gust of 59 MPH measured at WT Mesonet site 2 miles ESE of Pampa_ TX."
      },
      "geometry": {
        "type": "Point",
        "coordinates": [
          -100.93,
          35.54
        ]
      }
    },
    {
      "type": "Feature",
      "id": "iem-lsr-AMA-19",
      "properties": {
        "report_id": "iem-lsr-AMA-19",
        "report_type": "TSTM WND GST",
        "event_category": "thunderstorm_wind",
        "valid_utc": "202605142231",
        "standard_time_display": "2026-05-14 16:31 CST",
        "wfo": "AMA",
        "county_or_zone": "Gray",
        "city": "2 WNW Lake Mcclellan",
        "state": "TX",
        "magnitude": 69.0,
        "magnitude_units": null,
        "source": "Mesonet",
        "event_narrative": "Wind gust of 69 MPH measured at the WT Mesonet site 2 miles WNW of Lake Mcclellan. Severe gusts lasted from 5:31 to 5:33 PM."
      },
      "geometry": {
        "type": "Point",
        "coordinates": [
          -100.9,
          35.23
        ]
      }
    },
    {
      "type": "Feature",
      "id": "iem-lsr-AMA-20",
      "properties": {
        "report_id": "iem-lsr-AMA-20",
        "report_type": "TSTM WND GST",
        "event_category": "thunderstorm_wind",
        "valid_utc": "202605142231",
        "standard_time_display": "2026-05-14 16:31 CST",
        "wfo": "AMA",
        "county_or_zone": "Gray",
        "city": "2 WNW Lake Mcclellan",
        "state": "TX",
        "magnitude": 69.0,
        "magnitude_units": null,
        "source": "Mesonet",
        "event_narrative": "Wind gust of 69 MPH measured at the WT Mesonet site 2 miles WNW of Lake Mcclellan. Severe gusts lasted from 5:31 to 5:33 PM."
      },
      "geometry": {
        "type": "Point",
        "coordinates": [
          -100.9,
          35.23
        ]
      }
    },
    {
      "type": "Feature",
      "id": "iem-lsr-AMA-21",
      "properties": {
        "report_id": "iem-lsr-AMA-21",
        "report_type": "TSTM WND GST",
        "event_category": "thunderstorm_wind",
        "valid_utc": "202605142301",
        "standard_time_display": "2026-05-14 17:01 CST",
        "wfo": "AMA",
        "county_or_zone": "Gray",
        "city": "1 ENE Mclean",
        "state": "TX",
        "magnitude": 61.0,
        "magnitude_units": null,
        "source": "Mesonet",
        "event_narrative": "Wind gust of 61 MPH measured at the WT Mesonet site 1 mile ENE of Mclean_ TX."
      },
      "geometry": {
        "type": "Point",
        "coordinates": [
          -100.57,
          35.24
        ]
      }
    },
    {
      "type": "Feature",
      "id": "iem-lsr-AMA-22",
      "properties": {
        "report_id": "iem-lsr-AMA-22",
        "report_type": "TSTM WND GST",
        "event_category": "thunderstorm_wind",
        "valid_utc": "202605142314",
        "standard_time_display": "2026-05-14 17:14 CST",
        "wfo": "AMA",
        "county_or_zone": "Sherman",
        "city": "9 NNE Sunray",
        "state": "TX",
        "magnitude": 68.0,
        "magnitude_units": null,
        "source": "Mesonet",
        "event_narrative": "68 MPH gust measured at the WT Mesonet site 9 miles NNE of Sunray_ TX."
      },
      "geometry": {
        "type": "Point",
        "coordinates": [
          -101.78,
          36.14
        ]
      }
    },
    {
      "type": "Feature",
      "id": "iem-lsr-AMA-23",
      "properties": {
        "report_id": "iem-lsr-AMA-23",
        "report_type": "NON-TSTM WND GST",
        "event_category": "thunderstorm_wind",
        "valid_utc": "202605150059",
        "standard_time_display": "2026-05-14 18:59 CST",
        "wfo": "AMA",
        "county_or_zone": "Texas",
        "city": "1 WSW Guymon",
        "state": "OK",
        "magnitude": 90.0,
        "magnitude_units": null,
        "source": "ASOS",
        "event_narrative": "Non-Thunderstorm wind gust of 90 MPH measured at the Guymon ASOS station."
      },
      "geometry": {
        "type": "Point",
        "coordinates": [
          -101.51,
          36.68
        ]
      }
    },
    {
      "type": "Feature",
      "id": "iem-lsr-AMA-24",
      "properties": {
        "report_id": "iem-lsr-AMA-24",
        "report_type": "NON-TSTM WND DMG",
        "event_category": "thunderstorm_wind",
        "valid_utc": "202605150100",
        "standard_time_display": "2026-05-14 19:00 CST",
        "wfo": "AMA",
        "county_or_zone": "Texas",
        "city": "Guymon",
        "state": "OK",
        "magnitude": null,
        "magnitude_units": null,
        "source": "Public",
        "event_narrative": "Tin roof was ripped off of a building and scattered across a neighbors yard. The wind damage was associated with a heat burst that occurred at the Guymon airport."
      },
      "geometry": {
        "type": "Point",
        "coordinates": [
          -101.48,
          36.69
        ]
      }
    },
    {
      "type": "Feature",
      "id": "iem-lsr-AMA-25",
      "properties": {
        "report_id": "iem-lsr-AMA-25",
        "report_type": "TSTM WND GST",
        "event_category": "thunderstorm_wind",
        "valid_utc": "202605160108",
        "standard_time_display": "2026-05-15 18:08 MST",
        "wfo": "AMA",
        "county_or_zone": "Sherman",
        "city": "4 WNW Stratford",
        "state": "TX",
        "magnitude": 80.0,
        "magnitude_units": null,
        "source": "Mesonet",
        "event_narrative": null
      },
      "geometry": {
        "type": "Point",
        "coordinates": [
          -102.13,
          36.36
        ]
      }
    },
    {
      "type": "Feature",
      "id": "iem-lsr-AMA-26",
      "properties": {
        "report_id": "iem-lsr-AMA-26",
        "report_type": "NON-TSTM WND GST",
        "event_category": "thunderstorm_wind",
        "valid_utc": "202605182033",
        "standard_time_display": "2026-05-18 14:33 CST",
        "wfo": "AMA",
        "county_or_zone": "Moore",
        "city": "2 WNW Fritch",
        "state": "TX",
        "magnitude": 64.0,
        "magnitude_units": null,
        "source": "Mesonet",
        "event_narrative": null
      },
      "geometry": {
        "type": "Point",
        "coordinates": [
          -101.62,
          35.65
        ]
      }
    },
    {
      "type": "Feature",
      "id": "iem-lsr-AMA-27",
      "properties": {
        "report_id": "iem-lsr-AMA-27",
        "report_type": "NON-TSTM WND GST",
        "event_category": "thunderstorm_wind",
        "valid_utc": "202605190150",
        "standard_time_display": "2026-05-18 19:50 CST",
        "wfo": "AMA",
        "county_or_zone": "Beaver",
        "city": "8 W Slapout",
        "state": "OK",
        "magnitude": 59.0,
        "magnitude_units": null,
        "source": "Mesonet",
        "event_narrative": "Post front wind gust of 59 mph."
      },
      "geometry": {
        "type": "Point",
        "coordinates": [
          -100.26,
          36.6
        ]
      }
    },
    {
      "type": "Feature",
      "id": "iem-lsr-AMA-28",
      "properties": {
        "report_id": "iem-lsr-AMA-28",
        "report_type": "HAIL",
        "event_category": "hail",
        "valid_utc": "202605230100",
        "standard_time_display": "2026-05-22 18:00 MST",
        "wfo": "AMA",
        "county_or_zone": "Potter",
        "city": "2 W Bushland",
        "state": "TX",
        "magnitude": 1.75,
        "magnitude_units": null,
        "source": "Trained Spotter",
        "event_narrative": null
      },
      "geometry": {
        "type": "Point",
        "coordinates": [
          -102.1,
          35.19
        ]
      }
    },
    {
      "type": "Feature",
      "id": "iem-lsr-AMA-29",
      "properties": {
        "report_id": "iem-lsr-AMA-29",
        "report_type": "HAIL",
        "event_category": "hail",
        "valid_utc": "202605230105",
        "standard_time_display": "2026-05-22 19:05 CST",
        "wfo": "AMA",
        "county_or_zone": "Randall",
        "city": "1 WSW Canyon",
        "state": "TX",
        "magnitude": 1.0,
        "magnitude_units": null,
        "source": "Public",
        "event_narrative": "Hail started around 8 and would continue for about 15 minutes. Accumulating hail occurred as well. Hail started small but would eventually peak at the size of quarters."
      },
      "geometry": {
        "type": "Point",
        "coordinates": [
          -101.94,
          34.97
        ]
      }
    },
    {
      "type": "Feature",
      "id": "iem-lsr-AMA-30",
      "properties": {
        "report_id": "iem-lsr-AMA-30",
        "report_type": "HAIL",
        "event_category": "hail",
        "valid_utc": "202605230105",
        "standard_time_display": "2026-05-22 18:05 MST",
        "wfo": "AMA",
        "county_or_zone": "Potter",
        "city": "1 ENE Bushland",
        "state": "TX",
        "magnitude": 2.75,
        "magnitude_units": null,
        "source": "NWS Employee",
        "event_narrative": null
      },
      "geometry": {
        "type": "Point",
        "coordinates": [
          -102.04,
          35.2
        ]
      }
    },
    {
      "type": "Feature",
      "id": "iem-lsr-AMA-31",
      "properties": {
        "report_id": "iem-lsr-AMA-31",
        "report_type": "TSTM WND GST",
        "event_category": "thunderstorm_wind",
        "valid_utc": "202605240006",
        "standard_time_display": "2026-05-23 18:06 CST",
        "wfo": "AMA",
        "county_or_zone": "Moore",
        "city": "3 SE Dumas",
        "state": "TX",
        "magnitude": 69.0,
        "magnitude_units": null,
        "source": "Mesonet",
        "event_narrative": null
      },
      "geometry": {
        "type": "Point",
        "coordinates": [
          -101.92,
          35.83
        ]
      }
    },
    {
      "type": "Feature",
      "id": "iem-lsr-AMA-32",
      "properties": {
        "report_id": "iem-lsr-AMA-32",
        "report_type": "TSTM WND GST",
        "event_category": "thunderstorm_wind",
        "valid_utc": "202605240015",
        "standard_time_display": "2026-05-23 18:15 CST",
        "wfo": "AMA",
        "county_or_zone": "Sherman",
        "city": "9 NNE Sunray",
        "state": "TX",
        "magnitude": 59.0,
        "magnitude_units": null,
        "source": "Mesonet",
        "event_narrative": null
      },
      "geometry": {
        "type": "Point",
        "coordinates": [
          -101.78,
          36.14
        ]
      }
    },
    {
      "type": "Feature",
      "id": "iem-lsr-AMA-33",
      "properties": {
        "report_id": "iem-lsr-AMA-33",
        "report_type": "TSTM WND GST",
        "event_category": "thunderstorm_wind",
        "valid_utc": "202605240048",
        "standard_time_display": "2026-05-23 18:48 CST",
        "wfo": "AMA",
        "county_or_zone": "Moore",
        "city": "2 WNW Fritch",
        "state": "TX",
        "magnitude": 58.0,
        "magnitude_units": null,
        "source": "Mesonet",
        "event_narrative": null
      },
      "geometry": {
        "type": "Point",
        "coordinates": [
          -101.62,
          35.65
        ]
      }
    },
    {
      "type": "Feature",
      "id": "iem-lsr-AMA-34",
      "properties": {
        "report_id": "iem-lsr-AMA-34",
        "report_type": "TSTM WND GST",
        "event_category": "thunderstorm_wind",
        "valid_utc": "202605240053",
        "standard_time_display": "2026-05-23 18:53 CST",
        "wfo": "AMA",
        "county_or_zone": "Hutchinson",
        "city": "2 N Stinnett",
        "state": "TX",
        "magnitude": 63.0,
        "magnitude_units": null,
        "source": "Mesonet",
        "event_narrative": null
      },
      "geometry": {
        "type": "Point",
        "coordinates": [
          -101.45,
          35.84
        ]
      }
    },
    {
      "type": "Feature",
      "id": "iem-lsr-AMA-35",
      "properties": {
        "report_id": "iem-lsr-AMA-35",
        "report_type": "TSTM WND GST",
        "event_category": "thunderstorm_wind",
        "valid_utc": "202605240121",
        "standard_time_display": "2026-05-23 19:21 CST",
        "wfo": "AMA",
        "county_or_zone": "Carson",
        "city": "4 SSW Pantex",
        "state": "TX",
        "magnitude": 75.0,
        "magnitude_units": null,
        "source": "Public",
        "event_narrative": "Mesonet had a gust of 58 mph at 2021CDT with increasing gust to 75 mph at 2023CDT."
      },
      "geometry": {
        "type": "Point",
        "coordinates": [
          -101.62,
          35.28
        ]
      }
    },
    {
      "type": "Feature",
      "id": "iem-lsr-AMA-36",
      "properties": {
        "report_id": "iem-lsr-AMA-36",
        "report_type": "TSTM WND GST",
        "event_category": "thunderstorm_wind",
        "valid_utc": "202605240155",
        "standard_time_display": "2026-05-23 19:55 CST",
        "wfo": "AMA",
        "county_or_zone": "Hansford",
        "city": "2 N Spearman",
        "state": "TX",
        "magnitude": 58.0,
        "magnitude_units": null,
        "source": "AWOS",
        "event_narrative": null
      },
      "geometry": {
        "type": "Point",
        "coordinates": [
          -101.19,
          36.22
        ]
      }
    },
    {
      "type": "Feature",
      "id": "iem-lsr-AMA-37",
      "properties": {
        "report_id": "iem-lsr-AMA-37",
        "report_type": "TSTM WND DMG",
        "event_category": "thunderstorm_wind",
        "valid_utc": "202605240155",
        "standard_time_display": "2026-05-23 19:55 CST",
        "wfo": "AMA",
        "county_or_zone": "Randall",
        "city": "8 ESE Bushland",
        "state": "TX",
        "magnitude": null,
        "magnitude_units": null,
        "source": "NWS Employee",
        "event_narrative": "Off duty NWS Employee reports a lot of small tree limbs and even a few 3 inch branches knocked down in the neighborhood after storms went through."
      },
      "geometry": {
        "type": "Point",
        "coordinates": [
          -101.94,
          35.13
        ]
      }
    },
    {
      "type": "Feature",
      "id": "iem-lsr-AMA-38",
      "properties": {
        "report_id": "iem-lsr-AMA-38",
        "report_type": "NON-TSTM WND GST",
        "event_category": "thunderstorm_wind",
        "valid_utc": "202605240608",
        "standard_time_display": "2026-05-24 00:08 CST",
        "wfo": "AMA",
        "county_or_zone": "Gray",
        "city": "1 ENE Mclean",
        "state": "TX",
        "magnitude": 60.0,
        "magnitude_units": null,
        "source": "Mesonet",
        "event_narrative": "Anvil wind gust at the mesonet site behind a line of decaying showers."
      },
      "geometry": {
        "type": "Point",
        "coordinates": [
          -100.57,
          35.24
        ]
      }
    },
    {
      "type": "Feature",
      "id": "iem-lsr-AMA-39",
      "properties": {
        "report_id": "iem-lsr-AMA-39",
        "report_type": "LANDSPOUT",
        "event_category": "other",
        "valid_utc": "202605261600",
        "standard_time_display": "2026-05-26 09:00 MST",
        "wfo": "AMA",
        "county_or_zone": "Deaf Smith",
        "city": "Hereford",
        "state": "TX",
        "magnitude": null,
        "magnitude_units": null,
        "source": "Emergency Mngr",
        "event_narrative": "Emergency manager relayed several reports of a land spout in Hereford as a weak storm developed over town. This was visually confirmed via nearby observation cameras and local video footage. No damag"
      },
      "geometry": {
        "type": "Point",
        "coordinates": [
          -102.41,
          34.82
        ]
      }
    }
  ]
}