{
  "type": "FeatureCollection",
  "name": "cwa",
  "crs": {
    "type": "name",
    "properties": {
      "name": "urn:ogc:def:crs:OGC:1.3:CRS84"
    }
  },
  "features": [
    {
      "type": "Feature",
      "properties": {
        "WFO": "TWC",
        "CWA": "TWC",
        "STATE": "Arizona",
        "ST": "AZ",
        "CITYSTATE": "Tucson AZ"
      },
      "geometry": {
        "type": "Polygon",
        "coordinates": [
          [
            [
              -109.33639526373042,
              33.77751159698266
            ],
            [
              -109.0468978880271,
              33.778213500752486
            ],
            [
              -109.04709625239008,
              32.77761077891438
            ],
            [
              -109.04999542205104,
              31.332412719971103
            ],
            [
              -109.28479766767816,
              31.334012985311062
            ],
            [
              -109.8527965999831,
              31.33411216434496
            ],
            [
              -111.07479747362447,
              31.332212448146038
            ],
            [
              -111.56019659969331,
              31.488112159648495
            ],
            [
              -112.15829659990811,
              31.67681215975341
            ],
            [
              -112.8001937870136,
              31.875112534216157
            ],
            [
              -113.12599660036278,
              31.972812159953264
            ],
            [
              -113.33379364026428,
              32.03971105691977
            ],
            [
              -113.33389282199613,
              32.504913329886335
            ],
            [
              -112.20369720516186,
              32.50671386705136
            ],
            [
              -112.20349883989951,
              32.6808128359437
            ],
            [
              -112.152297974372,
              32.6808128359437
            ],
            [
              -112.15239715610386,
              32.723213195832386
            ],
            [
              -112.05429840135008,
              32.723411560195416
            ],
            [
              -112.04959869542341,
              32.72481155371031
            ],
            [
              -112.04949951189292,
              32.76761245724913
            ],
            [
              -111.8775939939676,
              32.76761245724913
            ],
            [
              -111.87789916991073,
              32.78941345176946
            ],
            [
              -111.87669372583474,
              32.79201126131073
            ],
            [
              -111.77459716802485,
              32.792213439698514
            ],
            [
              -111.77799224904305,
              32.76361084016821
            ],
            [
              -111.7390518193859,
              32.76486968958454
            ],
            [
              -111.73601532055056,
              32.73007965095519
            ],
            [
              -111.66909790024789,
              32.73651122990941
            ],
            [
              -111.60859680190083,
              32.76351165843636
            ],
            [
              -111.55669403080486,
              32.808513640991805
            ],
            [
              -111.52689361614745,
              32.84661102278051
            ],
            [
              -111.12709808320994,
              33.121810912743456
            ],
            [
              -110.9466934197655,
              33.25021362336008
            ],
            [
              -110.78309631284452,
              32.98511123679418
            ],
            [
              -110.78029632581473,
              32.983913421667125
            ],
            [
              -110.76639556880042,
              32.98521041942536
            ],
            [
              -110.76379394523434,
              32.99101257277209
            ],
            [
              -110.76469421426651,
              32.99891281117732
            ],
            [
              -110.76349639913946,
              33.004211426016525
            ],
            [
              -110.7543945315823,
              33.006210326645316
            ],
            [
              -110.75129699755837,
              33.01021194462561
            ],
            [
              -110.74779510496012,
              33.01041412391277
            ],
            [
              -110.74239349436425,
              33.018711090144734
            ],
            [
              -110.73970031711593,
              33.019012451163746
            ],
            [
              -110.73739624144338,
              33.02231216357552
            ],
            [
              -110.73229980499195,
              33.0242118842711
            ],
            [
              -110.72819519035573,
              33.02931213384795
            ],
            [
              -110.72779846342831,
              33.03721237225324
            ],
            [
              -110.72529602159409,
              33.04081344568402
            ],
            [
              -110.72269439712869,
              33.04271316458096
            ],
            [
              -110.71649932908076,
              33.0409126283152
            ],
            [
              -110.71569824178039,
              33.05001068094822
            ],
            [
              -110.72539520332595,
              33.06891250580753
            ],
            [
              -110.72129821943724,
              33.073112488150855
            ],
            [
              -110.72079467823175,
              33.07581329344879
            ],
            [
              -110.71629333486948,
              33.07621002217485
            ],
            [
              -110.71249389617634,
              33.07841110209074
            ],
            [
              -110.71109771758557,
              33.081413269307006
            ],
            [
              -110.70499420232056,
              33.083511352566916
            ],
            [
              -110.69339752187813,
              33.07731246869554
            ],
            [
              -110.68909454287882,
              33.07971191387378
            ],
            [
              -110.69019317627402,
              33.08431243896791
            ],
            [
              -110.69449615527333,
              33.08601379440114
            ],
            [
              -110.69079589831205,
              33.088912964062104
            ],
            [
              -110.68269348241824,
              33.08881378233025
            ],
            [
              -110.68319702092572,
              33.099113464115135
            ],
            [
              -110.67989349358982,
              33.10091400128016
            ],
            [
              -110.6777954103299,
              33.110813141213555
            ],
            [
              -110.67409515426795,
              33.1106109619264
            ],
            [
              -110.66659546041211,
              33.119411469363854
            ],
            [
              -110.66279602081966,
              33.11911392236965
            ],
            [
              -110.65939331085258,
              33.112712860110435
            ],
            [
              -110.65639495856044,
              33.11391067523755
            ],
            [
              -110.63859558112114,
              33.13391113259274
            ],
            [
              -110.63469695979683,
              33.14141082824716
            ],
            [
              -110.61869812042187,
              33.143913269182065
            ],
            [
              -110.6110992430356,
              33.14301300014989
            ],
            [
              -110.59929657018051,
              33.137611388654705
            ],
            [
              -110.59699249270932,
              33.134410857974785
            ],
            [
              -110.59269714355827,
              33.134014130148046
            ],
            [
              -110.58739471379499,
              33.13671112142117
            ],
            [
              -110.58169555710424,
              33.143512726431254
            ],
            [
              -110.5809936524351,
              33.146511077824016
            ],
            [
              -110.57349395857926,
              33.14431381193293
            ],
            [
              -110.5685958855916,
              33.14511108430912
            ],
            [
              -110.5667953493259,
              33.147411345956925
            ],
            [
              -110.56259918100739,
              33.14831161139182
            ],
            [
              -110.55929565457075,
              33.15461349461714
            ],
            [
              -110.55549621587761,
              33.15471267724831
            ],
            [
              -110.55309295757388,
              33.152610779064275
            ],
            [
              -110.54939269971328,
              33.154113770134416
            ],
            [
              -110.5499954217513,
              33.15751266517742
            ],
            [
              -110.54750060976528,
              33.165412902683386
            ],
            [
              -110.54459381115544,
              33.16851425163145
            ],
            [
              -110.54039764373624,
              33.16351318378645
            ],
            [
              -110.53079986572118,
              33.16051101657018
            ],
            [
              -110.53429412757191,
              33.16451263365116
            ],
            [
              -110.5343933111024,
              33.1669120788294
            ],
            [
              -110.52829742388695,
              33.17091369591037
            ],
            [
              -110.5273971557541,
              33.17561340273642
            ],
            [
              -110.5155944819997,
              33.17671203613162
            ],
            [
              -110.50859832755071,
              33.18091201757562
            ],
            [
              -110.50499725322061,
              33.18581390368877
            ],
            [
              -110.49879455622374,
              33.186813353553475
            ],
            [
              -110.48629760674913,
              33.182910919103676
            ],
            [
              -110.46569824228004,
              33.18241119372169
            ],
            [
              -110.4626998899879,
              33.18411254915486
            ],
            [
              -110.46209716794993,
              33.187110901447
            ],
            [
              -110.46419525120984,
              33.19111251762865
            ],
            [
              -110.45599365178555,
              33.19761276161972
            ],
            [
              -110.44889831470545,
              33.19401168818894
            ],
            [
              -110.44549560473831,
              33.189613342381904
            ],
            [
              -110.4330978387942,
              33.18781280521682
            ],
            [
              -110.42099761984423,
              33.193511962806895
            ],
            [
              -110.41919708357852,
              33.19111251762865
            ],
            [
              -110.40809630999667,
              33.19251251024423
            ],
            [
              -110.40529632656421,
              33.197013855405146
            ],
            [
              -110.40259552036696,
              33.196311950736
            ],
            [
              -110.4005966260334,
              33.19861220518919
            ],
            [
              -110.40529632656421,
              33.20401382387894
            ],
            [
              -110.410499572797,
              33.20601272630631
            ],
            [
              -110.41349792508913,
              33.21121215761502
            ],
            [
              -110.42129516593911,
              33.216911316104415
            ],
            [
              -110.42019653344323,
              33.22221374496843
            ],
            [
              -110.41759490987715,
              33.22311019907647
            ],
            [
              -110.41759490987715,
              33.22741317717646
            ],
            [
              -110.42299652137234,
              33.22961425799167
            ],
            [
              -110.42679595916616,
              33.23461151091254
            ],
            [
              -110.43519592295343,
              33.239212036006734
            ],
            [
              -110.43699646011851,
              33.251113892392254
            ],
            [
              -110.44389343283564,
              33.25561141993114
            ],
            [
              -110.44379425020446,
              33.26211166392221
            ],
            [
              -110.44899749823594,
              33.2669143683035
            ],
            [
              -110.44949340779448,
              33.274513244790455
            ],
            [
              -110.45469665492664,
              33.282711029290624
            ],
            [
              -110.45369720506193,
              33.29071044942776
            ],
            [
              -110.4578933715818,
              33.29331207299384
            ],
            [
              -110.45659637472289,
              33.29531097362258
            ],
            [
              -110.4490966799678,
              33.29801177981983
            ],
            [
              -110.4475936888976,
              33.30101013211197
            ],
            [
              -110.45059967013862,
              33.316112518278146
            ],
            [
              -110.4442977914099,
              33.32651138269421
            ],
            [
              -110.44659423813357,
              33.33011245702431
            ],
            [
              -110.44789886484068,
              33.34111404437772
            ],
            [
              -110.44789886484068,
              33.34711074806262
            ],
            [
              -110.44479370096849,
              33.351612091424954
            ],
            [
              -110.45149993917084,
              33.36151122955965
            ],
            [
              -110.44999694810065,
              33.36541366580809
            ],
            [
              -110.44249725334555,
              33.368511199832085
            ],
            [
              -110.44299316380341,
              33.37781143175221
            ],
            [
              -110.44139862084961,
              33.381313324350515
            ],
            [
              -110.42949676536341,
              33.38751220732257
            ],
            [
              -110.41979980471717,
              33.385810851889346
            ],
            [
              -110.41299438478302,
              33.40081024229892
            ],
            [
              -110.4073944089248,
              33.39971160890366
            ],
            [
              -110.3946990968858,
              33.40421295226599
            ],
            [
              -110.38839721725776,
              33.402713776119924
            ],
            [
              -110.38639831483033,
              33.40611267116287
            ],
            [
              -110.38299560486325,
              33.40651321391374
            ],
            [
              -110.38229370109337,
              33.40361404425278
            ],
            [
              -110.36739349421435,
              33.397010802706404
            ],
            [
              -110.36599731382495,
              33.3996124271718
            ],
            [
              -110.36349487289004,
              33.39811325102579
            ],
            [
              -110.35659790017291,
              33.40411376963482
            ],
            [
              -110.35229492207299,
              33.40391159124698
            ],
            [
              -110.35149383477261,
              33.407913208327955
            ],
            [
              -110.3476943969788,
              33.40831375107882
            ],
            [
              -110.34859466601097,
              33.410312652606876
            ],
            [
              -110.34589385981377,
              33.41561126744608
            ],
            [
              -110.3476943969788,
              33.420410156003925
            ],
            [
              -110.34139251735076,
              33.42211151143715
            ],
            [
              -110.34259796142675,
              33.42531204211713
            ],
            [
              -110.34140014629969,
              33.42701339665098
            ],
            [
              -110.33099365203537,
              33.42711257928215
            ],
            [
              -110.32399749758639,
              33.429813384580086
            ],
            [
              -110.3216934201152,
              33.43251037585321
            ],
            [
              -110.31509399439227,
              33.433212279623035
            ],
            [
              -110.31219482383204,
              33.43301391615938
            ],
            [
              -110.3089981080762,
              33.43041229169398
            ],
            [
              -110.30449676471386,
              33.4312133789943
            ],
            [
              -110.3032989495868,
              33.42901229907841
            ],
            [
              -110.29559326241912,
              33.42901229907841
            ],
            [
              -110.28909301842805,
              33.431312560726155
            ],
            [
              -110.2721939091216,
              33.44181060777339
            ],
            [
              -110.26529693640447,
              33.43541336133762
            ],
            [
              -110.25639343321035,
              33.436313628571156
            ],
            [
              -110.2536926270131,
              33.43821334836741
            ],
            [
              -110.24739837633399,
              33.43661117556536
            ],
            [
              -110.23719787628096,
              33.44201278706055
            ],
            [
              -110.23429870572068,
              33.44021224989547
            ],
            [
              -110.23029327371557,
              33.44341278057544
            ],
            [
              -110.22009277276322,
              33.4387130737494
            ],
            [
              -110.21909332289852,
              33.43591308582029
            ],
            [
              -110.2151947015742,
              33.43611145018332
            ],
            [
              -110.20939636225228,
              33.441410065022524
            ],
            [
              -110.20389556902524,
              33.43941116259515
            ],
            [
              -110.19639587427014,
              33.4429130551934
            ],
            [
              -110.19029235810581,
              33.442314148079504
            ],
            [
              -110.193000793252,
              33.44781112728174
            ],
            [
              -110.18989563027907,
              33.451610565075555
            ],
            [
              -110.18289947493076,
              33.447311401000434
            ],
            [
              -110.18129730212877,
              33.44961166444682
            ],
            [
              -110.17759704606681,
              33.44861221278342
            ],
            [
              -110.16899871791645,
              33.452114105381725
            ],
            [
              -110.16959381100554,
              33.465312957726894
            ],
            [
              -110.00059509258944,
              33.465911864840734
            ],
            [
              -110.00039672912573,
              33.57721328686375
            ],
            [
              -109.99589538576339,
              33.58211135895209
            ],
            [
              -109.98769378723847,
              33.580913543825034
            ],
            [
              -109.97899627735626,
              33.5763130187309
            ],
            [
              -109.96939849934125,
              33.5771141051319
            ],
            [
              -109.96719360540055,
              33.57321166978278
            ],
            [
              -109.96599578937412,
              33.57861328127797
            ],
            [
              -109.96349334843927,
              33.579811096405024
            ],
            [
              -109.96059417697967,
              33.57891082827217
            ],
            [
              -109.96049499524781,
              33.57351303080179
            ],
            [
              -109.95799255431291,
              33.57221221901875
            ],
            [
              -109.94979858383755,
              33.57321166978278
            ],
            [
              -109.94129943831837,
              33.568611144688646
            ],
            [
              -109.93750000142387,
              33.570510863585525
            ],
            [
              -109.9236984252421,
              33.567913054943574
            ],
            [
              -109.91409301827815,
              33.57591247598003
            ],
            [
              -109.90149688707163,
              33.57541274969867
            ],
            [
              -109.89830017131584,
              33.57401275618378
            ],
            [
              -109.89759826844528,
              33.56961059635199
            ],
            [
              -109.89459991525388,
              33.567310332905606
            ],
            [
              -109.88549804679741,
              33.56831359859376
            ],
            [
              -109.88209533683028,
              33.571212769154045
            ],
            [
              -109.87819671640528,
              33.56431198061347
            ],
            [
              -109.87769317609917,
              33.55941391032377
            ],
            [
              -109.87189483587792,
              33.56281280536672
            ],
            [
              -109.86899566711634,
              33.562511444347706
            ],
            [
              -109.86839294417899,
              33.55771255489054
            ],
            [
              -109.8541946410698,
              33.5453109740223
            ],
            [
              -109.84729766835267,
              33.54921340937142
            ],
            [
              -109.84779357881058,
              33.545810699404285
            ],
            [
              -109.85239410390471,
              33.53921127278204
            ],
            [
              -109.85129547140883,
              33.53621292138928
            ],
            [
              -109.8489990237859,
              33.53471374434389
            ],
            [
              -109.8455963129195,
              33.540412902833225
            ],
            [
              -109.84389495838559,
              33.53281402634627
            ],
            [
              -109.84119415308766,
              33.53061294643038
            ],
            [
              -109.83739471439452,
              33.52931213374802
            ],
            [
              -109.83419799773935,
              33.530712128162236
            ],
            [
              -109.83289337193156,
              33.53531265325637
            ],
            [
              -109.83059692430857,
              33.535411834988224
            ],
            [
              -109.82989502143806,
              33.53251266532732
            ],
            [
              -109.82489776581923,
              33.529613494767034
            ],
            [
              -109.82369995159144,
              33.52741241485114
            ],
            [
              -109.82519531281338,
              33.522411346106765
            ],
            [
              -109.81979370131825,
              33.51971054080889
            ],
            [
              -109.82049560508807,
              33.51131057702156
            ],
            [
              -109.81369781500212,
              33.50561142033081
            ],
            [
              -109.80459594744497,
              33.50401306155362
            ],
            [
              -109.80469512917682,
              33.5015106197194
            ],
            [
              -109.80999755894015,
              33.49971389837776
            ],
            [
              -109.80719757101105,
              33.49771118192558
            ],
            [
              -109.80859375140045,
              33.48961257915727
            ],
            [
              -109.81209564220012,
              33.48861312929256
            ],
            [
              -109.81229400656309,
              33.48531341598141
            ],
            [
              -109.80279541027994,
              33.482612609784155
            ],
            [
              -109.803993225407,
              33.48751068097317
            ],
            [
              -109.80029296934504,
              33.48791122372404
            ],
            [
              -109.79840087939704,
              33.48511123669425
            ],
            [
              -109.7922973632327,
              33.48501205406308
            ],
            [
              -109.78629303059887,
              33.48231124876514
            ],
            [
              -109.78459930411458,
              33.48121261626926
            ],
            [
              -109.78419494643958,
              33.4775123602073
            ],
            [
              -109.78199768144782,
              33.47661209117513
            ],
            [
              -109.76559448259928,
              33.476112365793085
            ],
            [
              -109.76229858421226,
              33.47781372122631
            ],
            [
              -109.76159668044244,
              33.48121261626926
            ],
            [
              -109.7545928961452,
              33.48121261626926
            ],
            [
              -109.74689483612775,
              33.48511123669425
            ],
            [
              -109.7454986584363,
              33.49071121165315
            ],
            [
              -109.74169921884385,
              33.49361038221343
            ],
            [
              -109.74409484909796,
              33.50321197515257
            ],
            [
              -109.7374954215764,
              33.51211166432188
            ],
            [
              -109.72809600792436,
              33.516613006784894
            ],
            [
              -109.73119354194836,
              33.5208129882289
            ],
            [
              -109.72919464131962,
              33.5227127080251
            ],
            [
              -109.7243957518624,
              33.52261352539392
            ],
            [
              -109.72449493359426,
              33.51971054080889
            ],
            [
              -109.72109985437476,
              33.51931381208283
            ],
            [
              -109.72200012340693,
              33.52211380001194
            ],
            [
              -109.71289825405114,
              33.52591323870507
            ],
            [
              -109.71569824198025,
              33.53041076714322
            ],
            [
              -109.70949554408406,
              33.53121185264496
            ],
            [
              -109.7068939214173,
              33.53311157244116
            ],
            [
              -109.70769500691898,
              33.536113738758104
            ],
            [
              -109.70529937756419,
              33.53921127278204
            ],
            [
              -109.70199585022829,
              33.53571319600724
            ],
            [
              -109.69889831530497,
              33.53571319600724
            ],
            [
              -109.69669341956563,
              33.5386123656682
            ],
            [
              -109.68579864559098,
              33.54311370813116
            ],
            [
              -109.67959594679547,
              33.55091094988046
            ],
            [
              -109.67839813256774,
              33.556911469388865
            ],
            [
              -109.67019653314344,
              33.55471038767428
            ],
            [
              -109.66519928022257,
              33.556713104126516
            ],
            [
              -109.67199707030852,
              33.559711456418654
            ],
            [
              -109.67089843781264,
              33.567111969441896
            ],
            [
              -109.67589569073351,
              33.568412781224936
            ],
            [
              -109.6746978774051,
              33.57241058338178
            ],
            [
              -109.6670989991195,
              33.57871246300982
            ],
            [
              -109.66059875512843,
              33.57921218929113
            ],
            [
              -109.6604003907654,
              33.582714080990115
            ],
            [
              -109.64529418877578,
              33.58581161501405
            ],
            [
              -109.6328964228316,
              33.584613799886995
            ],
            [
              -109.62999725317064,
              33.587913513198146
            ],
            [
              -109.62569427507071,
              33.589412689344215
            ],
            [
              -109.62329864481654,
              33.58451080323101
            ],
            [
              -109.61999511658132,
              33.58401107784903
            ],
            [
              -109.6169967651885,
              33.59231185900512
            ],
            [
              -109.6133956908584,
              33.59401321443835
            ],
            [
              -109.60959625216526,
              33.593112946305496
            ],
            [
              -109.60429382330125,
              33.60101318381146
            ],
            [
              -109.60689544686733,
              33.60761261043365
            ],
            [
              -109.60549926827656,
              33.61141204822752
            ],
            [
              -109.60259246786808,
              33.61271286001056
            ],
            [
              -109.59859466571123,
              33.611011504577334
            ],
            [
              -109.59819793698517,
              33.613212585392546
            ],
            [
              -109.59049224891811,
              33.61591339069048
            ],
            [
              -109.58709716789997,
              33.61571121230264
            ],
            [
              -109.58469390959624,
              33.613410949755576
            ],
            [
              -109.58039856044519,
              33.614513397175585
            ],
            [
              -109.58199310339899,
              33.617313385104694
            ],
            [
              -109.57609558144588,
              33.61851120023175
            ],
            [
              -109.56379699723362,
              33.62541198697369
            ],
            [
              -109.5600967411716,
              33.62631225600586
            ],
            [
              -109.55419921921856,
              33.6201133730338
            ],
            [
              -109.55129241881002,
              33.621013641166655
            ],
            [
              -109.54369354232307,
              33.618110656581564
            ],
            [
              -109.53839874330731,
              33.62451171884078
            ],
            [
              -109.53289794918095,
              33.61961364675244
            ],
            [
              -109.52489471411974,
              33.619213104001574
            ],
            [
              -109.52569580142006,
              33.62181091264358
            ],
            [
              -109.52809905972379,
              33.62281036430693
            ],
            [
              -109.51859283359238,
              33.63471221889387
            ],
            [
              -109.5186004643399,
              33.64501190157807
            ],
            [
              -109.51499939000979,
              33.64231109628014
            ],
            [
              -109.51210022034883,
              33.642414092936065
            ],
            [
              -109.51179504440574,
              33.644611358827206
            ],
            [
              -109.50549316387838,
              33.643913269082134
            ],
            [
              -109.50309753542291,
              33.64581298797907
            ],
            [
              -109.50079345705234,
              33.652610778964345
            ],
            [
              -109.49620056180646,
              33.65271377562033
            ],
            [
              -109.48979950044657,
              33.658912658592385
            ],
            [
              -109.48989868217842,
              33.65601348893142
            ],
            [
              -109.48249816915512,
              33.655014038167394
            ],
            [
              -109.48369598428224,
              33.6603126530066
            ],
            [
              -109.48009490995207,
              33.66361236631769
            ],
            [
              -109.4798965455891,
              33.66761016757522
            ],
            [
              -109.4834976199192,
              33.6728134156067
            ],
            [
              -109.4814987183911,
              33.683811188035975
            ],
            [
              -109.48279571525,
              33.68631362897088
            ],
            [
              -109.48030090326404,
              33.68761062582979
            ],
            [
              -109.4802932743151,
              33.690513611314145
            ],
            [
              -109.4767990115651,
              33.69041061375884
            ],
            [
              -109.47329711896685,
              33.69641113326725
            ],
            [
              -109.47019958494286,
              33.69631195063607
            ],
            [
              -109.46389770531482,
              33.692710876305966
            ],
            [
              -109.46179962205485,
              33.69341278097511
            ],
            [
              -109.46189880378671,
              33.695713042622856
            ],
            [
              -109.45589447025355,
              33.69961166394717
            ],
            [
              -109.44869232159334,
              33.70961379963717
            ],
            [
              -109.44579315193238,
              33.70941162124939
            ],
            [
              -109.44229888918238,
              33.71181106642763
            ],
            [
              -109.42049407973798,
              33.711513519433424
            ],
            [
              -109.41379547138388,
              33.70841216958598
            ],
            [
              -109.40959930396468,
              33.71571350087743
            ],
            [
              -109.40519714413284,
              33.71061325130057
            ],
            [
              -109.4033966060685,
              33.71501159710755
            ],
            [
              -109.39999389610136,
              33.71701431266047
            ],
            [
              -109.39649963425069,
              33.71331024167438
            ],
            [
              -109.39459991535375,
              33.71641159062244
            ],
            [
              -109.38159942557297,
              33.723213195632525
            ],
            [
              -109.37739563010422,
              33.72431182902773
            ],
            [
              -109.37059783911894,
              33.72261047359456
            ],
            [
              -109.35869598543132,
              33.72781372072666
            ],
            [
              -109.35409545943787,
              33.725311278892434
            ],
            [
              -109.35329437303687,
              33.72871017483476
            ],
            [
              -109.35499572757072,
              33.731513976788676
            ],
            [
              -109.3647003171659,
              33.73901367244309
            ],
            [
              -109.36190033013611,
              33.74621200617918
            ],
            [
              -109.36319732699502,
              33.74901199320897
            ],
            [
              -109.36249542232582,
              33.75241088915129
            ],
            [
              -109.3547973632077,
              33.76401138271916
            ],
            [
              -109.35449981711281,
              33.77041244497843
            ],
            [
              -109.34749603281563,
              33.77641296358746
            ],
            [
              -109.33639526373042,
              33.77751159698266
            ]
          ]
        ]
      }
    }
  ],
  "metadata": {
    "schema_version": "0.1.0",
    "wfo": "TWC",
    "layer": "cwa",
    "source": "https://www.weather.gov/source/gis/Shapefiles/WSOM/w_16ap26.zip",
    "public_release_status": "public-source-derived"
  }
}