{
  "type": "FeatureCollection",
  "name": "cwa",
  "crs": {
    "type": "name",
    "properties": {
      "name": "urn:ogc:def:crs:OGC:1.3:CRS84"
    }
  },
  "features": [
    {
      "type": "Feature",
      "properties": {
        "WFO": "AMA",
        "CWA": "AMA",
        "STATE": "Texas",
        "ST": "TX",
        "CITYSTATE": "Amarillo TX"
      },
      "geometry": {
        "type": "Polygon",
        "coordinates": [
          [
            [
              -100.08950042720289,
              37.002311707219576
            ],
            [
              -100.00179290791635,
              37.001613616575185
            ],
            [
              -100.00379943839334,
              36.82281112683211
            ],
            [
              -100.00299835199229,
              36.593212128337086
            ],
            [
              -100.00429534885126,
              36.499713897778236
            ],
            [
              -100.00039672932559,
              36.499713897778236
            ],
            [
              -100.00039672932559,
              34.74681091309321
            ],
            [
              -101.090797423862,
              34.749210358271455
            ],
            [
              -101.1253967288759,
              34.747711182125386
            ],
            [
              -101.99929809642998,
              34.74821090660811
            ],
            [
              -102.37009429931243,
              34.746013640717024
            ],
            [
              -102.99799347042227,
              34.747711182125386
            ],
            [
              -103.04279327458994,
              34.74651336699833
            ],
            [
              -103.04329681399673,
              35.12501144392303
            ],
            [
              -103.04079437306183,
              36.000011443972994
            ],
            [
              -103.04189300555771,
              36.50021362316022
            ],
            [
              -103.00189971889688,
              36.50041198662393
            ],
            [
              -103.00169372558491,
              36.999912262041335
            ],
            [
              -102.97959899899456,
              36.99851226762712
            ],
            [
              -102.8145980827353,
              37.00081253107351
            ],
            [
              -102.77859497108102,
              36.999210358271455
            ],
            [
              -102.76009368897252,
              37.00001144377319
            ],
            [
              -102.69809722940357,
              36.995113372584115
            ],
            [
              -102.02749633828535,
              36.99281311003705
            ],
            [
              -100.08950042720289,
              37.002311707219576
            ]
          ]
        ]
      }
    }
  ],
  "metadata": {
    "schema_version": "0.1.0",
    "wfo": "AMA",
    "layer": "cwa",
    "source": "https://www.weather.gov/source/gis/Shapefiles/WSOM/w_16ap26.zip",
    "public_release_status": "public-source-derived"
  }
}