{
  "type": "FeatureCollection",
  "metadata": {
    "schema_version": "0.2.4",
    "year": 2026,
    "month": 7,
    "wfo": "REV",
    "start_utc": "2026-07-01T00:00:00Z",
    "end_utc": "2026-08-01T00:00:00Z",
    "generated_utc": "2026-07-17T10:58:31Z",
    "mode": "storm_data_prep",
    "public_release_status": "public-source-derived",
    "time_note": "Storm Data entry times should be reviewed in local Standard Time (ST), not daylight time. Candidate reports include standard_time_display.",
    "tornado_track_policy": "Tornado tracks must come from DAT. NCEI begin/end coordinates are not used as a tornado track substitute.",
    "source": "https://mesonet.agron.iastate.edu/cgi-bin/request/gis/lsr.py?wfo=REV&sts=2026-07-01T00%3A00%3A00Z&ets=2026-08-01T00%3A00%3A00Z&fmt=csv"
  },
  "features": [
    {
      "type": "Feature",
      "id": "iem-lsr-REV-1",
      "properties": {
        "report_id": "iem-lsr-REV-1",
        "report_type": "RAIN",
        "event_category": "other",
        "valid_utc": "202607042000",
        "standard_time_display": "2026-07-04 12:00 PST",
        "wfo": "REV",
        "county_or_zone": "Washoe",
        "city": "3 NE Spanish Springs",
        "state": "NV",
        "magnitude": 0.08,
        "magnitude_units": null,
        "source": "Trained Spotter",
        "event_narrative": "24-hr rainfall total."
      },
      "geometry": {
        "type": "Point",
        "coordinates": [
          -119.69,
          39.65
        ]
      }
    },
    {
      "type": "Feature",
      "id": "iem-lsr-REV-2",
      "properties": {
        "report_id": "iem-lsr-REV-2",
        "report_type": "TSTM WND GST",
        "event_category": "thunderstorm_wind",
        "valid_utc": "202607052327",
        "standard_time_display": "2026-07-05 15:27 PST",
        "wfo": "REV",
        "county_or_zone": "Washoe",
        "city": "8 NW Catnip Mountain",
        "state": "NV",
        "magnitude": 56.0,
        "magnitude_units": null,
        "source": "Mesonet",
        "event_narrative": "Mesonet station CATN2 Catnip Mountain."
      },
      "geometry": {
        "type": "Point",
        "coordinates": [
          -119.5,
          41.92
        ]
      }
    },
    {
      "type": "Feature",
      "id": "iem-lsr-REV-3",
      "properties": {
        "report_id": "iem-lsr-REV-3",
        "report_type": "FLASH FLOOD",
        "event_category": "flooding",
        "valid_utc": "202607140205",
        "standard_time_display": "2026-07-13 18:05 PST",
        "wfo": "REV",
        "county_or_zone": "Washoe",
        "city": "1 WSW Reno",
        "state": "NV",
        "magnitude": null,
        "magnitude_units": null,
        "source": "Public",
        "event_narrative": "Street flooded near Keystone Ave. and Gear St. via social media."
      },
      "geometry": {
        "type": "Point",
        "coordinates": [
          -119.83,
          39.54
        ]
      }
    }
  ]
}