{
  "type": "FeatureCollection",
  "name": "counties_parishes",
  "crs": {
    "type": "name",
    "properties": {
      "name": "urn:ogc:def:crs:OGC:1.3:CRS84"
    }
  },
  "features": [
    {
      "type": "Feature",
      "properties": {
        "STATE": "TX",
        "CWA": "SJT",
        "COUNTYNAME": "Crockett",
        "FIPS": "48105",
        "TIME_ZONE": "C"
      },
      "geometry": {
        "type": "Polygon",
        "coordinates": [
          [
            [
              -102.34669494599996,
              31.086612701000035
            ],
            [
              -101.86229705799997,
              31.079813004000073
            ],
            [
              -101.25039672899999,
              31.07941246000007
            ],
            [
              -100.96219634999994,
              31.08251190200008
            ],
            [
              -100.96189880399999,
              30.88511085500005
            ],
            [
              -100.96049499499998,
              30.85951232900004
            ],
            [
              -100.96059417699996,
              30.287812160000044
            ],
            [
              -101.75829659999994,
              30.289012160000027
            ],
            [
              -101.75269392099995,
              30.29641227600007
            ],
            [
              -101.74779510499997,
              30.29701232900004
            ],
            [
              -101.74569659999997,
              30.299212160000025
            ],
            [
              -101.74169659999995,
              30.311212160000025
            ],
            [
              -101.74089659999999,
              30.31971216000005
            ],
            [
              -101.73669438699994,
              30.32681266000003
            ],
            [
              -101.71489659999997,
              30.33961216000006
            ],
            [
              -101.70149659999998,
              30.345512160000055
            ],
            [
              -101.69309739399995,
              30.346612099000026
            ],
            [
              -101.68119811999998,
              30.341011047000052
            ],
            [
              -101.67219659999995,
              30.339212160000045
            ],
            [
              -101.65939331099997,
              30.342311859000063
            ],
            [
              -101.6579966,
              30.346912160000045
            ],
            [
              -101.65929412799994,
              30.358312607000073
            ],
            [
              -101.6656966,
              30.36311216000007
            ],
            [
              -101.68549346899994,
              30.37001228300005
            ],
            [
              -101.69079659999994,
              30.37641216000003
            ],
            [
              -101.69779659999995,
              30.38101216000007
            ],
            [
              -101.69819640799994,
              30.383710861000054
            ],
            [
              -101.69569396999998,
              30.385412216000077
            ],
            [
              -101.69479370099998,
              30.39151191700006
            ],
            [
              -101.69579315199996,
              30.39611244200006
            ],
            [
              -101.701194763,
              30.40201187100007
            ],
            [
              -101.71049659999994,
              30.405112160000044
            ],
            [
              -101.72349587999997,
              30.406212183000036
            ],
            [
              -101.72859659999995,
              30.408512160000043
            ],
            [
              -101.73989659999995,
              30.421012160000032
            ],
            [
              -101.73719659999995,
              30.42781216000003
            ],
            [
              -101.72069549599996,
              30.441911697000023
            ],
            [
              -101.72119659999998,
              30.447612160000062
            ],
            [
              -101.71929659999995,
              30.454612160000067
            ],
            [
              -101.73109435999999,
              30.46021270800003
            ],
            [
              -101.73129659999995,
              30.46751216000007
            ],
            [
              -101.72859659999995,
              30.470412160000024
            ],
            [
              -101.72379603599995,
              30.47151184100005
            ],
            [
              -101.71629659999996,
              30.466512160000036
            ],
            [
              -101.70969659999997,
              30.459312160000025
            ],
            [
              -101.70229339599996,
              30.45731163000005
            ],
            [
              -101.69999659999996,
              30.45811216000004
            ],
            [
              -101.69719695999999,
              30.46341133100003
            ],
            [
              -101.69079589799998,
              30.466411591000053
            ],
            [
              -101.68759659999995,
              30.473312160000035
            ],
            [
              -101.69079589799998,
              30.478212357000075
            ],
            [
              -101.69189453099995,
              30.49081230200005
            ],
            [
              -101.68889642899995,
              30.49521216900007
            ],
            [
              -101.68499659999998,
              30.495412160000058
            ],
            [
              -101.67689514199998,
              30.49961280800005
            ],
            [
              -101.67559659999995,
              30.50231216000003
            ],
            [
              -101.67699432399996,
              30.50841140700004
            ],
            [
              -101.67929659999999,
              30.51121216000007
            ],
            [
              -101.67959594699994,
              30.52181243900003
            ],
            [
              -101.66829681399997,
              30.52831077600007
            ],
            [
              -101.65329659999998,
              30.546612160000052
            ],
            [
              -101.64679659999996,
              30.55111216000006
            ],
            [
              -101.64849659999999,
              30.554612160000033
            ],
            [
              -101.646995544,
              30.561311722000028
            ],
            [
              -101.64839659999996,
              30.56451216000005
            ],
            [
              -101.65579659999997,
              30.57791216000004
            ],
            [
              -101.65619659999999,
              30.582312160000072
            ],
            [
              -101.66309356699998,
              30.588312149000046
            ],
            [
              -101.66279602499998,
              30.59221268300007
            ],
            [
              -101.65929412799994,
              30.59541130100007
            ],
            [
              -101.65669659999998,
              30.603512160000037
            ],
            [
              -101.65899658999996,
              30.61211204500006
            ],
            [
              -101.65719604499998,
              30.617712021000045
            ],
            [
              -101.65319659999994,
              30.61961216000003
            ],
            [
              -101.65449523899997,
              30.622713089000058
            ],
            [
              -101.66619659999998,
              30.629212160000066
            ],
            [
              -101.67229461699998,
              30.638813019000054
            ],
            [
              -101.67919694999995,
              30.63731221000006
            ],
            [
              -101.68729440199996,
              30.63851181700005
            ],
            [
              -101.68979644799998,
              30.639513016000024
            ],
            [
              -101.69509659999994,
              30.647112160000063
            ],
            [
              -101.69939422599998,
              30.648412704000066
            ],
            [
              -101.70489501999998,
              30.647312164000027
            ],
            [
              -101.71079659999998,
              30.653712160000055
            ],
            [
              -101.72359474799998,
              30.650312445000054
            ],
            [
              -101.73609659999994,
              30.65391216000006
            ],
            [
              -101.75259399399994,
              30.65031242400005
            ],
            [
              -101.75539398199999,
              30.65661239600007
            ],
            [
              -101.76159659999996,
              30.65811216000003
            ],
            [
              -101.76259612999996,
              30.654413223000063
            ],
            [
              -101.76499938999996,
              30.65641212500003
            ],
            [
              -101.76879882799994,
              30.65401268000005
            ],
            [
              -101.77389526399998,
              30.674112320000063
            ],
            [
              -101.77909851099997,
              30.68491172800003
            ],
            [
              -101.79119872999996,
              30.69061279300007
            ],
            [
              -101.79369354199997,
              30.69261169400005
            ],
            [
              -101.79439544699994,
              30.69681167600004
            ],
            [
              -101.80139923099995,
              30.696712494000053
            ],
            [
              -101.80619811999998,
              30.69891166700006
            ],
            [
              -101.80899810799997,
              30.70271110500005
            ],
            [
              -101.80979919399994,
              30.709411621000072
            ],
            [
              -101.80839538599997,
              30.725112915000068
            ],
            [
              -101.815299988,
              30.740112305000025
            ],
            [
              -101.81419372599998,
              30.743112564000057
            ],
            [
              -101.81729888899997,
              30.75341224700003
            ],
            [
              -101.82439422599998,
              30.757211685000073
            ],
            [
              -101.83019256599994,
              30.75621223400003
            ],
            [
              -101.83549499499998,
              30.759613037000065
            ],
            [
              -101.83889770499997,
              30.764013290000037
            ],
            [
              -101.83479309099994,
              30.77201271100006
            ],
            [
              -101.83609771699997,
              30.780412674000047
            ],
            [
              -101.83909606899994,
              30.78251266500007
            ],
            [
              -101.83919525099998,
              30.78531074500006
            ],
            [
              -101.83419799799998,
              30.79001236000005
            ],
            [
              -101.83319854699994,
              30.792713165000066
            ],
            [
              -101.83439635899998,
              30.795612326000025
            ],
            [
              -101.83229827899999,
              30.79701232900004
            ],
            [
              -101.83169555699999,
              30.80161285400004
            ],
            [
              -101.83489990199996,
              30.81211280800005
            ],
            [
              -101.84099578899998,
              30.822513580000077
            ],
            [
              -101.84579467799995,
              30.826011658000027
            ],
            [
              -101.84719848599997,
              30.828912735000074
            ],
            [
              -101.84510040299995,
              30.840612411000052
            ],
            [
              -101.85129547099996,
              30.846813202000078
            ],
            [
              -101.85209655799997,
              30.850511551000068
            ],
            [
              -101.85029602099996,
              30.856712341000048
            ],
            [
              -101.86319732699997,
              30.875211716000024
            ],
            [
              -101.88839721699998,
              30.88641166700006
            ],
            [
              -101.89039611799996,
              30.889513016000024
            ],
            [
              -101.88779449499998,
              30.897111893000044
            ],
            [
              -101.88059997599998,
              30.907112122000058
            ],
            [
              -101.87439727799995,
              30.912012100000027
            ],
            [
              -101.87749481199995,
              30.919912338000074
            ],
            [
              -101.88419341999997,
              30.92551231400006
            ],
            [
              -101.89619445799997,
              30.928911209000034
            ],
            [
              -101.90149688699995,
              30.927312851000067
            ],
            [
              -101.90689849899996,
              30.92791175800005
            ],
            [
              -101.91429901099997,
              30.933712006000064
            ],
            [
              -101.91769409199998,
              30.933912277000047
            ],
            [
              -101.91949462899998,
              30.935512543000073
            ],
            [
              -101.91829681399997,
              30.941612244000055
            ],
            [
              -101.922195435,
              30.947011948000068
            ],
            [
              -101.92899322499994,
              30.949913025000058
            ],
            [
              -101.93759918199999,
              30.950912476000042
            ],
            [
              -101.93559265099998,
              30.956312180000054
            ],
            [
              -101.93969726599994,
              30.957612991000076
            ],
            [
              -101.95179748499999,
              30.95621299700008
            ],
            [
              -101.96159362799995,
              30.970811844000025
            ],
            [
              -101.96419525099998,
              30.971412659000066
            ],
            [
              -101.97179412799994,
              30.979112625000027
            ],
            [
              -101.98409271199995,
              30.98711204500006
            ],
            [
              -101.99250030499996,
              30.989011765000043
            ],
            [
              -101.998199463,
              30.98541259800004
            ],
            [
              -102.00469970699999,
              30.985311508000052
            ],
            [
              -102.01069641099997,
              30.98011207600007
            ],
            [
              -102.02159881599994,
              30.98711204500006
            ],
            [
              -102.02559661899994,
              30.991413116000047
            ],
            [
              -102.02769470199996,
              30.997312546000046
            ],
            [
              -102.04889678999996,
              31.000812531000065
            ],
            [
              -102.04789733899997,
              31.00271225000006
            ],
            [
              -102.05069732699997,
              31.002811433000034
            ],
            [
              -102.053596498,
              30.999912262000066
            ],
            [
              -102.07889556899994,
              30.98711204500006
            ],
            [
              -102.08879852299998,
              30.98951149000004
            ],
            [
              -102.09319305399998,
              30.994512558000054
            ],
            [
              -102.09689331099997,
              30.995111465000036
            ],
            [
              -102.10099792499994,
              30.993612289000055
            ],
            [
              -102.10349273699995,
              30.99461174000004
            ],
            [
              -102.11069488499999,
              30.991611481000064
            ],
            [
              -102.12729644799998,
              31.001213074000077
            ],
            [
              -102.13459777799994,
              30.995712280000077
            ],
            [
              -102.13859558099995,
              30.995212555000023
            ],
            [
              -102.14319610599995,
              30.99751281700003
            ],
            [
              -102.15200042699996,
              31.007011414000033
            ],
            [
              -102.17019653299997,
              31.00641250600006
            ],
            [
              -102.17589569099994,
              31.010211945000037
            ],
            [
              -102.17699432399996,
              31.014211655000054
            ],
            [
              -102.18119811999998,
              31.016613007000046
            ],
            [
              -102.18470001199995,
              31.015811920000033
            ],
            [
              -102.18529510499997,
              31.00821304300007
            ],
            [
              -102.18699645999999,
              31.005912781000063
            ],
            [
              -102.18959808299996,
              31.003612518000068
            ],
            [
              -102.19259643599997,
              31.004112244000055
            ],
            [
              -102.19539642299998,
              31.013711929000067
            ],
            [
              -102.19999694799998,
              31.020112991000076
            ],
            [
              -102.20219421399997,
              31.029512405000048
            ],
            [
              -102.20829772899998,
              31.032812119000027
            ],
            [
              -102.22429656999998,
              31.033512115000065
            ],
            [
              -102.24659728999995,
              31.041412354000045
            ],
            [
              -102.25509643599997,
              31.04081153900006
            ],
            [
              -102.26549529999994,
              31.035711288000073
            ],
            [
              -102.27679443499994,
              31.03361320500005
            ],
            [
              -102.29209899899996,
              31.03671264600007
            ],
            [
              -102.29999542199994,
              31.04391288800008
            ],
            [
              -102.30429840099998,
              31.050811768000074
            ],
            [
              -102.31029510499997,
              31.053411484000037
            ],
            [
              -102.31620025599995,
              31.052711487000067
            ],
            [
              -102.32019805899995,
              31.060611725000058
            ],
            [
              -102.32829284699994,
              31.06631279000004
            ],
            [
              -102.33089446999998,
              31.067411423000067
            ],
            [
              -102.33379363999995,
              31.06631279000004
            ],
            [
              -102.34929656999998,
              31.070711136000057
            ],
            [
              -102.34829711899994,
              31.073211670000035
            ],
            [
              -102.35109710699999,
              31.073312759000032
            ],
            [
              -102.36159515399999,
              31.079511642000057
            ],
            [
              -102.36059570299994,
              31.081312180000054
            ],
            [
              -102.37379455599995,
              31.085912704000066
            ],
            [
              -102.34669494599996,
              31.086612701000035
            ]
          ]
        ]
      }
    },
    {
      "type": "Feature",
      "properties": {
        "STATE": "TX",
        "CWA": "SJT",
        "COUNTYNAME": "Fisher",
        "FIPS": "48151",
        "TIME_ZONE": "C"
      },
      "geometry": {
        "type": "Polygon",
        "coordinates": [
          [
            [
              -100.65599822999997,
              32.96341323900003
            ],
            [
              -100.14459991499996,
              32.95981216400003
            ],
            [
              -100.14649963399995,
              32.52281189000007
            ],
            [
              -100.66059875499997,
              32.52531051600005
            ],
            [
              -100.65599822999997,
              32.96341323900003
            ]
          ]
        ]
      }
    },
    {
      "type": "Feature",
      "properties": {
        "STATE": "TX",
        "CWA": "SJT",
        "COUNTYNAME": "Haskell",
        "FIPS": "48207",
        "TIME_ZONE": "C"
      },
      "geometry": {
        "type": "Polygon",
        "coordinates": [
          [
            [
              -99.47239685099998,
              33.398811340000066
            ],
            [
              -99.47129821799996,
              32.957012177000024
            ],
            [
              -99.98880004899996,
              32.960113525000054
            ],
            [
              -99.99099731399997,
              33.39711380000006
            ],
            [
              -99.47239685099998,
              33.398811340000066
            ]
          ]
        ]
      }
    },
    {
      "type": "Feature",
      "properties": {
        "STATE": "TX",
        "CWA": "SJT",
        "COUNTYNAME": "Irion",
        "FIPS": "48235",
        "TIME_ZONE": "C"
      },
      "geometry": {
        "type": "Polygon",
        "coordinates": [
          [
            [
              -101.26799774199998,
              31.528312683000024
            ],
            [
              -100.69329833999996,
              31.523912430000053
            ],
            [
              -100.68869781499995,
              31.086612701000035
            ],
            [
              -101.27479553199998,
              31.07941246000007
            ],
            [
              -101.26799774199998,
              31.528312683000024
            ]
          ]
        ]
      }
    },
    {
      "type": "Feature",
      "properties": {
        "STATE": "TX",
        "CWA": "SJT",
        "COUNTYNAME": "Jones",
        "FIPS": "48253",
        "TIME_ZONE": "C"
      },
      "geometry": {
        "type": "Polygon",
        "coordinates": [
          [
            [
              -99.98880004899996,
              32.960113525000054
            ],
            [
              -99.61219787599998,
              32.95691299400005
            ],
            [
              -99.61199951199995,
              32.514610291000054
            ],
            [
              -99.62889862099996,
              32.51461410500008
            ],
            [
              -99.62999725299994,
              32.52021026600005
            ],
            [
              -100.14649963399995,
              32.52281189000007
            ],
            [
              -100.14459991499996,
              32.95981216400003
            ],
            [
              -99.98880004899996,
              32.960113525000054
            ]
          ]
        ]
      }
    },
    {
      "type": "Feature",
      "properties": {
        "STATE": "TX",
        "CWA": "SJT",
        "COUNTYNAME": "Kimble",
        "FIPS": "48267",
        "TIME_ZONE": "C"
      },
      "geometry": {
        "type": "Polygon",
        "coordinates": [
          [
            [
              -100.11619567899999,
              30.71041297900007
            ],
            [
              -99.48389434799998,
              30.71081161500007
            ],
            [
              -99.48449706999997,
              30.499912262000066
            ],
            [
              -99.30399322499994,
              30.49921226500004
            ],
            [
              -99.30199432399996,
              30.28671264600007
            ],
            [
              -99.74949645999999,
              30.29081153900006
            ],
            [
              -100.11649322499994,
              30.290311813000073
            ],
            [
              -100.11619567899999,
              30.71041297900007
            ]
          ]
        ]
      }
    },
    {
      "type": "Feature",
      "properties": {
        "STATE": "TX",
        "CWA": "SJT",
        "COUNTYNAME": "McCulloch",
        "FIPS": "48307",
        "TIME_ZONE": "C"
      },
      "geometry": {
        "type": "Polygon",
        "coordinates": [
          [
            [
              -99.55769348099994,
              31.48931312600007
            ],
            [
              -99.55119323599996,
              31.486011511000072
            ],
            [
              -99.53599548299997,
              31.48281288100003
            ],
            [
              -99.53199768099995,
              31.465911865000066
            ],
            [
              -99.52399444599996,
              31.451511383000025
            ],
            [
              -99.51959991499996,
              31.446512222000024
            ],
            [
              -99.51659393299997,
              31.432611465000036
            ],
            [
              -99.512397766,
              31.424713135000047
            ],
            [
              -99.50989532499995,
              31.424911499000075
            ],
            [
              -99.50679779099994,
              31.42831230200005
            ],
            [
              -99.50419616699998,
              31.438312531000065
            ],
            [
              -99.49519348099994,
              31.44481277500006
            ],
            [
              -99.48029327399996,
              31.433912277000047
            ],
            [
              -99.47719573999996,
              31.424512863000075
            ],
            [
              -99.47249603299997,
              31.421512604000043
            ],
            [
              -99.47039794899996,
              31.422412872000052
            ],
            [
              -99.46889495799996,
              31.424112320000063
            ],
            [
              -99.46920013399995,
              31.429811478000033
            ],
            [
              -99.45409393299997,
              31.439712524000072
            ],
            [
              -99.43759918199999,
              31.445711136000057
            ],
            [
              -99.43539428699995,
              31.44891166700006
            ],
            [
              -99.44359588599997,
              31.449512482000046
            ],
            [
              -99.44649505599995,
              31.451211929000067
            ],
            [
              -99.449897766,
              31.458511353000063
            ],
            [
              -99.44960021999998,
              31.46911239600007
            ],
            [
              -99.44419860799997,
              31.47481155400004
            ],
            [
              -99.440299988,
              31.47481155400004
            ],
            [
              -99.42729949999995,
              31.46541214000007
            ],
            [
              -99.42179870599995,
              31.46321296700006
            ],
            [
              -99.39859771699997,
              31.459611893000044
            ],
            [
              -99.39889526399998,
              31.45711326600008
            ],
            [
              -99.40509796099997,
              31.450012207000043
            ],
            [
              -99.402893066,
              31.446512222000024
            ],
            [
              -99.38919830299994,
              31.443212509000034
            ],
            [
              -99.38419341999997,
              31.443613052000046
            ],
            [
              -99.37979888899997,
              31.439912796000044
            ],
            [
              -99.36739349399994,
              31.437911987000064
            ],
            [
              -99.35689544699994,
              31.431011200000057
            ],
            [
              -99.34519958499999,
              31.443212509000034
            ],
            [
              -99.34179687499994,
              31.439512253000032
            ],
            [
              -99.34099578899998,
              31.433212280000077
            ],
            [
              -99.34709930399998,
              31.42461204500006
            ],
            [
              -99.34599304199998,
              31.421812057000068
            ],
            [
              -99.33679962199994,
              31.41671180700007
            ],
            [
              -99.31969451899994,
              31.414611816000047
            ],
            [
              -99.31459808299996,
              31.410112381000033
            ],
            [
              -99.31009674099994,
              31.41281127900004
            ],
            [
              -99.30389404299996,
              31.421712875000026
            ],
            [
              -99.30649566699998,
              31.427511215000038
            ],
            [
              -99.30469512899998,
              31.43031120300003
            ],
            [
              -99.302192688,
              31.432413101000066
            ],
            [
              -99.29879760699998,
              31.432312012000068
            ],
            [
              -99.29149627699996,
              31.42881202700005
            ],
            [
              -99.28809356699998,
              31.429012299000078
            ],
            [
              -99.286399841,
              31.43211174000004
            ],
            [
              -99.28919982899998,
              31.439413071000047
            ],
            [
              -99.28899383499999,
              31.44351196300005
            ],
            [
              -99.28229522699996,
              31.447111130000053
            ],
            [
              -99.27659606899994,
              31.44561195400007
            ],
            [
              -99.27249908399995,
              31.44641304000004
            ],
            [
              -99.27059936499995,
              31.448711395000032
            ],
            [
              -99.27189636199995,
              31.453012466000075
            ],
            [
              -99.27059936499995,
              31.456712723000066
            ],
            [
              -99.25539398199999,
              31.469312668000043
            ],
            [
              -99.25090026899994,
              31.477212906000034
            ],
            [
              -99.24029540999999,
              31.482612610000047
            ],
            [
              -99.23539733899997,
              31.482212067000034
            ],
            [
              -99.23499298099995,
              31.479511261000027
            ],
            [
              -99.23229980499997,
              31.477811813000073
            ],
            [
              -99.219596863,
              31.475412369000026
            ],
            [
              -99.20939636199995,
              31.465711594000027
            ],
            [
              -99.20089721599999,
              31.468011854000054
            ],
            [
              -99.19719695999999,
              31.47241210900006
            ],
            [
              -99.19269561799996,
              31.47241210900006
            ],
            [
              -99.18739318799999,
              31.46831321700006
            ],
            [
              -99.18309783899997,
              31.454612732000044
            ],
            [
              -99.17619323699995,
              31.457212448000064
            ],
            [
              -99.16929626499996,
              31.46431160000003
            ],
            [
              -99.15939331099997,
              31.468112946000076
            ],
            [
              -99.14729309099994,
              31.465911865000066
            ],
            [
              -99.14259338399995,
              31.467012405000048
            ],
            [
              -99.13599395799997,
              31.465911865000066
            ],
            [
              -99.12489318799999,
              31.45731163000005
            ],
            [
              -99.11879730199996,
              31.461212158000023
            ],
            [
              -99.11940002399996,
              31.467512131000035
            ],
            [
              -99.11589813199998,
              31.468112946000076
            ],
            [
              -99.10910034199998,
              31.465711594000027
            ],
            [
              -99.10769653299997,
              31.462711334000062
            ],
            [
              -99.10869598399995,
              31.456811905000052
            ],
            [
              -99.09999847399996,
              31.449312210000073
            ],
            [
              -99.09529876699997,
              31.449312210000073
            ],
            [
              -99.09679412799994,
              31.455211639000026
            ],
            [
              -99.09579467799995,
              31.45751190200008
            ],
            [
              -99.09049987799995,
              31.46081161500007
            ],
            [
              -99.09239959699994,
              30.941112518000068
            ],
            [
              -99.60229492199994,
              30.940711975000056
            ],
            [
              -99.60359954799998,
              30.944011688000046
            ],
            [
              -99.60369872999996,
              30.984411240000043
            ],
            [
              -99.60319518999995,
              31.087312698000062
            ],
            [
              -99.60149383499999,
              31.12511253400004
            ],
            [
              -99.60199737499994,
              31.492212296000048
            ],
            [
              -99.59079742399996,
              31.489011765000043
            ],
            [
              -99.57329559299995,
              31.493612289000055
            ],
            [
              -99.55769348099994,
              31.48931312600007
            ]
          ]
        ]
      }
    },
    {
      "type": "Feature",
      "properties": {
        "STATE": "TX",
        "CWA": "SJT",
        "COUNTYNAME": "Mason",
        "FIPS": "48319",
        "TIME_ZONE": "C"
      },
      "geometry": {
        "type": "Polygon",
        "coordinates": [
          [
            [
              -99.48479461699998,
              30.94061279300007
            ],
            [
              -99.09239959699994,
              30.941112518000068
            ],
            [
              -99.09239959699994,
              30.922512054000038
            ],
            [
              -98.96449279799998,
              30.921211243000073
            ],
            [
              -98.96429443399995,
              30.499311447000025
            ],
            [
              -99.00029754599996,
              30.498111725000058
            ],
            [
              -99.48449706999997,
              30.499912262000066
            ],
            [
              -99.48479461699998,
              30.94061279300007
            ]
          ]
        ]
      }
    },
    {
      "type": "Feature",
      "properties": {
        "STATE": "TX",
        "CWA": "SJT",
        "COUNTYNAME": "Menard",
        "FIPS": "48327",
        "TIME_ZONE": "C"
      },
      "geometry": {
        "type": "Polygon",
        "coordinates": [
          [
            [
              -100.11519622799995,
              31.087711334000062
            ],
            [
              -99.60319518999995,
              31.087312698000062
            ],
            [
              -99.60359954799998,
              30.944011688000046
            ],
            [
              -99.60229492199994,
              30.940711975000056
            ],
            [
              -99.48479461699998,
              30.94061279300007
            ],
            [
              -99.48389434799998,
              30.71081161500007
            ],
            [
              -100.11619567899999,
              30.71041297900007
            ],
            [
              -100.11519622799995,
              31.087711334000062
            ]
          ]
        ]
      }
    },
    {
      "type": "Feature",
      "properties": {
        "STATE": "TX",
        "CWA": "SJT",
        "COUNTYNAME": "Nolan",
        "FIPS": "48353",
        "TIME_ZONE": "C"
      },
      "geometry": {
        "type": "Polygon",
        "coordinates": [
          [
            [
              -100.66059875499997,
              32.52531051600005
            ],
            [
              -100.14649963399995,
              32.52281189000007
            ],
            [
              -100.15209960899995,
              32.08361053500005
            ],
            [
              -100.30749511699997,
              32.08131027200005
            ],
            [
              -100.66539764399994,
              32.085411072000056
            ],
            [
              -100.66059875499997,
              32.52531051600005
            ]
          ]
        ]
      }
    },
    {
      "type": "Feature",
      "properties": {
        "STATE": "TX",
        "CWA": "SJT",
        "COUNTYNAME": "Runnels",
        "FIPS": "48399",
        "TIME_ZONE": "C"
      },
      "geometry": {
        "type": "Polygon",
        "coordinates": [
          [
            [
              -99.71409606899994,
              32.081710815000065
            ],
            [
              -99.72189331099997,
              31.576513290000037
            ],
            [
              -100.23459625199996,
              31.58141136200004
            ],
            [
              -100.23609924299996,
              31.72481155400004
            ],
            [
              -100.23459625199996,
              32.082412720000036
            ],
            [
              -100.15209960899995,
              32.08361053500005
            ],
            [
              -99.71409606899994,
              32.081710815000065
            ]
          ]
        ]
      }
    },
    {
      "type": "Feature",
      "properties": {
        "STATE": "TX",
        "CWA": "SJT",
        "COUNTYNAME": "San Saba",
        "FIPS": "48411",
        "TIME_ZONE": "C"
      },
      "geometry": {
        "type": "Polygon",
        "coordinates": [
          [
            [
              -99.01879882799994,
              31.47021102900004
            ],
            [
              -99.00949859599996,
              31.47201156600005
            ],
            [
              -99.00489807099996,
              31.480411530000026
            ],
            [
              -98.99189758299997,
              31.484111786000028
            ],
            [
              -98.98839569099994,
              31.482612610000047
            ],
            [
              -98.98719787599998,
              31.479412079000042
            ],
            [
              -98.99469757099996,
              31.47091293300008
            ],
            [
              -98.994499207,
              31.46631240800008
            ],
            [
              -98.97689819299995,
              31.455812454000068
            ],
            [
              -98.964996338,
              31.452911377000078
            ],
            [
              -98.96379852299998,
              31.447612762000063
            ],
            [
              -98.96689605699999,
              31.443311691000076
            ],
            [
              -98.96640014599996,
              31.435312271000043
            ],
            [
              -98.96299743699996,
              31.435712814000055
            ],
            [
              -98.95489501999998,
              31.445312500000057
            ],
            [
              -98.95349883999995,
              31.448711395000032
            ],
            [
              -98.95569610599995,
              31.451112747000025
            ],
            [
              -98.95489501999998,
              31.452911377000078
            ],
            [
              -98.95019531299994,
              31.456811905000052
            ],
            [
              -98.94199371299999,
              31.45861244200006
            ],
            [
              -98.93560028099995,
              31.45491218600006
            ],
            [
              -98.93349456799996,
              31.438112259000036
            ],
            [
              -98.92839813199998,
              31.43491172800003
            ],
            [
              -98.92350006099997,
              31.433912277000047
            ],
            [
              -98.91819763199999,
              31.435712814000055
            ],
            [
              -98.91239929199998,
              31.434112549000076
            ],
            [
              -98.90379333499999,
              31.436212540000042
            ],
            [
              -98.896995544,
              31.433912277000047
            ],
            [
              -98.89199829099994,
              31.43601226800007
            ],
            [
              -98.88569641099997,
              31.442411423000067
            ],
            [
              -98.873596191,
              31.444412231000058
            ],
            [
              -98.86909484899996,
              31.442512512000064
            ],
            [
              -98.85899352999996,
              31.434511185000076
            ],
            [
              -98.85260009799998,
              31.42041206400006
            ],
            [
              -98.85429382299998,
              31.414012909000064
            ],
            [
              -98.84659576399997,
              31.410612110000045
            ],
            [
              -98.83110046399997,
              31.410112381000033
            ],
            [
              -98.81749725299994,
              31.41671180700007
            ],
            [
              -98.81499481199995,
              31.416212082000072
            ],
            [
              -98.81429290799997,
              31.413711548000038
            ],
            [
              -98.81579589799998,
              31.40621185300006
            ],
            [
              -98.81060028099995,
              31.405012131000035
            ],
            [
              -98.79889678999996,
              31.410312653000062
            ],
            [
              -98.78869628899997,
              31.407712936000053
            ],
            [
              -98.77869415299995,
              31.41341209400008
            ],
            [
              -98.77529907199994,
              31.413112640000065
            ],
            [
              -98.77309417699996,
              31.411012650000032
            ],
            [
              -98.77330017099996,
              31.407411575000026
            ],
            [
              -98.77839660599994,
              31.377311707000047
            ],
            [
              -98.77169799799998,
              31.38051223800005
            ],
            [
              -98.768295288,
              31.37591171300005
            ],
            [
              -98.76299285899995,
              31.375411987000064
            ],
            [
              -98.76039886499996,
              31.377412796000044
            ],
            [
              -98.75229644799998,
              31.38671302800003
            ],
            [
              -98.75579833999996,
              31.39681243900003
            ],
            [
              -98.75489807099996,
              31.40121269200006
            ],
            [
              -98.74229431199996,
              31.405612946000076
            ],
            [
              -98.73999786399997,
              31.40861320500005
            ],
            [
              -98.73679351799996,
              31.418111801000066
            ],
            [
              -98.74259948699995,
              31.427812576000065
            ],
            [
              -98.73929595899995,
              31.42991256700003
            ],
            [
              -98.72749328599997,
              31.42881202700005
            ],
            [
              -98.72489929199998,
              31.427412033000053
            ],
            [
              -98.72439575199996,
              31.422811508000052
            ],
            [
              -98.72589874299996,
              31.415712357000075
            ],
            [
              -98.728500366,
              31.41281318700004
            ],
            [
              -98.72619628899997,
              31.40881156900008
            ],
            [
              -98.71889495799996,
              31.404413223000063
            ],
            [
              -98.70649719199997,
              31.407611847000055
            ],
            [
              -98.69669341999997,
              31.407213211000055
            ],
            [
              -98.69539642299998,
              31.404111862000036
            ],
            [
              -98.69559478799994,
              31.393611908000025
            ],
            [
              -98.69319915799997,
              31.388711929000067
            ],
            [
              -98.70429992699997,
              31.38011169400005
            ],
            [
              -98.70359802199994,
              31.359611511000026
            ],
            [
              -98.70639800999999,
              31.356012340000063
            ],
            [
              -98.710395813,
              31.35651206600005
            ],
            [
              -98.71269988999995,
              31.354412079000042
            ],
            [
              -98.71259307899999,
              31.348213196000074
            ],
            [
              -98.70759582499994,
              31.347211838000078
            ],
            [
              -98.70209503199999,
              31.339012146000073
            ],
            [
              -98.69559478799994,
              31.33981323200004
            ],
            [
              -98.68969726599994,
              31.34411239600007
            ],
            [
              -98.68280029299996,
              31.346212387000037
            ],
            [
              -98.67669677699996,
              31.35181236300008
            ],
            [
              -98.67099761999998,
              31.35401153600003
            ],
            [
              -98.67039489699994,
              31.359912872000052
            ],
            [
              -98.66859435999999,
              31.362312317000033
            ],
            [
              -98.65390014599996,
              31.37001228300005
            ],
            [
              -98.65069580099998,
              31.367311478000033
            ],
            [
              -98.65459442099996,
              31.359413147000055
            ],
            [
              -98.65239715599995,
              31.357212067000034
            ],
            [
              -98.64849853499999,
              31.35951232900004
            ],
            [
              -98.64519500699998,
              31.359413147000055
            ],
            [
              -98.63699340799997,
              31.353012085000046
            ],
            [
              -98.63859558099995,
              31.34701156600005
            ],
            [
              -98.64199829099994,
              31.345811844000025
            ],
            [
              -98.64669799799998,
              31.340112686000055
            ],
            [
              -98.64499664299996,
              31.335712433000026
            ],
            [
              -98.64009857199994,
              31.332612991000076
            ],
            [
              -98.64309692399996,
              31.32731246900005
            ],
            [
              -98.64830017099996,
              31.323812485000076
            ],
            [
              -98.64899444599996,
              31.317012787000067
            ],
            [
              -98.64759826699998,
              31.314811707000047
            ],
            [
              -98.64409637499995,
              31.314212799000074
            ],
            [
              -98.64119720499997,
              31.31581115700004
            ],
            [
              -98.63189697299998,
              31.32571220400007
            ],
            [
              -98.62259674099994,
              31.32551193200004
            ],
            [
              -98.619293213,
              31.32441139200006
            ],
            [
              -98.61839294399994,
              31.32241249100008
            ],
            [
              -98.63079833999996,
              31.315511703000027
            ],
            [
              -98.63119506799995,
              31.310712814000055
            ],
            [
              -98.62399291999998,
              31.309412003000034
            ],
            [
              -98.60679626499996,
              31.31211280800005
            ],
            [
              -98.59829711899994,
              31.317512512000064
            ],
            [
              -98.59299468999995,
              31.32681274400005
            ],
            [
              -98.58779907199994,
              31.32551193200004
            ],
            [
              -98.58639526399998,
              31.32311248800005
            ],
            [
              -98.58689880399999,
              31.319412231000058
            ],
            [
              -98.59369659399994,
              31.312011719000054
            ],
            [
              -98.59639739999994,
              31.30491256700003
            ],
            [
              -98.59819793699995,
              31.288513184000067
            ],
            [
              -98.60139465299994,
              31.285711288000073
            ],
            [
              -98.61190032999997,
              31.28231239300004
            ],
            [
              -98.61479949999995,
              31.282012939000026
            ],
            [
              -98.62220001199995,
              31.285011292000036
            ],
            [
              -98.62749481199995,
              31.279111862000036
            ],
            [
              -98.627799988,
              31.27311134300004
            ],
            [
              -98.62529754599996,
              31.26981163000005
            ],
            [
              -98.60630035399998,
              31.260812759000032
            ],
            [
              -98.59719848599997,
              31.253711700000053
            ],
            [
              -98.59409332299998,
              31.254411697000023
            ],
            [
              -98.594596863,
              31.26171302800003
            ],
            [
              -98.59169769299996,
              31.26651191700006
            ],
            [
              -98.58849334699994,
              31.26761245700004
            ],
            [
              -98.57979583699995,
              31.265411377000078
            ],
            [
              -98.57539367699997,
              31.254812241000025
            ],
            [
              -98.56559753399995,
              31.24261283900006
            ],
            [
              -98.56319427499994,
              31.23601150500008
            ],
            [
              -98.56299591099997,
              31.224712372000056
            ],
            [
              -98.56909942599998,
              31.205211639000026
            ],
            [
              -98.56879424999994,
              31.198411942000064
            ],
            [
              -98.55690002399996,
              31.192111969000052
            ],
            [
              -98.54139709499998,
              31.19391250600006
            ],
            [
              -98.53609466599994,
              31.186811447000025
            ],
            [
              -98.54409789999994,
              31.179512024000076
            ],
            [
              -98.54380035399998,
              31.176012039000057
            ],
            [
              -98.54129791299994,
              31.174411774000077
            ],
            [
              -98.52939605699999,
              31.173011780000024
            ],
            [
              -98.51799774199998,
              31.164611816000047
            ],
            [
              -98.50739288299997,
              31.166912079000042
            ],
            [
              -98.50439453099995,
              31.166212082000072
            ],
            [
              -98.50429534899996,
              31.16251182600007
            ],
            [
              -98.51089477499994,
              31.155412674000047
            ],
            [
              -98.52659607299995,
              31.155712122000068
            ],
            [
              -98.52909851099997,
              31.153011322000054
            ],
            [
              -98.52699279799998,
              31.13981246900005
            ],
            [
              -98.527893066,
              31.137411118000045
            ],
            [
              -98.54769897499995,
              31.12791252100004
            ],
            [
              -98.54829406699997,
              31.124711990000037
            ],
            [
              -98.54639434799998,
              31.121412277000047
            ],
            [
              -98.53849792499994,
              31.114011765000043
            ],
            [
              -98.53119659399994,
              31.102811813000073
            ],
            [
              -98.52929687499994,
              31.09441185000003
            ],
            [
              -98.52649688699995,
              31.090011597000057
            ],
            [
              -98.52409362799995,
              31.088811874000044
            ],
            [
              -98.51779937699996,
              31.09321212800006
            ],
            [
              -98.51219940199996,
              31.105512619000024
            ],
            [
              -98.50489807099996,
              31.109111786000028
            ],
            [
              -98.49869537399996,
              31.118412018000072
            ],
            [
              -98.49339294399994,
              31.11801147500006
            ],
            [
              -98.48699951199995,
              31.11431121800007
            ],
            [
              -98.48189544699994,
              31.118812561000027
            ],
            [
              -98.47969818099995,
              31.118211746000043
            ],
            [
              -98.47359466599994,
              31.109312057000068
            ],
            [
              -98.46869659399994,
              31.106712341000048
            ],
            [
              -98.45809936499995,
              31.111812592000035
            ],
            [
              -98.45549774199998,
              31.108711243000073
            ],
            [
              -98.45999908399995,
              31.102611542000034
            ],
            [
              -98.469993591,
              31.095611572000053
            ],
            [
              -98.469993591,
              31.093011856000032
            ],
            [
              -98.45929717999996,
              31.089412689000028
            ],
            [
              -98.45679473899997,
              31.086711884000067
            ],
            [
              -98.45649719199997,
              31.07901191700006
            ],
            [
              -98.46080017099996,
              31.076513290000037
            ],
            [
              -98.47209930399998,
              31.076313019000054
            ],
            [
              -98.47619628899997,
              31.07051277200003
            ],
            [
              -98.48339843799994,
              31.067111969000052
            ],
            [
              -98.48339843799994,
              31.061212540000042
            ],
            [
              -98.47489929199998,
              31.052812576000065
            ],
            [
              -98.44809722899998,
              31.041612625000027
            ],
            [
              -98.44039916999998,
              31.031112671000074
            ],
            [
              -98.43939971899994,
              31.025812149000046
            ],
            [
              -98.440696716,
              31.022512436000056
            ],
            [
              -98.44559478799994,
              31.018013
            ],
            [
              -98.45809936499995,
              31.01191330000006
            ],
            [
              -98.45879363999995,
              31.00731277500006
            ],
            [
              -98.44729614299996,
              30.99411201500004
            ],
            [
              -98.44199371299999,
              30.98341178900006
            ],
            [
              -98.44319915799997,
              30.97971344000007
            ],
            [
              -98.45249938999996,
              30.96951103200007
            ],
            [
              -98.45279693599997,
              30.964412689000028
            ],
            [
              -98.44709777799994,
              30.951711655000054
            ],
            [
              -98.44519805899995,
              30.95051193200004
            ],
            [
              -98.42609405499996,
              30.948612213000047
            ],
            [
              -98.41679382299998,
              30.945312500000057
            ],
            [
              -98.41469573999996,
              30.94281196600008
            ],
            [
              -98.41499328599997,
              30.93931198100006
            ],
            [
              -98.41849517799994,
              30.92661285400004
            ],
            [
              -98.42209625199996,
              30.924411774000077
            ],
            [
              -98.43739318799999,
              30.92701149000004
            ],
            [
              -98.44099426299994,
              30.92621231100003
            ],
            [
              -98.44589996299999,
              30.92111206100003
            ],
            [
              -98.59079742399996,
              30.92201232900004
            ],
            [
              -98.75029754599996,
              30.92031288100003
            ],
            [
              -99.09239959699994,
              30.922512054000038
            ],
            [
              -99.09049987799995,
              31.46081161500007
            ],
            [
              -99.08829498299997,
              31.46061134300004
            ],
            [
              -99.08599853499999,
              31.45621299700008
            ],
            [
              -99.07189941399997,
              31.467012405000048
            ],
            [
              -99.06459808299996,
              31.46301269500003
            ],
            [
              -99.060699463,
              31.464611053000056
            ],
            [
              -99.06199645999999,
              31.47041130100007
            ],
            [
              -99.06060028099995,
              31.472513199000048
            ],
            [
              -99.05559539799998,
              31.474311829000044
            ],
            [
              -99.05039977999996,
              31.484312057000068
            ],
            [
              -99.041000366,
              31.49061203000008
            ],
            [
              -99.03399658199999,
              31.487411499000075
            ],
            [
              -99.01879882799994,
              31.47021102900004
            ]
          ]
        ]
      }
    },
    {
      "type": "Feature",
      "properties": {
        "STATE": "TX",
        "CWA": "SJT",
        "COUNTYNAME": "Schleicher",
        "FIPS": "48413",
        "TIME_ZONE": "C"
      },
      "geometry": {
        "type": "Polygon",
        "coordinates": [
          [
            [
              -100.68869781499995,
              31.086612701000035
            ],
            [
              -100.11519622799995,
              31.087711334000062
            ],
            [
              -100.11619567899999,
              30.71041297900007
            ],
            [
              -100.96059417699996,
              30.706111908000025
            ],
            [
              -100.96219634999994,
              31.08251190200008
            ],
            [
              -100.68869781499995,
              31.086612701000035
            ]
          ]
        ]
      }
    },
    {
      "type": "Feature",
      "properties": {
        "STATE": "TX",
        "CWA": "SJT",
        "COUNTYNAME": "Shackelford",
        "FIPS": "48417",
        "TIME_ZONE": "C"
      },
      "geometry": {
        "type": "Polygon",
        "coordinates": [
          [
            [
              -99.61219787599998,
              32.95691299400005
            ],
            [
              -99.09619903599997,
              32.956111908000025
            ],
            [
              -99.09599304199998,
              32.94411087000003
            ],
            [
              -99.09679412799994,
              32.51481246900005
            ],
            [
              -99.61199951199995,
              32.514610291000054
            ],
            [
              -99.61219787599998,
              32.95691299400005
            ]
          ]
        ]
      }
    },
    {
      "type": "Feature",
      "properties": {
        "STATE": "TX",
        "CWA": "SJT",
        "COUNTYNAME": "Sterling",
        "FIPS": "48431",
        "TIME_ZONE": "C"
      },
      "geometry": {
        "type": "Polygon",
        "coordinates": [
          [
            [
              -101.26459503199999,
              32.08711242700008
            ],
            [
              -100.82149505599995,
              32.086612701000035
            ],
            [
              -100.82539367699997,
              31.696912766000025
            ],
            [
              -100.86109924299996,
              31.705411911000056
            ],
            [
              -100.86529540999999,
              31.562313080000024
            ],
            [
              -101.26759338399995,
              31.55581283600003
            ],
            [
              -101.26459503199999,
              32.08711242700008
            ]
          ]
        ]
      }
    },
    {
      "type": "Feature",
      "properties": {
        "STATE": "TX",
        "CWA": "SJT",
        "COUNTYNAME": "Sutton",
        "FIPS": "48435",
        "TIME_ZONE": "C"
      },
      "geometry": {
        "type": "Polygon",
        "coordinates": [
          [
            [
              -100.11619567899999,
              30.71041297900007
            ],
            [
              -100.11649322499994,
              30.290311813000073
            ],
            [
              -100.50039672899999,
              30.287912369000026
            ],
            [
              -100.96059417699996,
              30.287812160000044
            ],
            [
              -100.96059417699996,
              30.706111908000025
            ],
            [
              -100.11619567899999,
              30.71041297900007
            ]
          ]
        ]
      }
    },
    {
      "type": "Feature",
      "properties": {
        "STATE": "TX",
        "CWA": "SJT",
        "COUNTYNAME": "Taylor",
        "FIPS": "48441",
        "TIME_ZONE": "C"
      },
      "geometry": {
        "type": "Polygon",
        "coordinates": [
          [
            [
              -100.14649963399995,
              32.52281189000007
            ],
            [
              -99.62999725299994,
              32.52021026600005
            ],
            [
              -99.62889862099996,
              32.51461410500008
            ],
            [
              -99.63139343299997,
              32.08151245100004
            ],
            [
              -100.15209960899995,
              32.08361053500005
            ],
            [
              -100.14649963399995,
              32.52281189000007
            ]
          ]
        ]
      }
    },
    {
      "type": "Feature",
      "properties": {
        "STATE": "TX",
        "CWA": "SJT",
        "COUNTYNAME": "Throckmorton",
        "FIPS": "48447",
        "TIME_ZONE": "C"
      },
      "geometry": {
        "type": "Polygon",
        "coordinates": [
          [
            [
              -99.47239685099998,
              33.398811340000066
            ],
            [
              -98.95389556899994,
              33.397510529000044
            ],
            [
              -98.95069885299995,
              32.957111359000066
            ],
            [
              -99.47129821799996,
              32.957012177000024
            ],
            [
              -99.47239685099998,
              33.398811340000066
            ]
          ]
        ]
      }
    },
    {
      "type": "Feature",
      "properties": {
        "STATE": "TX",
        "CWA": "SJT",
        "COUNTYNAME": "Tom Green",
        "FIPS": "48451",
        "TIME_ZONE": "C"
      },
      "geometry": {
        "type": "Polygon",
        "coordinates": [
          [
            [
              -100.82539367699997,
              31.696912766000025
            ],
            [
              -100.62539672899999,
              31.69391250600006
            ],
            [
              -100.23579406699997,
              31.69301223800005
            ],
            [
              -100.23459625199996,
              31.58141136200004
            ],
            [
              -100.11089324999995,
              31.57971191400003
            ],
            [
              -100.11519622799995,
              31.087711334000062
            ],
            [
              -100.24499511699997,
              31.08871269200006
            ],
            [
              -100.68869781499995,
              31.086612701000035
            ],
            [
              -100.69329833999996,
              31.523912430000053
            ],
            [
              -101.00039672899999,
              31.52771186800004
            ],
            [
              -101.26799774199998,
              31.528312683000024
            ],
            [
              -101.26759338399995,
              31.55581283600003
            ],
            [
              -101.26189422599998,
              31.556512833000056
            ],
            [
              -100.86529540999999,
              31.562313080000024
            ],
            [
              -100.86109924299996,
              31.705411911000056
            ],
            [
              -100.82539367699997,
              31.696912766000025
            ]
          ]
        ]
      }
    },
    {
      "type": "Feature",
      "properties": {
        "STATE": "TX",
        "CWA": "SJT",
        "COUNTYNAME": "Coleman",
        "FIPS": "48083",
        "TIME_ZONE": "C"
      },
      "geometry": {
        "type": "Polygon",
        "coordinates": [
          [
            [
              -99.71409606899994,
              32.081710815000065
            ],
            [
              -99.50589752199994,
              32.07991409300007
            ],
            [
              -99.19589996299999,
              32.07921218900003
            ],
            [
              -99.20359802199994,
              31.74941253700007
            ],
            [
              -99.20329284699994,
              31.466812134000065
            ],
            [
              -99.20939636199995,
              31.465711594000027
            ],
            [
              -99.219596863,
              31.475412369000026
            ],
            [
              -99.23229980499997,
              31.477811813000073
            ],
            [
              -99.23499298099995,
              31.479511261000027
            ],
            [
              -99.23539733899997,
              31.482212067000034
            ],
            [
              -99.23799896199995,
              31.48301315300006
            ],
            [
              -99.24789428699995,
              31.479112625000027
            ],
            [
              -99.252799988,
              31.475212097000053
            ],
            [
              -99.25539398199999,
              31.469312668000043
            ],
            [
              -99.27059936499995,
              31.456712723000066
            ],
            [
              -99.27189636199995,
              31.453012466000075
            ],
            [
              -99.27059936499995,
              31.448711395000032
            ],
            [
              -99.27249908399995,
              31.44641304000004
            ],
            [
              -99.27659606899994,
              31.44561195400007
            ],
            [
              -99.28229522699996,
              31.447111130000053
            ],
            [
              -99.28899383499999,
              31.44351196300005
            ],
            [
              -99.28919982899998,
              31.439413071000047
            ],
            [
              -99.286399841,
              31.43211174000004
            ],
            [
              -99.28809356699998,
              31.429012299000078
            ],
            [
              -99.29149627699996,
              31.42881202700005
            ],
            [
              -99.29879760699998,
              31.432312012000068
            ],
            [
              -99.302192688,
              31.432413101000066
            ],
            [
              -99.30469512899998,
              31.43031120300003
            ],
            [
              -99.30649566699998,
              31.427511215000038
            ],
            [
              -99.30389404299996,
              31.421712875000026
            ],
            [
              -99.31009674099994,
              31.41281127900004
            ],
            [
              -99.31459808299996,
              31.410112381000033
            ],
            [
              -99.31969451899994,
              31.414611816000047
            ],
            [
              -99.33679962199994,
              31.41671180700007
            ],
            [
              -99.34599304199998,
              31.421812057000068
            ],
            [
              -99.34709930399998,
              31.42461204500006
            ],
            [
              -99.34099578899998,
              31.433212280000077
            ],
            [
              -99.34179687499994,
              31.439512253000032
            ],
            [
              -99.34519958499999,
              31.443212509000034
            ],
            [
              -99.35689544699994,
              31.431011200000057
            ],
            [
              -99.36739349399994,
              31.437911987000064
            ],
            [
              -99.37979888899997,
              31.439912796000044
            ],
            [
              -99.38419341999997,
              31.443613052000046
            ],
            [
              -99.38919830299994,
              31.443212509000034
            ],
            [
              -99.402893066,
              31.446512222000024
            ],
            [
              -99.40509796099997,
              31.450012207000043
            ],
            [
              -99.39889526399998,
              31.45711326600008
            ],
            [
              -99.39859771699997,
              31.459611893000044
            ],
            [
              -99.42179870599995,
              31.46321296700006
            ],
            [
              -99.42729949999995,
              31.46541214000007
            ],
            [
              -99.440299988,
              31.47481155400004
            ],
            [
              -99.44419860799997,
              31.47481155400004
            ],
            [
              -99.44960021999998,
              31.46911239600007
            ],
            [
              -99.449897766,
              31.458511353000063
            ],
            [
              -99.44649505599995,
              31.451211929000067
            ],
            [
              -99.44359588599997,
              31.449512482000046
            ],
            [
              -99.43539428699995,
              31.44891166700006
            ],
            [
              -99.43759918199999,
              31.445711136000057
            ],
            [
              -99.45409393299997,
              31.439712524000072
            ],
            [
              -99.46920013399995,
              31.429811478000033
            ],
            [
              -99.46889495799996,
              31.424112320000063
            ],
            [
              -99.47039794899996,
              31.422412872000052
            ],
            [
              -99.47249603299997,
              31.421512604000043
            ],
            [
              -99.47719573999996,
              31.424512863000075
            ],
            [
              -99.48029327399996,
              31.433912277000047
            ],
            [
              -99.49519348099994,
              31.44481277500006
            ],
            [
              -99.50419616699998,
              31.438312531000065
            ],
            [
              -99.50679779099994,
              31.42831230200005
            ],
            [
              -99.50989532499995,
              31.424911499000075
            ],
            [
              -99.512397766,
              31.424713135000047
            ],
            [
              -99.51659393299997,
              31.432611465000036
            ],
            [
              -99.51959991499996,
              31.446512222000024
            ],
            [
              -99.52399444599996,
              31.451511383000025
            ],
            [
              -99.53199768099995,
              31.465911865000066
            ],
            [
              -99.53599548299997,
              31.48281288100003
            ],
            [
              -99.55119323599996,
              31.486011511000072
            ],
            [
              -99.55429840099998,
              31.488212585000042
            ],
            [
              -99.57329559299995,
              31.493612289000055
            ],
            [
              -99.59079742399996,
              31.489011765000043
            ],
            [
              -99.59949493399995,
              31.491111755000077
            ],
            [
              -99.61649322499994,
              31.502311707000047
            ],
            [
              -99.62209320099998,
              31.501012802000048
            ],
            [
              -99.62429809599996,
              31.492813110000043
            ],
            [
              -99.61909484899996,
              31.488512039000057
            ],
            [
              -99.61199951199995,
              31.485712051000064
            ],
            [
              -99.60789489699994,
              31.480012894000026
            ],
            [
              -99.60820007299998,
              31.47681236300008
            ],
            [
              -99.61380004899996,
              31.46891212500003
            ],
            [
              -99.62479400599995,
              31.467512131000035
            ],
            [
              -99.63509368899997,
              31.47481155400004
            ],
            [
              -99.64169311499995,
              31.48631286600005
            ],
            [
              -99.65359497099996,
              31.496912003000034
            ],
            [
              -99.67729949999995,
              31.498111725000058
            ],
            [
              -99.67630004899996,
              31.50341224700003
            ],
            [
              -99.67089843799994,
              31.510412216000077
            ],
            [
              -99.65950012199994,
              31.51671218900003
            ],
            [
              -99.65449523899997,
              31.522212982000042
            ],
            [
              -99.652893066,
              31.52791214000007
            ],
            [
              -99.65399932899999,
              31.531112671000074
            ],
            [
              -99.65839386,
              31.534711838000078
            ],
            [
              -99.69120025599995,
              31.532411575000026
            ],
            [
              -99.69349670399998,
              31.534811020000063
            ],
            [
              -99.69339752199994,
              31.53751182600007
            ],
            [
              -99.67859649699994,
              31.543212891000053
            ],
            [
              -99.67259979199997,
              31.548212051000064
            ],
            [
              -99.67169952399996,
              31.55311203000008
            ],
            [
              -99.67669677699996,
              31.556312561000027
            ],
            [
              -99.685699463,
              31.553512573000035
            ],
            [
              -99.69139862099996,
              31.554512024000076
            ],
            [
              -99.69559478799994,
              31.561613083000054
            ],
            [
              -99.69469451899994,
              31.564712524000072
            ],
            [
              -99.69649505599995,
              31.56871223400003
            ],
            [
              -99.705795288,
              31.576711655000054
            ],
            [
              -99.70999908399995,
              31.576112747000025
            ],
            [
              -99.71229553199998,
              31.56671142600004
            ],
            [
              -99.71089935299995,
              31.562211990000037
            ],
            [
              -99.71249389599996,
              31.560712814000055
            ],
            [
              -99.71609497099996,
              31.56041145300003
            ],
            [
              -99.72209930399998,
              31.562711716000024
            ],
            [
              -99.71409606899994,
              32.081710815000065
            ]
          ]
        ]
      }
    },
    {
      "type": "Feature",
      "properties": {
        "STATE": "TX",
        "CWA": "SJT",
        "COUNTYNAME": "Coke",
        "FIPS": "48081",
        "TIME_ZONE": "C"
      },
      "geometry": {
        "type": "Polygon",
        "coordinates": [
          [
            [
              -100.82149505599995,
              32.086612701000035
            ],
            [
              -100.34289550799997,
              32.08151245100004
            ],
            [
              -100.23459625199996,
              32.082412720000036
            ],
            [
              -100.23579406699997,
              31.69301223800005
            ],
            [
              -100.62539672899999,
              31.69391250600006
            ],
            [
              -100.82539367699997,
              31.696912766000025
            ],
            [
              -100.82149505599995,
              32.086612701000035
            ]
          ]
        ]
      }
    },
    {
      "type": "Feature",
      "properties": {
        "STATE": "TX",
        "CWA": "SJT",
        "COUNTYNAME": "Callahan",
        "FIPS": "48059",
        "TIME_ZONE": "C"
      },
      "geometry": {
        "type": "Polygon",
        "coordinates": [
          [
            [
              -99.11429595899995,
              32.51481246900005
            ],
            [
              -99.11909484899996,
              32.080013275000056
            ],
            [
              -99.50589752199994,
              32.07991409300007
            ],
            [
              -99.63139343299997,
              32.08151245100004
            ],
            [
              -99.62889862099996,
              32.51461410500008
            ],
            [
              -99.11429595899995,
              32.51481246900005
            ]
          ]
        ]
      }
    },
    {
      "type": "Feature",
      "properties": {
        "STATE": "TX",
        "CWA": "SJT",
        "COUNTYNAME": "Brown",
        "FIPS": "48049",
        "TIME_ZONE": "C"
      },
      "geometry": {
        "type": "Polygon",
        "coordinates": [
          [
            [
              -99.19589996299999,
              32.07921218900003
            ],
            [
              -98.92429351799996,
              32.077812195000035
            ],
            [
              -98.66839599599996,
              31.70051193200004
            ],
            [
              -98.75999450699999,
              31.687911987000064
            ],
            [
              -98.77999877899998,
              31.610712051000064
            ],
            [
              -98.94089508099995,
              31.51321220400007
            ],
            [
              -98.97739410399998,
              31.493612289000055
            ],
            [
              -98.99189758299997,
              31.484111786000028
            ],
            [
              -99.00489807099996,
              31.480411530000026
            ],
            [
              -99.00949859599996,
              31.47201156600005
            ],
            [
              -99.01879882799994,
              31.47021102900004
            ],
            [
              -99.03399658199999,
              31.487411499000075
            ],
            [
              -99.041000366,
              31.49061203000008
            ],
            [
              -99.05039977999996,
              31.484312057000068
            ],
            [
              -99.05559539799998,
              31.474311829000044
            ],
            [
              -99.06060028099995,
              31.472513199000048
            ],
            [
              -99.06199645999999,
              31.47041130100007
            ],
            [
              -99.060699463,
              31.464611053000056
            ],
            [
              -99.06459808299996,
              31.46301269500003
            ],
            [
              -99.07189941399997,
              31.467012405000048
            ],
            [
              -99.08599853499999,
              31.45621299700008
            ],
            [
              -99.08829498299997,
              31.46061134300004
            ],
            [
              -99.09049987799995,
              31.46081161500007
            ],
            [
              -99.09579467799995,
              31.45751190200008
            ],
            [
              -99.09679412799994,
              31.455211639000026
            ],
            [
              -99.09529876699997,
              31.449312210000073
            ],
            [
              -99.09999847399996,
              31.449312210000073
            ],
            [
              -99.10609435999999,
              31.454113007000046
            ],
            [
              -99.10869598399995,
              31.456811905000052
            ],
            [
              -99.10769653299997,
              31.462711334000062
            ],
            [
              -99.10910034199998,
              31.465711594000027
            ],
            [
              -99.11589813199998,
              31.468112946000076
            ],
            [
              -99.11940002399996,
              31.467512131000035
            ],
            [
              -99.11879730199996,
              31.461212158000023
            ],
            [
              -99.12489318799999,
              31.45731163000005
            ],
            [
              -99.13599395799997,
              31.465911865000066
            ],
            [
              -99.14259338399995,
              31.467012405000048
            ],
            [
              -99.14729309099994,
              31.465911865000066
            ],
            [
              -99.15939331099997,
              31.468112946000076
            ],
            [
              -99.16929626499996,
              31.46431160000003
            ],
            [
              -99.17619323699995,
              31.457212448000064
            ],
            [
              -99.18309783899997,
              31.454612732000044
            ],
            [
              -99.18849945099998,
              31.470212936000053
            ],
            [
              -99.19479370099998,
              31.47331237800006
            ],
            [
              -99.20329284699994,
              31.466812134000065
            ],
            [
              -99.20359802199994,
              31.74941253700007
            ],
            [
              -99.19589996299999,
              32.07921218900003
            ]
          ]
        ]
      }
    },
    {
      "type": "Feature",
      "properties": {
        "STATE": "TX",
        "CWA": "SJT",
        "COUNTYNAME": "Concho",
        "FIPS": "48095",
        "TIME_ZONE": "C"
      },
      "geometry": {
        "type": "Polygon",
        "coordinates": [
          [
            [
              -100.11089324999995,
              31.57971191400003
            ],
            [
              -99.72429656999998,
              31.576711655000054
            ],
            [
              -99.72189331099997,
              31.576513290000037
            ],
            [
              -99.72209930399998,
              31.562711716000024
            ],
            [
              -99.71609497099996,
              31.56041145300003
            ],
            [
              -99.71089935299995,
              31.562211990000037
            ],
            [
              -99.71229553199998,
              31.56671142600004
            ],
            [
              -99.71159362799995,
              31.57181167600004
            ],
            [
              -99.70999908399995,
              31.576112747000025
            ],
            [
              -99.705795288,
              31.576711655000054
            ],
            [
              -99.69649505599995,
              31.56871223400003
            ],
            [
              -99.69469451899994,
              31.564712524000072
            ],
            [
              -99.69559478799994,
              31.561613083000054
            ],
            [
              -99.69139862099996,
              31.554512024000076
            ],
            [
              -99.685699463,
              31.553512573000035
            ],
            [
              -99.67669677699996,
              31.556312561000027
            ],
            [
              -99.67169952399996,
              31.55311203000008
            ],
            [
              -99.67259979199997,
              31.548212051000064
            ],
            [
              -99.67859649699994,
              31.543212891000053
            ],
            [
              -99.69339752199994,
              31.53751182600007
            ],
            [
              -99.69349670399998,
              31.534811020000063
            ],
            [
              -99.69120025599995,
              31.532411575000026
            ],
            [
              -99.65839386,
              31.534711838000078
            ],
            [
              -99.65399932899999,
              31.531112671000074
            ],
            [
              -99.652893066,
              31.52791214000007
            ],
            [
              -99.65449523899997,
              31.522212982000042
            ],
            [
              -99.65950012199994,
              31.51671218900003
            ],
            [
              -99.67089843799994,
              31.510412216000077
            ],
            [
              -99.67630004899996,
              31.50341224700003
            ],
            [
              -99.67729949999995,
              31.498111725000058
            ],
            [
              -99.65359497099996,
              31.496912003000034
            ],
            [
              -99.64169311499995,
              31.48631286600005
            ],
            [
              -99.63509368899997,
              31.47481155400004
            ],
            [
              -99.62479400599995,
              31.467512131000035
            ],
            [
              -99.61380004899996,
              31.46891212500003
            ],
            [
              -99.60979461699998,
              31.472911835000048
            ],
            [
              -99.60789489699994,
              31.480012894000026
            ],
            [
              -99.61199951199995,
              31.485712051000064
            ],
            [
              -99.61909484899996,
              31.488512039000057
            ],
            [
              -99.62429809599996,
              31.492813110000043
            ],
            [
              -99.62209320099998,
              31.501012802000048
            ],
            [
              -99.61649322499994,
              31.502311707000047
            ],
            [
              -99.61209869399994,
              31.500411987000064
            ],
            [
              -99.60199737499994,
              31.492212296000048
            ],
            [
              -99.60149383499999,
              31.12511253400004
            ],
            [
              -99.60319518999995,
              31.087312698000062
            ],
            [
              -100.11519622799995,
              31.087711334000062
            ],
            [
              -100.11089324999995,
              31.57971191400003
            ]
          ]
        ]
      }
    }
  ],
  "metadata": {
    "schema_version": "0.1.0",
    "wfo": "SJT",
    "layer": "counties",
    "source": "https://www.weather.gov/source/gis/Shapefiles/County/c_16ap26.zip",
    "public_release_status": "public-source-derived"
  }
}