{
  "type": "FeatureCollection",
  "name": "cwa",
  "crs": {
    "type": "name",
    "properties": {
      "name": "urn:ogc:def:crs:OGC:1.3:CRS84"
    }
  },
  "features": [
    {
      "type": "Feature",
      "properties": {
        "WFO": "MPX",
        "CWA": "MPX",
        "STATE": "Minnesota",
        "ST": "MN",
        "CITYSTATE": "Twin Cities/Chanhassen MN"
      },
      "geometry": {
        "type": "Polygon",
        "coordinates": [
          [
            [
              -95.15549468992793,
              46.36971282998314
            ],
            [
              -94.73209381128032,
              46.369010925314
            ],
            [
              -94.73109436141561,
              46.363113403360956
            ],
            [
              -94.72499847420016,
              46.35451126118579
            ],
            [
              -94.71939849924132,
              46.35081100512383
            ],
            [
              -94.71429443384102,
              46.35211181600755
            ],
            [
              -94.69889831470545,
              46.3498115543598
            ],
            [
              -94.67919921926853,
              46.350112915378816
            ],
            [
              -94.67659759480313,
              46.35091400088049
            ],
            [
              -94.67379760687402,
              46.35821151724775
            ],
            [
              -94.67129516593911,
              46.360210418775864
            ],
            [
              -94.66799926755215,
              46.36011123704401
            ],
            [
              -94.66299438478302,
              46.350410460574324
            ],
            [
              -94.65819549622512,
              46.35191345164452
            ],
            [
              -94.64369964612172,
              46.341812134222664
            ],
            [
              -94.63659668009268,
              46.34101104692235
            ],
            [
              -94.621894835778,
              46.32701110817618
            ],
            [
              -94.61799621625232,
              46.327312469195135
            ],
            [
              -94.61419677755919,
              46.324512482165346
            ],
            [
              -94.609199523739,
              46.32841110169102
            ],
            [
              -94.60369873141127,
              46.32981109610523
            ],
            [
              -94.5974960344144,
              46.32651138279414
            ],
            [
              -94.58559417712951,
              46.32441330043355
            ],
            [
              -94.57299804682236,
              46.31591033909092
            ],
            [
              -94.56119537396728,
              46.312412262316116
            ],
            [
              -94.55679321323618,
              46.307411193571795
            ],
            [
              -94.55109405474678,
              46.30751037620297
            ],
            [
              -94.5404968259677,
              46.303512573146804
            ],
            [
              -94.53379821941223,
              46.30311203039594
            ],
            [
              -94.51719665530135,
              46.30881118798601
            ],
            [
              -94.51089477477399,
              46.30901336727311
            ],
            [
              -94.50829315210723,
              46.312213897953086
            ],
            [
              -94.49839782709802,
              46.315013884982875
            ],
            [
              -94.48859405487173,
              46.314113616849966
            ],
            [
              -94.48439788835185,
              46.315612792996035
            ],
            [
              -94.48069763228989,
              46.32121276885425
            ],
            [
              -94.4735946662608,
              46.320613860841036
            ],
            [
              -94.46719360400158,
              46.32281112673218
            ],
            [
              -94.46049499474816,
              46.33091354442456
            ],
            [
              -94.45659637522249,
              46.330612183405606
            ],
            [
              -94.45389556902524,
              46.32811355559619
            ],
            [
              -94.4459991464434,
              46.33161163327031
            ],
            [
              -94.43539428691679,
              46.33051299987511
            ],
            [
              -94.42649841357087,
              46.332313537939456
            ],
            [
              -94.41989898694862,
              46.32721328656396
            ],
            [
              -94.40119934137647,
              46.320812225204065
            ],
            [
              -94.39679717974599,
              46.313510894812
            ],
            [
              -94.38999939055941,
              46.312610625779826
            ],
            [
              -94.38710021999913,
              46.310211182400224
            ],
            [
              -94.39089965779294,
              46.305213927680654
            ],
            [
              -94.38789367655187,
              46.303512573146804
            ],
            [
              -94.38579559329196,
              46.304111481159964
            ],
            [
              -94.38249969490494,
              46.30881118798601
            ],
            [
              -94.38029480006492,
              46.30821227997279
            ],
            [
              -94.37229919395259,
              46.29791259818791
            ],
            [
              -94.36309814556296,
              46.3001136781038
            ],
            [
              -94.3508987430825,
              46.295513153009665
            ],
            [
              -94.34399414141643,
              46.287513732872526
            ],
            [
              -94.35029602104447,
              46.27961349536656
            ],
            [
              -94.34739685138356,
              46.27711105263302
            ],
            [
              -94.34149932943046,
              46.27771377557036
            ],
            [
              -94.33819580119524,
              46.274711609253416
            ],
            [
              -94.33929443459044,
              46.27071380619725
            ],
            [
              -94.3504943854075,
              46.267211913599
            ],
            [
              -94.35469818087631,
              46.26371383682414
            ],
            [
              -94.3547973644068,
              46.25561142003107
            ],
            [
              -94.36349487338964,
              46.25201415972572
            ],
            [
              -94.37269592357796,
              46.242912292168626
            ],
            [
              -94.38829803512618,
              46.23861312899277
            ],
            [
              -94.38949585025324,
              46.232513427752565
            ],
            [
              -94.39449310317411,
              46.22781372092652
            ],
            [
              -94.3956985472501,
              46.21181106572817
            ],
            [
              -94.39419555707929,
              46.20871353080486
            ],
            [
              -94.38859558122107,
              46.20441055270487
            ],
            [
              -94.38549804719707,
              46.19721221896879
            ],
            [
              -94.37529754624472,
              46.19031143222685
            ],
            [
              -94.36629486131875,
              46.178512573396574
            ],
            [
              -94.37179565544511,
              46.17311096190144
            ],
            [
              -94.3710937498766,
              46.16411209100028
            ],
            [
              -94.37429809638002,
              46.15781402629631
            ],
            [
              -94.37220001222073,
              46.157112121627165
            ],
            [
              -94.14550018338673,
              46.15591049157598
            ],
            [
              -93.81039428726649,
              46.157112121627165
            ],
            [
              -93.81089782757266,
              46.243110657430975
            ],
            [
              -93.53409576390834,
              46.24711227361257
            ],
            [
              -93.43049621592758,
              46.246112822848545
            ],
            [
              -93.4295959468954,
              46.18101120030673
            ],
            [
              -93.43179321278649,
              46.15441131632923
            ],
            [
              -93.28569793720999,
              46.15941238417423
            ],
            [
              -93.05410003718691,
              46.15801238976002
            ],
            [
              -93.05509948705168,
              45.9812126155698
            ],
            [
              -93.14319610611534,
              45.98091125455079
            ],
            [
              -93.14199829098828,
              45.73081207331859
            ],
            [
              -92.84939575231209,
              45.729412078904375
            ],
            [
              -92.85109710684594,
              45.72391128477801
            ],
            [
              -92.86309814496337,
              45.72201156588113
            ],
            [
              -92.86849975555924,
              45.71811294635546
            ],
            [
              -92.87149810785138,
              45.69961166424696
            ],
            [
              -92.87039947535544,
              45.69701385470569
            ],
            [
              -92.87569427527058,
              45.6874122617665
            ],
            [
              -92.87899780440512,
              45.66591262826523
            ],
            [
              -92.88259887693658,
              45.65881347716032
            ],
            [
              -92.88679504435578,
              45.64401245111378
            ],
            [
              -92.52909851118733,
              45.642112732216845
            ],
            [
              -92.52829742388695,
              45.7287139891593
            ],
            [
              -92.5256958012202,
              45.7287139891593
            ],
            [
              -92.36599731382495,
              45.726013183861426
            ],
            [
              -92.15439605713232,
              45.72561264021124
            ],
            [
              -92.15489959743843,
              45.6397132870386
            ],
            [
              -91.53260040308612,
              45.63751220802203
            ],
            [
              -90.98249816925505,
              45.63931274428779
            ],
            [
              -90.67879486059428,
              45.637611388854566
            ],
            [
              -90.67879486059428,
              45.377811432052
            ],
            [
              -90.92519378756322,
              45.37941360485405
            ],
            [
              -90.9259948730649,
              45.12231063842529
            ],
            [
              -90.92579650960118,
              45.119613647152164
            ],
            [
              -90.92309570340393,
              45.11881256075111
            ],
            [
              -90.9227981573091,
              45.11651229910336
            ],
            [
              -90.92369842544196,
              45.06141281135223
            ],
            [
              -90.92139434797076,
              44.75921249376165
            ],
            [
              -90.92239379873479,
              44.596412659216924
            ],
            [
              -92.00370025556231,
              44.596412659216924
            ],
            [
              -92.01019287240308,
              44.59251403789261
            ],
            [
              -92.01999664283079,
              44.59141159137192
            ],
            [
              -92.02749633758589,
              44.58741378831576
            ],
            [
              -92.02949523911394,
              44.58551406941882
            ],
            [
              -92.03369903638139,
              44.57311248765126
            ],
            [
              -92.03899383539715,
              44.565010070858136
            ],
            [
              -92.03919982870912,
              44.54581069900462
            ],
            [
              -92.04789733859127,
              44.53041076674356
            ],
            [
              -92.04779815685941,
              44.52701187080123
            ],
            [
              -92.04369354222314,
              44.52051162681016
            ],
            [
              -92.04369354222314,
              44.51331329307408
            ],
            [
              -92.05599975628371,
              44.48851394716098
            ],
            [
              -92.05909729030765,
              44.47931289697266
            ],
            [
              -92.06019592280353,
              44.46471023618852
            ],
            [
              -92.0751953132131,
              44.43691253708397
            ],
            [
              -92.08069610644014,
              44.43141174295761
            ],
            [
              -92.0821990984096,
              44.42471313460351
            ],
            [
              -92.08009338440212,
              44.417510985943295
            ],
            [
              -92.08379363956476,
              44.41141128470309
            ],
            [
              -92.08389282219593,
              44.40791320792823
            ],
            [
              -92.11209869389955,
              44.414310455263376
            ],
            [
              -92.12449645984373,
              44.42201232930563
            ],
            [
              -92.17029571477536,
              44.4286117550285
            ],
            [
              -92.21609497240502,
              44.438812255980906
            ],
            [
              -92.23089599575354,
              44.44451141357092
            ],
            [
              -92.24259948687677,
              44.45451355016024
            ],
            [
              -92.43029785176441,
              44.45491027798698
            ],
            [
              -92.43059539785929,
              44.36841201770051
            ],
            [
              -92.55059814558791,
              44.36831283596865
            ],
            [
              -92.55089569078348,
              44.194511414070575
            ],
            [
              -92.83179473923582,
              44.19681167571832
            ],
            [
              -93.04599762039385,
              44.19651412962344
            ],
            [
              -93.04539489655718,
              43.87031173669732
            ],
            [
              -93.0457992551315,
              43.848411560445186
            ],
            [
              -93.04979705818766,
              43.848011016795056
            ],
            [
              -93.0492935178815,
              43.4997138981779
            ],
            [
              -94.8543930048333,
              43.500610352286
            ],
            [
              -94.8543930048333,
              43.84721374531813
            ],
            [
              -94.85939788940107,
              43.8479118350632
            ],
            [
              -94.8598937989596,
              44.107913971152925
            ],
            [
              -95.10019683781377,
              44.10811233461658
            ],
            [
              -95.101898193247,
              44.19501113855324
            ],
            [
              -95.59349823025906,
              44.19571304322244
            ],
            [
              -95.594596862755,
              44.53631210272141
            ],
            [
              -95.59489440884983,
              44.542213439598584
            ],
            [
              -95.60429382340118,
              44.54251098569347
            ],
            [
              -95.6039962773063,
              44.6299133299363
            ],
            [
              -96.4517974853656,
              44.6310119633315
            ],
            [
              -96.45299529959334,
              45.26891326923203
            ],
            [
              -96.42029571527502,
              45.26761245744899
            ],
            [
              -96.41379547128395,
              45.26161193794064
            ],
            [
              -96.40419769326888,
              45.256713866751625
            ],
            [
              -96.38249969540459,
              45.25851058989184
            ],
            [
              -96.37499999975017,
              45.26071166980779
            ],
            [
              -96.36589813219302,
              45.257312774764785
            ],
            [
              -96.33860015936983,
              45.2561111447136
            ],
            [
              -96.32789611811131,
              45.25111389179273
            ],
            [
              -96.31279754596994,
              45.251010895136744
            ],
            [
              -96.31289673039976,
              45.248210907207636
            ],
            [
              -96.31079864534115,
              45.247612000093795
            ],
            [
              -96.3083953861381,
              45.2475128165633
            ],
            [
              -96.30619812024702,
              45.24971389827783
            ],
            [
              -96.2911987298375,
              45.248912810977515
            ],
            [
              -96.28369903598167,
              45.246112823048406
            ],
            [
              -96.28859710717074,
              45.23921203630647
            ],
            [
              -96.28769683813852,
              45.23731231740959
            ],
            [
              -96.2817001335543,
              45.23541259761333
            ],
            [
              -96.2783966062184,
              45.22801208459009
            ],
            [
              -96.27429962232969,
              45.2233123777641
            ],
            [
              -96.25869750988215,
              45.222911835013235
            ],
            [
              -96.25219726589108,
              45.2191123963201
            ],
            [
              -96.24219512930176,
              45.217910767168235
            ],
            [
              -96.23959350573568,
              45.21951293907091
            ],
            [
              -96.23130035442779,
              45.21821212818725
            ],
            [
              -96.22449493359426,
              45.220314026371284
            ],
            [
              -96.21909332299845,
              45.21931075978381
            ],
            [
              -96.20449829116319,
              45.20561218295592
            ],
            [
              -96.19400024411595,
              45.20261383066378
            ],
            [
              -96.1728973393407,
              45.19311142035582
            ],
            [
              -96.15429687639971,
              45.19221115132365
            ],
            [
              -96.1504974368072,
              45.19071197517758
            ],
            [
              -96.14029693585485,
              45.195610046366596
            ],
            [
              -96.12059784041799,
              45.18731308013457
            ],
            [
              -96.11479950019674,
              45.18721389840272
            ],
            [
              -96.10729980544164,
              45.183910370167496
            ],
            [
              -96.10489654533927,
              45.17771148719544
            ],
            [
              -96.10359954758104,
              45.183311462154336
            ],
            [
              -96.10369873021222,
              45.239810944319686
            ],
            [
              -96.11779785158956,
              45.2401123053387
            ],
            [
              -96.11829376204747,
              45.392513274568046
            ],
            [
              -96.11689758255733,
              45.41201019341577
            ],
            [
              -96.241195679437,
              45.41271209718559
            ],
            [
              -96.24129486116885,
              45.58541107166366
            ],
            [
              -96.25309753402394,
              45.58541107166366
            ],
            [
              -96.25399780305611,
              45.75981140067563
            ],
            [
              -95.75819397057523,
              45.76001357996279
            ],
            [
              -95.75869750998208,
              45.93371200610426
            ],
            [
              -95.76939392139235,
              45.93371200610426
            ],
            [
              -95.76919555702932,
              46.10741043134641
            ],
            [
              -95.14579772928175,
              46.107112885251524
            ],
            [
              -95.14559936491872,
              46.282314300664495
            ],
            [
              -95.15419769306902,
              46.28241348329567
            ],
            [
              -95.15559387255911,
              46.36541366590802
            ],
            [
              -95.15549468992793,
              46.36971282998314
            ]
          ]
        ]
      }
    }
  ],
  "metadata": {
    "schema_version": "0.1.0",
    "wfo": "MPX",
    "layer": "cwa",
    "source": "https://www.weather.gov/source/gis/Shapefiles/WSOM/w_16ap26.zip",
    "public_release_status": "public-source-derived"
  }
}