{
  "type": "FeatureCollection",
  "metadata": {
    "schema_version": "0.2.4",
    "year": 2026,
    "month": 4,
    "wfo": "BTV",
    "start_utc": "2026-04-01T00:00:00Z",
    "end_utc": "2026-05-01T00:00:00Z",
    "generated_utc": "2026-06-09T12:18:10Z",
    "mode": "storm_data_prep",
    "public_release_status": "public-source-derived",
    "time_note": "Storm Data entry times should be reviewed in local Standard Time (ST), not daylight time. Candidate reports include standard_time_display.",
    "tornado_track_policy": "Tornado tracks must come from DAT. NCEI begin/end coordinates are not used as a tornado track substitute.",
    "source": "https://mesonet.agron.iastate.edu/cgi-bin/request/gis/lsr.py?wfo=BTV&sts=2026-04-01T00%3A00%3A00Z&ets=2026-05-01T00%3A00%3A00Z&fmt=csv"
  },
  "features": [
    {
      "type": "Feature",
      "id": "iem-lsr-BTV-1",
      "properties": {
        "report_id": "iem-lsr-BTV-1",
        "report_type": "NON-TSTM WND GST",
        "event_category": "thunderstorm_wind",
        "valid_utc": "202604030934",
        "standard_time_display": "2026-04-03 04:34 EST",
        "wfo": "BTV",
        "county_or_zone": "Grand Isle",
        "city": "1 SE Knight Point State",
        "state": "VT",
        "magnitude": 57.0,
        "magnitude_units": null,
        "source": "Public",
        "event_narrative": null
      },
      "geometry": {
        "type": "Point",
        "coordinates": [
          -73.28,
          44.76
        ]
      }
    },
    {
      "type": "Feature",
      "id": "iem-lsr-BTV-2",
      "properties": {
        "report_id": "iem-lsr-BTV-2",
        "report_type": "NON-TSTM WND DMG",
        "event_category": "thunderstorm_wind",
        "valid_utc": "202604031150",
        "standard_time_display": "2026-04-03 06:50 EST",
        "wfo": "BTV",
        "county_or_zone": "Franklin",
        "city": "1 WNW Saint Albans",
        "state": "VT",
        "magnitude": null,
        "magnitude_units": null,
        "source": "Broadcast Media",
        "event_narrative": "Tree fell on a house on Walnut Street and collapsed the front porch of the house."
      },
      "geometry": {
        "type": "Point",
        "coordinates": [
          -73.1,
          44.81
        ]
      }
    },
    {
      "type": "Feature",
      "id": "iem-lsr-BTV-3",
      "properties": {
        "report_id": "iem-lsr-BTV-3",
        "report_type": "NON-TSTM WND GST",
        "event_category": "thunderstorm_wind",
        "valid_utc": "202604050250",
        "standard_time_display": "2026-04-04 21:50 EST",
        "wfo": "BTV",
        "county_or_zone": "Essex",
        "city": "Whiteface Mountain",
        "state": "NY",
        "magnitude": 67.0,
        "magnitude_units": null,
        "source": "Public",
        "event_narrative": null
      },
      "geometry": {
        "type": "Point",
        "coordinates": [
          -73.9,
          44.37
        ]
      }
    },
    {
      "type": "Feature",
      "id": "iem-lsr-BTV-4",
      "properties": {
        "report_id": "iem-lsr-BTV-4",
        "report_type": "NON-TSTM WND GST",
        "event_category": "thunderstorm_wind",
        "valid_utc": "202604051200",
        "standard_time_display": "2026-04-05 07:00 EST",
        "wfo": "BTV",
        "county_or_zone": "Lamoille",
        "city": "Mount Mansfield",
        "state": "VT",
        "magnitude": 59.0,
        "magnitude_units": null,
        "source": "Public",
        "event_narrative": null
      },
      "geometry": {
        "type": "Point",
        "coordinates": [
          -72.82,
          44.53
        ]
      }
    },
    {
      "type": "Feature",
      "id": "iem-lsr-BTV-5",
      "properties": {
        "report_id": "iem-lsr-BTV-5",
        "report_type": "SNOW",
        "event_category": "winter",
        "valid_utc": "202604071100",
        "standard_time_display": "2026-04-07 06:00 EST",
        "wfo": "BTV",
        "county_or_zone": "St. Lawrence",
        "city": "Hannawa Falls",
        "state": "NY",
        "magnitude": 1.6,
        "magnitude_units": null,
        "source": "Cocorahs",
        "event_narrative": "Cocorahs station NY-SL-6 Hannawa Falls 0.1 SW."
      },
      "geometry": {
        "type": "Point",
        "coordinates": [
          -74.97,
          44.61
        ]
      }
    },
    {
      "type": "Feature",
      "id": "iem-lsr-BTV-6",
      "properties": {
        "report_id": "iem-lsr-BTV-6",
        "report_type": "SNOW",
        "event_category": "winter",
        "valid_utc": "202604071300",
        "standard_time_display": "2026-04-07 08:00 EST",
        "wfo": "BTV",
        "county_or_zone": "Orleans",
        "city": "3 SE South Albany",
        "state": "VT",
        "magnitude": 1.3,
        "magnitude_units": null,
        "source": "Cocorahs",
        "event_narrative": "Cocorahs station VT-OL-36 Glover 5.7 SW."
      },
      "geometry": {
        "type": "Point",
        "coordinates": [
          -72.28,
          44.65
        ]
      }
    },
    {
      "type": "Feature",
      "id": "iem-lsr-BTV-7",
      "properties": {
        "report_id": "iem-lsr-BTV-7",
        "report_type": "SNOW",
        "event_category": "winter",
        "valid_utc": "202604071710",
        "standard_time_display": "2026-04-07 12:10 EST",
        "wfo": "BTV",
        "county_or_zone": "Franklin",
        "city": "1 S Gabriels",
        "state": "NY",
        "magnitude": 1.6,
        "magnitude_units": null,
        "source": "Mesonet",
        "event_narrative": null
      },
      "geometry": {
        "type": "Point",
        "coordinates": [
          -74.18,
          44.42
        ]
      }
    },
    {
      "type": "Feature",
      "id": "iem-lsr-BTV-8",
      "properties": {
        "report_id": "iem-lsr-BTV-8",
        "report_type": "SNOW",
        "event_category": "winter",
        "valid_utc": "202604071710",
        "standard_time_display": "2026-04-07 12:10 EST",
        "wfo": "BTV",
        "county_or_zone": "St. Lawrence",
        "city": "1 SE Potsdam",
        "state": "NY",
        "magnitude": 2.4,
        "magnitude_units": null,
        "source": "Mesonet",
        "event_narrative": null
      },
      "geometry": {
        "type": "Point",
        "coordinates": [
          -74.97,
          44.66
        ]
      }
    },
    {
      "type": "Feature",
      "id": "iem-lsr-BTV-9",
      "properties": {
        "report_id": "iem-lsr-BTV-9",
        "report_type": "SNOW",
        "event_category": "winter",
        "valid_utc": "202604071710",
        "standard_time_display": "2026-04-07 12:10 EST",
        "wfo": "BTV",
        "county_or_zone": "Essex",
        "city": "3 S Lake Placid",
        "state": "NY",
        "magnitude": 2.4,
        "magnitude_units": null,
        "source": "Mesonet",
        "event_narrative": null
      },
      "geometry": {
        "type": "Point",
        "coordinates": [
          -73.98,
          44.24
        ]
      }
    },
    {
      "type": "Feature",
      "id": "iem-lsr-BTV-10",
      "properties": {
        "report_id": "iem-lsr-BTV-10",
        "report_type": "SNOW",
        "event_category": "winter",
        "valid_utc": "202604071710",
        "standard_time_display": "2026-04-07 12:10 EST",
        "wfo": "BTV",
        "county_or_zone": "Essex",
        "city": "3 W Newcomb",
        "state": "NY",
        "magnitude": 2.4,
        "magnitude_units": null,
        "source": "Mesonet",
        "event_narrative": null
      },
      "geometry": {
        "type": "Point",
        "coordinates": [
          -74.22,
          43.97
        ]
      }
    },
    {
      "type": "Feature",
      "id": "iem-lsr-BTV-11",
      "properties": {
        "report_id": "iem-lsr-BTV-11",
        "report_type": "SNOW",
        "event_category": "winter",
        "valid_utc": "202604071710",
        "standard_time_display": "2026-04-07 12:10 EST",
        "wfo": "BTV",
        "county_or_zone": "Essex",
        "city": "4 NNE North Hudson",
        "state": "NY",
        "magnitude": 2.4,
        "magnitude_units": null,
        "source": "Mesonet",
        "event_narrative": null
      },
      "geometry": {
        "type": "Point",
        "coordinates": [
          -73.71,
          44.01
        ]
      }
    },
    {
      "type": "Feature",
      "id": "iem-lsr-BTV-12",
      "properties": {
        "report_id": "iem-lsr-BTV-12",
        "report_type": "SNOW",
        "event_category": "winter",
        "valid_utc": "202604071710",
        "standard_time_display": "2026-04-07 12:10 EST",
        "wfo": "BTV",
        "county_or_zone": "St. Lawrence",
        "city": "1 WSW Edwardsville",
        "state": "NY",
        "magnitude": 2.8,
        "magnitude_units": null,
        "source": "Mesonet",
        "event_narrative": null
      },
      "geometry": {
        "type": "Point",
        "coordinates": [
          -75.62,
          44.51
        ]
      }
    },
    {
      "type": "Feature",
      "id": "iem-lsr-BTV-13",
      "properties": {
        "report_id": "iem-lsr-BTV-13",
        "report_type": "SNOW",
        "event_category": "winter",
        "valid_utc": "202604071715",
        "standard_time_display": "2026-04-07 12:15 EST",
        "wfo": "BTV",
        "county_or_zone": "Franklin",
        "city": "1 E Tupper Lake",
        "state": "NY",
        "magnitude": 2.4,
        "magnitude_units": null,
        "source": "Mesonet",
        "event_narrative": null
      },
      "geometry": {
        "type": "Point",
        "coordinates": [
          -74.44,
          44.22
        ]
      }
    },
    {
      "type": "Feature",
      "id": "iem-lsr-BTV-14",
      "properties": {
        "report_id": "iem-lsr-BTV-14",
        "report_type": "SNOW",
        "event_category": "winter",
        "valid_utc": "202604071715",
        "standard_time_display": "2026-04-07 12:15 EST",
        "wfo": "BTV",
        "county_or_zone": "Essex",
        "city": "2 W Wilmington",
        "state": "NY",
        "magnitude": 3.1,
        "magnitude_units": null,
        "source": "Mesonet",
        "event_narrative": null
      },
      "geometry": {
        "type": "Point",
        "coordinates": [
          -73.86,
          44.39
        ]
      }
    },
    {
      "type": "Feature",
      "id": "iem-lsr-BTV-15",
      "properties": {
        "report_id": "iem-lsr-BTV-15",
        "report_type": "SNOW",
        "event_category": "winter",
        "valid_utc": "202604071720",
        "standard_time_display": "2026-04-07 12:20 EST",
        "wfo": "BTV",
        "county_or_zone": "Franklin",
        "city": "Paul Smiths",
        "state": "NY",
        "magnitude": 3.2,
        "magnitude_units": null,
        "source": "Public",
        "event_narrative": null
      },
      "geometry": {
        "type": "Point",
        "coordinates": [
          -74.25,
          44.44
        ]
      }
    },
    {
      "type": "Feature",
      "id": "iem-lsr-BTV-16",
      "properties": {
        "report_id": "iem-lsr-BTV-16",
        "report_type": "SNOW",
        "event_category": "winter",
        "valid_utc": "202604071745",
        "standard_time_display": "2026-04-07 12:45 EST",
        "wfo": "BTV",
        "county_or_zone": "Chittenden",
        "city": "Burlington",
        "state": "VT",
        "magnitude": 1.5,
        "magnitude_units": null,
        "source": "Public",
        "event_narrative": null
      },
      "geometry": {
        "type": "Point",
        "coordinates": [
          -73.21,
          44.48
        ]
      }
    },
    {
      "type": "Feature",
      "id": "iem-lsr-BTV-17",
      "properties": {
        "report_id": "iem-lsr-BTV-17",
        "report_type": "SNOW",
        "event_category": "winter",
        "valid_utc": "202604071745",
        "standard_time_display": "2026-04-07 12:45 EST",
        "wfo": "BTV",
        "county_or_zone": "Essex",
        "city": "3 NE Keene Valley",
        "state": "NY",
        "magnitude": 2.5,
        "magnitude_units": null,
        "source": "Cocorahs",
        "event_narrative": "Cocorahs station NY-ES-9 Keene Valley 2.5 NE."
      },
      "geometry": {
        "type": "Point",
        "coordinates": [
          -73.75,
          44.22
        ]
      }
    },
    {
      "type": "Feature",
      "id": "iem-lsr-BTV-18",
      "properties": {
        "report_id": "iem-lsr-BTV-18",
        "report_type": "SNOW",
        "event_category": "winter",
        "valid_utc": "202604071750",
        "standard_time_display": "2026-04-07 12:50 EST",
        "wfo": "BTV",
        "county_or_zone": "Chittenden",
        "city": "New North End",
        "state": "VT",
        "magnitude": 1.0,
        "magnitude_units": null,
        "source": "NWS Employee",
        "event_narrative": null
      },
      "geometry": {
        "type": "Point",
        "coordinates": [
          -73.24,
          44.51
        ]
      }
    },
    {
      "type": "Feature",
      "id": "iem-lsr-BTV-19",
      "properties": {
        "report_id": "iem-lsr-BTV-19",
        "report_type": "SNOW",
        "event_category": "winter",
        "valid_utc": "202604071750",
        "standard_time_display": "2026-04-07 12:50 EST",
        "wfo": "BTV",
        "county_or_zone": "St. Lawrence",
        "city": "Edwards",
        "state": "NY",
        "magnitude": 2.0,
        "magnitude_units": null,
        "source": "Mesonet",
        "event_narrative": null
      },
      "geometry": {
        "type": "Point",
        "coordinates": [
          -75.24,
          44.32
        ]
      }
    },
    {
      "type": "Feature",
      "id": "iem-lsr-BTV-20",
      "properties": {
        "report_id": "iem-lsr-BTV-20",
        "report_type": "SNOW",
        "event_category": "winter",
        "valid_utc": "202604071754",
        "standard_time_display": "2026-04-07 12:54 EST",
        "wfo": "BTV",
        "county_or_zone": "Chittenden",
        "city": "1 ENE South Burlington",
        "state": "VT",
        "magnitude": 1.1,
        "magnitude_units": null,
        "source": "Official NWS Obs",
        "event_narrative": null
      },
      "geometry": {
        "type": "Point",
        "coordinates": [
          -73.15,
          44.47
        ]
      }
    },
    {
      "type": "Feature",
      "id": "iem-lsr-BTV-21",
      "properties": {
        "report_id": "iem-lsr-BTV-21",
        "report_type": "SNOW",
        "event_category": "winter",
        "valid_utc": "202604071800",
        "standard_time_display": "2026-04-07 13:00 EST",
        "wfo": "BTV",
        "county_or_zone": "St. Lawrence",
        "city": "Potsdam",
        "state": "NY",
        "magnitude": 2.6,
        "magnitude_units": null,
        "source": "Public",
        "event_narrative": null
      },
      "geometry": {
        "type": "Point",
        "coordinates": [
          -74.98,
          44.67
        ]
      }
    },
    {
      "type": "Feature",
      "id": "iem-lsr-BTV-22",
      "properties": {
        "report_id": "iem-lsr-BTV-22",
        "report_type": "SNOW",
        "event_category": "winter",
        "valid_utc": "202604071815",
        "standard_time_display": "2026-04-07 13:15 EST",
        "wfo": "BTV",
        "county_or_zone": "Rutland",
        "city": "1 N South Wallingford",
        "state": "VT",
        "magnitude": 1.2,
        "magnitude_units": null,
        "source": "Cocorahs",
        "event_narrative": null
      },
      "geometry": {
        "type": "Point",
        "coordinates": [
          -72.99,
          43.43
        ]
      }
    },
    {
      "type": "Feature",
      "id": "iem-lsr-BTV-23",
      "properties": {
        "report_id": "iem-lsr-BTV-23",
        "report_type": "SNOW",
        "event_category": "winter",
        "valid_utc": "202604071830",
        "standard_time_display": "2026-04-07 13:30 EST",
        "wfo": "BTV",
        "county_or_zone": "Essex",
        "city": "Newcomb",
        "state": "NY",
        "magnitude": 3.1,
        "magnitude_units": null,
        "source": "Public",
        "event_narrative": null
      },
      "geometry": {
        "type": "Point",
        "coordinates": [
          -74.16,
          43.97
        ]
      }
    },
    {
      "type": "Feature",
      "id": "iem-lsr-BTV-24",
      "properties": {
        "report_id": "iem-lsr-BTV-24",
        "report_type": "SNOW",
        "event_category": "winter",
        "valid_utc": "202604071845",
        "standard_time_display": "2026-04-07 13:45 EST",
        "wfo": "BTV",
        "county_or_zone": "Chittenden",
        "city": "Saint George",
        "state": "VT",
        "magnitude": 1.0,
        "magnitude_units": null,
        "source": "Public",
        "event_narrative": null
      },
      "geometry": {
        "type": "Point",
        "coordinates": [
          -73.13,
          44.38
        ]
      }
    },
    {
      "type": "Feature",
      "id": "iem-lsr-BTV-25",
      "properties": {
        "report_id": "iem-lsr-BTV-25",
        "report_type": "SNOW",
        "event_category": "winter",
        "valid_utc": "202604071845",
        "standard_time_display": "2026-04-07 13:45 EST",
        "wfo": "BTV",
        "county_or_zone": "Chittenden",
        "city": "1 S Camels Hump State P",
        "state": "VT",
        "magnitude": 3.5,
        "magnitude_units": null,
        "source": "Dept of Highways",
        "event_narrative": "Plow driver provided common object comparison that could be measured to confirm. Elevation at 2240 ft."
      },
      "geometry": {
        "type": "Point",
        "coordinates": [
          -72.93,
          44.21
        ]
      }
    },
    {
      "type": "Feature",
      "id": "iem-lsr-BTV-26",
      "properties": {
        "report_id": "iem-lsr-BTV-26",
        "report_type": "SNOW",
        "event_category": "winter",
        "valid_utc": "202604071900",
        "standard_time_display": "2026-04-07 14:00 EST",
        "wfo": "BTV",
        "county_or_zone": "Franklin",
        "city": "East Enosburg",
        "state": "VT",
        "magnitude": 1.4,
        "magnitude_units": null,
        "source": "Public",
        "event_narrative": null
      },
      "geometry": {
        "type": "Point",
        "coordinates": [
          -72.74,
          44.86
        ]
      }
    },
    {
      "type": "Feature",
      "id": "iem-lsr-BTV-27",
      "properties": {
        "report_id": "iem-lsr-BTV-27",
        "report_type": "SNOW",
        "event_category": "winter",
        "valid_utc": "202604072023",
        "standard_time_display": "2026-04-07 15:23 EST",
        "wfo": "BTV",
        "county_or_zone": "Caledonia",
        "city": "1 W Walden",
        "state": "VT",
        "magnitude": 4.9,
        "magnitude_units": null,
        "source": "Trained Spotter",
        "event_narrative": null
      },
      "geometry": {
        "type": "Point",
        "coordinates": [
          -72.25,
          44.45
        ]
      }
    },
    {
      "type": "Feature",
      "id": "iem-lsr-BTV-28",
      "properties": {
        "report_id": "iem-lsr-BTV-28",
        "report_type": "SNOW",
        "event_category": "winter",
        "valid_utc": "202604072032",
        "standard_time_display": "2026-04-07 15:32 EST",
        "wfo": "BTV",
        "county_or_zone": "Essex",
        "city": "Wilmington",
        "state": "NY",
        "magnitude": 1.9,
        "magnitude_units": null,
        "source": "Public",
        "event_narrative": null
      },
      "geometry": {
        "type": "Point",
        "coordinates": [
          -73.82,
          44.39
        ]
      }
    },
    {
      "type": "Feature",
      "id": "iem-lsr-BTV-29",
      "properties": {
        "report_id": "iem-lsr-BTV-29",
        "report_type": "SNOW",
        "event_category": "winter",
        "valid_utc": "202604072046",
        "standard_time_display": "2026-04-07 15:46 EST",
        "wfo": "BTV",
        "county_or_zone": "Franklin",
        "city": "2 E Fairfax",
        "state": "VT",
        "magnitude": 2.0,
        "magnitude_units": null,
        "source": "Public",
        "event_narrative": null
      },
      "geometry": {
        "type": "Point",
        "coordinates": [
          -72.97,
          44.66
        ]
      }
    },
    {
      "type": "Feature",
      "id": "iem-lsr-BTV-30",
      "properties": {
        "report_id": "iem-lsr-BTV-30",
        "report_type": "SNOW",
        "event_category": "winter",
        "valid_utc": "202604072046",
        "standard_time_display": "2026-04-07 15:46 EST",
        "wfo": "BTV",
        "county_or_zone": "Franklin",
        "city": "Paul Smiths",
        "state": "NY",
        "magnitude": 3.7,
        "magnitude_units": null,
        "source": "Public",
        "event_narrative": null
      },
      "geometry": {
        "type": "Point",
        "coordinates": [
          -74.25,
          44.44
        ]
      }
    },
    {
      "type": "Feature",
      "id": "iem-lsr-BTV-31",
      "properties": {
        "report_id": "iem-lsr-BTV-31",
        "report_type": "SNOW",
        "event_category": "winter",
        "valid_utc": "202604072056",
        "standard_time_display": "2026-04-07 15:56 EST",
        "wfo": "BTV",
        "county_or_zone": "Clinton",
        "city": "Plattsburgh",
        "state": "NY",
        "magnitude": 1.0,
        "magnitude_units": null,
        "source": "Public",
        "event_narrative": null
      },
      "geometry": {
        "type": "Point",
        "coordinates": [
          -73.46,
          44.7
        ]
      }
    },
    {
      "type": "Feature",
      "id": "iem-lsr-BTV-32",
      "properties": {
        "report_id": "iem-lsr-BTV-32",
        "report_type": "SNOW",
        "event_category": "winter",
        "valid_utc": "202604072110",
        "standard_time_display": "2026-04-07 16:10 EST",
        "wfo": "BTV",
        "county_or_zone": "Chittenden",
        "city": "2 W Milton",
        "state": "VT",
        "magnitude": 1.8,
        "magnitude_units": null,
        "source": "NWS Employee",
        "event_narrative": null
      },
      "geometry": {
        "type": "Point",
        "coordinates": [
          -73.15,
          44.62
        ]
      }
    },
    {
      "type": "Feature",
      "id": "iem-lsr-BTV-33",
      "properties": {
        "report_id": "iem-lsr-BTV-33",
        "report_type": "SNOW",
        "event_category": "winter",
        "valid_utc": "202604072153",
        "standard_time_display": "2026-04-07 16:53 EST",
        "wfo": "BTV",
        "county_or_zone": "Franklin",
        "city": "1 ESE Saint Albans",
        "state": "VT",
        "magnitude": 1.4,
        "magnitude_units": null,
        "source": "Broadcast Media",
        "event_narrative": null
      },
      "geometry": {
        "type": "Point",
        "coordinates": [
          -73.06,
          44.8
        ]
      }
    },
    {
      "type": "Feature",
      "id": "iem-lsr-BTV-34",
      "properties": {
        "report_id": "iem-lsr-BTV-34",
        "report_type": "SNOW",
        "event_category": "winter",
        "valid_utc": "202604072200",
        "standard_time_display": "2026-04-07 17:00 EST",
        "wfo": "BTV",
        "county_or_zone": "Caledonia",
        "city": "West Burke",
        "state": "VT",
        "magnitude": 2.0,
        "magnitude_units": null,
        "source": "Public",
        "event_narrative": null
      },
      "geometry": {
        "type": "Point",
        "coordinates": [
          -71.98,
          44.64
        ]
      }
    },
    {
      "type": "Feature",
      "id": "iem-lsr-BTV-35",
      "properties": {
        "report_id": "iem-lsr-BTV-35",
        "report_type": "SNOW",
        "event_category": "winter",
        "valid_utc": "202604072211",
        "standard_time_display": "2026-04-07 17:11 EST",
        "wfo": "BTV",
        "county_or_zone": "Washington",
        "city": "3 SSW Woodbury",
        "state": "VT",
        "magnitude": 3.0,
        "magnitude_units": null,
        "source": "Trained Spotter",
        "event_narrative": null
      },
      "geometry": {
        "type": "Point",
        "coordinates": [
          -72.43,
          44.4
        ]
      }
    },
    {
      "type": "Feature",
      "id": "iem-lsr-BTV-36",
      "properties": {
        "report_id": "iem-lsr-BTV-36",
        "report_type": "SNOW",
        "event_category": "winter",
        "valid_utc": "202604072308",
        "standard_time_display": "2026-04-07 18:08 EST",
        "wfo": "BTV",
        "county_or_zone": "Essex",
        "city": "1 NW Maidstone State Pa",
        "state": "VT",
        "magnitude": 3.5,
        "magnitude_units": null,
        "source": "Public",
        "event_narrative": "0.21 inches of liquid."
      },
      "geometry": {
        "type": "Point",
        "coordinates": [
          -71.65,
          44.66
        ]
      }
    },
    {
      "type": "Feature",
      "id": "iem-lsr-BTV-37",
      "properties": {
        "report_id": "iem-lsr-BTV-37",
        "report_type": "SNOW",
        "event_category": "winter",
        "valid_utc": "202604072308",
        "standard_time_display": "2026-04-07 18:08 EST",
        "wfo": "BTV",
        "county_or_zone": "Orleans",
        "city": "3 ESE East Craftsbury",
        "state": "VT",
        "magnitude": 6.4,
        "magnitude_units": null,
        "source": "Cocorahs",
        "event_narrative": null
      },
      "geometry": {
        "type": "Point",
        "coordinates": [
          -72.28,
          44.63
        ]
      }
    },
    {
      "type": "Feature",
      "id": "iem-lsr-BTV-38",
      "properties": {
        "report_id": "iem-lsr-BTV-38",
        "report_type": "SNOW",
        "event_category": "winter",
        "valid_utc": "202604072310",
        "standard_time_display": "2026-04-07 18:10 EST",
        "wfo": "BTV",
        "county_or_zone": "Franklin",
        "city": "Fletcher",
        "state": "VT",
        "magnitude": 4.0,
        "magnitude_units": null,
        "source": "Public",
        "event_narrative": null
      },
      "geometry": {
        "type": "Point",
        "coordinates": [
          -72.91,
          44.68
        ]
      }
    },
    {
      "type": "Feature",
      "id": "iem-lsr-BTV-39",
      "properties": {
        "report_id": "iem-lsr-BTV-39",
        "report_type": "SNOW",
        "event_category": "winter",
        "valid_utc": "202604080157",
        "standard_time_display": "2026-04-07 20:57 EST",
        "wfo": "BTV",
        "county_or_zone": "Orleans",
        "city": "3 ESE East Craftsbury",
        "state": "VT",
        "magnitude": 6.7,
        "magnitude_units": null,
        "source": "Cocorahs",
        "event_narrative": null
      },
      "geometry": {
        "type": "Point",
        "coordinates": [
          -72.28,
          44.63
        ]
      }
    },
    {
      "type": "Feature",
      "id": "iem-lsr-BTV-40",
      "properties": {
        "report_id": "iem-lsr-BTV-40",
        "report_type": "TSTM WND DMG",
        "event_category": "thunderstorm_wind",
        "valid_utc": "202604162234",
        "standard_time_display": "2026-04-16 17:34 EST",
        "wfo": "BTV",
        "county_or_zone": "St. Lawrence",
        "city": "Cranberry Lake",
        "state": "NY",
        "magnitude": null,
        "magnitude_units": null,
        "source": "Law Enforcement",
        "event_narrative": "Trees down along Mill Road near Silver Lake."
      },
      "geometry": {
        "type": "Point",
        "coordinates": [
          -74.83,
          44.23
        ]
      }
    },
    {
      "type": "Feature",
      "id": "iem-lsr-BTV-41",
      "properties": {
        "report_id": "iem-lsr-BTV-41",
        "report_type": "TSTM WND DMG",
        "event_category": "thunderstorm_wind",
        "valid_utc": "202604170110",
        "standard_time_display": "2026-04-16 20:10 EST",
        "wfo": "BTV",
        "county_or_zone": "Orange",
        "city": "1 N Ainsworth State Par",
        "state": "VT",
        "magnitude": null,
        "magnitude_units": null,
        "source": "Public",
        "event_narrative": "Delayed report. NWS Storm Survey documented extensive tree damage associated with a microburst. Estimated wind speeds based on damage range between 70 and 80 mph."
      },
      "geometry": {
        "type": "Point",
        "coordinates": [
          -72.56,
          44.09
        ]
      }
    },
    {
      "type": "Feature",
      "id": "iem-lsr-BTV-42",
      "properties": {
        "report_id": "iem-lsr-BTV-42",
        "report_type": "TORNADO",
        "event_category": "tornado",
        "valid_utc": "202604170115",
        "standard_time_display": "2026-04-16 20:15 EST",
        "wfo": "BTV",
        "county_or_zone": "Orange",
        "city": "2 SSE Williamstown",
        "state": "VT",
        "magnitude": null,
        "magnitude_units": null,
        "source": "NWS Storm Survey",
        "event_narrative": "An NWS Storm Survey found EF1 tornado damage 2 SSE of the town of Williamstown. Maximum winds 90 MPH. A roof of a small farm building and a house were damaged with several sheared tree tops."
      },
      "geometry": {
        "type": "Point",
        "coordinates": [
          -72.52,
          44.09
        ]
      }
    },
    {
      "type": "Feature",
      "id": "iem-lsr-BTV-43",
      "properties": {
        "report_id": "iem-lsr-BTV-43",
        "report_type": "HAIL",
        "event_category": "hail",
        "valid_utc": "202604170119",
        "standard_time_display": "2026-04-16 20:19 EST",
        "wfo": "BTV",
        "county_or_zone": "Orange",
        "city": "3 SSE Williamstown",
        "state": "VT",
        "magnitude": 1.75,
        "magnitude_units": null,
        "source": "Public",
        "event_narrative": "Delayed report."
      },
      "geometry": {
        "type": "Point",
        "coordinates": [
          -72.51,
          44.09
        ]
      }
    },
    {
      "type": "Feature",
      "id": "iem-lsr-BTV-44",
      "properties": {
        "report_id": "iem-lsr-BTV-44",
        "report_type": "HAIL",
        "event_category": "hail",
        "valid_utc": "202604170130",
        "standard_time_display": "2026-04-16 20:30 EST",
        "wfo": "BTV",
        "county_or_zone": "Orange",
        "city": "2 NE East Orange",
        "state": "VT",
        "magnitude": 1.0,
        "magnitude_units": null,
        "source": "CO-OP Observer",
        "event_narrative": null
      },
      "geometry": {
        "type": "Point",
        "coordinates": [
          -72.31,
          44.12
        ]
      }
    },
    {
      "type": "Feature",
      "id": "iem-lsr-BTV-45",
      "properties": {
        "report_id": "iem-lsr-BTV-45",
        "report_type": "TSTM WND DMG",
        "event_category": "thunderstorm_wind",
        "valid_utc": "202604170135",
        "standard_time_display": "2026-04-16 20:35 EST",
        "wfo": "BTV",
        "county_or_zone": "Washington",
        "city": "Barre",
        "state": "VT",
        "magnitude": null,
        "magnitude_units": null,
        "source": "Public",
        "event_narrative": "Power pole down on Fairview St."
      },
      "geometry": {
        "type": "Point",
        "coordinates": [
          -72.5,
          44.19
        ]
      }
    },
    {
      "type": "Feature",
      "id": "iem-lsr-BTV-46",
      "properties": {
        "report_id": "iem-lsr-BTV-46",
        "report_type": "TSTM WND DMG",
        "event_category": "thunderstorm_wind",
        "valid_utc": "202604170140",
        "standard_time_display": "2026-04-16 20:40 EST",
        "wfo": "BTV",
        "county_or_zone": "Orange",
        "city": "3 ENE Ainsworth State P",
        "state": "VT",
        "magnitude": null,
        "magnitude_units": null,
        "source": "Public",
        "event_narrative": "Corrects previous tstm wnd dmg report time from 3 ENE Ainsworth State Park. Tree down on power lines near intersection of Chelsea Rd and Baptist St."
      },
      "geometry": {
        "type": "Point",
        "coordinates": [
          -72.51,
          44.09
        ]
      }
    },
    {
      "type": "Feature",
      "id": "iem-lsr-BTV-47",
      "properties": {
        "report_id": "iem-lsr-BTV-47",
        "report_type": "TSTM WND DMG",
        "event_category": "thunderstorm_wind",
        "valid_utc": "202604170253",
        "standard_time_display": "2026-04-16 21:53 EST",
        "wfo": "BTV",
        "county_or_zone": "Orange",
        "city": "3 ENE Ainsworth State P",
        "state": "VT",
        "magnitude": null,
        "magnitude_units": null,
        "source": "Public",
        "event_narrative": "Tree down on power lines near intersection of Chelsea Rd and Baptist St."
      },
      "geometry": {
        "type": "Point",
        "coordinates": [
          -72.51,
          44.09
        ]
      }
    },
    {
      "type": "Feature",
      "id": "iem-lsr-BTV-48",
      "properties": {
        "report_id": "iem-lsr-BTV-48",
        "report_type": "RAIN",
        "event_category": "other",
        "valid_utc": "202604171000",
        "standard_time_display": "2026-04-17 05:00 EST",
        "wfo": "BTV",
        "county_or_zone": "Caledonia",
        "city": "1 NE West Burke",
        "state": "VT",
        "magnitude": 1.52,
        "magnitude_units": null,
        "source": "Public",
        "event_narrative": null
      },
      "geometry": {
        "type": "Point",
        "coordinates": [
          -71.97,
          44.65
        ]
      }
    },
    {
      "type": "Feature",
      "id": "iem-lsr-BTV-49",
      "properties": {
        "report_id": "iem-lsr-BTV-49",
        "report_type": "RAIN",
        "event_category": "other",
        "valid_utc": "202604171034",
        "standard_time_display": "2026-04-17 05:34 EST",
        "wfo": "BTV",
        "county_or_zone": "Caledonia",
        "city": "1 N Burke Hollow",
        "state": "VT",
        "magnitude": 1.03,
        "magnitude_units": null,
        "source": "Public",
        "event_narrative": null
      },
      "geometry": {
        "type": "Point",
        "coordinates": [
          -71.95,
          44.63
        ]
      }
    },
    {
      "type": "Feature",
      "id": "iem-lsr-BTV-50",
      "properties": {
        "report_id": "iem-lsr-BTV-50",
        "report_type": "RAIN",
        "event_category": "other",
        "valid_utc": "202604171040",
        "standard_time_display": "2026-04-17 05:40 EST",
        "wfo": "BTV",
        "county_or_zone": "Addison",
        "city": "1 W Jerusalem",
        "state": "VT",
        "magnitude": 1.78,
        "magnitude_units": null,
        "source": "Public",
        "event_narrative": null
      },
      "geometry": {
        "type": "Point",
        "coordinates": [
          -72.99,
          44.17
        ]
      }
    },
    {
      "type": "Feature",
      "id": "iem-lsr-BTV-51",
      "properties": {
        "report_id": "iem-lsr-BTV-51",
        "report_type": "RAIN",
        "event_category": "other",
        "valid_utc": "202604171041",
        "standard_time_display": "2026-04-17 05:41 EST",
        "wfo": "BTV",
        "county_or_zone": "Addison",
        "city": "1 E South Lincoln",
        "state": "VT",
        "magnitude": 2.09,
        "magnitude_units": null,
        "source": "Public",
        "event_narrative": null
      },
      "geometry": {
        "type": "Point",
        "coordinates": [
          -72.96,
          44.07
        ]
      }
    },
    {
      "type": "Feature",
      "id": "iem-lsr-BTV-52",
      "properties": {
        "report_id": "iem-lsr-BTV-52",
        "report_type": "RAIN",
        "event_category": "other",
        "valid_utc": "202604171235",
        "standard_time_display": "2026-04-17 07:35 EST",
        "wfo": "BTV",
        "county_or_zone": "Caledonia",
        "city": "4 W Newark",
        "state": "VT",
        "magnitude": 1.22,
        "magnitude_units": null,
        "source": "Public",
        "event_narrative": null
      },
      "geometry": {
        "type": "Point",
        "coordinates": [
          -72.03,
          44.69
        ]
      }
    },
    {
      "type": "Feature",
      "id": "iem-lsr-BTV-53",
      "properties": {
        "report_id": "iem-lsr-BTV-53",
        "report_type": "RAIN",
        "event_category": "other",
        "valid_utc": "202604171241",
        "standard_time_display": "2026-04-17 07:41 EST",
        "wfo": "BTV",
        "county_or_zone": "Washington",
        "city": "3 NW Warren",
        "state": "VT",
        "magnitude": 1.83,
        "magnitude_units": null,
        "source": "Public",
        "event_narrative": null
      },
      "geometry": {
        "type": "Point",
        "coordinates": [
          -72.9,
          44.15
        ]
      }
    },
    {
      "type": "Feature",
      "id": "iem-lsr-BTV-54",
      "properties": {
        "report_id": "iem-lsr-BTV-54",
        "report_type": "RAIN",
        "event_category": "other",
        "valid_utc": "202604171246",
        "standard_time_display": "2026-04-17 07:46 EST",
        "wfo": "BTV",
        "county_or_zone": "Orange",
        "city": "5 E Orange",
        "state": "VT",
        "magnitude": 1.62,
        "magnitude_units": null,
        "source": "Public",
        "event_narrative": null
      },
      "geometry": {
        "type": "Point",
        "coordinates": [
          -72.31,
          44.16
        ]
      }
    },
    {
      "type": "Feature",
      "id": "iem-lsr-BTV-55",
      "properties": {
        "report_id": "iem-lsr-BTV-55",
        "report_type": "RAIN",
        "event_category": "other",
        "valid_utc": "202604171247",
        "standard_time_display": "2026-04-17 07:47 EST",
        "wfo": "BTV",
        "county_or_zone": "Orange",
        "city": "2 NNE Orange",
        "state": "VT",
        "magnitude": 1.5,
        "magnitude_units": null,
        "source": "Public",
        "event_narrative": null
      },
      "geometry": {
        "type": "Point",
        "coordinates": [
          -72.39,
          44.17
        ]
      }
    },
    {
      "type": "Feature",
      "id": "iem-lsr-BTV-56",
      "properties": {
        "report_id": "iem-lsr-BTV-56",
        "report_type": "RAIN",
        "event_category": "other",
        "valid_utc": "202604171251",
        "standard_time_display": "2026-04-17 07:51 EST",
        "wfo": "BTV",
        "county_or_zone": "Orange",
        "city": "Fairlee",
        "state": "VT",
        "magnitude": 0.55,
        "magnitude_units": null,
        "source": "Public",
        "event_narrative": null
      },
      "geometry": {
        "type": "Point",
        "coordinates": [
          -72.15,
          43.91
        ]
      }
    },
    {
      "type": "Feature",
      "id": "iem-lsr-BTV-57",
      "properties": {
        "report_id": "iem-lsr-BTV-57",
        "report_type": "RAIN",
        "event_category": "other",
        "valid_utc": "202604171252",
        "standard_time_display": "2026-04-17 07:52 EST",
        "wfo": "BTV",
        "county_or_zone": "Addison",
        "city": "2 W Jerusalem",
        "state": "VT",
        "magnitude": 1.77,
        "magnitude_units": null,
        "source": "Public",
        "event_narrative": null
      },
      "geometry": {
        "type": "Point",
        "coordinates": [
          -73.02,
          44.17
        ]
      }
    },
    {
      "type": "Feature",
      "id": "iem-lsr-BTV-58",
      "properties": {
        "report_id": "iem-lsr-BTV-58",
        "report_type": "RAIN",
        "event_category": "other",
        "valid_utc": "202604171255",
        "standard_time_display": "2026-04-17 07:55 EST",
        "wfo": "BTV",
        "county_or_zone": "Essex",
        "city": "1 NNW Maidstone State P",
        "state": "VT",
        "magnitude": 1.24,
        "magnitude_units": null,
        "source": "Public",
        "event_narrative": null
      },
      "geometry": {
        "type": "Point",
        "coordinates": [
          -71.64,
          44.66
        ]
      }
    },
    {
      "type": "Feature",
      "id": "iem-lsr-BTV-59",
      "properties": {
        "report_id": "iem-lsr-BTV-59",
        "report_type": "RAIN",
        "event_category": "other",
        "valid_utc": "202604171256",
        "standard_time_display": "2026-04-17 07:56 EST",
        "wfo": "BTV",
        "county_or_zone": "Essex",
        "city": "1 S East Haven",
        "state": "VT",
        "magnitude": 1.17,
        "magnitude_units": null,
        "source": "Public",
        "event_narrative": null
      },
      "geometry": {
        "type": "Point",
        "coordinates": [
          -71.89,
          44.65
        ]
      }
    },
    {
      "type": "Feature",
      "id": "iem-lsr-BTV-60",
      "properties": {
        "report_id": "iem-lsr-BTV-60",
        "report_type": "RAIN",
        "event_category": "other",
        "valid_utc": "202604171302",
        "standard_time_display": "2026-04-17 08:02 EST",
        "wfo": "BTV",
        "county_or_zone": "Washington",
        "city": "3 SSW Roxbury",
        "state": "VT",
        "magnitude": 1.54,
        "magnitude_units": null,
        "source": "Public",
        "event_narrative": null
      },
      "geometry": {
        "type": "Point",
        "coordinates": [
          -72.76,
          44.06
        ]
      }
    },
    {
      "type": "Feature",
      "id": "iem-lsr-BTV-61",
      "properties": {
        "report_id": "iem-lsr-BTV-61",
        "report_type": "RAIN",
        "event_category": "other",
        "valid_utc": "202604171308",
        "standard_time_display": "2026-04-17 08:08 EST",
        "wfo": "BTV",
        "county_or_zone": "Essex",
        "city": "2 NNW Keene",
        "state": "NY",
        "magnitude": 1.3,
        "magnitude_units": null,
        "source": "Public",
        "event_narrative": null
      },
      "geometry": {
        "type": "Point",
        "coordinates": [
          -73.81,
          44.28
        ]
      }
    },
    {
      "type": "Feature",
      "id": "iem-lsr-BTV-62",
      "properties": {
        "report_id": "iem-lsr-BTV-62",
        "report_type": "RAIN",
        "event_category": "other",
        "valid_utc": "202604171317",
        "standard_time_display": "2026-04-17 08:17 EST",
        "wfo": "BTV",
        "county_or_zone": "Orange",
        "city": "4 E Topsham",
        "state": "VT",
        "magnitude": 1.05,
        "magnitude_units": null,
        "source": "Public",
        "event_narrative": null
      },
      "geometry": {
        "type": "Point",
        "coordinates": [
          -72.14,
          44.1
        ]
      }
    },
    {
      "type": "Feature",
      "id": "iem-lsr-BTV-63",
      "properties": {
        "report_id": "iem-lsr-BTV-63",
        "report_type": "RAIN",
        "event_category": "other",
        "valid_utc": "202604171319",
        "standard_time_display": "2026-04-17 08:19 EST",
        "wfo": "BTV",
        "county_or_zone": "Caledonia",
        "city": "3 S Stannard",
        "state": "VT",
        "magnitude": 1.4,
        "magnitude_units": null,
        "source": "Public",
        "event_narrative": null
      },
      "geometry": {
        "type": "Point",
        "coordinates": [
          -72.22,
          44.5
        ]
      }
    },
    {
      "type": "Feature",
      "id": "iem-lsr-BTV-64",
      "properties": {
        "report_id": "iem-lsr-BTV-64",
        "report_type": "RAIN",
        "event_category": "other",
        "valid_utc": "202604171325",
        "standard_time_display": "2026-04-17 08:25 EST",
        "wfo": "BTV",
        "county_or_zone": "Washington",
        "city": "3 SSE Warren",
        "state": "VT",
        "magnitude": 2.1,
        "magnitude_units": null,
        "source": "Public",
        "event_narrative": null
      },
      "geometry": {
        "type": "Point",
        "coordinates": [
          -72.82,
          44.07
        ]
      }
    },
    {
      "type": "Feature",
      "id": "iem-lsr-BTV-65",
      "properties": {
        "report_id": "iem-lsr-BTV-65",
        "report_type": "RAIN",
        "event_category": "other",
        "valid_utc": "202604171331",
        "standard_time_display": "2026-04-17 08:31 EST",
        "wfo": "BTV",
        "county_or_zone": "Addison",
        "city": "3 SW Starksboro",
        "state": "VT",
        "magnitude": 1.65,
        "magnitude_units": null,
        "source": "Public",
        "event_narrative": null
      },
      "geometry": {
        "type": "Point",
        "coordinates": [
          -73.1,
          44.19
        ]
      }
    },
    {
      "type": "Feature",
      "id": "iem-lsr-BTV-66",
      "properties": {
        "report_id": "iem-lsr-BTV-66",
        "report_type": "RAIN",
        "event_category": "other",
        "valid_utc": "202604171349",
        "standard_time_display": "2026-04-17 08:49 EST",
        "wfo": "BTV",
        "county_or_zone": "Caledonia",
        "city": "3 ESE East Burke",
        "state": "VT",
        "magnitude": 1.33,
        "magnitude_units": null,
        "source": "Public",
        "event_narrative": null
      },
      "geometry": {
        "type": "Point",
        "coordinates": [
          -71.89,
          44.57
        ]
      }
    },
    {
      "type": "Feature",
      "id": "iem-lsr-BTV-67",
      "properties": {
        "report_id": "iem-lsr-BTV-67",
        "report_type": "RAIN",
        "event_category": "other",
        "valid_utc": "202604171354",
        "standard_time_display": "2026-04-17 08:54 EST",
        "wfo": "BTV",
        "county_or_zone": "Washington",
        "city": "1 WNW Fayston",
        "state": "VT",
        "magnitude": 1.35,
        "magnitude_units": null,
        "source": "Public",
        "event_narrative": null
      },
      "geometry": {
        "type": "Point",
        "coordinates": [
          -72.88,
          44.21
        ]
      }
    },
    {
      "type": "Feature",
      "id": "iem-lsr-BTV-68",
      "properties": {
        "report_id": "iem-lsr-BTV-68",
        "report_type": "RAIN",
        "event_category": "other",
        "valid_utc": "202604171355",
        "standard_time_display": "2026-04-17 08:55 EST",
        "wfo": "BTV",
        "county_or_zone": "Essex",
        "city": "2 SE Lake Placid",
        "state": "NY",
        "magnitude": 1.07,
        "magnitude_units": null,
        "source": "AWOS",
        "event_narrative": "AWOS station KLKP Lake Placid Airport."
      },
      "geometry": {
        "type": "Point",
        "coordinates": [
          -73.96,
          44.26
        ]
      }
    },
    {
      "type": "Feature",
      "id": "iem-lsr-BTV-69",
      "properties": {
        "report_id": "iem-lsr-BTV-69",
        "report_type": "RAIN",
        "event_category": "other",
        "valid_utc": "202604171356",
        "standard_time_display": "2026-04-17 08:56 EST",
        "wfo": "BTV",
        "county_or_zone": "Washington",
        "city": "1 NNW Northfield",
        "state": "VT",
        "magnitude": 1.68,
        "magnitude_units": null,
        "source": "Public",
        "event_narrative": null
      },
      "geometry": {
        "type": "Point",
        "coordinates": [
          -72.66,
          44.16
        ]
      }
    },
    {
      "type": "Feature",
      "id": "iem-lsr-BTV-70",
      "properties": {
        "report_id": "iem-lsr-BTV-70",
        "report_type": "RAIN",
        "event_category": "other",
        "valid_utc": "202604171357",
        "standard_time_display": "2026-04-17 08:57 EST",
        "wfo": "BTV",
        "county_or_zone": "Washington",
        "city": "Graniteville",
        "state": "VT",
        "magnitude": 1.3,
        "magnitude_units": null,
        "source": "Public",
        "event_narrative": null
      },
      "geometry": {
        "type": "Point",
        "coordinates": [
          -72.49,
          44.15
        ]
      }
    },
    {
      "type": "Feature",
      "id": "iem-lsr-BTV-71",
      "properties": {
        "report_id": "iem-lsr-BTV-71",
        "report_type": "RAIN",
        "event_category": "other",
        "valid_utc": "202604171409",
        "standard_time_display": "2026-04-17 09:09 EST",
        "wfo": "BTV",
        "county_or_zone": "Essex",
        "city": "3 WSW Lake Placid",
        "state": "NY",
        "magnitude": 1.19,
        "magnitude_units": null,
        "source": "Public",
        "event_narrative": null
      },
      "geometry": {
        "type": "Point",
        "coordinates": [
          -74.04,
          44.26
        ]
      }
    },
    {
      "type": "Feature",
      "id": "iem-lsr-BTV-72",
      "properties": {
        "report_id": "iem-lsr-BTV-72",
        "report_type": "SNOW",
        "event_category": "winter",
        "valid_utc": "202604191914",
        "standard_time_display": "2026-04-19 14:14 EST",
        "wfo": "BTV",
        "county_or_zone": "Franklin",
        "city": "2 E Fairfax",
        "state": "VT",
        "magnitude": 1.0,
        "magnitude_units": null,
        "source": "Public",
        "event_narrative": null
      },
      "geometry": {
        "type": "Point",
        "coordinates": [
          -72.97,
          44.67
        ]
      }
    },
    {
      "type": "Feature",
      "id": "iem-lsr-BTV-73",
      "properties": {
        "report_id": "iem-lsr-BTV-73",
        "report_type": "SNOW",
        "event_category": "winter",
        "valid_utc": "202604200202",
        "standard_time_display": "2026-04-19 21:02 EST",
        "wfo": "BTV",
        "county_or_zone": "Essex",
        "city": "1 NW Maidstone State Pa",
        "state": "VT",
        "magnitude": 1.5,
        "magnitude_units": null,
        "source": "Public",
        "event_narrative": null
      },
      "geometry": {
        "type": "Point",
        "coordinates": [
          -71.65,
          44.66
        ]
      }
    }
  ]
}