{
  "type": "FeatureCollection",
  "metadata": {
    "schema_version": "0.2.4",
    "year": 2026,
    "month": 6,
    "wfo": "PQR",
    "start_utc": "2026-06-01T00:00:00Z",
    "end_utc": "2026-07-01T00:00:00Z",
    "generated_utc": "2026-06-17T12:58:21Z",
    "mode": "storm_data_prep",
    "public_release_status": "public-source-derived",
    "time_note": "Storm Data entry times should be reviewed in local Standard Time (ST), not daylight time. Candidate reports include standard_time_display.",
    "tornado_track_policy": "Tornado tracks must come from DAT. NCEI begin/end coordinates are not used as a tornado track substitute.",
    "source": "https://mesonet.agron.iastate.edu/cgi-bin/request/gis/lsr.py?wfo=PQR&sts=2026-06-01T00%3A00%3A00Z&ets=2026-07-01T00%3A00%3A00Z&fmt=csv"
  },
  "features": [
    {
      "type": "Feature",
      "id": "iem-lsr-PQR-1",
      "properties": {
        "report_id": "iem-lsr-PQR-1",
        "report_type": "FUNNEL CLOUD",
        "event_category": "tornado",
        "valid_utc": "202606061522",
        "standard_time_display": "2026-06-06 07:22 PST",
        "wfo": "PQR",
        "county_or_zone": "PZZ251",
        "city": "2 WSW Klipsan Beach",
        "state": "WA",
        "magnitude": null,
        "magnitude_units": null,
        "source": "Public",
        "event_narrative": "Public reported a picture of a funnel cloud around 1 mile offshore the Long Beach Peninsula_ and approximately 2 miles southwest of Ocean Park. This funnel cloud was associated with a weak rain showe"
      },
      "geometry": {
        "type": "Point",
        "coordinates": [
          -124.09,
          46.46
        ]
      }
    },
    {
      "type": "Feature",
      "id": "iem-lsr-PQR-2",
      "properties": {
        "report_id": "iem-lsr-PQR-2",
        "report_type": "FUNNEL CLOUD",
        "event_category": "tornado",
        "valid_utc": "202606061633",
        "standard_time_display": "2026-06-06 08:33 PST",
        "wfo": "PQR",
        "county_or_zone": "PZZ251",
        "city": "2 SW Hammond",
        "state": "OR",
        "magnitude": null,
        "magnitude_units": null,
        "source": "Public",
        "event_narrative": "Public reported a picture of a funnel cloud near the coastline_ approximately 2 miles southwest of Hammond_ OR near the southwest end of Fort Stevens State Park. This funnel cloud was associated with"
      },
      "geometry": {
        "type": "Point",
        "coordinates": [
          -123.98,
          46.18
        ]
      }
    }
  ]
}