{
  "type": "FeatureCollection",
  "metadata": {
    "schema_version": "0.2.4",
    "year": 2026,
    "month": 9,
    "wfo": "OAX",
    "start_utc": "2026-09-01T00:00:00Z",
    "end_utc": "2026-10-01T00:00:00Z",
    "generated_utc": "2026-09-24T14:12:12Z",
    "mode": "storm_data_prep",
    "public_release_status": "public-source-derived",
    "time_note": "Storm Data entry times should be reviewed in local Standard Time (ST), not daylight time. Candidate reports include standard_time_display.",
    "tornado_track_policy": "Tornado tracks must come from DAT. NCEI begin/end coordinates are not used as a tornado track substitute.",
    "source": "https://mesonet.agron.iastate.edu/cgi-bin/request/gis/lsr.py?wfo=OAX&sts=2026-09-01T00%3A00%3A00Z&ets=2026-10-01T00%3A00%3A00Z&fmt=csv"
  },
  "features": [
    {
      "type": "Feature",
      "id": "iem-lsr-OAX-1",
      "properties": {
        "report_id": "iem-lsr-OAX-1",
        "report_type": "TSTM WND DMG",
        "event_category": "thunderstorm_wind",
        "valid_utc": "202609020040",
        "standard_time_display": "2026-09-01 18:40 CST",
        "wfo": "OAX",
        "county_or_zone": "Knox",
        "city": "3 SW Niobrara",
        "state": "NE",
        "magnitude": null,
        "magnitude_units": null,
        "source": "Emergency Mngr",
        "event_narrative": "Camper blown over_ damage to trees_ and window damage_ possibly from wind-driven hail. Time estimated from radar."
      },
      "geometry": {
        "type": "Point",
        "coordinates": [
          -98.07,
          42.71
        ]
      }
    },
    {
      "type": "Feature",
      "id": "iem-lsr-OAX-2",
      "properties": {
        "report_id": "iem-lsr-OAX-2",
        "report_type": "HAIL",
        "event_category": "hail",
        "valid_utc": "202609020041",
        "standard_time_display": "2026-09-01 18:41 CST",
        "wfo": "OAX",
        "county_or_zone": "Knox",
        "city": "2 WSW Niobrara",
        "state": "NE",
        "magnitude": 1.0,
        "magnitude_units": null,
        "source": "Trained Spotter",
        "event_narrative": "Report of nickels with a few quarters mixed in."
      },
      "geometry": {
        "type": "Point",
        "coordinates": [
          -98.06,
          42.74
        ]
      }
    },
    {
      "type": "Feature",
      "id": "iem-lsr-OAX-3",
      "properties": {
        "report_id": "iem-lsr-OAX-3",
        "report_type": "HAIL",
        "event_category": "hail",
        "valid_utc": "202609020044",
        "standard_time_display": "2026-09-01 18:44 CST",
        "wfo": "OAX",
        "county_or_zone": "Knox",
        "city": "Niobrara",
        "state": "NE",
        "magnitude": 2.75,
        "magnitude_units": null,
        "source": "Emergency Mngr",
        "event_narrative": "Report of baseball size hail resulting in vehicle with broken windshield in Niobrara_ relayed by EM via NWSChat. Time estimated from radar."
      },
      "geometry": {
        "type": "Point",
        "coordinates": [
          -98.03,
          42.75
        ]
      }
    },
    {
      "type": "Feature",
      "id": "iem-lsr-OAX-4",
      "properties": {
        "report_id": "iem-lsr-OAX-4",
        "report_type": "HAIL",
        "event_category": "hail",
        "valid_utc": "202609020045",
        "standard_time_display": "2026-09-01 18:45 CST",
        "wfo": "OAX",
        "county_or_zone": "Knox",
        "city": "Niobrara",
        "state": "NE",
        "magnitude": 1.25,
        "magnitude_units": null,
        "source": "Public",
        "event_narrative": "Report of quarters with half dollars at the corner of Walnut Street and Spruce Avenue."
      },
      "geometry": {
        "type": "Point",
        "coordinates": [
          -98.03,
          42.75
        ]
      }
    },
    {
      "type": "Feature",
      "id": "iem-lsr-OAX-5",
      "properties": {
        "report_id": "iem-lsr-OAX-5",
        "report_type": "TSTM WND DMG",
        "event_category": "thunderstorm_wind",
        "valid_utc": "202609020057",
        "standard_time_display": "2026-09-01 18:57 CST",
        "wfo": "OAX",
        "county_or_zone": "Knox",
        "city": "Santee",
        "state": "NE",
        "magnitude": null,
        "magnitude_units": null,
        "source": "Emergency Mngr",
        "event_narrative": "Camper being towed was blown over. Report relayed by emergency management. Time estimated via radar."
      },
      "geometry": {
        "type": "Point",
        "coordinates": [
          -97.85,
          42.84
        ]
      }
    },
    {
      "type": "Feature",
      "id": "iem-lsr-OAX-6",
      "properties": {
        "report_id": "iem-lsr-OAX-6",
        "report_type": "HAIL",
        "event_category": "hail",
        "valid_utc": "202609020058",
        "standard_time_display": "2026-09-01 18:58 CST",
        "wfo": "OAX",
        "county_or_zone": "Knox",
        "city": "Santee",
        "state": "NE",
        "magnitude": 1.75,
        "magnitude_units": null,
        "source": "Public",
        "event_narrative": "Public report of various hail sizes with largest around golf ball size. Time estimated via radar."
      },
      "geometry": {
        "type": "Point",
        "coordinates": [
          -97.85,
          42.84
        ]
      }
    },
    {
      "type": "Feature",
      "id": "iem-lsr-OAX-7",
      "properties": {
        "report_id": "iem-lsr-OAX-7",
        "report_type": "HAIL",
        "event_category": "hail",
        "valid_utc": "202609020107",
        "standard_time_display": "2026-09-01 19:07 CST",
        "wfo": "OAX",
        "county_or_zone": "Knox",
        "city": "8 SE Santee",
        "state": "NE",
        "magnitude": 2.5,
        "magnitude_units": null,
        "source": "Trained Spotter",
        "event_narrative": "Wind driven hail with wind estimated at over 70 mph. Windows knocked out on west side of home. Time estimated from radar."
      },
      "geometry": {
        "type": "Point",
        "coordinates": [
          -97.74,
          42.76
        ]
      }
    },
    {
      "type": "Feature",
      "id": "iem-lsr-OAX-8",
      "properties": {
        "report_id": "iem-lsr-OAX-8",
        "report_type": "TSTM WND GST",
        "event_category": "thunderstorm_wind",
        "valid_utc": "202609020107",
        "standard_time_display": "2026-09-01 19:07 CST",
        "wfo": "OAX",
        "county_or_zone": "Knox",
        "city": "8 SE Santee",
        "state": "NE",
        "magnitude": 70.0,
        "magnitude_units": null,
        "source": "Trained Spotter",
        "event_narrative": "Estimated gusts of at least 70 mph with tennis ball sized hail. Windows knocked out on west side of home. Damage to vehicles_ grain bins_ trees_ outbuildings_ and power lines in the area as well. Tim"
      },
      "geometry": {
        "type": "Point",
        "coordinates": [
          -97.74,
          42.76
        ]
      }
    },
    {
      "type": "Feature",
      "id": "iem-lsr-OAX-9",
      "properties": {
        "report_id": "iem-lsr-OAX-9",
        "report_type": "TSTM WND GST",
        "event_category": "thunderstorm_wind",
        "valid_utc": "202609020110",
        "standard_time_display": "2026-09-01 19:10 CST",
        "wfo": "OAX",
        "county_or_zone": "Knox",
        "city": "11 N Bloomfield",
        "state": "NE",
        "magnitude": 102.0,
        "magnitude_units": null,
        "source": "Mesonet",
        "event_narrative": "Measured by Nebraska Mesonet Site."
      },
      "geometry": {
        "type": "Point",
        "coordinates": [
          -97.65,
          42.76
        ]
      }
    },
    {
      "type": "Feature",
      "id": "iem-lsr-OAX-10",
      "properties": {
        "report_id": "iem-lsr-OAX-10",
        "report_type": "TSTM WND DMG",
        "event_category": "thunderstorm_wind",
        "valid_utc": "202609020119",
        "standard_time_display": "2026-09-01 19:19 CST",
        "wfo": "OAX",
        "county_or_zone": "Knox",
        "city": "3 W Crofton",
        "state": "NE",
        "magnitude": null,
        "magnitude_units": null,
        "source": "Trained Spotter",
        "event_narrative": "Multiple 6 to 7 inch diameter tree limbs downed 3 miles west of Crofton. Time estimated via radar."
      },
      "geometry": {
        "type": "Point",
        "coordinates": [
          -97.56,
          42.73
        ]
      }
    },
    {
      "type": "Feature",
      "id": "iem-lsr-OAX-11",
      "properties": {
        "report_id": "iem-lsr-OAX-11",
        "report_type": "TSTM WND DMG",
        "event_category": "thunderstorm_wind",
        "valid_utc": "202609020121",
        "standard_time_display": "2026-09-01 19:21 CST",
        "wfo": "OAX",
        "county_or_zone": "Cedar",
        "city": "2 E Crofton",
        "state": "NE",
        "magnitude": null,
        "magnitude_units": null,
        "source": "Emergency Mngr",
        "event_narrative": "Report of downed power lines east of Crofton on Highway 12. Report relayed by emergency management via NWSChat. Time estimated via radar."
      },
      "geometry": {
        "type": "Point",
        "coordinates": [
          -97.46,
          42.73
        ]
      }
    },
    {
      "type": "Feature",
      "id": "iem-lsr-OAX-12",
      "properties": {
        "report_id": "iem-lsr-OAX-12",
        "report_type": "TSTM WND GST",
        "event_category": "thunderstorm_wind",
        "valid_utc": "202609020123",
        "standard_time_display": "2026-09-01 19:23 CST",
        "wfo": "OAX",
        "county_or_zone": "Knox",
        "city": "4 SW Crofton",
        "state": "NE",
        "magnitude": 60.0,
        "magnitude_units": null,
        "source": "Trained Spotter",
        "event_narrative": "Trained spotter reported strong wind gusts of 60 mph with trees bending. Also lost power."
      },
      "geometry": {
        "type": "Point",
        "coordinates": [
          -97.56,
          42.7
        ]
      }
    },
    {
      "type": "Feature",
      "id": "iem-lsr-OAX-13",
      "properties": {
        "report_id": "iem-lsr-OAX-13",
        "report_type": "TSTM WND GST",
        "event_category": "thunderstorm_wind",
        "valid_utc": "202609020125",
        "standard_time_display": "2026-09-01 19:25 CST",
        "wfo": "OAX",
        "county_or_zone": "Cedar",
        "city": "4 NNW Fordyce",
        "state": "NE",
        "magnitude": 63.0,
        "magnitude_units": null,
        "source": "Public",
        "event_narrative": "Recorded by a public mesonet station."
      },
      "geometry": {
        "type": "Point",
        "coordinates": [
          -97.4,
          42.75
        ]
      }
    },
    {
      "type": "Feature",
      "id": "iem-lsr-OAX-14",
      "properties": {
        "report_id": "iem-lsr-OAX-14",
        "report_type": "TSTM WND DMG",
        "event_category": "thunderstorm_wind",
        "valid_utc": "202609020125",
        "standard_time_display": "2026-09-01 19:25 CST",
        "wfo": "OAX",
        "county_or_zone": "Cedar",
        "city": "5 NNW Fordyce",
        "state": "NE",
        "magnitude": null,
        "magnitude_units": null,
        "source": "Emergency Mngr",
        "event_narrative": "Report of tipped over tractor trailer on its side 2 miles north of Highway 12 and US 81 junction blocking the highway. Report relayed by EM via NWSChat. Time estimated via radar."
      },
      "geometry": {
        "type": "Point",
        "coordinates": [
          -97.41,
          42.76
        ]
      }
    },
    {
      "type": "Feature",
      "id": "iem-lsr-OAX-15",
      "properties": {
        "report_id": "iem-lsr-OAX-15",
        "report_type": "TSTM WND GST",
        "event_category": "thunderstorm_wind",
        "valid_utc": "202609020132",
        "standard_time_display": "2026-09-01 19:32 CST",
        "wfo": "OAX",
        "county_or_zone": "Cedar",
        "city": "4 NNE Fordyce",
        "state": "NE",
        "magnitude": 98.0,
        "magnitude_units": null,
        "source": "Mesonet",
        "event_narrative": "Wind gust of 98 mph measured by Nebraska Mesonet Station near Fordyce."
      },
      "geometry": {
        "type": "Point",
        "coordinates": [
          -97.35,
          42.75
        ]
      }
    },
    {
      "type": "Feature",
      "id": "iem-lsr-OAX-16",
      "properties": {
        "report_id": "iem-lsr-OAX-16",
        "report_type": "TSTM WND GST",
        "event_category": "thunderstorm_wind",
        "valid_utc": "202609020133",
        "standard_time_display": "2026-09-01 19:33 CST",
        "wfo": "OAX",
        "county_or_zone": "Cedar",
        "city": "4 NNW Fordyce",
        "state": "NE",
        "magnitude": 113.0,
        "magnitude_units": null,
        "source": "Mesonet",
        "event_narrative": "Measured by Nebraska Mesonet Site near Fordyce."
      },
      "geometry": {
        "type": "Point",
        "coordinates": [
          -97.39,
          42.75
        ]
      }
    },
    {
      "type": "Feature",
      "id": "iem-lsr-OAX-17",
      "properties": {
        "report_id": "iem-lsr-OAX-17",
        "report_type": "TSTM WND GST",
        "event_category": "thunderstorm_wind",
        "valid_utc": "202609020134",
        "standard_time_display": "2026-09-01 19:34 CST",
        "wfo": "OAX",
        "county_or_zone": "Cedar",
        "city": "4 NNE Fordyce",
        "state": "NE",
        "magnitude": 110.0,
        "magnitude_units": null,
        "source": "Mesonet",
        "event_narrative": "Corrects previous tstm wnd gst report from 4 NNE Fordyce. Wind gust of 98 mph measured by Nebraska Mesonet Station near Fordyce."
      },
      "geometry": {
        "type": "Point",
        "coordinates": [
          -97.35,
          42.75
        ]
      }
    },
    {
      "type": "Feature",
      "id": "iem-lsr-OAX-18",
      "properties": {
        "report_id": "iem-lsr-OAX-18",
        "report_type": "TSTM WND GST",
        "event_category": "thunderstorm_wind",
        "valid_utc": "202609020145",
        "standard_time_display": "2026-09-01 19:45 CST",
        "wfo": "OAX",
        "county_or_zone": "Cedar",
        "city": "3 N Hartington",
        "state": "NE",
        "magnitude": 63.0,
        "magnitude_units": null,
        "source": "Mesonet",
        "event_narrative": "Mesonet report of personal weather station gusting to 63 mph."
      },
      "geometry": {
        "type": "Point",
        "coordinates": [
          -97.27,
          42.66
        ]
      }
    },
    {
      "type": "Feature",
      "id": "iem-lsr-OAX-19",
      "properties": {
        "report_id": "iem-lsr-OAX-19",
        "report_type": "TSTM WND DMG",
        "event_category": "thunderstorm_wind",
        "valid_utc": "202609020152",
        "standard_time_display": "2026-09-01 19:52 CST",
        "wfo": "OAX",
        "county_or_zone": "Cedar",
        "city": "Wynot",
        "state": "NE",
        "magnitude": null,
        "magnitude_units": null,
        "source": "Public",
        "event_narrative": "Public report of 12 inch diameter tree limbs down across Wynot. Power lines blown over on northwest side of town. Time estimated via radar."
      },
      "geometry": {
        "type": "Point",
        "coordinates": [
          -97.17,
          42.74
        ]
      }
    },
    {
      "type": "Feature",
      "id": "iem-lsr-OAX-20",
      "properties": {
        "report_id": "iem-lsr-OAX-20",
        "report_type": "HAIL",
        "event_category": "hail",
        "valid_utc": "202609020155",
        "standard_time_display": "2026-09-01 19:55 CST",
        "wfo": "OAX",
        "county_or_zone": "Antelope",
        "city": "1 S Brunswick",
        "state": "NE",
        "magnitude": 2.0,
        "magnitude_units": null,
        "source": "Public",
        "event_narrative": "Social media photo of hail slightly larger than golf balls."
      },
      "geometry": {
        "type": "Point",
        "coordinates": [
          -97.97,
          42.32
        ]
      }
    },
    {
      "type": "Feature",
      "id": "iem-lsr-OAX-21",
      "properties": {
        "report_id": "iem-lsr-OAX-21",
        "report_type": "HAIL",
        "event_category": "hail",
        "valid_utc": "202609020203",
        "standard_time_display": "2026-09-01 20:03 CST",
        "wfo": "OAX",
        "county_or_zone": "Antelope",
        "city": "Brunswick",
        "state": "NE",
        "magnitude": 1.0,
        "magnitude_units": null,
        "source": "Public",
        "event_narrative": "Public report of quarters on the southwest side of Brunswick."
      },
      "geometry": {
        "type": "Point",
        "coordinates": [
          -97.97,
          42.34
        ]
      }
    },
    {
      "type": "Feature",
      "id": "iem-lsr-OAX-22",
      "properties": {
        "report_id": "iem-lsr-OAX-22",
        "report_type": "HAIL",
        "event_category": "hail",
        "valid_utc": "202609020204",
        "standard_time_display": "2026-09-01 20:04 CST",
        "wfo": "OAX",
        "county_or_zone": "Antelope",
        "city": "1 NE Brunswick",
        "state": "NE",
        "magnitude": 1.0,
        "magnitude_units": null,
        "source": "Public",
        "event_narrative": "Report from mPING: Quarter (1.00 in.) Time estimated via radar."
      },
      "geometry": {
        "type": "Point",
        "coordinates": [
          -97.96,
          42.35
        ]
      }
    },
    {
      "type": "Feature",
      "id": "iem-lsr-OAX-23",
      "properties": {
        "report_id": "iem-lsr-OAX-23",
        "report_type": "HAIL",
        "event_category": "hail",
        "valid_utc": "202609020226",
        "standard_time_display": "2026-09-01 20:26 CST",
        "wfo": "OAX",
        "county_or_zone": "Pierce",
        "city": "Plainview",
        "state": "NE",
        "magnitude": 1.0,
        "magnitude_units": null,
        "source": "Public",
        "event_narrative": "Relayed via social media_ photo of quarter size hail in Plainview. Time estimated via radar."
      },
      "geometry": {
        "type": "Point",
        "coordinates": [
          -97.79,
          42.35
        ]
      }
    },
    {
      "type": "Feature",
      "id": "iem-lsr-OAX-24",
      "properties": {
        "report_id": "iem-lsr-OAX-24",
        "report_type": "HAIL",
        "event_category": "hail",
        "valid_utc": "202609020241",
        "standard_time_display": "2026-09-01 20:41 CST",
        "wfo": "OAX",
        "county_or_zone": "Pierce",
        "city": "Osmond",
        "state": "NE",
        "magnitude": 1.0,
        "magnitude_units": null,
        "source": "Trained Spotter",
        "event_narrative": "Report of quarter size hail on northeast side of Osmond."
      },
      "geometry": {
        "type": "Point",
        "coordinates": [
          -97.59,
          42.36
        ]
      }
    },
    {
      "type": "Feature",
      "id": "iem-lsr-OAX-25",
      "properties": {
        "report_id": "iem-lsr-OAX-25",
        "report_type": "HAIL",
        "event_category": "hail",
        "valid_utc": "202609020259",
        "standard_time_display": "2026-09-01 20:59 CST",
        "wfo": "OAX",
        "county_or_zone": "Cedar",
        "city": "Randolph",
        "state": "NE",
        "magnitude": 2.0,
        "magnitude_units": null,
        "source": "Emergency Mngr",
        "event_narrative": "Report from Randolph Fire Department with picture of 2 inch hail. Report relayed via NWSChat and time estimated via radar."
      },
      "geometry": {
        "type": "Point",
        "coordinates": [
          -97.36,
          42.38
        ]
      }
    },
    {
      "type": "Feature",
      "id": "iem-lsr-OAX-26",
      "properties": {
        "report_id": "iem-lsr-OAX-26",
        "report_type": "TSTM WND DMG",
        "event_category": "thunderstorm_wind",
        "valid_utc": "202609021220",
        "standard_time_display": "2026-09-02 06:20 CST",
        "wfo": "OAX",
        "county_or_zone": "Saunders",
        "city": "Ceresco",
        "state": "NE",
        "magnitude": null,
        "magnitude_units": null,
        "source": "Emergency Mngr",
        "event_narrative": "Multiple tree branches down and on houses in Ceresco. Also some windows blown out of a business. Time estimated from radar."
      },
      "geometry": {
        "type": "Point",
        "coordinates": [
          -96.65,
          41.06
        ]
      }
    },
    {
      "type": "Feature",
      "id": "iem-lsr-OAX-27",
      "properties": {
        "report_id": "iem-lsr-OAX-27",
        "report_type": "TSTM WND GST",
        "event_category": "thunderstorm_wind",
        "valid_utc": "202609062112",
        "standard_time_display": "2026-09-06 15:12 CST",
        "wfo": "OAX",
        "county_or_zone": "Shelby",
        "city": "3 W Kirkman",
        "state": "IA",
        "magnitude": 60.0,
        "magnitude_units": null,
        "source": "Public",
        "event_narrative": "Public report of thunderstorm wind gusts estimated at 50-60 mph_ breaking a few large tree branches."
      },
      "geometry": {
        "type": "Point",
        "coordinates": [
          -95.33,
          41.73
        ]
      }
    },
    {
      "type": "Feature",
      "id": "iem-lsr-OAX-28",
      "properties": {
        "report_id": "iem-lsr-OAX-28",
        "report_type": "FLASH FLOOD",
        "event_category": "flooding",
        "valid_utc": "202609090745",
        "standard_time_display": "2026-09-09 01:45 CST",
        "wfo": "OAX",
        "county_or_zone": "Douglas",
        "city": "4 NW Millard",
        "state": "NE",
        "magnitude": null,
        "magnitude_units": null,
        "source": "Public",
        "event_narrative": "Delayed Report: Significant water ponding on W Center Road."
      },
      "geometry": {
        "type": "Point",
        "coordinates": [
          -96.21,
          41.23
        ]
      }
    },
    {
      "type": "Feature",
      "id": "iem-lsr-OAX-29",
      "properties": {
        "report_id": "iem-lsr-OAX-29",
        "report_type": "FLASH FLOOD",
        "event_category": "flooding",
        "valid_utc": "202609090750",
        "standard_time_display": "2026-09-09 01:50 CST",
        "wfo": "OAX",
        "county_or_zone": "Saunders",
        "city": "2 SSE Wahoo",
        "state": "NE",
        "magnitude": null,
        "magnitude_units": null,
        "source": "NWS Employee",
        "event_narrative": "Delayed Repot: Water flowing over two spots on County Road J."
      },
      "geometry": {
        "type": "Point",
        "coordinates": [
          -96.61,
          41.19
        ]
      }
    },
    {
      "type": "Feature",
      "id": "iem-lsr-OAX-30",
      "properties": {
        "report_id": "iem-lsr-OAX-30",
        "report_type": "TSTM WND GST",
        "event_category": "thunderstorm_wind",
        "valid_utc": "202609120407",
        "standard_time_display": "2026-09-11 22:07 CST",
        "wfo": "OAX",
        "county_or_zone": "Platte",
        "city": "4 NE Columbus",
        "state": "NE",
        "magnitude": 62.0,
        "magnitude_units": null,
        "source": "Public",
        "event_narrative": "Personal Weather Station."
      },
      "geometry": {
        "type": "Point",
        "coordinates": [
          -97.29,
          41.47
        ]
      }
    },
    {
      "type": "Feature",
      "id": "iem-lsr-OAX-31",
      "properties": {
        "report_id": "iem-lsr-OAX-31",
        "report_type": "HAIL",
        "event_category": "hail",
        "valid_utc": "202609121553",
        "standard_time_display": "2026-09-12 09:53 CST",
        "wfo": "OAX",
        "county_or_zone": "Gage",
        "city": "2 ENE Beatrice",
        "state": "NE",
        "magnitude": 1.75,
        "magnitude_units": null,
        "source": "Public",
        "event_narrative": "Delayed and relayed report of golf ball sized hail."
      },
      "geometry": {
        "type": "Point",
        "coordinates": [
          -96.71,
          40.28
        ]
      }
    },
    {
      "type": "Feature",
      "id": "iem-lsr-OAX-32",
      "properties": {
        "report_id": "iem-lsr-OAX-32",
        "report_type": "HAIL",
        "event_category": "hail",
        "valid_utc": "202609121554",
        "standard_time_display": "2026-09-12 09:54 CST",
        "wfo": "OAX",
        "county_or_zone": "Gage",
        "city": "1 N Beatrice",
        "state": "NE",
        "magnitude": 1.75,
        "magnitude_units": null,
        "source": "Trained Spotter",
        "event_narrative": "Trained spotter reported golf ball sized hail in northern Beatrice."
      },
      "geometry": {
        "type": "Point",
        "coordinates": [
          -96.75,
          40.28
        ]
      }
    },
    {
      "type": "Feature",
      "id": "iem-lsr-OAX-33",
      "properties": {
        "report_id": "iem-lsr-OAX-33",
        "report_type": "HAIL",
        "event_category": "hail",
        "valid_utc": "202609121555",
        "standard_time_display": "2026-09-12 09:55 CST",
        "wfo": "OAX",
        "county_or_zone": "Gage",
        "city": "1 N Beatrice",
        "state": "NE",
        "magnitude": 1.0,
        "magnitude_units": null,
        "source": "Law Enforcement",
        "event_narrative": "Law enforcement reported quarter size and possibly larger hail on the northern side of Beatrice. Time estimated based on radar."
      },
      "geometry": {
        "type": "Point",
        "coordinates": [
          -96.75,
          40.28
        ]
      }
    },
    {
      "type": "Feature",
      "id": "iem-lsr-OAX-34",
      "properties": {
        "report_id": "iem-lsr-OAX-34",
        "report_type": "HAIL",
        "event_category": "hail",
        "valid_utc": "202609121556",
        "standard_time_display": "2026-09-12 09:56 CST",
        "wfo": "OAX",
        "county_or_zone": "Gage",
        "city": "1 NE Beatrice",
        "state": "NE",
        "magnitude": 1.0,
        "magnitude_units": null,
        "source": "Public",
        "event_narrative": "Report from mPING: Quarter (1.00 in.)."
      },
      "geometry": {
        "type": "Point",
        "coordinates": [
          -96.74,
          40.27
        ]
      }
    },
    {
      "type": "Feature",
      "id": "iem-lsr-OAX-35",
      "properties": {
        "report_id": "iem-lsr-OAX-35",
        "report_type": "HAIL",
        "event_category": "hail",
        "valid_utc": "202609121613",
        "standard_time_display": "2026-09-12 10:13 CST",
        "wfo": "OAX",
        "county_or_zone": "Gage",
        "city": "Blue Springs",
        "state": "NE",
        "magnitude": 1.0,
        "magnitude_units": null,
        "source": "Trained Spotter",
        "event_narrative": "Trained spotter reported quarter sized hail in town. Time estimated based on radar."
      },
      "geometry": {
        "type": "Point",
        "coordinates": [
          -96.66,
          40.14
        ]
      }
    },
    {
      "type": "Feature",
      "id": "iem-lsr-OAX-36",
      "properties": {
        "report_id": "iem-lsr-OAX-36",
        "report_type": "HAIL",
        "event_category": "hail",
        "valid_utc": "202609140723",
        "standard_time_display": "2026-09-14 01:23 CST",
        "wfo": "OAX",
        "county_or_zone": "Johnson",
        "city": "2 S Sterling",
        "state": "NE",
        "magnitude": 1.0,
        "magnitude_units": null,
        "source": "Trained Spotter",
        "event_narrative": null
      },
      "geometry": {
        "type": "Point",
        "coordinates": [
          -96.37,
          40.44
        ]
      }
    },
    {
      "type": "Feature",
      "id": "iem-lsr-OAX-37",
      "properties": {
        "report_id": "iem-lsr-OAX-37",
        "report_type": "TSTM WND DMG",
        "event_category": "thunderstorm_wind",
        "valid_utc": "202609142309",
        "standard_time_display": "2026-09-14 17:09 CST",
        "wfo": "OAX",
        "county_or_zone": "Lancaster",
        "city": "2 ENE Davey",
        "state": "NE",
        "magnitude": null,
        "magnitude_units": null,
        "source": "Public",
        "event_narrative": "3 to 6 inch diameter branches down. Time estimated from radar."
      },
      "geometry": {
        "type": "Point",
        "coordinates": [
          -96.64,
          40.99
        ]
      }
    },
    {
      "type": "Feature",
      "id": "iem-lsr-OAX-38",
      "properties": {
        "report_id": "iem-lsr-OAX-38",
        "report_type": "TSTM WND GST",
        "event_category": "thunderstorm_wind",
        "valid_utc": "202609142327",
        "standard_time_display": "2026-09-14 17:27 CST",
        "wfo": "OAX",
        "county_or_zone": "Saunders",
        "city": "4 N Memphis",
        "state": "NE",
        "magnitude": 57.0,
        "magnitude_units": null,
        "source": "Mesonet",
        "event_narrative": null
      },
      "geometry": {
        "type": "Point",
        "coordinates": [
          -96.44,
          41.15
        ]
      }
    },
    {
      "type": "Feature",
      "id": "iem-lsr-OAX-39",
      "properties": {
        "report_id": "iem-lsr-OAX-39",
        "report_type": "TSTM WND DMG",
        "event_category": "thunderstorm_wind",
        "valid_utc": "202609142339",
        "standard_time_display": "2026-09-14 17:39 CST",
        "wfo": "OAX",
        "county_or_zone": "Otoe",
        "city": "4 SE Eagle",
        "state": "NE",
        "magnitude": null,
        "magnitude_units": null,
        "source": "Emergency Mngr",
        "event_narrative": "Large tree down across County Road 8 and B."
      },
      "geometry": {
        "type": "Point",
        "coordinates": [
          -96.39,
          40.77
        ]
      }
    },
    {
      "type": "Feature",
      "id": "iem-lsr-OAX-40",
      "properties": {
        "report_id": "iem-lsr-OAX-40",
        "report_type": "TORNADO",
        "event_category": "tornado",
        "valid_utc": "202609142349",
        "standard_time_display": "2026-09-14 17:49 CST",
        "wfo": "OAX",
        "county_or_zone": "Otoe",
        "city": "3 SW Avoca",
        "state": "NE",
        "magnitude": null,
        "magnitude_units": null,
        "source": "Official NWS Obs",
        "event_narrative": "An EF-0 tornado touched down in an agricultural field just south of County Road B_ between 32nd and 34th Roads_ flattening a path through corn. The tornado tracked east_ tipping over a large metal st"
      },
      "geometry": {
        "type": "Point",
        "coordinates": [
          -96.16,
          40.77
        ]
      }
    },
    {
      "type": "Feature",
      "id": "iem-lsr-OAX-41",
      "properties": {
        "report_id": "iem-lsr-OAX-41",
        "report_type": "TSTM WND GST",
        "event_category": "thunderstorm_wind",
        "valid_utc": "202609142351",
        "standard_time_display": "2026-09-14 17:51 CST",
        "wfo": "OAX",
        "county_or_zone": "Cass",
        "city": "5 ESE Elmwood",
        "state": "NE",
        "magnitude": 75.0,
        "magnitude_units": null,
        "source": "Trained Spotter",
        "event_narrative": null
      },
      "geometry": {
        "type": "Point",
        "coordinates": [
          -96.22,
          40.81
        ]
      }
    },
    {
      "type": "Feature",
      "id": "iem-lsr-OAX-42",
      "properties": {
        "report_id": "iem-lsr-OAX-42",
        "report_type": "TSTM WND DMG",
        "event_category": "thunderstorm_wind",
        "valid_utc": "202609142351",
        "standard_time_display": "2026-09-14 17:51 CST",
        "wfo": "OAX",
        "county_or_zone": "Cass",
        "city": "2 SSW Weeping Water",
        "state": "NE",
        "magnitude": null,
        "magnitude_units": null,
        "source": "Emergency Mngr",
        "event_narrative": "Delayed report of a whole tree blocking Adams Street just eat of Highway 50. Time estimated via radar."
      },
      "geometry": {
        "type": "Point",
        "coordinates": [
          -96.16,
          40.84
        ]
      }
    },
    {
      "type": "Feature",
      "id": "iem-lsr-OAX-43",
      "properties": {
        "report_id": "iem-lsr-OAX-43",
        "report_type": "TSTM WND DMG",
        "event_category": "thunderstorm_wind",
        "valid_utc": "202609150000",
        "standard_time_display": "2026-09-14 18:00 CST",
        "wfo": "OAX",
        "county_or_zone": "Cass",
        "city": "Nehawka",
        "state": "NE",
        "magnitude": null,
        "magnitude_units": null,
        "source": "Fire Dept/Rescue",
        "event_narrative": "Delayed report of full trees down on the road on Nehawka Spur. Time and locations estimated from radar."
      },
      "geometry": {
        "type": "Point",
        "coordinates": [
          -95.99,
          40.83
        ]
      }
    },
    {
      "type": "Feature",
      "id": "iem-lsr-OAX-44",
      "properties": {
        "report_id": "iem-lsr-OAX-44",
        "report_type": "TSTM WND GST",
        "event_category": "thunderstorm_wind",
        "valid_utc": "202609150020",
        "standard_time_display": "2026-09-14 18:20 CST",
        "wfo": "OAX",
        "county_or_zone": "Pottawattamie",
        "city": "5 W Treynor",
        "state": "IA",
        "magnitude": 58.0,
        "magnitude_units": null,
        "source": "Public",
        "event_narrative": "Personal weather station."
      },
      "geometry": {
        "type": "Point",
        "coordinates": [
          -95.7,
          41.24
        ]
      }
    },
    {
      "type": "Feature",
      "id": "iem-lsr-OAX-45",
      "properties": {
        "report_id": "iem-lsr-OAX-45",
        "report_type": "TSTM WND DMG",
        "event_category": "thunderstorm_wind",
        "valid_utc": "202609150045",
        "standard_time_display": "2026-09-14 18:45 CST",
        "wfo": "OAX",
        "county_or_zone": "Johnson",
        "city": "Cook",
        "state": "NE",
        "magnitude": null,
        "magnitude_units": null,
        "source": "Amateur Radio",
        "event_narrative": "Trees down. Time estimated based on security video."
      },
      "geometry": {
        "type": "Point",
        "coordinates": [
          -96.16,
          40.51
        ]
      }
    },
    {
      "type": "Feature",
      "id": "iem-lsr-OAX-46",
      "properties": {
        "report_id": "iem-lsr-OAX-46",
        "report_type": "TSTM WND GST",
        "event_category": "thunderstorm_wind",
        "valid_utc": "202609150115",
        "standard_time_display": "2026-09-14 19:15 CST",
        "wfo": "OAX",
        "county_or_zone": "Fremont",
        "city": "8 WSW Sidney",
        "state": "IA",
        "magnitude": 63.0,
        "magnitude_units": null,
        "source": "Public",
        "event_narrative": "Measured gust from an IADOT mesonet station."
      },
      "geometry": {
        "type": "Point",
        "coordinates": [
          -95.78,
          40.69
        ]
      }
    },
    {
      "type": "Feature",
      "id": "iem-lsr-OAX-47",
      "properties": {
        "report_id": "iem-lsr-OAX-47",
        "report_type": "TSTM WND GST",
        "event_category": "thunderstorm_wind",
        "valid_utc": "202609150130",
        "standard_time_display": "2026-09-14 19:30 CST",
        "wfo": "OAX",
        "county_or_zone": "Gage",
        "city": "5 W Pickrell",
        "state": "NE",
        "magnitude": 70.0,
        "magnitude_units": null,
        "source": "Public",
        "event_narrative": "Estimated 70 mph or stronger winds."
      },
      "geometry": {
        "type": "Point",
        "coordinates": [
          -96.81,
          40.36
        ]
      }
    },
    {
      "type": "Feature",
      "id": "iem-lsr-OAX-48",
      "properties": {
        "report_id": "iem-lsr-OAX-48",
        "report_type": "TSTM WND GST",
        "event_category": "thunderstorm_wind",
        "valid_utc": "202609150132",
        "standard_time_display": "2026-09-14 19:32 CST",
        "wfo": "OAX",
        "county_or_zone": "Gage",
        "city": "2 SSW Pickrell",
        "state": "NE",
        "magnitude": 62.0,
        "magnitude_units": null,
        "source": "Public",
        "event_narrative": "Measured on personal weather station."
      },
      "geometry": {
        "type": "Point",
        "coordinates": [
          -96.75,
          40.35
        ]
      }
    },
    {
      "type": "Feature",
      "id": "iem-lsr-OAX-49",
      "properties": {
        "report_id": "iem-lsr-OAX-49",
        "report_type": "TSTM WND GST",
        "event_category": "thunderstorm_wind",
        "valid_utc": "202609150135",
        "standard_time_display": "2026-09-14 19:35 CST",
        "wfo": "OAX",
        "county_or_zone": "Gage",
        "city": "2 NNW Beatrice",
        "state": "NE",
        "magnitude": 76.0,
        "magnitude_units": null,
        "source": "AWOS",
        "event_narrative": null
      },
      "geometry": {
        "type": "Point",
        "coordinates": [
          -96.75,
          40.3
        ]
      }
    },
    {
      "type": "Feature",
      "id": "iem-lsr-OAX-50",
      "properties": {
        "report_id": "iem-lsr-OAX-50",
        "report_type": "TSTM WND DMG",
        "event_category": "thunderstorm_wind",
        "valid_utc": "202609150137",
        "standard_time_display": "2026-09-14 19:37 CST",
        "wfo": "OAX",
        "county_or_zone": "Gage",
        "city": "2 ESE Pickrell",
        "state": "NE",
        "magnitude": null,
        "magnitude_units": null,
        "source": "Public",
        "event_narrative": "Pole barn had roof blown off. Time estimated based on radar and nearby reports."
      },
      "geometry": {
        "type": "Point",
        "coordinates": [
          -96.69,
          40.36
        ]
      }
    },
    {
      "type": "Feature",
      "id": "iem-lsr-OAX-51",
      "properties": {
        "report_id": "iem-lsr-OAX-51",
        "report_type": "TSTM WND GST",
        "event_category": "thunderstorm_wind",
        "valid_utc": "202609150151",
        "standard_time_display": "2026-09-14 19:51 CST",
        "wfo": "OAX",
        "county_or_zone": "Gage",
        "city": "3 NW Adams",
        "state": "NE",
        "magnitude": 61.0,
        "magnitude_units": null,
        "source": "Public",
        "event_narrative": "Personal Weather Station."
      },
      "geometry": {
        "type": "Point",
        "coordinates": [
          -96.56,
          40.49
        ]
      }
    },
    {
      "type": "Feature",
      "id": "iem-lsr-OAX-52",
      "properties": {
        "report_id": "iem-lsr-OAX-52",
        "report_type": "TSTM WND GST",
        "event_category": "thunderstorm_wind",
        "valid_utc": "202609150153",
        "standard_time_display": "2026-09-14 19:53 CST",
        "wfo": "OAX",
        "county_or_zone": "Page",
        "city": "3 ENE Essex",
        "state": "IA",
        "magnitude": 62.0,
        "magnitude_units": null,
        "source": "Public",
        "event_narrative": "Personal Weather Station."
      },
      "geometry": {
        "type": "Point",
        "coordinates": [
          -95.25,
          40.86
        ]
      }
    },
    {
      "type": "Feature",
      "id": "iem-lsr-OAX-53",
      "properties": {
        "report_id": "iem-lsr-OAX-53",
        "report_type": "TSTM WND DMG",
        "event_category": "thunderstorm_wind",
        "valid_utc": "202609150156",
        "standard_time_display": "2026-09-14 19:56 CST",
        "wfo": "OAX",
        "county_or_zone": "Page",
        "city": "Clarinda",
        "state": "IA",
        "magnitude": null,
        "magnitude_units": null,
        "source": "Emergency Mngr",
        "event_narrative": "Trees and power lines down in a couple different areas."
      },
      "geometry": {
        "type": "Point",
        "coordinates": [
          -95.04,
          40.74
        ]
      }
    },
    {
      "type": "Feature",
      "id": "iem-lsr-OAX-54",
      "properties": {
        "report_id": "iem-lsr-OAX-54",
        "report_type": "TSTM WND GST",
        "event_category": "thunderstorm_wind",
        "valid_utc": "202609150240",
        "standard_time_display": "2026-09-14 20:40 CST",
        "wfo": "OAX",
        "county_or_zone": "Fremont",
        "city": "8 WSW Sidney",
        "state": "IA",
        "magnitude": 60.0,
        "magnitude_units": null,
        "source": "Trained Spotter",
        "event_narrative": null
      },
      "geometry": {
        "type": "Point",
        "coordinates": [
          -95.78,
          40.68
        ]
      }
    },
    {
      "type": "Feature",
      "id": "iem-lsr-OAX-55",
      "properties": {
        "report_id": "iem-lsr-OAX-55",
        "report_type": "TSTM WND GST",
        "event_category": "thunderstorm_wind",
        "valid_utc": "202609150313",
        "standard_time_display": "2026-09-14 21:13 CST",
        "wfo": "OAX",
        "county_or_zone": "Fremont",
        "city": "2 WSW Shenandoah",
        "state": "IA",
        "magnitude": 62.0,
        "magnitude_units": null,
        "source": "AWOS",
        "event_narrative": "AWOS measured wind gust of 62 mph."
      },
      "geometry": {
        "type": "Point",
        "coordinates": [
          -95.41,
          40.75
        ]
      }
    },
    {
      "type": "Feature",
      "id": "iem-lsr-OAX-56",
      "properties": {
        "report_id": "iem-lsr-OAX-56",
        "report_type": "TSTM WND GST",
        "event_category": "thunderstorm_wind",
        "valid_utc": "202609150442",
        "standard_time_display": "2026-09-14 22:42 CST",
        "wfo": "OAX",
        "county_or_zone": "Pottawattamie",
        "city": "4 SW Mcclelland",
        "state": "IA",
        "magnitude": 74.0,
        "magnitude_units": null,
        "source": "Public",
        "event_narrative": "Measured gust from a public mesonet station."
      },
      "geometry": {
        "type": "Point",
        "coordinates": [
          -95.73,
          41.28
        ]
      }
    },
    {
      "type": "Feature",
      "id": "iem-lsr-OAX-57",
      "properties": {
        "report_id": "iem-lsr-OAX-57",
        "report_type": "TSTM WND GST",
        "event_category": "thunderstorm_wind",
        "valid_utc": "202609150458",
        "standard_time_display": "2026-09-14 22:58 CST",
        "wfo": "OAX",
        "county_or_zone": "Douglas",
        "city": "1 WNW Valley",
        "state": "NE",
        "magnitude": 58.0,
        "magnitude_units": null,
        "source": "Official NWS Obs",
        "event_narrative": "58 mph measured with 35-40 mph sustained winds underneath a likely microburst."
      },
      "geometry": {
        "type": "Point",
        "coordinates": [
          -96.37,
          41.32
        ]
      }
    },
    {
      "type": "Feature",
      "id": "iem-lsr-OAX-58",
      "properties": {
        "report_id": "iem-lsr-OAX-58",
        "report_type": "TSTM WND GST",
        "event_category": "thunderstorm_wind",
        "valid_utc": "202609150530",
        "standard_time_display": "2026-09-14 23:30 CST",
        "wfo": "OAX",
        "county_or_zone": "Washington",
        "city": "4 SE Fort Calhoun",
        "state": "NE",
        "magnitude": 60.0,
        "magnitude_units": null,
        "source": "Public",
        "event_narrative": "Wind gust measured from a public mesonet station."
      },
      "geometry": {
        "type": "Point",
        "coordinates": [
          -95.98,
          41.41
        ]
      }
    },
    {
      "type": "Feature",
      "id": "iem-lsr-OAX-59",
      "properties": {
        "report_id": "iem-lsr-OAX-59",
        "report_type": "TSTM WND GST",
        "event_category": "thunderstorm_wind",
        "valid_utc": "202609150600",
        "standard_time_display": "2026-09-15 00:00 CST",
        "wfo": "OAX",
        "county_or_zone": "Shelby",
        "city": "1 N Shelby",
        "state": "IA",
        "magnitude": 73.0,
        "magnitude_units": null,
        "source": "Public",
        "event_narrative": "Measure from a public mesonet station."
      },
      "geometry": {
        "type": "Point",
        "coordinates": [
          -95.46,
          41.53
        ]
      }
    }
  ]
}