{
  "type": "FeatureCollection",
  "metadata": {
    "schema_version": "0.2.4",
    "year": 2026,
    "month": 6,
    "wfo": "OHX",
    "start_utc": "2026-06-01T00:00:00Z",
    "end_utc": "2026-07-01T00:00:00Z",
    "generated_utc": "2026-07-08T11:17:47Z",
    "mode": "storm_data_prep",
    "public_release_status": "public-source-derived",
    "time_note": "Storm Data entry times should be reviewed in local Standard Time (ST), not daylight time. Candidate reports include standard_time_display.",
    "tornado_track_policy": "Tornado tracks must come from DAT. NCEI begin/end coordinates are not used as a tornado track substitute.",
    "source": "https://mesonet.agron.iastate.edu/cgi-bin/request/gis/lsr.py?wfo=OHX&sts=2026-06-01T00%3A00%3A00Z&ets=2026-07-01T00%3A00%3A00Z&fmt=csv"
  },
  "features": [
    {
      "type": "Feature",
      "id": "iem-lsr-OHX-1",
      "properties": {
        "report_id": "iem-lsr-OHX-1",
        "report_type": "TSTM WND DMG",
        "event_category": "thunderstorm_wind",
        "valid_utc": "202606011602",
        "standard_time_display": "2026-06-01 10:02 CST",
        "wfo": "OHX",
        "county_or_zone": "Perry",
        "city": "Linden",
        "state": "TN",
        "magnitude": null,
        "magnitude_units": null,
        "source": "Public",
        "event_narrative": "Tree fallen on home on South Mill Street in Linden. Time is radar estimated."
      },
      "geometry": {
        "type": "Point",
        "coordinates": [
          -87.84,
          35.61
        ]
      }
    },
    {
      "type": "Feature",
      "id": "iem-lsr-OHX-2",
      "properties": {
        "report_id": "iem-lsr-OHX-2",
        "report_type": "TSTM WND DMG",
        "event_category": "thunderstorm_wind",
        "valid_utc": "202606011615",
        "standard_time_display": "2026-06-01 10:15 CST",
        "wfo": "OHX",
        "county_or_zone": "Wayne",
        "city": "6 ENE Clifton",
        "state": "TN",
        "magnitude": null,
        "magnitude_units": null,
        "source": "Emergency Mngr",
        "event_narrative": "Tree down at intersection of Beech Creek Rd and Morrison Creek Rd. Time is radar estimated."
      },
      "geometry": {
        "type": "Point",
        "coordinates": [
          -87.9,
          35.41
        ]
      }
    },
    {
      "type": "Feature",
      "id": "iem-lsr-OHX-3",
      "properties": {
        "report_id": "iem-lsr-OHX-3",
        "report_type": "TSTM WND DMG",
        "event_category": "thunderstorm_wind",
        "valid_utc": "202606011645",
        "standard_time_display": "2026-06-01 10:45 CST",
        "wfo": "OHX",
        "county_or_zone": "Lawrence",
        "city": "2 W Lawrenceburg",
        "state": "TN",
        "magnitude": null,
        "magnitude_units": null,
        "source": "Emergency Mngr",
        "event_narrative": "A large tree branch fell on a car."
      },
      "geometry": {
        "type": "Point",
        "coordinates": [
          -87.38,
          35.24
        ]
      }
    },
    {
      "type": "Feature",
      "id": "iem-lsr-OHX-4",
      "properties": {
        "report_id": "iem-lsr-OHX-4",
        "report_type": "FLASH FLOOD",
        "event_category": "flooding",
        "valid_utc": "202606071731",
        "standard_time_display": "2026-06-07 11:31 CST",
        "wfo": "OHX",
        "county_or_zone": "Lawrence",
        "city": "1 SSW Iron City",
        "state": "TN",
        "magnitude": null,
        "magnitude_units": null,
        "source": "Emergency Mngr",
        "event_narrative": "Corrects previous flash flood report from 1 SSW Iron City. Video received of flash flooding occurring on Pruition Road in Iron City_ TN. Time is when report was received."
      },
      "geometry": {
        "type": "Point",
        "coordinates": [
          -87.6,
          35.01
        ]
      }
    },
    {
      "type": "Feature",
      "id": "iem-lsr-OHX-5",
      "properties": {
        "report_id": "iem-lsr-OHX-5",
        "report_type": "FLASH FLOOD",
        "event_category": "flooding",
        "valid_utc": "202606071731",
        "standard_time_display": "2026-06-07 11:31 CST",
        "wfo": "OHX",
        "county_or_zone": "Lawrence",
        "city": "1 SSW Iron City",
        "state": "TN",
        "magnitude": null,
        "magnitude_units": null,
        "source": "Emergency Mngr",
        "event_narrative": "Video received of flash flooding occurring on Pruitt Road in Iron City_ TN. Time is when report was received."
      },
      "geometry": {
        "type": "Point",
        "coordinates": [
          -87.6,
          35.01
        ]
      }
    },
    {
      "type": "Feature",
      "id": "iem-lsr-OHX-6",
      "properties": {
        "report_id": "iem-lsr-OHX-6",
        "report_type": "HAIL",
        "event_category": "hail",
        "valid_utc": "202606091934",
        "standard_time_display": "2026-06-09 13:34 CST",
        "wfo": "OHX",
        "county_or_zone": "Sumner",
        "city": "White House",
        "state": "TN",
        "magnitude": 0.7,
        "magnitude_units": null,
        "source": "Public",
        "event_narrative": "Dime size hail reported in White House."
      },
      "geometry": {
        "type": "Point",
        "coordinates": [
          -86.66,
          36.46
        ]
      }
    },
    {
      "type": "Feature",
      "id": "iem-lsr-OHX-7",
      "properties": {
        "report_id": "iem-lsr-OHX-7",
        "report_type": "FLASH FLOOD",
        "event_category": "flooding",
        "valid_utc": "202606092022",
        "standard_time_display": "2026-06-09 14:22 CST",
        "wfo": "OHX",
        "county_or_zone": "Robertson",
        "city": "2 WNW White House",
        "state": "TN",
        "magnitude": null,
        "magnitude_units": null,
        "source": "Emergency Mngr",
        "event_narrative": "Portions of Parks Subdivision has flooded. Water is up to the bottom of car doors."
      },
      "geometry": {
        "type": "Point",
        "coordinates": [
          -86.71,
          36.48
        ]
      }
    },
    {
      "type": "Feature",
      "id": "iem-lsr-OHX-8",
      "properties": {
        "report_id": "iem-lsr-OHX-8",
        "report_type": "HAIL",
        "event_category": "hail",
        "valid_utc": "202606092059",
        "standard_time_display": "2026-06-09 14:59 CST",
        "wfo": "OHX",
        "county_or_zone": "Robertson",
        "city": "6 W Coopertown",
        "state": "TN",
        "magnitude": 0.5,
        "magnitude_units": null,
        "source": "Public",
        "event_narrative": "Report from mPING: Half-inch (0.50 in.)."
      },
      "geometry": {
        "type": "Point",
        "coordinates": [
          -87.07,
          36.48
        ]
      }
    },
    {
      "type": "Feature",
      "id": "iem-lsr-OHX-9",
      "properties": {
        "report_id": "iem-lsr-OHX-9",
        "report_type": "HAIL",
        "event_category": "hail",
        "valid_utc": "202606092059",
        "standard_time_display": "2026-06-09 14:59 CST",
        "wfo": "OHX",
        "county_or_zone": "Robertson",
        "city": "5 SSW Cedar Hill",
        "state": "TN",
        "magnitude": 1.0,
        "magnitude_units": null,
        "source": "Trained Spotter",
        "event_narrative": "Delayed report of 1 inch hail nw of Coopertown."
      },
      "geometry": {
        "type": "Point",
        "coordinates": [
          -87.05,
          36.49
        ]
      }
    },
    {
      "type": "Feature",
      "id": "iem-lsr-OHX-10",
      "properties": {
        "report_id": "iem-lsr-OHX-10",
        "report_type": "FLASH FLOOD",
        "event_category": "flooding",
        "valid_utc": "202606092127",
        "standard_time_display": "2026-06-09 15:27 CST",
        "wfo": "OHX",
        "county_or_zone": "Sumner",
        "city": "4 NE White House",
        "state": "TN",
        "magnitude": null,
        "magnitude_units": null,
        "source": "Emergency Mngr",
        "event_narrative": "500 Block of Bowling Branch Rd in Cottontown is impassable due to high water."
      },
      "geometry": {
        "type": "Point",
        "coordinates": [
          -86.62,
          36.51
        ]
      }
    },
    {
      "type": "Feature",
      "id": "iem-lsr-OHX-11",
      "properties": {
        "report_id": "iem-lsr-OHX-11",
        "report_type": "FLASH FLOOD",
        "event_category": "flooding",
        "valid_utc": "202606092145",
        "standard_time_display": "2026-06-09 15:45 CST",
        "wfo": "OHX",
        "county_or_zone": "Robertson",
        "city": "3 NNW Millersville",
        "state": "TN",
        "magnitude": null,
        "magnitude_units": null,
        "source": "Broadcast Media",
        "event_narrative": "A Christian camp was evacuated due to flood waters. Time estimated."
      },
      "geometry": {
        "type": "Point",
        "coordinates": [
          -86.72,
          36.43
        ]
      }
    },
    {
      "type": "Feature",
      "id": "iem-lsr-OHX-12",
      "properties": {
        "report_id": "iem-lsr-OHX-12",
        "report_type": "FLASH FLOOD",
        "event_category": "flooding",
        "valid_utc": "202606092150",
        "standard_time_display": "2026-06-09 15:50 CST",
        "wfo": "OHX",
        "county_or_zone": "Robertson",
        "city": "3 SSW Cross Plains",
        "state": "TN",
        "magnitude": null,
        "magnitude_units": null,
        "source": "Emergency Mngr",
        "event_narrative": "At least two water rescues are ongoing along Covington Rd in White House."
      },
      "geometry": {
        "type": "Point",
        "coordinates": [
          -86.71,
          36.51
        ]
      }
    },
    {
      "type": "Feature",
      "id": "iem-lsr-OHX-13",
      "properties": {
        "report_id": "iem-lsr-OHX-13",
        "report_type": "TSTM WND DMG",
        "event_category": "thunderstorm_wind",
        "valid_utc": "202606092156",
        "standard_time_display": "2026-06-09 15:56 CST",
        "wfo": "OHX",
        "county_or_zone": "Wilson",
        "city": "1 NNE Mount Juliet",
        "state": "TN",
        "magnitude": null,
        "magnitude_units": null,
        "source": "Public",
        "event_narrative": "Tree on fence in Charlie Daniels Park. Time estimated from radar."
      },
      "geometry": {
        "type": "Point",
        "coordinates": [
          -86.51,
          36.22
        ]
      }
    },
    {
      "type": "Feature",
      "id": "iem-lsr-OHX-14",
      "properties": {
        "report_id": "iem-lsr-OHX-14",
        "report_type": "TSTM WND DMG",
        "event_category": "thunderstorm_wind",
        "valid_utc": "202606092156",
        "standard_time_display": "2026-06-09 15:56 CST",
        "wfo": "OHX",
        "county_or_zone": "Wilson",
        "city": "2 S Belinda City",
        "state": "TN",
        "magnitude": null,
        "magnitude_units": null,
        "source": "Amateur Radio",
        "event_narrative": "Corrects previous tstm wnd dmg report from 2 S Belinda City. A tree has fallen on a home. Estimated to be 80 feet tall and 3.5 feet in diameter. Relayed via amateur radio."
      },
      "geometry": {
        "type": "Point",
        "coordinates": [
          -86.48,
          36.14
        ]
      }
    },
    {
      "type": "Feature",
      "id": "iem-lsr-OHX-15",
      "properties": {
        "report_id": "iem-lsr-OHX-15",
        "report_type": "TSTM WND DMG",
        "event_category": "thunderstorm_wind",
        "valid_utc": "202606092156",
        "standard_time_display": "2026-06-09 15:56 CST",
        "wfo": "OHX",
        "county_or_zone": "Wilson",
        "city": "2 S Belinda City",
        "state": "TN",
        "magnitude": null,
        "magnitude_units": null,
        "source": "Public",
        "event_narrative": "Public reports multiple trees down on Logue Road."
      },
      "geometry": {
        "type": "Point",
        "coordinates": [
          -86.48,
          36.15
        ]
      }
    },
    {
      "type": "Feature",
      "id": "iem-lsr-OHX-16",
      "properties": {
        "report_id": "iem-lsr-OHX-16",
        "report_type": "TSTM WND DMG",
        "event_category": "thunderstorm_wind",
        "valid_utc": "202606092156",
        "standard_time_display": "2026-06-09 15:56 CST",
        "wfo": "OHX",
        "county_or_zone": "Wilson",
        "city": "2 WSW Belinda City",
        "state": "TN",
        "magnitude": null,
        "magnitude_units": null,
        "source": "Public",
        "event_narrative": "Tree down on Central Pike close to Mount Juliet Road. Time estimated."
      },
      "geometry": {
        "type": "Point",
        "coordinates": [
          -86.51,
          36.15
        ]
      }
    },
    {
      "type": "Feature",
      "id": "iem-lsr-OHX-17",
      "properties": {
        "report_id": "iem-lsr-OHX-17",
        "report_type": "TSTM WND GST",
        "event_category": "thunderstorm_wind",
        "valid_utc": "202606092201",
        "standard_time_display": "2026-06-09 16:01 CST",
        "wfo": "OHX",
        "county_or_zone": "Davidson",
        "city": "4 N Antioch",
        "state": "TN",
        "magnitude": 47.0,
        "magnitude_units": null,
        "source": "ASOS",
        "event_narrative": "ASOS station KBNA Nashville Intl Airport."
      },
      "geometry": {
        "type": "Point",
        "coordinates": [
          -86.68,
          36.12
        ]
      }
    },
    {
      "type": "Feature",
      "id": "iem-lsr-OHX-18",
      "properties": {
        "report_id": "iem-lsr-OHX-18",
        "report_type": "TSTM WND DMG",
        "event_category": "thunderstorm_wind",
        "valid_utc": "202606092207",
        "standard_time_display": "2026-06-09 16:07 CST",
        "wfo": "OHX",
        "county_or_zone": "Wilson",
        "city": "1 WSW Gladeville",
        "state": "TN",
        "magnitude": null,
        "magnitude_units": null,
        "source": "NWS Employee",
        "event_narrative": "Off-duty NWS Employee reports neighbors dogwood tree splits in half during strong winds. Estimated 60 MPH wind gust."
      },
      "geometry": {
        "type": "Point",
        "coordinates": [
          -86.42,
          36.11
        ]
      }
    },
    {
      "type": "Feature",
      "id": "iem-lsr-OHX-19",
      "properties": {
        "report_id": "iem-lsr-OHX-19",
        "report_type": "TSTM WND DMG",
        "event_category": "thunderstorm_wind",
        "valid_utc": "202606092212",
        "standard_time_display": "2026-06-09 16:12 CST",
        "wfo": "OHX",
        "county_or_zone": "Rutherford",
        "city": "2 NE Smyrna",
        "state": "TN",
        "magnitude": null,
        "magnitude_units": null,
        "source": "Public",
        "event_narrative": "Awning from Gils Food Mart in Smyrna collapsed. Time estimated from radar."
      },
      "geometry": {
        "type": "Point",
        "coordinates": [
          -86.49,
          36.0
        ]
      }
    },
    {
      "type": "Feature",
      "id": "iem-lsr-OHX-20",
      "properties": {
        "report_id": "iem-lsr-OHX-20",
        "report_type": "TSTM WND DMG",
        "event_category": "thunderstorm_wind",
        "valid_utc": "202606092212",
        "standard_time_display": "2026-06-09 16:12 CST",
        "wfo": "OHX",
        "county_or_zone": "Rutherford",
        "city": "4 ESE Nolensville",
        "state": "TN",
        "magnitude": null,
        "magnitude_units": null,
        "source": "Public",
        "event_narrative": "Corrects previous non-tstm wnd dmg report from 4 ESE Nolensville. Tree on powerline on Rocky Fork Road. Time estimated via radar."
      },
      "geometry": {
        "type": "Point",
        "coordinates": [
          -86.58,
          35.93
        ]
      }
    },
    {
      "type": "Feature",
      "id": "iem-lsr-OHX-21",
      "properties": {
        "report_id": "iem-lsr-OHX-21",
        "report_type": "NON-TSTM WND DMG",
        "event_category": "thunderstorm_wind",
        "valid_utc": "202606092212",
        "standard_time_display": "2026-06-09 16:12 CST",
        "wfo": "OHX",
        "county_or_zone": "Rutherford",
        "city": "4 ESE Nolensville",
        "state": "TN",
        "magnitude": null,
        "magnitude_units": null,
        "source": "Public",
        "event_narrative": "Tree on powerline on Rocky Fork Road. Time estimated via radar."
      },
      "geometry": {
        "type": "Point",
        "coordinates": [
          -86.58,
          35.93
        ]
      }
    },
    {
      "type": "Feature",
      "id": "iem-lsr-OHX-22",
      "properties": {
        "report_id": "iem-lsr-OHX-22",
        "report_type": "TSTM WND DMG",
        "event_category": "thunderstorm_wind",
        "valid_utc": "202606092215",
        "standard_time_display": "2026-06-09 16:15 CST",
        "wfo": "OHX",
        "county_or_zone": "Wilson",
        "city": "5 SE Gladeville",
        "state": "TN",
        "magnitude": null,
        "magnitude_units": null,
        "source": "Amateur Radio",
        "event_narrative": "Split trees on property_ estimated 60 mph winds. Relayed via amateur radio."
      },
      "geometry": {
        "type": "Point",
        "coordinates": [
          -86.37,
          36.06
        ]
      }
    },
    {
      "type": "Feature",
      "id": "iem-lsr-OHX-23",
      "properties": {
        "report_id": "iem-lsr-OHX-23",
        "report_type": "TSTM WND GST",
        "event_category": "thunderstorm_wind",
        "valid_utc": "202606092216",
        "standard_time_display": "2026-06-09 16:16 CST",
        "wfo": "OHX",
        "county_or_zone": "Rutherford",
        "city": "2 N Smyrna",
        "state": "TN",
        "magnitude": 54.0,
        "magnitude_units": null,
        "source": "AWOS",
        "event_narrative": "AWOS station KMQY Smyrna Airport."
      },
      "geometry": {
        "type": "Point",
        "coordinates": [
          -86.52,
          36.01
        ]
      }
    },
    {
      "type": "Feature",
      "id": "iem-lsr-OHX-24",
      "properties": {
        "report_id": "iem-lsr-OHX-24",
        "report_type": "RAIN",
        "event_category": "other",
        "valid_utc": "202606092220",
        "standard_time_display": "2026-06-09 16:20 CST",
        "wfo": "OHX",
        "county_or_zone": "Sumner",
        "city": "1 ESE White House",
        "state": "TN",
        "magnitude": 5.75,
        "magnitude_units": null,
        "source": "Trained Spotter",
        "event_narrative": "#tSpotter reports 5.75 inches of rain near White House High School at 5:20 PM."
      },
      "geometry": {
        "type": "Point",
        "coordinates": [
          -86.64,
          36.46
        ]
      }
    },
    {
      "type": "Feature",
      "id": "iem-lsr-OHX-25",
      "properties": {
        "report_id": "iem-lsr-OHX-25",
        "report_type": "TSTM WND DMG",
        "event_category": "thunderstorm_wind",
        "valid_utc": "202606092222",
        "standard_time_display": "2026-06-09 16:22 CST",
        "wfo": "OHX",
        "county_or_zone": "Rutherford",
        "city": "4 NNW Walterhill",
        "state": "TN",
        "magnitude": null,
        "magnitude_units": null,
        "source": "Public",
        "event_narrative": "Corrects previous tstm wnd dmg report from 4 NNW Walterhill. Public reports thunderstorm wind damage. Fence down_ trees down_ lightweight furniture strewn about. Also a sheet metal barn roof is gone."
      },
      "geometry": {
        "type": "Point",
        "coordinates": [
          -86.42,
          36.02
        ]
      }
    },
    {
      "type": "Feature",
      "id": "iem-lsr-OHX-26",
      "properties": {
        "report_id": "iem-lsr-OHX-26",
        "report_type": "TSTM WND DMG",
        "event_category": "thunderstorm_wind",
        "valid_utc": "202606092222",
        "standard_time_display": "2026-06-09 16:22 CST",
        "wfo": "OHX",
        "county_or_zone": "Rutherford",
        "city": "4 NNW Walterhill",
        "state": "TN",
        "magnitude": null,
        "magnitude_units": null,
        "source": "Public",
        "event_narrative": "Public reports thunderstorm wind damage. Fence down_ trees down_ lightweight furniture strewn about."
      },
      "geometry": {
        "type": "Point",
        "coordinates": [
          -86.42,
          36.02
        ]
      }
    },
    {
      "type": "Feature",
      "id": "iem-lsr-OHX-27",
      "properties": {
        "report_id": "iem-lsr-OHX-27",
        "report_type": "TSTM WND GST",
        "event_category": "thunderstorm_wind",
        "valid_utc": "202606092235",
        "standard_time_display": "2026-06-09 16:35 CST",
        "wfo": "OHX",
        "county_or_zone": "Rutherford",
        "city": "2 NNE Murfreesboro",
        "state": "TN",
        "magnitude": 44.0,
        "magnitude_units": null,
        "source": "AWOS",
        "event_narrative": "AWOS station KMBT 2 NNE Murfreesboro."
      },
      "geometry": {
        "type": "Point",
        "coordinates": [
          -86.38,
          35.88
        ]
      }
    },
    {
      "type": "Feature",
      "id": "iem-lsr-OHX-28",
      "properties": {
        "report_id": "iem-lsr-OHX-28",
        "report_type": "TSTM WND DMG",
        "event_category": "thunderstorm_wind",
        "valid_utc": "202606092235",
        "standard_time_display": "2026-06-09 16:35 CST",
        "wfo": "OHX",
        "county_or_zone": "Rutherford",
        "city": "2 WNW Walterhill",
        "state": "TN",
        "magnitude": null,
        "magnitude_units": null,
        "source": "Trained Spotter",
        "event_narrative": "Multiple trees down in the stone east neighborhood_ with possible shingles coming off of homes."
      },
      "geometry": {
        "type": "Point",
        "coordinates": [
          -86.41,
          35.97
        ]
      }
    },
    {
      "type": "Feature",
      "id": "iem-lsr-OHX-29",
      "properties": {
        "report_id": "iem-lsr-OHX-29",
        "report_type": "TSTM WND GST",
        "event_category": "thunderstorm_wind",
        "valid_utc": "202606092245",
        "standard_time_display": "2026-06-09 16:45 CST",
        "wfo": "OHX",
        "county_or_zone": "Cannon",
        "city": "1 ESE Woodbury",
        "state": "TN",
        "magnitude": 44.0,
        "magnitude_units": null,
        "source": "Mesonet",
        "event_narrative": "Mesonet station EW2458 Woodbury."
      },
      "geometry": {
        "type": "Point",
        "coordinates": [
          -86.06,
          35.82
        ]
      }
    },
    {
      "type": "Feature",
      "id": "iem-lsr-OHX-30",
      "properties": {
        "report_id": "iem-lsr-OHX-30",
        "report_type": "FLASH FLOOD",
        "event_category": "flooding",
        "valid_utc": "202606092255",
        "standard_time_display": "2026-06-09 16:55 CST",
        "wfo": "OHX",
        "county_or_zone": "Sumner",
        "city": "1 WSW Millersville",
        "state": "TN",
        "magnitude": null,
        "magnitude_units": null,
        "source": "Public",
        "event_narrative": "Public reports water over Slaters Creek Road in Millersville."
      },
      "geometry": {
        "type": "Point",
        "coordinates": [
          -86.71,
          36.38
        ]
      }
    },
    {
      "type": "Feature",
      "id": "iem-lsr-OHX-31",
      "properties": {
        "report_id": "iem-lsr-OHX-31",
        "report_type": "RAIN",
        "event_category": "other",
        "valid_utc": "202606092300",
        "standard_time_display": "2026-06-09 17:00 CST",
        "wfo": "OHX",
        "county_or_zone": "Robertson",
        "city": "1 NNW White House",
        "state": "TN",
        "magnitude": 5.89,
        "magnitude_units": null,
        "source": "Trained Spotter",
        "event_narrative": "Storm total. Relayed via #tSpotter."
      },
      "geometry": {
        "type": "Point",
        "coordinates": [
          -86.67,
          36.47
        ]
      }
    },
    {
      "type": "Feature",
      "id": "iem-lsr-OHX-32",
      "properties": {
        "report_id": "iem-lsr-OHX-32",
        "report_type": "TSTM WND GST",
        "event_category": "thunderstorm_wind",
        "valid_utc": "202606092315",
        "standard_time_display": "2026-06-09 17:15 CST",
        "wfo": "OHX",
        "county_or_zone": "Warren",
        "city": "4 WNW Mcminnville",
        "state": "TN",
        "magnitude": 40.0,
        "magnitude_units": null,
        "source": "AWOS",
        "event_narrative": "AWOS station KRNC Mcminnville Airport."
      },
      "geometry": {
        "type": "Point",
        "coordinates": [
          -85.84,
          35.7
        ]
      }
    },
    {
      "type": "Feature",
      "id": "iem-lsr-OHX-33",
      "properties": {
        "report_id": "iem-lsr-OHX-33",
        "report_type": "TSTM WND DMG",
        "event_category": "thunderstorm_wind",
        "valid_utc": "202606092318",
        "standard_time_display": "2026-06-09 17:18 CST",
        "wfo": "OHX",
        "county_or_zone": "Wilson",
        "city": "2 S Belinda City",
        "state": "TN",
        "magnitude": null,
        "magnitude_units": null,
        "source": "Amateur Radio",
        "event_narrative": "A tree has fallen on a home. Estimated to be 80 feet tall and 3.5 feet in diameter. Relayed via amateur radio."
      },
      "geometry": {
        "type": "Point",
        "coordinates": [
          -86.48,
          36.14
        ]
      }
    },
    {
      "type": "Feature",
      "id": "iem-lsr-OHX-34",
      "properties": {
        "report_id": "iem-lsr-OHX-34",
        "report_type": "FLASH FLOOD",
        "event_category": "flooding",
        "valid_utc": "202606092330",
        "standard_time_display": "2026-06-09 17:30 CST",
        "wfo": "OHX",
        "county_or_zone": "Wilson",
        "city": "3 SW Mount Juliet",
        "state": "TN",
        "magnitude": null,
        "magnitude_units": null,
        "source": "Public",
        "event_narrative": "Water is flowing over the road at Central Pike and Chandler. One large vehicle was swept off the roadway. Time estimated."
      },
      "geometry": {
        "type": "Point",
        "coordinates": [
          -86.56,
          36.17
        ]
      }
    },
    {
      "type": "Feature",
      "id": "iem-lsr-OHX-35",
      "properties": {
        "report_id": "iem-lsr-OHX-35",
        "report_type": "FLASH FLOOD",
        "event_category": "flooding",
        "valid_utc": "202606100003",
        "standard_time_display": "2026-06-09 18:03 CST",
        "wfo": "OHX",
        "county_or_zone": "Sumner",
        "city": "3 N Hendersonville",
        "state": "TN",
        "magnitude": null,
        "magnitude_units": null,
        "source": "Trained Spotter",
        "event_narrative": "#tSpotter reports flash flooding on Stop 30 Road in Hendersonville. Water flowing across roadway."
      },
      "geometry": {
        "type": "Point",
        "coordinates": [
          -86.61,
          36.34
        ]
      }
    },
    {
      "type": "Feature",
      "id": "iem-lsr-OHX-36",
      "properties": {
        "report_id": "iem-lsr-OHX-36",
        "report_type": "RAIN",
        "event_category": "other",
        "valid_utc": "202606100050",
        "standard_time_display": "2026-06-09 18:50 CST",
        "wfo": "OHX",
        "county_or_zone": "Robertson",
        "city": "1 NNE White House",
        "state": "TN",
        "magnitude": 6.1,
        "magnitude_units": null,
        "source": "Public",
        "event_narrative": "Storm total. Relayed via #tSpotter."
      },
      "geometry": {
        "type": "Point",
        "coordinates": [
          -86.66,
          36.47
        ]
      }
    },
    {
      "type": "Feature",
      "id": "iem-lsr-OHX-37",
      "properties": {
        "report_id": "iem-lsr-OHX-37",
        "report_type": "RAIN",
        "event_category": "other",
        "valid_utc": "202606100051",
        "standard_time_display": "2026-06-09 18:51 CST",
        "wfo": "OHX",
        "county_or_zone": "Robertson",
        "city": "3 NW White House",
        "state": "TN",
        "magnitude": 7.01,
        "magnitude_units": null,
        "source": "Public",
        "event_narrative": "Storm total. Relayed via #tSpotter."
      },
      "geometry": {
        "type": "Point",
        "coordinates": [
          -86.7,
          36.49
        ]
      }
    },
    {
      "type": "Feature",
      "id": "iem-lsr-OHX-38",
      "properties": {
        "report_id": "iem-lsr-OHX-38",
        "report_type": "FLASH FLOOD",
        "event_category": "flooding",
        "valid_utc": "202606100134",
        "standard_time_display": "2026-06-09 19:34 CST",
        "wfo": "OHX",
        "county_or_zone": "Sumner",
        "city": "6 W Gallatin",
        "state": "TN",
        "magnitude": null,
        "magnitude_units": null,
        "source": "Trained Spotter",
        "event_narrative": "Jenkins Ln at lower station camp creek rd was closed due to high water."
      },
      "geometry": {
        "type": "Point",
        "coordinates": [
          -86.55,
          36.37
        ]
      }
    },
    {
      "type": "Feature",
      "id": "iem-lsr-OHX-39",
      "properties": {
        "report_id": "iem-lsr-OHX-39",
        "report_type": "TSTM WND DMG",
        "event_category": "thunderstorm_wind",
        "valid_utc": "202606132305",
        "standard_time_display": "2026-06-13 17:05 CST",
        "wfo": "OHX",
        "county_or_zone": "Perry",
        "city": "1 SSW Lobelville",
        "state": "TN",
        "magnitude": null,
        "magnitude_units": null,
        "source": "Trained Spotter",
        "event_narrative": "Relayed via #tSpotter: Tree down in DePriest Cemetery."
      },
      "geometry": {
        "type": "Point",
        "coordinates": [
          -87.81,
          35.74
        ]
      }
    },
    {
      "type": "Feature",
      "id": "iem-lsr-OHX-40",
      "properties": {
        "report_id": "iem-lsr-OHX-40",
        "report_type": "TSTM WND DMG",
        "event_category": "thunderstorm_wind",
        "valid_utc": "202606140058",
        "standard_time_display": "2026-06-13 18:58 CST",
        "wfo": "OHX",
        "county_or_zone": "Lawrence",
        "city": "1 W Summertown",
        "state": "TN",
        "magnitude": null,
        "magnitude_units": null,
        "source": "911 Call Center",
        "event_narrative": "Tree down on railroad bed pike_ blocking the eastbound lane. Time is the time of the report."
      },
      "geometry": {
        "type": "Point",
        "coordinates": [
          -87.32,
          35.44
        ]
      }
    },
    {
      "type": "Feature",
      "id": "iem-lsr-OHX-41",
      "properties": {
        "report_id": "iem-lsr-OHX-41",
        "report_type": "TSTM WND DMG",
        "event_category": "thunderstorm_wind",
        "valid_utc": "202606141906",
        "standard_time_display": "2026-06-14 13:06 CST",
        "wfo": "OHX",
        "county_or_zone": "Lawrence",
        "city": "1 N St. Joseph",
        "state": "TN",
        "magnitude": null,
        "magnitude_units": null,
        "source": "Emergency Mngr",
        "event_narrative": "EM reports a large tree has fallen across Bluff road. Time estimated."
      },
      "geometry": {
        "type": "Point",
        "coordinates": [
          -87.51,
          35.05
        ]
      }
    },
    {
      "type": "Feature",
      "id": "iem-lsr-OHX-42",
      "properties": {
        "report_id": "iem-lsr-OHX-42",
        "report_type": "TSTM WND DMG",
        "event_category": "thunderstorm_wind",
        "valid_utc": "202606141910",
        "standard_time_display": "2026-06-14 13:10 CST",
        "wfo": "OHX",
        "county_or_zone": "Lawrence",
        "city": "4 NW Lawrenceburg",
        "state": "TN",
        "magnitude": null,
        "magnitude_units": null,
        "source": "Emergency Mngr",
        "event_narrative": "Tree blocking road reported by EMA. Time estimated."
      },
      "geometry": {
        "type": "Point",
        "coordinates": [
          -87.38,
          35.29
        ]
      }
    },
    {
      "type": "Feature",
      "id": "iem-lsr-OHX-43",
      "properties": {
        "report_id": "iem-lsr-OHX-43",
        "report_type": "TSTM WND DMG",
        "event_category": "thunderstorm_wind",
        "valid_utc": "202606141914",
        "standard_time_display": "2026-06-14 13:14 CST",
        "wfo": "OHX",
        "county_or_zone": "Lawrence",
        "city": "1 E Lawrenceburg",
        "state": "TN",
        "magnitude": null,
        "magnitude_units": null,
        "source": "911 Call Center",
        "event_narrative": "Large tree blocking roadway reported by 911. Delayed report_ time estimated."
      },
      "geometry": {
        "type": "Point",
        "coordinates": [
          -87.32,
          35.25
        ]
      }
    },
    {
      "type": "Feature",
      "id": "iem-lsr-OHX-44",
      "properties": {
        "report_id": "iem-lsr-OHX-44",
        "report_type": "TSTM WND DMG",
        "event_category": "thunderstorm_wind",
        "valid_utc": "202606141926",
        "standard_time_display": "2026-06-14 13:26 CST",
        "wfo": "OHX",
        "county_or_zone": "Lawrence",
        "city": "4 ESE Lawrenceburg",
        "state": "TN",
        "magnitude": null,
        "magnitude_units": null,
        "source": "Emergency Mngr",
        "event_narrative": "EM reports tree on residence on Countrywood drive_ with powerpole down in backyard."
      },
      "geometry": {
        "type": "Point",
        "coordinates": [
          -87.27,
          35.23
        ]
      }
    },
    {
      "type": "Feature",
      "id": "iem-lsr-OHX-45",
      "properties": {
        "report_id": "iem-lsr-OHX-45",
        "report_type": "TSTM WND GST",
        "event_category": "thunderstorm_wind",
        "valid_utc": "202606181615",
        "standard_time_display": "2026-06-18 10:15 CST",
        "wfo": "OHX",
        "county_or_zone": "Coffee",
        "city": "2 WNW Tullahoma",
        "state": "TN",
        "magnitude": 41.0,
        "magnitude_units": null,
        "source": "AWOS",
        "event_narrative": "AWOS station KTHA Tullahoma Regional Airport."
      },
      "geometry": {
        "type": "Point",
        "coordinates": [
          -86.25,
          35.38
        ]
      }
    },
    {
      "type": "Feature",
      "id": "iem-lsr-OHX-46",
      "properties": {
        "report_id": "iem-lsr-OHX-46",
        "report_type": "TSTM WND GST",
        "event_category": "thunderstorm_wind",
        "valid_utc": "202606181655",
        "standard_time_display": "2026-06-18 10:55 CST",
        "wfo": "OHX",
        "county_or_zone": "Warren",
        "city": "4 WNW Mcminnville",
        "state": "TN",
        "magnitude": 40.0,
        "magnitude_units": null,
        "source": "AWOS",
        "event_narrative": "AWOS station KRNC Warren County Memorial Airport."
      },
      "geometry": {
        "type": "Point",
        "coordinates": [
          -85.84,
          35.7
        ]
      }
    },
    {
      "type": "Feature",
      "id": "iem-lsr-OHX-47",
      "properties": {
        "report_id": "iem-lsr-OHX-47",
        "report_type": "FLOOD",
        "event_category": "flooding",
        "valid_utc": "202606221810",
        "standard_time_display": "2026-06-22 12:10 CST",
        "wfo": "OHX",
        "county_or_zone": "Lawrence",
        "city": "1 NE Lawrenceburg",
        "state": "TN",
        "magnitude": null,
        "magnitude_units": null,
        "source": "Broadcast Media",
        "event_narrative": "Local media reporting Old Military Road_ behind Hardees in Lawrenceburg_ has been closed due to flooding."
      },
      "geometry": {
        "type": "Point",
        "coordinates": [
          -87.33,
          35.26
        ]
      }
    },
    {
      "type": "Feature",
      "id": "iem-lsr-OHX-48",
      "properties": {
        "report_id": "iem-lsr-OHX-48",
        "report_type": "FLASH FLOOD",
        "event_category": "flooding",
        "valid_utc": "202606281344",
        "standard_time_display": "2026-06-28 07:44 CST",
        "wfo": "OHX",
        "county_or_zone": "Pickett",
        "city": "3 NE Byrdstown",
        "state": "TN",
        "magnitude": null,
        "magnitude_units": null,
        "source": "Emergency Mngr",
        "event_narrative": "Portions of Lick Creek Rd inundated with water."
      },
      "geometry": {
        "type": "Point",
        "coordinates": [
          -85.09,
          36.6
        ]
      }
    },
    {
      "type": "Feature",
      "id": "iem-lsr-OHX-49",
      "properties": {
        "report_id": "iem-lsr-OHX-49",
        "report_type": "FLASH FLOOD",
        "event_category": "flooding",
        "valid_utc": "202606281351",
        "standard_time_display": "2026-06-28 08:51 EST",
        "wfo": "OHX",
        "county_or_zone": "Fentress",
        "city": "6 N Jamestown",
        "state": "TN",
        "magnitude": null,
        "magnitude_units": null,
        "source": "Emergency Mngr",
        "event_narrative": "Portions of Delk Creek Rd along the Wolf River are inundated with water and impassable."
      },
      "geometry": {
        "type": "Point",
        "coordinates": [
          -84.91,
          36.52
        ]
      }
    },
    {
      "type": "Feature",
      "id": "iem-lsr-OHX-50",
      "properties": {
        "report_id": "iem-lsr-OHX-50",
        "report_type": "FLASH FLOOD",
        "event_category": "flooding",
        "valid_utc": "202606281355",
        "standard_time_display": "2026-06-28 08:55 EST",
        "wfo": "OHX",
        "county_or_zone": "Fentress",
        "city": "1 NW Jamestown",
        "state": "TN",
        "magnitude": null,
        "magnitude_units": null,
        "source": "Emergency Mngr",
        "event_narrative": "Portions of Lawson Street are inundated with water and beginning to become impassable."
      },
      "geometry": {
        "type": "Point",
        "coordinates": [
          -84.94,
          36.44
        ]
      }
    }
  ]
}