{
  "type": "FeatureCollection",
  "metadata": {
    "schema_version": "0.2.4",
    "year": 2026,
    "month": 10,
    "wfo": "BRO",
    "start_utc": "2026-10-01T00:00:00Z",
    "end_utc": "2026-11-01T00:00:00Z",
    "generated_utc": "2026-10-06T15:54:33Z",
    "mode": "storm_data_prep",
    "public_release_status": "public-source-derived",
    "time_note": "Storm Data entry times should be reviewed in local Standard Time (ST), not daylight time. Candidate reports include standard_time_display.",
    "tornado_track_policy": "Tornado tracks must come from DAT. NCEI begin/end coordinates are not used as a tornado track substitute.",
    "source": "https://mesonet.agron.iastate.edu/cgi-bin/request/gis/lsr.py?wfo=BRO&sts=2026-10-01T00%3A00%3A00Z&ets=2026-11-01T00%3A00%3A00Z&fmt=csv"
  },
  "features": [
    {
      "type": "Feature",
      "id": "iem-lsr-BRO-1",
      "properties": {
        "report_id": "iem-lsr-BRO-1",
        "report_type": "FLASH FLOOD",
        "event_category": "flooding",
        "valid_utc": "202610020337",
        "standard_time_display": "2026-10-01 21:37 CST",
        "wfo": "BRO",
        "county_or_zone": "Starr",
        "city": "5 WNW Sullivan City",
        "state": "TX",
        "magnitude": null,
        "magnitude_units": null,
        "source": "Law Enforcement",
        "event_narrative": "Law enforcement reported a couple of road closures."
      },
      "geometry": {
        "type": "Point",
        "coordinates": [
          -98.63,
          26.3
        ]
      }
    }
  ]
}