{
  "type": "FeatureCollection",
  "metadata": {
    "schema_version": "0.2.4",
    "year": 2026,
    "month": 8,
    "wfo": "BMX",
    "start_utc": "2026-08-01T00:00:00Z",
    "end_utc": "2026-09-01T00:00:00Z",
    "generated_utc": "2026-08-18T09:46:15Z",
    "mode": "storm_data_prep",
    "public_release_status": "public-source-derived",
    "time_note": "Storm Data entry times should be reviewed in local Standard Time (ST), not daylight time. Candidate reports include standard_time_display.",
    "tornado_track_policy": "Tornado tracks must come from DAT. NCEI begin/end coordinates are not used as a tornado track substitute.",
    "source": "https://mesonet.agron.iastate.edu/cgi-bin/request/gis/lsr.py?wfo=BMX&sts=2026-08-01T00%3A00%3A00Z&ets=2026-09-01T00%3A00%3A00Z&fmt=csv"
  },
  "features": [
    {
      "type": "Feature",
      "id": "iem-lsr-BMX-1",
      "properties": {
        "report_id": "iem-lsr-BMX-1",
        "report_type": "TSTM WND DMG",
        "event_category": "thunderstorm_wind",
        "valid_utc": "202608012337",
        "standard_time_display": "2026-08-01 17:37 CST",
        "wfo": "BMX",
        "county_or_zone": "Talladega",
        "city": "1 SSE Alpine",
        "state": "AL",
        "magnitude": null,
        "magnitude_units": null,
        "source": "Emergency Mngr",
        "event_narrative": "Trees down in the Alpine area of Shadetree Lane. Time estimated."
      },
      "geometry": {
        "type": "Point",
        "coordinates": [
          -86.21,
          33.34
        ]
      }
    },
    {
      "type": "Feature",
      "id": "iem-lsr-BMX-2",
      "properties": {
        "report_id": "iem-lsr-BMX-2",
        "report_type": "TSTM WND DMG",
        "event_category": "thunderstorm_wind",
        "valid_utc": "202608012337",
        "standard_time_display": "2026-08-01 17:37 CST",
        "wfo": "BMX",
        "county_or_zone": "Talladega",
        "city": "1 SSE Alpine",
        "state": "AL",
        "magnitude": null,
        "magnitude_units": null,
        "source": "Emergency Mngr",
        "event_narrative": "Trees down in the Apline area of Shadetree Lane. Time estimated."
      },
      "geometry": {
        "type": "Point",
        "coordinates": [
          -86.21,
          33.34
        ]
      }
    },
    {
      "type": "Feature",
      "id": "iem-lsr-BMX-3",
      "properties": {
        "report_id": "iem-lsr-BMX-3",
        "report_type": "TSTM WND DMG",
        "event_category": "thunderstorm_wind",
        "valid_utc": "202608012343",
        "standard_time_display": "2026-08-01 17:43 CST",
        "wfo": "BMX",
        "county_or_zone": "Talladega",
        "city": "Munford",
        "state": "AL",
        "magnitude": null,
        "magnitude_units": null,
        "source": "Emergency Mngr",
        "event_narrative": "Trees down and blocking Cedars Road. Time estimated."
      },
      "geometry": {
        "type": "Point",
        "coordinates": [
          -85.95,
          33.53
        ]
      }
    },
    {
      "type": "Feature",
      "id": "iem-lsr-BMX-4",
      "properties": {
        "report_id": "iem-lsr-BMX-4",
        "report_type": "FLASH FLOOD",
        "event_category": "flooding",
        "valid_utc": "202608072030",
        "standard_time_display": "2026-08-07 14:30 CST",
        "wfo": "BMX",
        "county_or_zone": "Jefferson",
        "city": "1 NW Kingston",
        "state": "AL",
        "magnitude": null,
        "magnitude_units": null,
        "source": "Emergency Manager",
        "event_narrative": "Several reports of flooded roads and parking lots. Picture of roughly 8-10 inches of water on road and parking lots."
      },
      "geometry": {
        "type": "Point",
        "coordinates": [
          -86.79,
          33.55
        ]
      }
    },
    {
      "type": "Feature",
      "id": "iem-lsr-BMX-5",
      "properties": {
        "report_id": "iem-lsr-BMX-5",
        "report_type": "FLASH FLOOD",
        "event_category": "flooding",
        "valid_utc": "202608072045",
        "standard_time_display": "2026-08-07 14:45 CST",
        "wfo": "BMX",
        "county_or_zone": "Jefferson",
        "city": "1 E BJCC",
        "state": "AL",
        "magnitude": null,
        "magnitude_units": null,
        "source": "Emergency Manager",
        "event_narrative": "Fire and Rescue reports 31st Ave at Reverand Abraham Woods Jr Blvd is flooded. Several Vehicles in water."
      },
      "geometry": {
        "type": "Point",
        "coordinates": [
          -86.8,
          33.53
        ]
      }
    },
    {
      "type": "Feature",
      "id": "iem-lsr-BMX-6",
      "properties": {
        "report_id": "iem-lsr-BMX-6",
        "report_type": "TSTM WND DMG",
        "event_category": "thunderstorm_wind",
        "valid_utc": "202608092030",
        "standard_time_display": "2026-08-09 14:30 CST",
        "wfo": "BMX",
        "county_or_zone": "Jefferson",
        "city": "1 S Samford University",
        "state": "AL",
        "magnitude": null,
        "magnitude_units": null,
        "source": "911 Call Center",
        "event_narrative": "Several trees down in neighborhoods around and in vicinity of Vestavia Hills Country Club. Time estimated by radar."
      },
      "geometry": {
        "type": "Point",
        "coordinates": [
          -86.79,
          33.45
        ]
      }
    },
    {
      "type": "Feature",
      "id": "iem-lsr-BMX-7",
      "properties": {
        "report_id": "iem-lsr-BMX-7",
        "report_type": "TSTM WND DMG",
        "event_category": "thunderstorm_wind",
        "valid_utc": "202608092040",
        "standard_time_display": "2026-08-09 14:40 CST",
        "wfo": "BMX",
        "county_or_zone": "Jefferson",
        "city": "2 N Mountain Brook",
        "state": "AL",
        "magnitude": null,
        "magnitude_units": null,
        "source": "911 Call Center",
        "event_narrative": "Trees reported down in Crestline. Numerous power outages noted in the Crestline to Crestwood area of East Birmingham. Time estimated by radar."
      },
      "geometry": {
        "type": "Point",
        "coordinates": [
          -86.74,
          33.53
        ]
      }
    },
    {
      "type": "Feature",
      "id": "iem-lsr-BMX-8",
      "properties": {
        "report_id": "iem-lsr-BMX-8",
        "report_type": "TSTM WND DMG",
        "event_category": "thunderstorm_wind",
        "valid_utc": "202608092046",
        "standard_time_display": "2026-08-09 14:46 CST",
        "wfo": "BMX",
        "county_or_zone": "Jefferson",
        "city": "2 NE Mountain Brook",
        "state": "AL",
        "magnitude": null,
        "magnitude_units": null,
        "source": "Broadcast Media",
        "event_narrative": "Picture of numerous trees snapped on Redwood St. in Crestline."
      },
      "geometry": {
        "type": "Point",
        "coordinates": [
          -86.72,
          33.52
        ]
      }
    },
    {
      "type": "Feature",
      "id": "iem-lsr-BMX-9",
      "properties": {
        "report_id": "iem-lsr-BMX-9",
        "report_type": "TSTM WND GST",
        "event_category": "thunderstorm_wind",
        "valid_utc": "202608092102",
        "standard_time_display": "2026-08-09 15:02 CST",
        "wfo": "BMX",
        "county_or_zone": "Jefferson",
        "city": "1 E Birmingham Internat",
        "state": "AL",
        "magnitude": 52.0,
        "magnitude_units": null,
        "source": "ASOS/AWOS",
        "event_narrative": null
      },
      "geometry": {
        "type": "Point",
        "coordinates": [
          -86.75,
          33.57
        ]
      }
    },
    {
      "type": "Feature",
      "id": "iem-lsr-BMX-10",
      "properties": {
        "report_id": "iem-lsr-BMX-10",
        "report_type": "FLASH FLOOD",
        "event_category": "flooding",
        "valid_utc": "202608092130",
        "standard_time_display": "2026-08-09 15:30 CST",
        "wfo": "BMX",
        "county_or_zone": "Jefferson",
        "city": "0 S Birmingham Fairgrou",
        "state": "AL",
        "magnitude": null,
        "magnitude_units": null,
        "source": "Official NWS Obse",
        "event_narrative": "Valley creek at Avenue W crossed into flood stage and crested at 12.8ft."
      },
      "geometry": {
        "type": "Point",
        "coordinates": [
          -86.87,
          33.49
        ]
      }
    },
    {
      "type": "Feature",
      "id": "iem-lsr-BMX-11",
      "properties": {
        "report_id": "iem-lsr-BMX-11",
        "report_type": "FLASH FLOOD",
        "event_category": "flooding",
        "valid_utc": "202608092136",
        "standard_time_display": "2026-08-09 15:36 CST",
        "wfo": "BMX",
        "county_or_zone": "Jefferson",
        "city": "1 SE Legion Field",
        "state": "AL",
        "magnitude": null,
        "magnitude_units": null,
        "source": "Official NWS Obse",
        "event_narrative": "Valley Creek at Center Street has crossed into flood stage. Water overflows on south side bank of creek and approaches the road south of the bridge."
      },
      "geometry": {
        "type": "Point",
        "coordinates": [
          -86.84,
          33.51
        ]
      }
    },
    {
      "type": "Feature",
      "id": "iem-lsr-BMX-12",
      "properties": {
        "report_id": "iem-lsr-BMX-12",
        "report_type": "TSTM WND DMG",
        "event_category": "thunderstorm_wind",
        "valid_utc": "202608112000",
        "standard_time_display": "2026-08-11 14:00 CST",
        "wfo": "BMX",
        "county_or_zone": "Cherokee",
        "city": "Gaylesville",
        "state": "AL",
        "magnitude": null,
        "magnitude_units": null,
        "source": "911 Call Center",
        "event_narrative": "Tree down reports at various parts of the county from multiple rounds of thunderstorms; sub-severe winds probable along with heavy rainfall."
      },
      "geometry": {
        "type": "Point",
        "coordinates": [
          -85.56,
          34.27
        ]
      }
    },
    {
      "type": "Feature",
      "id": "iem-lsr-BMX-13",
      "properties": {
        "report_id": "iem-lsr-BMX-13",
        "report_type": "TSTM WND DMG",
        "event_category": "thunderstorm_wind",
        "valid_utc": "202608112150",
        "standard_time_display": "2026-08-11 15:50 CST",
        "wfo": "BMX",
        "county_or_zone": "Etowah",
        "city": "2 NNE Gadsden",
        "state": "AL",
        "magnitude": null,
        "magnitude_units": null,
        "source": "Emergency Mngr",
        "event_narrative": "Tree down reports in the Gadsden area_ some involving power lines and partial or complete road blockage."
      },
      "geometry": {
        "type": "Point",
        "coordinates": [
          -85.99,
          34.04
        ]
      }
    },
    {
      "type": "Feature",
      "id": "iem-lsr-BMX-14",
      "properties": {
        "report_id": "iem-lsr-BMX-14",
        "report_type": "TSTM WND DMG",
        "event_category": "thunderstorm_wind",
        "valid_utc": "202608112200",
        "standard_time_display": "2026-08-11 16:00 CST",
        "wfo": "BMX",
        "county_or_zone": "Etowah",
        "city": "3 NE Gadsden Steam Plan",
        "state": "AL",
        "magnitude": null,
        "magnitude_units": null,
        "source": "Public",
        "event_narrative": "A couple trees down_ at least one involving power lines."
      },
      "geometry": {
        "type": "Point",
        "coordinates": [
          -85.94,
          34.04
        ]
      }
    },
    {
      "type": "Feature",
      "id": "iem-lsr-BMX-15",
      "properties": {
        "report_id": "iem-lsr-BMX-15",
        "report_type": "TSTM WND DMG",
        "event_category": "thunderstorm_wind",
        "valid_utc": "202608132000",
        "standard_time_display": "2026-08-13 14:00 CST",
        "wfo": "BMX",
        "county_or_zone": "Lee",
        "city": "2 E Opelika",
        "state": "AL",
        "magnitude": null,
        "magnitude_units": null,
        "source": "911 Call Center",
        "event_narrative": "Trees down in the Opelika area_ including some along Interstate 85."
      },
      "geometry": {
        "type": "Point",
        "coordinates": [
          -85.35,
          32.64
        ]
      }
    },
    {
      "type": "Feature",
      "id": "iem-lsr-BMX-16",
      "properties": {
        "report_id": "iem-lsr-BMX-16",
        "report_type": "TSTM WND DMG",
        "event_category": "thunderstorm_wind",
        "valid_utc": "202608132001",
        "standard_time_display": "2026-08-13 14:01 CST",
        "wfo": "BMX",
        "county_or_zone": "Lee",
        "city": "2 SSE Opelika Sportsple",
        "state": "AL",
        "magnitude": null,
        "magnitude_units": null,
        "source": "Public",
        "event_narrative": "Numerous reports of trees and limbs down around the eastern part of Opelika_ including around I-85_ North and South Uniroyal Rd_ Columbus Pkwy_ and Vaughan Ave. Traffic was stopped on I-85 due to dow"
      },
      "geometry": {
        "type": "Point",
        "coordinates": [
          -85.34,
          32.64
        ]
      }
    },
    {
      "type": "Feature",
      "id": "iem-lsr-BMX-17",
      "properties": {
        "report_id": "iem-lsr-BMX-17",
        "report_type": "HAIL",
        "event_category": "hail",
        "valid_utc": "202608132002",
        "standard_time_display": "2026-08-13 14:02 CST",
        "wfo": "BMX",
        "county_or_zone": "Lee",
        "city": "3 ESE Opelika",
        "state": "AL",
        "magnitude": 0.75,
        "magnitude_units": null,
        "source": "Public",
        "event_narrative": "Video of dime to penny-size hail in a subdivision along S Uniroyal Rd near Columbus Pkwy."
      },
      "geometry": {
        "type": "Point",
        "coordinates": [
          -85.34,
          32.63
        ]
      }
    },
    {
      "type": "Feature",
      "id": "iem-lsr-BMX-18",
      "properties": {
        "report_id": "iem-lsr-BMX-18",
        "report_type": "TSTM WND DMG",
        "event_category": "thunderstorm_wind",
        "valid_utc": "202608132004",
        "standard_time_display": "2026-08-13 14:04 CST",
        "wfo": "BMX",
        "county_or_zone": "Lee",
        "city": "3 ESE Opelika Sportsple",
        "state": "AL",
        "magnitude": null,
        "magnitude_units": null,
        "source": "Fire Dept/Rescue",
        "event_narrative": "Trees were downed on Lee Road 154_ 390_ and 391 near 151. Some fell on power lines_ with the fallen tree along Lee Road 390 briefly catching fire."
      },
      "geometry": {
        "type": "Point",
        "coordinates": [
          -85.31,
          32.66
        ]
      }
    },
    {
      "type": "Feature",
      "id": "iem-lsr-BMX-19",
      "properties": {
        "report_id": "iem-lsr-BMX-19",
        "report_type": "HAIL",
        "event_category": "hail",
        "valid_utc": "202608132011",
        "standard_time_display": "2026-08-13 14:11 CST",
        "wfo": "BMX",
        "county_or_zone": "Lee",
        "city": "3 NW Salem",
        "state": "AL",
        "magnitude": 0.7,
        "magnitude_units": null,
        "source": "Broadcast Media",
        "event_narrative": "Dime-size hail reported along Lee County Road 391 near U.S. 280."
      },
      "geometry": {
        "type": "Point",
        "coordinates": [
          -85.28,
          32.63
        ]
      }
    },
    {
      "type": "Feature",
      "id": "iem-lsr-BMX-20",
      "properties": {
        "report_id": "iem-lsr-BMX-20",
        "report_type": "TSTM WND DMG",
        "event_category": "thunderstorm_wind",
        "valid_utc": "202608172036",
        "standard_time_display": "2026-08-17 14:36 CST",
        "wfo": "BMX",
        "county_or_zone": "Hale",
        "city": "4 E Evansville",
        "state": "AL",
        "magnitude": null,
        "magnitude_units": null,
        "source": "Emergency Mngr",
        "event_narrative": "At least 20 trees down across roadways in the general vicinity of the CR 21 and CR 34 intersection near Akron. A few homes and outbuildings received structural damage from high winds."
      },
      "geometry": {
        "type": "Point",
        "coordinates": [
          -87.68,
          32.84
        ]
      }
    },
    {
      "type": "Feature",
      "id": "iem-lsr-BMX-21",
      "properties": {
        "report_id": "iem-lsr-BMX-21",
        "report_type": "TSTM WND DMG",
        "event_category": "thunderstorm_wind",
        "valid_utc": "202608180010",
        "standard_time_display": "2026-08-17 18:10 CST",
        "wfo": "BMX",
        "county_or_zone": "Marion",
        "city": "2 S Tucker",
        "state": "AL",
        "magnitude": null,
        "magnitude_units": null,
        "source": "911 Call Center",
        "event_narrative": "911 reports of several trees down just east of Winfield. Time estimated by radar."
      },
      "geometry": {
        "type": "Point",
        "coordinates": [
          -87.78,
          33.95
        ]
      }
    },
    {
      "type": "Feature",
      "id": "iem-lsr-BMX-22",
      "properties": {
        "report_id": "iem-lsr-BMX-22",
        "report_type": "TSTM WND DMG",
        "event_category": "thunderstorm_wind",
        "valid_utc": "202608180050",
        "standard_time_display": "2026-08-17 18:50 CST",
        "wfo": "BMX",
        "county_or_zone": "Walker",
        "city": "2 NE Holly Grove",
        "state": "AL",
        "magnitude": null,
        "magnitude_units": null,
        "source": "911 Call Center",
        "event_narrative": "several trees and powerlines reported down. Time estimated."
      },
      "geometry": {
        "type": "Point",
        "coordinates": [
          -87.4,
          33.86
        ]
      }
    },
    {
      "type": "Feature",
      "id": "iem-lsr-BMX-23",
      "properties": {
        "report_id": "iem-lsr-BMX-23",
        "report_type": "TSTM WND DMG",
        "event_category": "thunderstorm_wind",
        "valid_utc": "202608180110",
        "standard_time_display": "2026-08-17 19:10 CST",
        "wfo": "BMX",
        "county_or_zone": "Cherokee",
        "city": "2 SE Cornwall Furnace P",
        "state": "AL",
        "magnitude": null,
        "magnitude_units": null,
        "source": "911 Call Center",
        "event_narrative": "trees down with road blocked. Time estimated."
      },
      "geometry": {
        "type": "Point",
        "coordinates": [
          -85.55,
          34.23
        ]
      }
    },
    {
      "type": "Feature",
      "id": "iem-lsr-BMX-24",
      "properties": {
        "report_id": "iem-lsr-BMX-24",
        "report_type": "TSTM WND DMG",
        "event_category": "thunderstorm_wind",
        "valid_utc": "202608180135",
        "standard_time_display": "2026-08-17 19:35 CST",
        "wfo": "BMX",
        "county_or_zone": "Walker",
        "city": "1 WNW Sumiton",
        "state": "AL",
        "magnitude": null,
        "magnitude_units": null,
        "source": "911 Call Center",
        "event_narrative": "Several trees reported down. Time estimated."
      },
      "geometry": {
        "type": "Point",
        "coordinates": [
          -87.07,
          33.76
        ]
      }
    },
    {
      "type": "Feature",
      "id": "iem-lsr-BMX-25",
      "properties": {
        "report_id": "iem-lsr-BMX-25",
        "report_type": "TSTM WND DMG",
        "event_category": "thunderstorm_wind",
        "valid_utc": "202608180143",
        "standard_time_display": "2026-08-17 19:43 CST",
        "wfo": "BMX",
        "county_or_zone": "Jefferson",
        "city": "1 WSW Warrior",
        "state": "AL",
        "magnitude": null,
        "magnitude_units": null,
        "source": "Fire Dept/Rescue",
        "event_narrative": "Reports of trees down just east of I-65 on several roads."
      },
      "geometry": {
        "type": "Point",
        "coordinates": [
          -86.82,
          33.81
        ]
      }
    }
  ]
}