{
  "type": "FeatureCollection",
  "metadata": {
    "schema_version": "0.2.4",
    "year": 2026,
    "month": 8,
    "wfo": "MHX",
    "start_utc": "2026-08-01T00:00:00Z",
    "end_utc": "2026-09-01T00:00:00Z",
    "generated_utc": "2026-09-02T13:38:50Z",
    "mode": "storm_data_prep",
    "public_release_status": "public-source-derived",
    "time_note": "Storm Data entry times should be reviewed in local Standard Time (ST), not daylight time. Candidate reports include standard_time_display.",
    "tornado_track_policy": "Tornado tracks must come from DAT. NCEI begin/end coordinates are not used as a tornado track substitute.",
    "source": "https://mesonet.agron.iastate.edu/cgi-bin/request/gis/lsr.py?wfo=MHX&sts=2026-08-01T00%3A00%3A00Z&ets=2026-09-01T00%3A00%3A00Z&fmt=csv"
  },
  "features": [
    {
      "type": "Feature",
      "id": "iem-lsr-MHX-1",
      "properties": {
        "report_id": "iem-lsr-MHX-1",
        "report_type": "MARINE TSTM WIND",
        "event_category": "marine",
        "valid_utc": "202608040558",
        "standard_time_display": "2026-08-04 00:58 EST",
        "wfo": "MHX",
        "county_or_zone": "AMZ135",
        "city": "1 N Avon",
        "state": "NC",
        "magnitude": 43.0,
        "magnitude_units": null,
        "source": "Mesonet",
        "event_narrative": "Weatherflow site (XAVN) gusted to 37 knots."
      },
      "geometry": {
        "type": "Point",
        "coordinates": [
          -75.51,
          35.37
        ]
      }
    },
    {
      "type": "Feature",
      "id": "iem-lsr-MHX-2",
      "properties": {
        "report_id": "iem-lsr-MHX-2",
        "report_type": "FLASH FLOOD",
        "event_category": "flooding",
        "valid_utc": "202608040845",
        "standard_time_display": "2026-08-04 03:45 EST",
        "wfo": "MHX",
        "county_or_zone": "Dare",
        "city": "5 N Rodanthe",
        "state": "NC",
        "magnitude": null,
        "magnitude_units": null,
        "source": "911 Call Center",
        "event_narrative": "Dare County 911 center relayed a report of several inches of water on NC 12 near Pea Island Wildlife Refuge."
      },
      "geometry": {
        "type": "Point",
        "coordinates": [
          -75.48,
          35.67
        ]
      }
    },
    {
      "type": "Feature",
      "id": "iem-lsr-MHX-3",
      "properties": {
        "report_id": "iem-lsr-MHX-3",
        "report_type": "FLASH FLOOD",
        "event_category": "flooding",
        "valid_utc": "202608040950",
        "standard_time_display": "2026-08-04 04:50 EST",
        "wfo": "MHX",
        "county_or_zone": "Dare",
        "city": "1 SSW Hatteras Island F",
        "state": "NC",
        "magnitude": null,
        "magnitude_units": null,
        "source": "Public",
        "event_narrative": "Multiple reports of flooding along NC 12 along the length of Pea Island."
      },
      "geometry": {
        "type": "Point",
        "coordinates": [
          -75.47,
          35.58
        ]
      }
    },
    {
      "type": "Feature",
      "id": "iem-lsr-MHX-4",
      "properties": {
        "report_id": "iem-lsr-MHX-4",
        "report_type": "FLASH FLOOD",
        "event_category": "flooding",
        "valid_utc": "202608040950",
        "standard_time_display": "2026-08-04 04:50 EST",
        "wfo": "MHX",
        "county_or_zone": "Dare",
        "city": "4 SSE Oregon Inlet",
        "state": "NC",
        "magnitude": null,
        "magnitude_units": null,
        "source": "Dept of Highways",
        "event_narrative": "Delayed report. NC DOT reported deep standing water from heavy rain that fell overnight from Oregon Inlet into the Rodanthe_ Waves_ and Salvo areas. The DOT encouraged drivers with low clearance to r"
      },
      "geometry": {
        "type": "Point",
        "coordinates": [
          -75.51,
          35.74
        ]
      }
    },
    {
      "type": "Feature",
      "id": "iem-lsr-MHX-5",
      "properties": {
        "report_id": "iem-lsr-MHX-5",
        "report_type": "FLASH FLOOD",
        "event_category": "flooding",
        "valid_utc": "202608040950",
        "standard_time_display": "2026-08-04 04:50 EST",
        "wfo": "MHX",
        "county_or_zone": "Dare",
        "city": "Waves",
        "state": "NC",
        "magnitude": null,
        "magnitude_units": null,
        "source": "Public",
        "event_narrative": "Delayed report. Water was reported to be up to the headlights of some vehicles traveling along NC 12. The deepest water was reported near the Waves Deli and in the area around ramps 23 and 25."
      },
      "geometry": {
        "type": "Point",
        "coordinates": [
          -75.47,
          35.57
        ]
      }
    },
    {
      "type": "Feature",
      "id": "iem-lsr-MHX-6",
      "properties": {
        "report_id": "iem-lsr-MHX-6",
        "report_type": "RAIN",
        "event_category": "other",
        "valid_utc": "202608041015",
        "standard_time_display": "2026-08-04 05:15 EST",
        "wfo": "MHX",
        "county_or_zone": "Dare",
        "city": "1 N Rodanthe",
        "state": "NC",
        "magnitude": 6.47,
        "magnitude_units": null,
        "source": "Mesonet",
        "event_narrative": "Total rainfall over the past 12 hours_ most of that falling over a 3 hour period between 2am and 5am."
      },
      "geometry": {
        "type": "Point",
        "coordinates": [
          -75.47,
          35.6
        ]
      }
    },
    {
      "type": "Feature",
      "id": "iem-lsr-MHX-7",
      "properties": {
        "report_id": "iem-lsr-MHX-7",
        "report_type": "MARINE TSTM WIND",
        "event_category": "marine",
        "valid_utc": "202608101748",
        "standard_time_display": "2026-08-10 12:48 EST",
        "wfo": "MHX",
        "county_or_zone": "Dare",
        "city": "1 SSE Oregon Inlet",
        "state": "NC",
        "magnitude": 53.0,
        "magnitude_units": null,
        "source": "Mesonet",
        "event_narrative": "Oregon Inlet CG WeatherFlow site (XORE) gusted to 46 knots."
      },
      "geometry": {
        "type": "Point",
        "coordinates": [
          -75.53,
          35.77
        ]
      }
    },
    {
      "type": "Feature",
      "id": "iem-lsr-MHX-8",
      "properties": {
        "report_id": "iem-lsr-MHX-8",
        "report_type": "HAIL",
        "event_category": "hail",
        "valid_utc": "202608102053",
        "standard_time_display": "2026-08-10 15:53 EST",
        "wfo": "MHX",
        "county_or_zone": "Dare",
        "city": "4 S Stumpy Point",
        "state": "NC",
        "magnitude": 1.0,
        "magnitude_units": null,
        "source": "911 Call Center",
        "event_narrative": "Dare County 911 Center reports quarter-sized hail roughly 3 miles south of Stumpy Point."
      },
      "geometry": {
        "type": "Point",
        "coordinates": [
          -75.74,
          35.65
        ]
      }
    },
    {
      "type": "Feature",
      "id": "iem-lsr-MHX-9",
      "properties": {
        "report_id": "iem-lsr-MHX-9",
        "report_type": "MARINE TSTM WIND",
        "event_category": "marine",
        "valid_utc": "202608102124",
        "standard_time_display": "2026-08-10 16:24 EST",
        "wfo": "MHX",
        "county_or_zone": "Dare",
        "city": "2 S Manteo",
        "state": "NC",
        "magnitude": 47.0,
        "magnitude_units": null,
        "source": "Public",
        "event_narrative": "WxFlow sensor in the Croatan Sound reported a 47 mph/41 knot marine thunderstorm wind gust."
      },
      "geometry": {
        "type": "Point",
        "coordinates": [
          -75.66,
          35.87
        ]
      }
    },
    {
      "type": "Feature",
      "id": "iem-lsr-MHX-10",
      "properties": {
        "report_id": "iem-lsr-MHX-10",
        "report_type": "MARINE TSTM WIND",
        "event_category": "marine",
        "valid_utc": "202608102130",
        "standard_time_display": "2026-08-10 16:30 EST",
        "wfo": "MHX",
        "county_or_zone": "AMZ231",
        "city": "Roanoke Island Festival",
        "state": "NC",
        "magnitude": 48.0,
        "magnitude_units": null,
        "source": "Public",
        "event_narrative": "Public weather station observed a 48 mph/42 knot marine thunderstorm wind gust."
      },
      "geometry": {
        "type": "Point",
        "coordinates": [
          -75.67,
          35.91
        ]
      }
    },
    {
      "type": "Feature",
      "id": "iem-lsr-MHX-11",
      "properties": {
        "report_id": "iem-lsr-MHX-11",
        "report_type": "MARINE TSTM WIND",
        "event_category": "marine",
        "valid_utc": "202608102150",
        "standard_time_display": "2026-08-10 16:50 EST",
        "wfo": "MHX",
        "county_or_zone": "Dare",
        "city": "1 SSE Nags Head",
        "state": "NC",
        "magnitude": 40.0,
        "magnitude_units": null,
        "source": "Public",
        "event_narrative": "Public weather system reported a 40 mph/35 knot marine thunderstorm wind gust."
      },
      "geometry": {
        "type": "Point",
        "coordinates": [
          -75.62,
          35.94
        ]
      }
    },
    {
      "type": "Feature",
      "id": "iem-lsr-MHX-12",
      "properties": {
        "report_id": "iem-lsr-MHX-12",
        "report_type": "TSTM WND DMG",
        "event_category": "thunderstorm_wind",
        "valid_utc": "202608112347",
        "standard_time_display": "2026-08-11 18:47 EST",
        "wfo": "MHX",
        "county_or_zone": "Duplin",
        "city": "3 NNE Beautancus",
        "state": "NC",
        "magnitude": null,
        "magnitude_units": null,
        "source": "Utility Company",
        "event_narrative": "hundreds of power outages reported from Tri-County Electric Membership Corporation. Time estimated from radar."
      },
      "geometry": {
        "type": "Point",
        "coordinates": [
          -78.02,
          35.17
        ]
      }
    },
    {
      "type": "Feature",
      "id": "iem-lsr-MHX-13",
      "properties": {
        "report_id": "iem-lsr-MHX-13",
        "report_type": "MARINE TSTM WIND",
        "event_category": "marine",
        "valid_utc": "202608190504",
        "standard_time_display": "2026-08-19 00:04 EST",
        "wfo": "MHX",
        "county_or_zone": "AMZ135",
        "city": "11 ESE Middletown",
        "state": "NC",
        "magnitude": 61.0,
        "magnitude_units": null,
        "source": "Mesonet",
        "event_narrative": "A 53 knot wind gust was measured at the Pamlico Sound WxFlow station."
      },
      "geometry": {
        "type": "Point",
        "coordinates": [
          -75.83,
          35.42
        ]
      }
    },
    {
      "type": "Feature",
      "id": "iem-lsr-MHX-14",
      "properties": {
        "report_id": "iem-lsr-MHX-14",
        "report_type": "TSTM WND DMG",
        "event_category": "thunderstorm_wind",
        "valid_utc": "202608202125",
        "standard_time_display": "2026-08-20 16:25 EST",
        "wfo": "MHX",
        "county_or_zone": "Craven",
        "city": "4 NNW Olympia",
        "state": "NC",
        "magnitude": null,
        "magnitude_units": null,
        "source": "Emergency Mngr",
        "event_narrative": "Trees down on Saints Delight Church Road."
      },
      "geometry": {
        "type": "Point",
        "coordinates": [
          -77.0,
          35.19
        ]
      }
    },
    {
      "type": "Feature",
      "id": "iem-lsr-MHX-15",
      "properties": {
        "report_id": "iem-lsr-MHX-15",
        "report_type": "MARINE TSTM WIND",
        "event_category": "marine",
        "valid_utc": "202608202200",
        "standard_time_display": "2026-08-20 17:00 EST",
        "wfo": "MHX",
        "county_or_zone": "AMZ136",
        "city": "Core Point",
        "state": "NC",
        "magnitude": 41.0,
        "magnitude_units": null,
        "source": "Mesonet",
        "event_narrative": "Private Tempest station recorded a gust of 36 knots."
      },
      "geometry": {
        "type": "Point",
        "coordinates": [
          -76.85,
          35.43
        ]
      }
    },
    {
      "type": "Feature",
      "id": "iem-lsr-MHX-16",
      "properties": {
        "report_id": "iem-lsr-MHX-16",
        "report_type": "TSTM WND DMG",
        "event_category": "thunderstorm_wind",
        "valid_utc": "202608211737",
        "standard_time_display": "2026-08-21 12:37 EST",
        "wfo": "MHX",
        "county_or_zone": "Craven",
        "city": "4 NNE Jasper",
        "state": "NC",
        "magnitude": null,
        "magnitude_units": null,
        "source": "911 Call Center",
        "event_narrative": "911 center relayed report of tree down on River Road."
      },
      "geometry": {
        "type": "Point",
        "coordinates": [
          -77.2,
          35.26
        ]
      }
    },
    {
      "type": "Feature",
      "id": "iem-lsr-MHX-17",
      "properties": {
        "report_id": "iem-lsr-MHX-17",
        "report_type": "TSTM WND DMG",
        "event_category": "thunderstorm_wind",
        "valid_utc": "202608211738",
        "standard_time_display": "2026-08-21 12:38 EST",
        "wfo": "MHX",
        "county_or_zone": "Onslow",
        "city": "5 SW Catherine Lake",
        "state": "NC",
        "magnitude": null,
        "magnitude_units": null,
        "source": "911 Call Center",
        "event_narrative": "911 center relayed report of downed tree on Nine Mile Road."
      },
      "geometry": {
        "type": "Point",
        "coordinates": [
          -77.62,
          34.74
        ]
      }
    },
    {
      "type": "Feature",
      "id": "iem-lsr-MHX-18",
      "properties": {
        "report_id": "iem-lsr-MHX-18",
        "report_type": "HAIL",
        "event_category": "hail",
        "valid_utc": "202608211745",
        "standard_time_display": "2026-08-21 12:45 EST",
        "wfo": "MHX",
        "county_or_zone": "Craven",
        "city": "2 NE Cove City",
        "state": "NC",
        "magnitude": 0.88,
        "magnitude_units": null,
        "source": "Public",
        "event_narrative": "Public reported nickel sized hail. Time based on radar."
      },
      "geometry": {
        "type": "Point",
        "coordinates": [
          -77.3,
          35.21
        ]
      }
    },
    {
      "type": "Feature",
      "id": "iem-lsr-MHX-19",
      "properties": {
        "report_id": "iem-lsr-MHX-19",
        "report_type": "TSTM WND DMG",
        "event_category": "thunderstorm_wind",
        "valid_utc": "202608211758",
        "standard_time_display": "2026-08-21 12:58 EST",
        "wfo": "MHX",
        "county_or_zone": "Duplin",
        "city": "1 WNW Beulaville",
        "state": "NC",
        "magnitude": null,
        "magnitude_units": null,
        "source": "911 Call Center",
        "event_narrative": "911 center relayed report of tree down on NC 24 in Beulaville."
      },
      "geometry": {
        "type": "Point",
        "coordinates": [
          -77.79,
          34.93
        ]
      }
    },
    {
      "type": "Feature",
      "id": "iem-lsr-MHX-20",
      "properties": {
        "report_id": "iem-lsr-MHX-20",
        "report_type": "TSTM WND DMG",
        "event_category": "thunderstorm_wind",
        "valid_utc": "202608211817",
        "standard_time_display": "2026-08-21 13:17 EST",
        "wfo": "MHX",
        "county_or_zone": "Duplin",
        "city": "4 WNW Kornegay",
        "state": "NC",
        "magnitude": null,
        "magnitude_units": null,
        "source": "911 Call Center",
        "event_narrative": "911 center relayed report of tree down across Tram Road and Red Hill Road. Time estimated from Radar."
      },
      "geometry": {
        "type": "Point",
        "coordinates": [
          -77.88,
          35.08
        ]
      }
    },
    {
      "type": "Feature",
      "id": "iem-lsr-MHX-21",
      "properties": {
        "report_id": "iem-lsr-MHX-21",
        "report_type": "MARINE TSTM WIND",
        "event_category": "marine",
        "valid_utc": "202608212025",
        "standard_time_display": "2026-08-21 15:25 EST",
        "wfo": "MHX",
        "county_or_zone": "Carteret",
        "city": "Morehead City",
        "state": "NC",
        "magnitude": 39.0,
        "magnitude_units": null,
        "source": "Public",
        "event_narrative": "Public weather station observed a 39mph/34 knot marine thunderstorm wind gust."
      },
      "geometry": {
        "type": "Point",
        "coordinates": [
          -76.73,
          34.72
        ]
      }
    },
    {
      "type": "Feature",
      "id": "iem-lsr-MHX-22",
      "properties": {
        "report_id": "iem-lsr-MHX-22",
        "report_type": "MARINE TSTM WIND",
        "event_category": "marine",
        "valid_utc": "202608212110",
        "standard_time_display": "2026-08-21 16:10 EST",
        "wfo": "MHX",
        "county_or_zone": "Hyde",
        "city": "Ocracoke Village",
        "state": "NC",
        "magnitude": 44.0,
        "magnitude_units": null,
        "source": "Public",
        "event_narrative": "Public weather station observed a 44 mph/38 knot marine thunderstorm wind gust."
      },
      "geometry": {
        "type": "Point",
        "coordinates": [
          -75.98,
          35.12
        ]
      }
    },
    {
      "type": "Feature",
      "id": "iem-lsr-MHX-23",
      "properties": {
        "report_id": "iem-lsr-MHX-23",
        "report_type": "MARINE TSTM WIND",
        "event_category": "marine",
        "valid_utc": "202608232210",
        "standard_time_display": "2026-08-23 17:10 EST",
        "wfo": "MHX",
        "county_or_zone": "AMZ137",
        "city": "2 SE Oriental",
        "state": "NC",
        "magnitude": 40.0,
        "magnitude_units": null,
        "source": "Mesonet",
        "event_narrative": "Weatherflow site (XOTL) gusted to 35 knots."
      },
      "geometry": {
        "type": "Point",
        "coordinates": [
          -76.66,
          35.01
        ]
      }
    },
    {
      "type": "Feature",
      "id": "iem-lsr-MHX-24",
      "properties": {
        "report_id": "iem-lsr-MHX-24",
        "report_type": "MARINE TSTM WIND",
        "event_category": "marine",
        "valid_utc": "202608232300",
        "standard_time_display": "2026-08-23 18:00 EST",
        "wfo": "MHX",
        "county_or_zone": "Dare",
        "city": "Hatteras Island Fishing",
        "state": "NC",
        "magnitude": 41.0,
        "magnitude_units": null,
        "source": "Mesonet",
        "event_narrative": "Tempest station at Rodanthe Pier reported a gust of 36 knots."
      },
      "geometry": {
        "type": "Point",
        "coordinates": [
          -75.46,
          35.59
        ]
      }
    },
    {
      "type": "Feature",
      "id": "iem-lsr-MHX-25",
      "properties": {
        "report_id": "iem-lsr-MHX-25",
        "report_type": "MARINE TSTM WIND",
        "event_category": "marine",
        "valid_utc": "202608240226",
        "standard_time_display": "2026-08-23 21:26 EST",
        "wfo": "MHX",
        "county_or_zone": "AMZ135",
        "city": "7 SE Middletown",
        "state": "NC",
        "magnitude": 40.0,
        "magnitude_units": null,
        "source": "Mesonet",
        "event_narrative": "Weatherflow site in the Pamlico Sound (XPM2) gusted to 35 knots."
      },
      "geometry": {
        "type": "Point",
        "coordinates": [
          -75.91,
          35.41
        ]
      }
    },
    {
      "type": "Feature",
      "id": "iem-lsr-MHX-26",
      "properties": {
        "report_id": "iem-lsr-MHX-26",
        "report_type": "MARINE TSTM WIND",
        "event_category": "marine",
        "valid_utc": "202608240239",
        "standard_time_display": "2026-08-23 21:39 EST",
        "wfo": "MHX",
        "county_or_zone": "AMZ135",
        "city": "1 N Avon",
        "state": "NC",
        "magnitude": 45.0,
        "magnitude_units": null,
        "source": "Mesonet",
        "event_narrative": "Avon Sound Weatherflow site (XAVN) gusted to 39 knots."
      },
      "geometry": {
        "type": "Point",
        "coordinates": [
          -75.51,
          35.37
        ]
      }
    },
    {
      "type": "Feature",
      "id": "iem-lsr-MHX-27",
      "properties": {
        "report_id": "iem-lsr-MHX-27",
        "report_type": "MARINE TSTM WIND",
        "event_category": "marine",
        "valid_utc": "202608240302",
        "standard_time_display": "2026-08-23 22:02 EST",
        "wfo": "MHX",
        "county_or_zone": "AMZ135",
        "city": "1 N Avon",
        "state": "NC",
        "magnitude": 50.0,
        "magnitude_units": null,
        "source": "Mesonet",
        "event_narrative": "Avon Sound Weatherflow Site (XAVN) gusted to 44 knots."
      },
      "geometry": {
        "type": "Point",
        "coordinates": [
          -75.51,
          35.37
        ]
      }
    },
    {
      "type": "Feature",
      "id": "iem-lsr-MHX-28",
      "properties": {
        "report_id": "iem-lsr-MHX-28",
        "report_type": "TSTM WND GST",
        "event_category": "thunderstorm_wind",
        "valid_utc": "202608240318",
        "standard_time_display": "2026-08-23 22:18 EST",
        "wfo": "MHX",
        "county_or_zone": "Dare",
        "city": "1 NNE Avon",
        "state": "NC",
        "magnitude": 60.0,
        "magnitude_units": null,
        "source": "Mesonet",
        "event_narrative": "Wind gust of 52 knots recorded at Avon Sound Weatherflow site (KAVN)."
      },
      "geometry": {
        "type": "Point",
        "coordinates": [
          -75.5,
          35.37
        ]
      }
    },
    {
      "type": "Feature",
      "id": "iem-lsr-MHX-29",
      "properties": {
        "report_id": "iem-lsr-MHX-29",
        "report_type": "MARINE TSTM WIND",
        "event_category": "marine",
        "valid_utc": "202608240413",
        "standard_time_display": "2026-08-23 23:13 EST",
        "wfo": "MHX",
        "county_or_zone": "AMZ156",
        "city": "1 SE Atlantic",
        "state": "NC",
        "magnitude": 49.0,
        "magnitude_units": null,
        "source": "Mesonet",
        "event_narrative": "White Point - Atlantic Channel DB1 WeatherFlow site gusted to 43 knots."
      },
      "geometry": {
        "type": "Point",
        "coordinates": [
          -76.33,
          34.88
        ]
      }
    },
    {
      "type": "Feature",
      "id": "iem-lsr-MHX-30",
      "properties": {
        "report_id": "iem-lsr-MHX-30",
        "report_type": "MARINE TSTM WIND",
        "event_category": "marine",
        "valid_utc": "202608241917",
        "standard_time_display": "2026-08-24 14:17 EST",
        "wfo": "MHX",
        "county_or_zone": "AMZ137",
        "city": "2 SE Oriental",
        "state": "NC",
        "magnitude": 52.0,
        "magnitude_units": null,
        "source": "Mesonet",
        "event_narrative": "Oriental WeatherFlow station reported a 45 kt wind gust."
      },
      "geometry": {
        "type": "Point",
        "coordinates": [
          -76.66,
          35.01
        ]
      }
    },
    {
      "type": "Feature",
      "id": "iem-lsr-MHX-31",
      "properties": {
        "report_id": "iem-lsr-MHX-31",
        "report_type": "TSTM WND DMG",
        "event_category": "thunderstorm_wind",
        "valid_utc": "202608241924",
        "standard_time_display": "2026-08-24 14:24 EST",
        "wfo": "MHX",
        "county_or_zone": "Craven",
        "city": "4 ESE Tuscarora",
        "state": "NC",
        "magnitude": null,
        "magnitude_units": null,
        "source": "911 Call Center",
        "event_narrative": "Craven County 911 reports road sign blown into road at MM141 of US 17 bypass southbound. Time estimated by radar."
      },
      "geometry": {
        "type": "Point",
        "coordinates": [
          -77.15,
          35.13
        ]
      }
    },
    {
      "type": "Feature",
      "id": "iem-lsr-MHX-32",
      "properties": {
        "report_id": "iem-lsr-MHX-32",
        "report_type": "TORNADO",
        "event_category": "tornado",
        "valid_utc": "202608242034",
        "standard_time_display": "2026-08-24 15:34 EST",
        "wfo": "MHX",
        "county_or_zone": "Carteret",
        "city": "4 NNW Atlantic",
        "state": "NC",
        "magnitude": null,
        "magnitude_units": null,
        "source": "NWS Storm Survey",
        "event_narrative": "Top estimated winds: EF0 85 MPH. Path Length: .18 miles_ estimated. Path Width: Unknown. Along Highway 12/Cedar Island Road_ just east of the Thorofare Bridge_ two cedar trees were snapped up from th"
      },
      "geometry": {
        "type": "Point",
        "coordinates": [
          -76.35,
          34.94
        ]
      }
    },
    {
      "type": "Feature",
      "id": "iem-lsr-MHX-33",
      "properties": {
        "report_id": "iem-lsr-MHX-33",
        "report_type": "TSTM WND DMG",
        "event_category": "thunderstorm_wind",
        "valid_utc": "202608242040",
        "standard_time_display": "2026-08-24 15:40 EST",
        "wfo": "MHX",
        "county_or_zone": "Carteret",
        "city": "2 NW Atlantic",
        "state": "NC",
        "magnitude": null,
        "magnitude_units": null,
        "source": "NWS Storm Survey",
        "event_narrative": "10 to 12 inch diameter tree snapped near the base and blown down."
      },
      "geometry": {
        "type": "Point",
        "coordinates": [
          -76.37,
          34.91
        ]
      }
    },
    {
      "type": "Feature",
      "id": "iem-lsr-MHX-34",
      "properties": {
        "report_id": "iem-lsr-MHX-34",
        "report_type": "TSTM WND DMG",
        "event_category": "thunderstorm_wind",
        "valid_utc": "202608242131",
        "standard_time_display": "2026-08-24 16:31 EST",
        "wfo": "MHX",
        "county_or_zone": "Carteret",
        "city": "1 ENE Mitchell Village",
        "state": "NC",
        "magnitude": null,
        "magnitude_units": null,
        "source": "911 Call Center",
        "event_narrative": "Tree down on railroad track in Morehead City. Time estimated from radar."
      },
      "geometry": {
        "type": "Point",
        "coordinates": [
          -76.78,
          34.73
        ]
      }
    },
    {
      "type": "Feature",
      "id": "iem-lsr-MHX-35",
      "properties": {
        "report_id": "iem-lsr-MHX-35",
        "report_type": "MARINE TSTM WIND",
        "event_category": "marine",
        "valid_utc": "202608242155",
        "standard_time_display": "2026-08-24 16:55 EST",
        "wfo": "MHX",
        "county_or_zone": "AMZ156",
        "city": "1 ESE Smyrna",
        "state": "NC",
        "magnitude": 41.0,
        "magnitude_units": null,
        "source": "Public",
        "event_narrative": "Tempest station reported a 36 kt wind gust."
      },
      "geometry": {
        "type": "Point",
        "coordinates": [
          -76.51,
          34.75
        ]
      }
    },
    {
      "type": "Feature",
      "id": "iem-lsr-MHX-36",
      "properties": {
        "report_id": "iem-lsr-MHX-36",
        "report_type": "MARINE TSTM WIND",
        "event_category": "marine",
        "valid_utc": "202608242200",
        "standard_time_display": "2026-08-24 17:00 EST",
        "wfo": "MHX",
        "county_or_zone": "Carteret",
        "city": "1 SSW Cape Lookout Ligh",
        "state": "NC",
        "magnitude": 46.0,
        "magnitude_units": null,
        "source": "C-Man Station",
        "event_narrative": "Cape Lookout recorded a gust of 40 knots."
      },
      "geometry": {
        "type": "Point",
        "coordinates": [
          -76.53,
          34.61
        ]
      }
    }
  ]
}