{
  "type": "FeatureCollection",
  "name": "cwa",
  "crs": {
    "type": "name",
    "properties": {
      "name": "urn:ogc:def:crs:OGC:1.3:CRS84"
    }
  },
  "features": [
    {
      "type": "Feature",
      "properties": {
        "WFO": "MEG",
        "CWA": "MEG",
        "STATE": "Tennessee",
        "ST": "TN",
        "CITYSTATE": "Memphis TN"
      },
      "geometry": {
        "type": "Polygon",
        "coordinates": [
          [
            [
              -91.03269958491785,
              35.88511276164468
            ],
            [
              -90.87289428684181,
              35.88121032719488
            ],
            [
              -90.87220001202093,
              35.92441177438394
            ],
            [
              -90.86089324962376,
              35.92461395277178
            ],
            [
              -90.85959625186547,
              35.93001174934278
            ],
            [
              -90.86289978010075,
              35.93041229209365
            ],
            [
              -90.86319732619563,
              35.93921278783995
            ],
            [
              -90.86519622772369,
              35.940910339140885
            ],
            [
              -90.86219787633087,
              35.94161224381003
            ],
            [
              -90.86079406699258,
              35.945312499872045
            ],
            [
              -90.86459350568572,
              35.94751357978794
            ],
            [
              -90.8589935298275,
              35.94901275593401
            ],
            [
              -90.85769653296859,
              35.95131301938039
            ],
            [
              -90.85879516636379,
              35.95451355006031
            ],
            [
              -90.86100006120381,
              35.95471191442334
            ],
            [
              -90.85769653296859,
              35.95931243861821
            ],
            [
              -90.85499572767066,
              35.95921325688636
            ],
            [
              -90.85469818067645,
              35.961910248159484
            ],
            [
              -90.85109710724566,
              35.96431350736253
            ],
            [
              -90.85239410410458,
              35.96921157765223
            ],
            [
              -90.8514938350724,
              35.97131347673559
            ],
            [
              -90.84409332294848,
              35.97381210274642
            ],
            [
              -90.84819793668538,
              35.97781372072666
            ],
            [
              -90.84189605705734,
              35.97911071758563
            ],
            [
              -90.8422927857834,
              35.98271179191573
            ],
            [
              -90.84689331087753,
              35.98501205356348
            ],
            [
              -90.84519958529256,
              35.98681259162788
            ],
            [
              -90.8579940799628,
              35.99081039378467
            ],
            [
              -90.85889434809565,
              35.994213103751804
            ],
            [
              -90.85399627690663,
              35.99571227989787
            ],
            [
              -90.85509491030183,
              36.002010344601786
            ],
            [
              -90.84569549575048,
              36.011112213058254
            ],
            [
              -90.8388977047652,
              36.020610809341406
            ],
            [
              -90.83779907226932,
              36.02311325117563
            ],
            [
              -90.84029388425535,
              36.03721237165371
            ],
            [
              -90.82559966978891,
              36.05531311011197
            ],
            [
              -90.8228988653903,
              36.07501220734753
            ],
            [
              -90.81900024406599,
              36.08051299967525
            ],
            [
              -90.81049346869861,
              36.083213805872504
            ],
            [
              -90.80419921891877,
              36.08721160892867
            ],
            [
              -90.80079650895169,
              36.08701324456564
            ],
            [
              -90.79889679005476,
              36.089313507112706
            ],
            [
              -90.7945938110555,
              36.088413238979854
            ],
            [
              -90.79369354202333,
              36.09191131575466
            ],
            [
              -90.79109954830545,
              36.09291076741806
            ],
            [
              -90.78919982940857,
              36.10021209691081
            ],
            [
              -90.77129364038916,
              36.10841369633505
            ],
            [
              -90.77129364038916,
              36.123313904113445
            ],
            [
              -90.76439666677271,
              36.133712769428826
            ],
            [
              -90.74909973116763,
              36.14581298837874
            ],
            [
              -90.7474975592649,
              36.14901351905871
            ],
            [
              -90.80979919387767,
              36.14971160880373
            ],
            [
              -90.80619812044688,
              36.28811264018623
            ],
            [
              -90.80309295657463,
              36.28971099896347
            ],
            [
              -90.80169677708454,
              36.28681182930251
            ],
            [
              -90.79989623991952,
              36.28951263370112
            ],
            [
              -90.79909515441778,
              36.28681182930251
            ],
            [
              -90.79449462932365,
              36.28661346404016
            ],
            [
              -90.79129791266848,
              36.2882118228174
            ],
            [
              -90.79139709529966,
              36.2932128906624
            ],
            [
              -90.78939819287228,
              36.29431152315834
            ],
            [
              -90.78649902321132,
              36.2938117977763
            ],
            [
              -90.78329467760727,
              36.29081344638348
            ],
            [
              -90.78029632621445,
              36.28451156585612
            ],
            [
              -90.77700042692811,
              36.28321075407308
            ],
            [
              -90.76599883957476,
              36.28711319032152
            ],
            [
              -90.7590942379087,
              36.28361129772327
            ],
            [
              -90.75489807138882,
              36.283512115092094
            ],
            [
              -90.75149536142175,
              36.28001403831729
            ],
            [
              -90.74979400598858,
              36.28101348908132
            ],
            [
              -90.75189971909674,
              36.28341293336024
            ],
            [
              -90.74849700912961,
              36.40901184112363
            ],
            [
              -90.7491989137988,
              36.412811278917445
            ],
            [
              -90.7705993646689,
              36.414112090700485
            ],
            [
              -90.76869964577202,
              36.420413971227845
            ],
            [
              -90.76559448189977,
              36.4205131529597
            ],
            [
              -90.76179504410595,
              36.41811370778146
            ],
            [
              -90.7616958623741,
              36.42111206097286
            ],
            [
              -90.75709533727996,
              36.422710418850784
            ],
            [
              -90.76269531313818,
              36.4280128477148
            ],
            [
              -90.76499938971006,
              36.42791366598294
            ],
            [
              -90.76799774200214,
              36.42461395267185
            ],
            [
              -90.77579498285212,
              36.42521285978569
            ],
            [
              -90.77799987769214,
              36.42671203593176
            ],
            [
              -90.77849578904937,
              36.429710388223896
            ],
            [
              -90.773399352598,
              36.42831039380968
            ],
            [
              -90.76839446982888,
              36.43331146165468
            ],
            [
              -90.77709960865997,
              36.43511199971908
            ],
            [
              -90.77949523891408,
              36.438110352011165
            ],
            [
              -90.77489471381995,
              36.447013855205284
            ],
            [
              -90.77549743675729,
              36.453712462660064
            ],
            [
              -90.77349853522918,
              36.45951080288131
            ],
            [
              -90.77389526395524,
              36.46441268899446
            ],
            [
              -90.77199554415898,
              36.46701049763641
            ],
            [
              -90.77330017086615,
              36.47421264629662
            ],
            [
              -90.7693939205929,
              36.47621154782473
            ],
            [
              -90.77109527602613,
              36.481513976688746
            ],
            [
              -90.76969909743536,
              36.485412598013056
            ],
            [
              -90.7716979980641,
              36.48801040575569
            ],
            [
              -90.77669525098503,
              36.48871231132415
            ],
            [
              -90.77890014582505,
              36.49061203022109
            ],
            [
              -90.78319549587542,
              36.49821090670804
            ],
            [
              -90.22029876737417,
              36.49821090670804
            ],
            [
              -90.21789550817113,
              36.49941253675922
            ],
            [
              -90.21889495803583,
              36.50481033333028
            ],
            [
              -90.2168960574071,
              36.50711059587735
            ],
            [
              -90.21999359143103,
              36.5080108640102
            ],
            [
              -90.21709442087081,
              36.51531219530165
            ],
            [
              -90.2196960453362,
              36.52141189564253
            ],
            [
              -90.21449279820405,
              36.523410797170584
            ],
            [
              -90.21649932958036,
              36.526710509582415
            ],
            [
              -90.2153930663369,
              36.52951049841084
            ],
            [
              -90.20719909676086,
              36.530410767443016
            ],
            [
              -90.21169281027494,
              36.534511566255844
            ],
            [
              -90.20889282234583,
              36.539512634100845
            ],
            [
              -90.20949554438386,
              36.54241180376181
            ],
            [
              -90.20489502018899,
              36.544513701945846
            ],
            [
              -90.20409393288867,
              36.54131317126587
            ],
            [
              -90.19979858373762,
              36.54201126101094
            ],
            [
              -90.1975936888976,
              36.54821395890713
            ],
            [
              -90.19109344490653,
              36.54351043715701
            ],
            [
              -90.1858978267233,
              36.54901123038405
            ],
            [
              -90.18839263870927,
              36.55591201802525
            ],
            [
              -90.18389892609451,
              36.5607109065831
            ],
            [
              -90.1841964721894,
              36.56391143816239
            ],
            [
              -90.18129730342775,
              36.56951141402061
            ],
            [
              -90.18399810782637,
              36.57161331220465
            ],
            [
              -90.18379974436266,
              36.57531356826661
            ],
            [
              -90.18659973139245,
              36.5792121886916
            ],
            [
              -90.18299865706234,
              36.58191299398953
            ],
            [
              -90.1856994632596,
              36.584312439167775
            ],
            [
              -90.18659973139245,
              36.58771133421078
            ],
            [
              -90.18149566689146,
              36.58841323887992
            ],
            [
              -90.18379974436266,
              36.59061050387169
            ],
            [
              -90.18049621612744,
              36.5970115661309
            ],
            [
              -90.17789459256136,
              36.5935134893561
            ],
            [
              -90.17459869417434,
              36.593212128337086
            ],
            [
              -90.1766967774343,
              36.60131073020608
            ],
            [
              -90.17049408043744,
              36.602313994994915
            ],
            [
              -90.16919708357852,
              36.60481262190501
            ],
            [
              -90.16230010996208,
              36.60501098626804
            ],
            [
              -90.16259765605696,
              36.607513428102266
            ],
            [
              -90.16729736288295,
              36.611610412890286
            ],
            [
              -90.16829681544561,
              36.61471176093909
            ],
            [
              -90.1630935674142,
              36.61901092501421
            ],
            [
              -90.16019439685391,
              36.613613129342525
            ],
            [
              -90.1568984993662,
              36.61621093708516
            ],
            [
              -90.15639495816077,
              36.62561035163645
            ],
            [
              -90.15219879343954,
              36.62211227396233
            ],
            [
              -90.14839935294776,
              36.62321090735753
            ],
            [
              -90.14809417700462,
              36.62641143803751
            ],
            [
              -90.15200042727787,
              36.62761306808869
            ],
            [
              -90.14919281039982,
              36.630313873386626
            ],
            [
              -89.95869445758314,
              36.62921142596656
            ],
            [
              -89.96299743658238,
              36.625713348292436
            ],
            [
              -89.96339416530844,
              36.61741256713634
            ],
            [
              -89.96309661921356,
              36.602512360257265
            ],
            [
              -89.9575958250872,
              36.585212708200004
            ],
            [
              -89.95679473958552,
              36.560310363832286
            ],
            [
              -89.95359802203103,
              36.54761123686916
            ],
            [
              -89.95699310304923,
              36.54021072384586
            ],
            [
              -89.95699310304923,
              36.53551101701987
            ],
            [
              -89.96009826692142,
              36.526710509582415
            ],
            [
              -89.95899963442554,
              36.50941085842442
            ],
            [
              -89.96049499474816,
              36.49931335412805
            ],
            [
              -89.9575958250872,
              36.49331283641834
            ],
            [
              -89.95689392131737,
              36.479911803886694
            ],
            [
              -89.95809936539337,
              36.47161102273054
            ],
            [
              -89.96080017159062,
              36.466712952440844
            ],
            [
              -89.95729827899237,
              36.459110260130444
            ],
            [
              -89.95739746072422,
              36.45531082233663
            ],
            [
              -89.95899963442554,
              36.447212218668994
            ],
            [
              -89.96199798581836,
              36.44321060158802
            ],
            [
              -89.96319580094541,
              36.42791366598294
            ],
            [
              -89.96599578887452,
              36.41661071761058
            ],
            [
              -89.96389770471524,
              36.41351318358659
            ],
            [
              -89.96429443434062,
              36.41031265290667
            ],
            [
              -89.96719360400158,
              36.4073104856904
            ],
            [
              -89.97219848587139,
              36.38981246927011
            ],
            [
              -89.91309356701447,
              36.386413574227106
            ],
            [
              -89.80469512957654,
              36.38591384884512
            ],
            [
              -89.76789855957082,
              36.386413574227106
            ],
            [
              -89.76599883977462,
              36.389610290882274
            ],
            [
              -89.7561950684476,
              36.384712218793936
            ],
            [
              -89.7519989010284,
              36.38671112122131
            ],
            [
              -89.74919891399867,
              36.39471054135845
            ],
            [
              -89.7490997313675,
              36.39711379966218
            ],
            [
              -89.75419616691954,
              36.4013137820055
            ],
            [
              -89.74569702140036,
              36.404312134297584
            ],
            [
              -89.74469757243497,
              36.419311522908515
            ],
            [
              -89.74269866910828,
              36.422710418850784
            ],
            [
              -89.73709869414938,
              36.42651367156873
            ],
            [
              -89.72729492192309,
              36.42741393970158
            ],
            [
              -89.69569397010059,
              36.41611099222854
            ],
            [
              -89.68739318804518,
              36.40671157767724
            ],
            [
              -89.67439270006304,
              36.40041351297327
            ],
            [
              -89.65939331055279,
              36.39881134017128
            ],
            [
              -89.64029693625457,
              36.40071105996748
            ],
            [
              -89.61190033003618,
              36.41091156002051
            ],
            [
              -89.5935974122907,
              36.404312134297584
            ],
            [
              -89.59169769339383,
              36.40321350090238
            ],
            [
              -89.5840988160075,
              36.3839111332922
            ],
            [
              -89.57079315208227,
              36.373012542594836
            ],
            [
              -89.54509735116181,
              36.336811065678205
            ],
            [
              -89.53179931618547,
              36.33921050995713
            ],
            [
              -89.51899719256636,
              36.34861373943261
            ],
            [
              -89.51319885324443,
              36.35991287198152
            ],
            [
              -89.509597778015,
              36.374511718740905
            ],
            [
              -89.51399993874617,
              36.384910583156966
            ],
            [
              -89.5422973632327,
              36.42011261020883
            ],
            [
              -89.54529571642416,
              36.427112578682625
            ],
            [
              -89.54509735116181,
              36.434913635356054
            ],
            [
              -89.54339599572859,
              36.438812255781045
            ],
            [
              -89.52729797372245,
              36.45151138274417
            ],
            [
              -89.52339935329746,
              36.45661163322035
            ],
            [
              -89.5196990972355,
              36.46701049763641
            ],
            [
              -89.52099609409441,
              36.4793128967728
            ],
            [
              -89.53209686317967,
              36.48911285407502
            ],
            [
              -89.53849792543889,
              36.49761199959414
            ],
            [
              -89.48499298244013,
              36.49781036395717
            ],
            [
              -89.49349975600887,
              36.47871017473483
            ],
            [
              -89.49319458006579,
              36.47011184658453
            ],
            [
              -89.48619842471749,
              36.46161270106535
            ],
            [
              -89.47169494656447,
              36.457012176870535
            ],
            [
              -89.46039581311624,
              36.45811080936642
            ],
            [
              -89.44849395942867,
              36.46441268899446
            ],
            [
              -89.42929840159991,
              36.481910706314125
            ],
            [
              -89.41729736258316,
              36.499011993109036
            ],
            [
              -89.38959503208503,
              36.499210358371386
            ],
            [
              -89.29909515381826,
              36.50711059587735
            ],
            [
              -88.97189331102743,
              36.50221252378901
            ],
            [
              -88.88379669196371,
              36.50171279930629
            ],
            [
              -88.83599853640328,
              36.503810882566256
            ],
            [
              -88.82699585057799,
              36.50241088905136
            ],
            [
              -88.28319549637501,
              36.500312804892076
            ],
            [
              -88.05319976825467,
              36.49711227421216
            ],
            [
              -88.05690002431663,
              36.48891067478786
            ],
            [
              -88.05209350591053,
              36.47011184658453
            ],
            [
              -88.05359649698073,
              36.4642105097073
            ],
            [
              -88.06189727813683,
              36.4482116703324
            ],
            [
              -88.06049346879848,
              36.442012787360284
            ],
            [
              -88.03789520280134,
              36.42261123711893
            ],
            [
              -88.03279876724929,
              36.408912659391774
            ],
            [
              -88.02479553218802,
              36.39971160920345
            ],
            [
              -88.01759338442713,
              36.396110534873344
            ],
            [
              -88.01469421386685,
              36.39271163893102
            ],
            [
              -88.00069427512068,
              36.36851120013182
            ],
            [
              -87.98079681442141,
              36.35361099235348
            ],
            [
              -87.97119903640635,
              36.339611052707994
            ],
            [
              -87.96859741194095,
              36.32741165202617
            ],
            [
              -87.96229553231291,
              36.32311248795099
            ],
            [
              -87.95909881655712,
              36.31871032721989
            ],
            [
              -87.95579528832184,
              36.31221389815295
            ],
            [
              -87.94769287242809,
              36.285312653156495
            ],
            [
              -87.94519806044212,
              36.27011108435909
            ],
            [
              -87.94469451923663,
              36.26151275620879
            ],
            [
              -87.9516983044332,
              36.23051071239951
            ],
            [
              -87.95089721713282,
              36.220512389834994
            ],
            [
              -87.94079589791232,
              36.20611190833796
            ],
            [
              -87.93949890105341,
              36.19761276191946
            ],
            [
              -87.93519592295343,
              36.186710358096605
            ],
            [
              -87.92059326216929,
              36.17251205408809
            ],
            [
              -87.9156951900809,
              36.16071319615713
            ],
            [
              -87.91889953658432,
              36.13101196323157
            ],
            [
              -87.92109680157608,
              36.1245117192405
            ],
            [
              -87.93739318794525,
              36.10931396536728
            ],
            [
              -87.94139862084961,
              36.10021209691081
            ],
            [
              -87.95339965806772,
              36.0863113398965
            ],
            [
              -87.96109771718585,
              36.07441330023369
            ],
            [
              -87.98809814481348,
              36.04821395900706
            ],
            [
              -88.0013961788905,
              36.02591323910474
            ],
            [
              -87.99919891389874,
              36.007812499747104
            ],
            [
              -88.001495362421,
              35.99621200617918
            ],
            [
              -88.0044937129145,
              35.99211120556771
            ],
            [
              -88.01770019510786,
              35.98371124267976
            ],
            [
              -88.02169799816403,
              35.975811005173796
            ],
            [
              -88.02259826719626,
              35.969512938671244
            ],
            [
              -88.0209960943942,
              35.96121215841441
            ],
            [
              -88.01289367760108,
              35.946613311655085
            ],
            [
              -88.00049591075765,
              35.94111251842804
            ],
            [
              -87.97419738779917,
              35.93721389800305
            ],
            [
              -87.93090057380238,
              35.93951034472667
            ],
            [
              -87.92659759480313,
              35.93531036418199
            ],
            [
              -87.9258956910333,
              35.931613922144834
            ],
            [
              -87.92889404332539,
              35.90511321989925
            ],
            [
              -87.93869781555173,
              35.87001037637782
            ],
            [
              -87.94479370096849,
              35.8591117856804
            ],
            [
              -87.9626998899879,
              35.84091186459091
            ],
            [
              -87.96739959681389,
              35.833511353366305
            ],
            [
              -87.97159576423309,
              35.81581115675954
            ],
            [
              -87.97389984080496,
              35.79571151677311
            ],
            [
              -87.98199463044779,
              35.77451324519018
            ],
            [
              -87.98999786371041,
              35.76171112067175
            ],
            [
              -88.00339508131793,
              35.74991226184147
            ],
            [
              -88.01699829133804,
              35.74161148068532
            ],
            [
              -88.02939605728216,
              35.72931289737238
            ],
            [
              -88.03329467770715,
              35.72311401440032
            ],
            [
              -88.03479766787802,
              35.717212676623774
            ],
            [
              -88.02969360427636,
              35.697113036637404
            ],
            [
              -88.02599334731508,
              35.690811157009364
            ],
            [
              -88.01759338442713,
              35.68241119412136
            ],
            [
              -88.0166931153949,
              35.67831039440921
            ],
            [
              -88.01969909843461,
              35.65761184730894
            ],
            [
              -88.03459930441431,
              35.62621307387434
            ],
            [
              -88.03539276096711,
              35.61731338470497
            ],
            [
              -88.02539825422599,
              35.59781265273182
            ],
            [
              -87.99939727826177,
              35.554611206442075
            ],
            [
              -87.98129272487932,
              35.5353126528567
            ],
            [
              -87.97459411742454,
              35.521011353091524
            ],
            [
              -87.9743957521622,
              35.51401138281909
            ],
            [
              -87.98179626518544,
              35.489612578757544
            ],
            [
              -87.99279785343816,
              35.480510712099715
            ],
            [
              -88.02610015889519,
              35.47241210933146
            ],
            [
              -88.03199768084824,
              35.463211060042454
            ],
            [
              -88.04019928027253,
              35.45871353070493
            ],
            [
              -88.04349517776024,
              35.44901275603394
            ],
            [
              -88.0363998415794,
              35.43511199991889
            ],
            [
              -88.02749633838528,
              35.425510406080434
            ],
            [
              -88.01829528819695,
              35.42351150455232
            ],
            [
              -88.00769805941786,
              35.424011229934365
            ],
            [
              -87.98600006155357,
              35.415611267046415
            ],
            [
              -87.97799682559298,
              35.415611267046415
            ],
            [
              -87.97539520292622,
              35.41451263365116
            ],
            [
              -87.97339630139817,
              35.40961074843733
            ],
            [
              -87.97480010983719,
              35.402111052782914
            ],
            [
              -87.97959899929435,
              35.39601135334135
            ],
            [
              -87.98759460540668,
              35.391113281252956
            ],
            [
              -88.01159667984285,
              35.387012482440184
            ],
            [
              -88.01789856037021,
              35.38801193230489
            ],
            [
              -88.02509307918223,
              35.39251327476785
            ],
            [
              -88.024597167825,
              35.371810912743456
            ],
            [
              -88.02339935359726,
              35.36931228583336
            ],
            [
              -88.02019500709389,
              35.36831283596865
            ],
            [
              -88.01459503213499,
              35.370513915884544
            ],
            [
              -88.01649475103187,
              35.3667106631666
            ],
            [
              -88.01519775417296,
              35.364013671893474
            ],
            [
              -88.00519561758364,
              35.351211548274364
            ],
            [
              -88.0063934327107,
              35.34611129779819
            ],
            [
              -88.01089477517371,
              35.338710784774946
            ],
            [
              -88.01619720493704,
              35.33441162069977
            ],
            [
              -88.01689910870687,
              35.32991027823681
            ],
            [
              -88.01439666687264,
              35.32781219497684
            ],
            [
              -88.01689910870687,
              35.31781387331165
            ],
            [
              -88.01389312656647,
              35.31131362932058
            ],
            [
              -88.01699829133804,
              35.306911468589476
            ],
            [
              -88.01689910870687,
              35.29981231658519
            ],
            [
              -88.01499938980993,
              35.29901123018419
            ],
            [
              -87.9977951045604,
              35.302112579132256
            ],
            [
              -87.99309539773441,
              35.29851150480215
            ],
            [
              -87.98249816895532,
              35.295612335141186
            ],
            [
              -87.98169708255426,
              35.288013457754914
            ],
            [
              -87.98489379920943,
              35.00811386096598
            ],
            [
              -87.98529815688437,
              35.005912781050085
            ],
            [
              -88.20229339612331,
              35.00771331821511
            ],
            [
              -88.19799804697226,
              34.98991393987649
            ],
            [
              -88.18619537411718,
              34.97311401410053
            ],
            [
              -88.17599487316483,
              34.96241378776614
            ],
            [
              -88.15479278575845,
              34.92281341580656
            ],
            [
              -88.14559936541832,
              34.913810729981265
            ],
            [
              -88.13529968273411,
              34.906913757264135
            ],
            [
              -88.09869384814255,
              34.893112182881
            ],
            [
              -88.09839630114834,
              34.88791274977365
            ],
            [
              -88.11969757118595,
              34.714813231645394
            ],
            [
              -88.13430023197009,
              34.622310637825706
            ],
            [
              -88.15429687530053,
              34.47821044885319
            ],
            [
              -88.18669891442335,
              34.22091293298553
            ],
            [
              -88.1875991825562,
              34.204811096055266
            ],
            [
              -88.19079589831205,
              34.189411162894885
            ],
            [
              -88.21069335901126,
              34.029212951916236
            ],
            [
              -88.24929809603026,
              33.74491119439614
            ],
            [
              -88.32180023159538,
              33.74431228638298
            ],
            [
              -88.32409668011763,
              33.74551391643416
            ],
            [
              -88.32609558074643,
              33.74451065074601
            ],
            [
              -88.32859802258065,
              33.73911285417495
            ],
            [
              -88.3294982907135,
              33.73561096157664
            ],
            [
              -88.32740020835291,
              33.73241043089672
            ],
            [
              -88.32679748541557,
              33.72601318356163
            ],
            [
              -88.33109283456662,
              33.718711853169566
            ],
            [
              -88.3364944460618,
              33.71751022311838
            ],
            [
              -88.3421936045512,
              33.71321105994252
            ],
            [
              -88.34489440894976,
              33.70471191442334
            ],
            [
              -88.36159515389318,
              33.69421386737611
            ],
            [
              -88.36519622822334,
              33.68931198126296
            ],
            [
              -88.3738937381055,
              33.68541336083797
            ],
            [
              -88.37849426319963,
              33.68581390358884
            ],
            [
              -88.38569641096058,
              33.68931198126296
            ],
            [
              -88.38449859583352,
              33.69261169367479
            ],
            [
              -88.39519500724373,
              33.69451141437031
            ],
            [
              -88.39469909678587,
              33.69251251194294
            ],
            [
              -88.39879608157389,
              33.68891143761283
            ],
            [
              -88.3973999020838,
              33.6845130918058
            ],
            [
              -88.40279388373074,
              33.68331146175461
            ],
            [
              -88.39939881170574,
              33.679111488404544
            ],
            [
              -88.40539550819614,
              33.67851257319677
            ],
            [
              -88.40719604536116,
              33.67461395277178
            ],
            [
              -88.40989685155841,
              33.67661285429983
            ],
            [
              -88.41219329828203,
              33.67411041336493
            ],
            [
              -88.41379547108409,
              33.67651367166866
            ],
            [
              -88.41679382337622,
              33.67571258526766
            ],
            [
              -88.41549682741663,
              33.67261123721886
            ],
            [
              -88.41679382337622,
              33.67011261030876
            ],
            [
              -88.42289734043987,
              33.67031097377247
            ],
            [
              -88.42149353020221,
              33.672512053688365
            ],
            [
              -88.42529296889535,
              33.67481231713475
            ],
            [
              -88.42869567886243,
              33.67361068708357
            ],
            [
              -88.43479919412749,
              33.66771316513052
            ],
            [
              -88.44439697304182,
              33.6714134220918
            ],
            [
              -88.44819641083564,
              33.66781234686238
            ],
            [
              -88.44949340859387,
              33.669712066658576
            ],
            [
              -88.45389556932503,
              33.66831207314374
            ],
            [
              -88.4562988294274,
              33.66421127343159
            ],
            [
              -88.45939636255207,
              33.66301345830453
            ],
            [
              -88.4647979740472,
              33.66681289699767
            ],
            [
              -88.46979522696813,
              33.663211822667506
            ],
            [
              -88.47469329815715,
              33.66591262796544
            ],
            [
              -88.48019409228351,
              33.66621398898445
            ],
            [
              -88.49229431213274,
              33.662311553635334
            ],
            [
              -88.49609374992656,
              33.66371154804955
            ],
            [
              -88.49769592272861,
              33.66121292113945
            ],
            [
              -88.50809478804399,
              33.65541076689345
            ],
            [
              -88.50969695994672,
              33.65101242108642
            ],
            [
              -88.51300048818194,
              33.65101242108642
            ],
            [
              -88.51399993894597,
              33.65441131612937
            ],
            [
              -88.51219940178095,
              33.6611137394076
            ],
            [
              -88.50289916986077,
              33.66551208521463
            ],
            [
              -88.50149536142175,
              33.67331314098874
            ],
            [
              -88.4991989137988,
              33.67521285988562
            ],
            [
              -88.49289703417077,
              33.67161178555551
            ],
            [
              -88.49109649700569,
              33.67371368373955
            ],
            [
              -88.49389648403547,
              33.67821121217776
            ],
            [
              -88.50019836456283,
              33.679912566711664
            ],
            [
              -88.71879577570445,
              33.680313110361794
            ],
            [
              -88.7199935908315,
              33.81011199956919
            ],
            [
              -88.72519683796367,
              33.81101226770204
            ],
            [
              -88.93119812059678,
              33.812412262116254
            ],
            [
              -88.93159484932278,
              33.75431060804817
            ],
            [
              -89.03479766857748,
              33.753112792921115
            ],
            [
              -89.03450012158333,
              33.739414215193904
            ],
            [
              -89.19179534887621,
              33.73821258514272
            ],
            [
              -89.1918945324067,
              33.722110748212515
            ],
            [
              -89.50719451881196,
              33.721912383849485
            ],
            [
              -89.50739288317499,
              33.86751174896807
            ],
            [
              -89.76919555732906,
              33.86731338460504
            ],
            [
              -89.76929473906091,
              33.897113800161776
            ],
            [
              -89.92529296859561,
              33.8979110716387
            ],
            [
              -89.92689514229693,
              33.82381057729634
            ],
            [
              -89.97729492232276,
              33.82401275568418
            ],
            [
              -89.97889709512481,
              33.809711455919
            ],
            [
              -90.10749816920509,
              33.81051254321932
            ],
            [
              -90.13649749836082,
              33.80931091316813
            ],
            [
              -90.13679504355639,
              33.72101211481731
            ],
            [
              -90.2196960453362,
              33.722110748212515
            ],
            [
              -90.22429657043034,
              33.72881317059142
            ],
            [
              -90.23109436141561,
              33.73481369009977
            ],
            [
              -90.24119567883747,
              33.736610413240044
            ],
            [
              -90.2503967290258,
              33.73301315293469
            ],
            [
              -90.25599670398469,
              33.7148132318452
            ],
            [
              -90.26349639873979,
              33.70141220111225
            ],
            [
              -90.27029418882574,
              33.69671249428626
            ],
            [
              -90.28249359130615,
              33.69411086982086
            ],
            [
              -90.29879760842283,
              33.69761276241911
            ],
            [
              -90.3010940551465,
              33.69931030292821
            ],
            [
              -90.30389404307562,
              33.70591354357521
            ],
            [
              -90.31139373783071,
              33.71571350087743
            ],
            [
              -90.31359863357005,
              33.72621154792466
            ],
            [
              -90.30989837570945,
              33.73541259811299
            ],
            [
              -90.30379486134376,
              33.744613647401934
            ],
            [
              -90.29570007260025,
              33.75061035198621
            ],
            [
              -90.2890930179284,
              33.751113892292324
            ],
            [
              -90.2513961788905,
              33.76291275022328
            ],
            [
              -90.23829650917651,
              33.76211166382228
            ],
            [
              -90.23629760674913,
              33.76561355642053
            ],
            [
              -90.23369598408237,
              33.765411377133375
            ],
            [
              -90.22889709642385,
              33.760211944925345
            ],
            [
              -90.22519683856319,
              33.75941085762503
            ],
            [
              -90.2052001952328,
              33.75971221864404
            ],
            [
              -90.18599700935448,
              33.765411377133375
            ],
            [
              -90.17579650930145,
              33.776710509682346
            ],
            [
              -90.17129516593911,
              33.787712097035694
            ],
            [
              -90.17189788797714,
              33.7905120849648
            ],
            [
              -90.17729950037159,
              33.79431152275862
            ],
            [
              -90.18139648426029,
              33.79981231688498
            ],
            [
              -90.17969512882712,
              33.80391311569781
            ],
            [
              -90.18229675329252,
              33.80871200605429
            ],
            [
              -90.45159912130237,
              33.81151199308408
            ],
            [
              -90.45069885316951,
              33.985713958632346
            ],
            [
              -90.66009521502212,
              33.987613678428545
            ],
            [
              -90.65950012193304,
              34.11881256115083
            ],
            [
              -90.81919860842902,
              34.12081146177957
            ],
            [
              -90.9469985961083,
              34.12011337293387
            ],
            [
              -90.96589660604349,
              34.11871337941898
            ],
            [
              -91.11769866905831,
              34.11951065089585
            ],
            [
              -91.11029815693433,
              34.131610869845815
            ],
            [
              -91.10719299306214,
              34.13211059612718
            ],
            [
              -91.10049438470804,
              34.129512786585906
            ],
            [
              -91.09839630144813,
              34.13221359278316
            ],
            [
              -91.09790039099022,
              34.13881301940535
            ],
            [
              -91.09559631441834,
              34.140712738302284
            ],
            [
              -91.08409881570776,
              34.14111328105315
            ],
            [
              -91.07879638684375,
              34.144412994364245
            ],
            [
              -91.08439636180265,
              34.1463127141605
            ],
            [
              -91.09019470202384,
              34.15561294608062
            ],
            [
              -91.08439636180265,
              34.159111022855484
            ],
            [
              -91.08359527630091,
              34.16211319007169
            ],
            [
              -91.08759307935708,
              34.17021179194069
            ],
            [
              -91.092300415132,
              34.17361068698369
            ],
            [
              -91.09379577635394,
              34.17671203593176
            ],
            [
              -91.08759307935708,
              34.18091201827508
            ],
            [
              -91.0942993157608,
              34.18771362328516
            ],
            [
              -91.08769989003787,
              34.20121383664929
            ],
            [
              -91.0846939087968,
              34.20151138274417
            ],
            [
              -91.07909393293863,
              34.196811675918184
            ],
            [
              -91.07460022032387,
              34.197212218668994
            ],
            [
              -91.07180023239476,
              34.199211121096425
            ],
            [
              -91.06949615492357,
              34.21121215831448
            ],
            [
              -91.06079864504142,
              34.217811584037406
            ],
            [
              -91.06589508059346,
              34.223712920914636
            ],
            [
              -91.06709289572052,
              34.228610992103654
            ],
            [
              -91.06559753359926,
              34.23901367234316
            ],
            [
              -91.06759643602669,
              34.24121093733493
            ],
            [
              -91.07429504438073,
              34.24331283641834
            ],
            [
              -91.07809448217455,
              34.24731063767587
            ],
            [
              -91.07849883984954,
              34.25111389219245
            ],
            [
              -91.07009887696154,
              34.249713897778236
            ],
            [
              -91.06279754656947,
              34.255512237999426
            ],
            [
              -91.06839752242769,
              34.260410309188444
            ],
            [
              -91.06489562982944,
              34.26421356190639
            ],
            [
              -91.07359313971159,
              34.266113280803324
            ],
            [
              -91.07539367687667,
              34.26911163309546
            ],
            [
              -91.07349395797974,
              34.27621078509969
            ],
            [
              -91.07429504438073,
              34.27961349506677
            ],
            [
              -91.07759857171669,
              34.281513213963706
            ],
            [
              -91.07419586174956,
              34.28661346443988
            ],
            [
              -91.07289886489065,
              34.29591369636006
            ],
            [
              -91.0688934328856,
              34.29801177961997
            ],
            [
              -91.06499481156129,
              34.29541015605389
            ],
            [
              -91.0654983518674,
              34.28911209134998
            ],
            [
              -91.06309509356367,
              34.28711318982192
            ],
            [
              -91.059997560439,
              34.287513732572734
            ],
            [
              -91.05839538583837,
              34.29031372140116
            ],
            [
              -91.06119537376748,
              34.297512054237984
            ],
            [
              -91.0606002815777,
              34.30411148086023
            ],
            [
              -91.06449890110338,
              34.31101226760211
            ],
            [
              -91.06229400626336,
              34.312011719265456
            ],
            [
              -91.05619811994723,
              34.309413909724185
            ],
            [
              -91.05220031689106,
              34.31281280476719
            ],
            [
              -91.05349731374997,
              34.316612244359646
            ],
            [
              -91.05719757071131,
              34.31841278062535
            ],
            [
              -91.06399536079721,
              34.31881332427554
            ],
            [
              -91.06219482543082,
              34.320911406636185
            ],
            [
              -91.05459594714523,
              34.32291030906356
            ],
            [
              -91.05619811994723,
              34.326110839743535
            ],
            [
              -91.05339813201812,
              34.332813263021706
            ],
            [
              -91.05569458143975,
              34.336311339796566
            ],
            [
              -91.0024948125855,
              34.33621215806471
            ],
            [
              -91.00049591105739,
              34.45401382407874
            ],
            [
              -91.0013961791903,
              34.469512938971036
            ],
            [
              -91.05479431240758,
              34.47091293338519
            ],
            [
              -91.04929351828122,
              34.734111786130086
            ],
            [
              -91.10159301810324,
              34.73501205426294
            ],
            [
              -91.10019683771384,
              34.86721038774925
            ],
            [
              -91.11709594702029,
              34.867313385304556
            ],
            [
              -91.11669921919355,
              34.91121292133931
            ],
            [
              -91.15239715580407,
              34.91191101108433
            ],
            [
              -91.14979553223799,
              35.00251388510776
            ],
            [
              -91.04529571522505,
              35.00201415972572
            ],
            [
              -91.04029846230418,
              35.273513793626705
            ],
            [
              -91.03819274919596,
              35.64971160890366
            ],
            [
              -91.03269958491785,
              35.88511276164468
            ]
          ]
        ]
      }
    }
  ],
  "metadata": {
    "schema_version": "0.1.0",
    "wfo": "MEG",
    "layer": "cwa",
    "source": "https://www.weather.gov/source/gis/Shapefiles/WSOM/w_16ap26.zip",
    "public_release_status": "public-source-derived"
  }
}