{
  "type": "FeatureCollection",
  "metadata": {
    "schema_version": "0.2.4",
    "year": 2026,
    "month": 10,
    "wfo": "APX",
    "start_utc": "2026-10-01T00:00:00Z",
    "end_utc": "2026-11-01T00:00:00Z",
    "generated_utc": "2026-10-06T15:54:25Z",
    "mode": "storm_data_prep",
    "public_release_status": "public-source-derived",
    "time_note": "Storm Data entry times should be reviewed in local Standard Time (ST), not daylight time. Candidate reports include standard_time_display.",
    "tornado_track_policy": "Tornado tracks must come from DAT. NCEI begin/end coordinates are not used as a tornado track substitute.",
    "source": "https://mesonet.agron.iastate.edu/cgi-bin/request/gis/lsr.py?wfo=APX&sts=2026-10-01T00%3A00%3A00Z&ets=2026-11-01T00%3A00%3A00Z&fmt=csv"
  },
  "features": [
    {
      "type": "Feature",
      "id": "iem-lsr-APX-1",
      "properties": {
        "report_id": "iem-lsr-APX-1",
        "report_type": "RAIN",
        "event_category": "other",
        "valid_utc": "202610021100",
        "standard_time_display": "2026-10-02 06:00 EST",
        "wfo": "APX",
        "county_or_zone": "Arenac",
        "city": "5 E Turner",
        "state": "MI",
        "magnitude": 1.23,
        "magnitude_units": null,
        "source": "Public",
        "event_narrative": "24 hour total ending at 7 am."
      },
      "geometry": {
        "type": "Point",
        "coordinates": [
          -83.69,
          44.13
        ]
      }
    },
    {
      "type": "Feature",
      "id": "iem-lsr-APX-2",
      "properties": {
        "report_id": "iem-lsr-APX-2",
        "report_type": "NON-TSTM WND GST",
        "event_category": "thunderstorm_wind",
        "valid_utc": "202610041719",
        "standard_time_display": "2026-10-04 12:19 EST",
        "wfo": "APX",
        "county_or_zone": "Chippewa",
        "city": "1 S Sault Ste. Marie",
        "state": "MI",
        "magnitude": 43.0,
        "magnitude_units": null,
        "source": "AWOS",
        "event_narrative": "AWOS station KANJ Sault Ste Marie - Municipal Airport."
      },
      "geometry": {
        "type": "Point",
        "coordinates": [
          -84.37,
          46.47
        ]
      }
    },
    {
      "type": "Feature",
      "id": "iem-lsr-APX-3",
      "properties": {
        "report_id": "iem-lsr-APX-3",
        "report_type": "NON-TSTM WND GST",
        "event_category": "thunderstorm_wind",
        "valid_utc": "202610041748",
        "standard_time_display": "2026-10-04 12:48 EST",
        "wfo": "APX",
        "county_or_zone": "Chippewa",
        "city": "1 NNW Sault Ste. Marie",
        "state": "MI",
        "magnitude": 40.0,
        "magnitude_units": null,
        "source": "Buoy",
        "event_narrative": "Buoy station SWPM4 S.W. Pier_ MI."
      },
      "geometry": {
        "type": "Point",
        "coordinates": [
          -84.37,
          46.5
        ]
      }
    },
    {
      "type": "Feature",
      "id": "iem-lsr-APX-4",
      "properties": {
        "report_id": "iem-lsr-APX-4",
        "report_type": "NON-TSTM WND GST",
        "event_category": "thunderstorm_wind",
        "valid_utc": "202610041754",
        "standard_time_display": "2026-10-04 12:54 EST",
        "wfo": "APX",
        "county_or_zone": "Chippewa",
        "city": "4 NNW Bay Mills",
        "state": "MI",
        "magnitude": 40.0,
        "magnitude_units": null,
        "source": "Buoy",
        "event_narrative": "Buoy station PTIM4 Point Iroquois_ MI."
      },
      "geometry": {
        "type": "Point",
        "coordinates": [
          -84.63,
          46.48
        ]
      }
    },
    {
      "type": "Feature",
      "id": "iem-lsr-APX-5",
      "properties": {
        "report_id": "iem-lsr-APX-5",
        "report_type": "NON-TSTM WND GST",
        "event_category": "thunderstorm_wind",
        "valid_utc": "202610041850",
        "standard_time_display": "2026-10-04 13:50 EST",
        "wfo": "APX",
        "county_or_zone": "Chippewa",
        "city": "1 S Sault Ste. Marie",
        "state": "MI",
        "magnitude": 45.0,
        "magnitude_units": null,
        "source": "AWOS",
        "event_narrative": "AWOS station KANJ Sault Ste Marie - Municipal Airport."
      },
      "geometry": {
        "type": "Point",
        "coordinates": [
          -84.37,
          46.47
        ]
      }
    },
    {
      "type": "Feature",
      "id": "iem-lsr-APX-6",
      "properties": {
        "report_id": "iem-lsr-APX-6",
        "report_type": "MARINE TSTM WIND",
        "event_category": "marine",
        "valid_utc": "202610050448",
        "standard_time_display": "2026-10-04 23:48 EST",
        "wfo": "APX",
        "county_or_zone": "Chippewa",
        "city": "3 E Sault Ste. Marie",
        "state": "MI",
        "magnitude": 40.0,
        "magnitude_units": null,
        "source": "Buoy",
        "event_narrative": "Corrects previous report type. Buoy station LTRM4 Little Rapids_ MI."
      },
      "geometry": {
        "type": "Point",
        "coordinates": [
          -84.3,
          46.49
        ]
      }
    },
    {
      "type": "Feature",
      "id": "iem-lsr-APX-7",
      "properties": {
        "report_id": "iem-lsr-APX-7",
        "report_type": "NON-TSTM WND GST",
        "event_category": "thunderstorm_wind",
        "valid_utc": "202610050448",
        "standard_time_display": "2026-10-04 23:48 EST",
        "wfo": "APX",
        "county_or_zone": "Chippewa",
        "city": "3 E Sault Ste. Marie",
        "state": "MI",
        "magnitude": 40.0,
        "magnitude_units": null,
        "source": "Buoy",
        "event_narrative": "Buoy station LTRM4 Little Rapids_ MI."
      },
      "geometry": {
        "type": "Point",
        "coordinates": [
          -84.3,
          46.49
        ]
      }
    },
    {
      "type": "Feature",
      "id": "iem-lsr-APX-8",
      "properties": {
        "report_id": "iem-lsr-APX-8",
        "report_type": "MARINE TSTM WIND",
        "event_category": "marine",
        "valid_utc": "202610050448",
        "standard_time_display": "2026-10-04 23:48 EST",
        "wfo": "APX",
        "county_or_zone": "Chippewa",
        "city": "1 NNW Sault Ste. Marie",
        "state": "MI",
        "magnitude": 48.0,
        "magnitude_units": null,
        "source": "Buoy",
        "event_narrative": "Corrects previous report type. Buoy station SWPM4 S.W. Pier_ MI."
      },
      "geometry": {
        "type": "Point",
        "coordinates": [
          -84.37,
          46.5
        ]
      }
    },
    {
      "type": "Feature",
      "id": "iem-lsr-APX-9",
      "properties": {
        "report_id": "iem-lsr-APX-9",
        "report_type": "NON-TSTM WND GST",
        "event_category": "thunderstorm_wind",
        "valid_utc": "202610050448",
        "standard_time_display": "2026-10-04 23:48 EST",
        "wfo": "APX",
        "county_or_zone": "Chippewa",
        "city": "1 NNW Sault Ste. Marie",
        "state": "MI",
        "magnitude": 48.0,
        "magnitude_units": null,
        "source": "Buoy",
        "event_narrative": "Buoy station SWPM4 S.W. Pier_ MI."
      },
      "geometry": {
        "type": "Point",
        "coordinates": [
          -84.37,
          46.5
        ]
      }
    },
    {
      "type": "Feature",
      "id": "iem-lsr-APX-10",
      "properties": {
        "report_id": "iem-lsr-APX-10",
        "report_type": "MARINE TSTM WIND",
        "event_category": "marine",
        "valid_utc": "202610050730",
        "standard_time_display": "2026-10-05 02:30 EST",
        "wfo": "APX",
        "county_or_zone": "Chippewa",
        "city": "4 NNW Bay Mills",
        "state": "MI",
        "magnitude": 42.0,
        "magnitude_units": null,
        "source": "Buoy",
        "event_narrative": "Corrects previous report type. Buoy station PTIM4 Point Iroquois_ MI."
      },
      "geometry": {
        "type": "Point",
        "coordinates": [
          -84.63,
          46.48
        ]
      }
    },
    {
      "type": "Feature",
      "id": "iem-lsr-APX-11",
      "properties": {
        "report_id": "iem-lsr-APX-11",
        "report_type": "NON-TSTM WND GST",
        "event_category": "thunderstorm_wind",
        "valid_utc": "202610050730",
        "standard_time_display": "2026-10-05 02:30 EST",
        "wfo": "APX",
        "county_or_zone": "Chippewa",
        "city": "4 NNW Bay Mills",
        "state": "MI",
        "magnitude": 42.0,
        "magnitude_units": null,
        "source": "Buoy",
        "event_narrative": "Buoy station PTIM4 Point Iroquois_ MI."
      },
      "geometry": {
        "type": "Point",
        "coordinates": [
          -84.63,
          46.48
        ]
      }
    }
  ]
}