{
  "type": "FeatureCollection",
  "metadata": {
    "schema_version": "0.2.4",
    "year": 2026,
    "month": 4,
    "wfo": "AKQ",
    "start_utc": "2026-04-01T00:00:00Z",
    "end_utc": "2026-05-01T00:00:00Z",
    "generated_utc": "2026-06-04T12:20:05Z",
    "mode": "storm_data_prep",
    "public_release_status": "public-source-derived",
    "time_note": "Storm Data entry times should be reviewed in local Standard Time (ST), not daylight time. Candidate reports include standard_time_display.",
    "tornado_track_policy": "Tornado tracks must come from DAT. NCEI begin/end coordinates are not used as a tornado track substitute.",
    "source": "https://mesonet.agron.iastate.edu/cgi-bin/request/gis/lsr.py?wfo=AKQ&sts=2026-04-01T00%3A00%3A00Z&ets=2026-05-01T00%3A00%3A00Z&fmt=csv"
  },
  "features": [
    {
      "type": "Feature",
      "id": "iem-lsr-AKQ-1",
      "properties": {
        "report_id": "iem-lsr-AKQ-1",
        "report_type": "HAIL",
        "event_category": "hail",
        "valid_utc": "202604020137",
        "standard_time_display": "2026-04-01 20:37 EST",
        "wfo": "AKQ",
        "county_or_zone": "Somerset",
        "city": "1 N Princess Anne",
        "state": "MD",
        "magnitude": 0.25,
        "magnitude_units": null,
        "source": "Other Federal",
        "event_narrative": null
      },
      "geometry": {
        "type": "Point",
        "coordinates": [
          -75.69,
          38.22
        ]
      }
    },
    {
      "type": "Feature",
      "id": "iem-lsr-AKQ-2",
      "properties": {
        "report_id": "iem-lsr-AKQ-2",
        "report_type": "TSTM WND DMG",
        "event_category": "thunderstorm_wind",
        "valid_utc": "202604051826",
        "standard_time_display": "2026-04-05 13:26 EST",
        "wfo": "AKQ",
        "county_or_zone": "Isle of Wight",
        "city": "Smithfield",
        "state": "VA",
        "magnitude": null,
        "magnitude_units": null,
        "source": "NWS Employee",
        "event_narrative": "Tree on a house and missing shingles from another house in Smithfield. Relayed via NWS employee. Time estimated from radar."
      },
      "geometry": {
        "type": "Point",
        "coordinates": [
          -76.62,
          36.98
        ]
      }
    },
    {
      "type": "Feature",
      "id": "iem-lsr-AKQ-3",
      "properties": {
        "report_id": "iem-lsr-AKQ-3",
        "report_type": "TSTM WND DMG",
        "event_category": "thunderstorm_wind",
        "valid_utc": "202604051830",
        "standard_time_display": "2026-04-05 13:30 EST",
        "wfo": "AKQ",
        "county_or_zone": "Isle of Wight",
        "city": "1 SW Windsor",
        "state": "VA",
        "magnitude": null,
        "magnitude_units": null,
        "source": "911 Call Center",
        "event_narrative": "Several reports of trees down in Isle of Wight County south of Windsor Blvd. Time Estimated from radar."
      },
      "geometry": {
        "type": "Point",
        "coordinates": [
          -76.75,
          36.79
        ]
      }
    },
    {
      "type": "Feature",
      "id": "iem-lsr-AKQ-4",
      "properties": {
        "report_id": "iem-lsr-AKQ-4",
        "report_type": "MARINE TSTM WIND",
        "event_category": "marine",
        "valid_utc": "202604051842",
        "standard_time_display": "2026-04-05 13:42 EST",
        "wfo": "AKQ",
        "county_or_zone": "ANZ632",
        "city": "1 WSW Cape Charles",
        "state": "VA",
        "magnitude": 49.0,
        "magnitude_units": null,
        "source": "Mesonet",
        "event_narrative": "Mesonet station XPLT Plantation Flats."
      },
      "geometry": {
        "type": "Point",
        "coordinates": [
          -76.03,
          37.26
        ]
      }
    },
    {
      "type": "Feature",
      "id": "iem-lsr-AKQ-5",
      "properties": {
        "report_id": "iem-lsr-AKQ-5",
        "report_type": "MARINE TSTM WIND",
        "event_category": "marine",
        "valid_utc": "202604051848",
        "standard_time_display": "2026-04-05 13:48 EST",
        "wfo": "AKQ",
        "county_or_zone": "ANZ638",
        "city": "4 SW Raleigh Terrace",
        "state": "VA",
        "magnitude": 50.0,
        "magnitude_units": null,
        "source": "Mesonet",
        "event_narrative": "NOS station DOMV2 Dominion Terminal."
      },
      "geometry": {
        "type": "Point",
        "coordinates": [
          -76.42,
          36.96
        ]
      }
    },
    {
      "type": "Feature",
      "id": "iem-lsr-AKQ-6",
      "properties": {
        "report_id": "iem-lsr-AKQ-6",
        "report_type": "MARINE TSTM WIND",
        "event_category": "marine",
        "valid_utc": "202604051849",
        "standard_time_display": "2026-04-05 13:49 EST",
        "wfo": "AKQ",
        "county_or_zone": "ANZ638",
        "city": "2 SSE Raleigh Terrace",
        "state": "VA",
        "magnitude": 48.0,
        "magnitude_units": null,
        "source": "Mesonet",
        "event_narrative": "Mesonet station XHMP Hampton Flats."
      },
      "geometry": {
        "type": "Point",
        "coordinates": [
          -76.36,
          36.98
        ]
      }
    },
    {
      "type": "Feature",
      "id": "iem-lsr-AKQ-7",
      "properties": {
        "report_id": "iem-lsr-AKQ-7",
        "report_type": "MARINE TSTM WIND",
        "event_category": "marine",
        "valid_utc": "202604051849",
        "standard_time_display": "2026-04-05 13:49 EST",
        "wfo": "AKQ",
        "county_or_zone": "ANZ638",
        "city": "4 SSW Raleigh Terrace",
        "state": "VA",
        "magnitude": 60.0,
        "magnitude_units": null,
        "source": "Mesonet",
        "event_narrative": "Mesonet station XMGL Middle Ground Lighthouse."
      },
      "geometry": {
        "type": "Point",
        "coordinates": [
          -76.39,
          36.95
        ]
      }
    },
    {
      "type": "Feature",
      "id": "iem-lsr-AKQ-8",
      "properties": {
        "report_id": "iem-lsr-AKQ-8",
        "report_type": "TSTM WND DMG",
        "event_category": "thunderstorm_wind",
        "valid_utc": "202604051850",
        "standard_time_display": "2026-04-05 13:50 EST",
        "wfo": "AKQ",
        "county_or_zone": "City of Newport New",
        "city": "2 SSE Hilton Village",
        "state": "VA",
        "magnitude": null,
        "magnitude_units": null,
        "source": "911 Call Center",
        "event_narrative": "Tree down on 56th St in Newport News. Time estimated from radar."
      },
      "geometry": {
        "type": "Point",
        "coordinates": [
          -76.44,
          37.0
        ]
      }
    },
    {
      "type": "Feature",
      "id": "iem-lsr-AKQ-9",
      "properties": {
        "report_id": "iem-lsr-AKQ-9",
        "report_type": "MARINE TSTM WIND",
        "event_category": "marine",
        "valid_utc": "202604051852",
        "standard_time_display": "2026-04-05 13:52 EST",
        "wfo": "AKQ",
        "county_or_zone": "City of Poquoson",
        "city": "2 ESE Messick",
        "state": "VA",
        "magnitude": 47.0,
        "magnitude_units": null,
        "source": "Mesonet",
        "event_narrative": "Mesonet station XPOQ Poquoson."
      },
      "geometry": {
        "type": "Point",
        "coordinates": [
          -76.32,
          37.11
        ]
      }
    },
    {
      "type": "Feature",
      "id": "iem-lsr-AKQ-10",
      "properties": {
        "report_id": "iem-lsr-AKQ-10",
        "report_type": "MARINE TSTM WIND",
        "event_category": "marine",
        "valid_utc": "202604051854",
        "standard_time_display": "2026-04-05 13:54 EST",
        "wfo": "AKQ",
        "county_or_zone": "ANZ638",
        "city": "2 SSW Fort Monroe",
        "state": "VA",
        "magnitude": 48.0,
        "magnitude_units": null,
        "source": "Mesonet",
        "event_narrative": "NOS station WDSV2 Willoughby Deguassing Station."
      },
      "geometry": {
        "type": "Point",
        "coordinates": [
          -76.32,
          36.98
        ]
      }
    },
    {
      "type": "Feature",
      "id": "iem-lsr-AKQ-11",
      "properties": {
        "report_id": "iem-lsr-AKQ-11",
        "report_type": "MARINE TSTM WIND",
        "event_category": "marine",
        "valid_utc": "202604051854",
        "standard_time_display": "2026-04-05 13:54 EST",
        "wfo": "AKQ",
        "county_or_zone": "City of Portsmouth",
        "city": "3 WNW Ghent",
        "state": "VA",
        "magnitude": 55.0,
        "magnitude_units": null,
        "source": "Mesonet",
        "event_narrative": "NOS station CRYV2 South Craney Island."
      },
      "geometry": {
        "type": "Point",
        "coordinates": [
          -76.34,
          36.89
        ]
      }
    },
    {
      "type": "Feature",
      "id": "iem-lsr-AKQ-12",
      "properties": {
        "report_id": "iem-lsr-AKQ-12",
        "report_type": "TSTM WND GST",
        "event_category": "thunderstorm_wind",
        "valid_utc": "202604051855",
        "standard_time_display": "2026-04-05 13:55 EST",
        "wfo": "AKQ",
        "county_or_zone": "City of Norfolk",
        "city": "1 SSE Downtown Norfolk",
        "state": "VA",
        "magnitude": 55.0,
        "magnitude_units": null,
        "source": "Mesonet",
        "event_narrative": "Mesonet station GW6810 NORFOLK."
      },
      "geometry": {
        "type": "Point",
        "coordinates": [
          -76.28,
          36.83
        ]
      }
    },
    {
      "type": "Feature",
      "id": "iem-lsr-AKQ-13",
      "properties": {
        "report_id": "iem-lsr-AKQ-13",
        "report_type": "MARINE TSTM WIND",
        "event_category": "marine",
        "valid_utc": "202604051855",
        "standard_time_display": "2026-04-05 13:55 EST",
        "wfo": "AKQ",
        "county_or_zone": "City of Norfolk",
        "city": "2 NW Ghent",
        "state": "VA",
        "magnitude": 57.0,
        "magnitude_units": null,
        "source": "Mesonet",
        "event_narrative": "Mesonet station XODU Lafayette River."
      },
      "geometry": {
        "type": "Point",
        "coordinates": [
          -76.32,
          36.89
        ]
      }
    },
    {
      "type": "Feature",
      "id": "iem-lsr-AKQ-14",
      "properties": {
        "report_id": "iem-lsr-AKQ-14",
        "report_type": "TSTM WND GST",
        "event_category": "thunderstorm_wind",
        "valid_utc": "202604051857",
        "standard_time_display": "2026-04-05 13:57 EST",
        "wfo": "AKQ",
        "county_or_zone": "City of Norfolk",
        "city": "Wards Corner",
        "state": "VA",
        "magnitude": 61.0,
        "magnitude_units": null,
        "source": "AWOS",
        "event_narrative": "AWOS station KNGU Norfolk NAS Cham."
      },
      "geometry": {
        "type": "Point",
        "coordinates": [
          -76.27,
          36.92
        ]
      }
    },
    {
      "type": "Feature",
      "id": "iem-lsr-AKQ-15",
      "properties": {
        "report_id": "iem-lsr-AKQ-15",
        "report_type": "MARINE TSTM WIND",
        "event_category": "marine",
        "valid_utc": "202604051900",
        "standard_time_display": "2026-04-05 14:00 EST",
        "wfo": "AKQ",
        "county_or_zone": "City of Chesapeake",
        "city": "1 WSW Portlock",
        "state": "VA",
        "magnitude": 52.0,
        "magnitude_units": null,
        "source": "Mesonet",
        "event_narrative": "NOS station MNPV2 Money Point."
      },
      "geometry": {
        "type": "Point",
        "coordinates": [
          -76.3,
          36.78
        ]
      }
    },
    {
      "type": "Feature",
      "id": "iem-lsr-AKQ-16",
      "properties": {
        "report_id": "iem-lsr-AKQ-16",
        "report_type": "MARINE TSTM WIND",
        "event_category": "marine",
        "valid_utc": "202604051903",
        "standard_time_display": "2026-04-05 14:03 EST",
        "wfo": "AKQ",
        "county_or_zone": "ANZ632",
        "city": "7 SW Fishermans Island",
        "state": "VA",
        "magnitude": 59.0,
        "magnitude_units": null,
        "source": "Mesonet",
        "event_narrative": "Mesonet station XBBT Third Island."
      },
      "geometry": {
        "type": "Point",
        "coordinates": [
          -76.08,
          37.04
        ]
      }
    },
    {
      "type": "Feature",
      "id": "iem-lsr-AKQ-17",
      "properties": {
        "report_id": "iem-lsr-AKQ-17",
        "report_type": "MARINE TSTM WIND",
        "event_category": "marine",
        "valid_utc": "202604051912",
        "standard_time_display": "2026-04-05 14:12 EST",
        "wfo": "AKQ",
        "county_or_zone": "Northampton",
        "city": "1 WSW Kiptopeke State P",
        "state": "VA",
        "magnitude": 49.0,
        "magnitude_units": null,
        "source": "Buoy",
        "event_narrative": "Buoy station KPTV2 Kiptopeke_ VA."
      },
      "geometry": {
        "type": "Point",
        "coordinates": [
          -75.99,
          37.17
        ]
      }
    },
    {
      "type": "Feature",
      "id": "iem-lsr-AKQ-18",
      "properties": {
        "report_id": "iem-lsr-AKQ-18",
        "report_type": "MARINE TSTM WIND",
        "event_category": "marine",
        "valid_utc": "202604051912",
        "standard_time_display": "2026-04-05 14:12 EST",
        "wfo": "AKQ",
        "county_or_zone": "ANZ632",
        "city": "1 WSW Cape Charles",
        "state": "VA",
        "magnitude": 52.0,
        "magnitude_units": null,
        "source": "Mesonet",
        "event_narrative": "Mesonet station XPLT Plantation Flats."
      },
      "geometry": {
        "type": "Point",
        "coordinates": [
          -76.03,
          37.26
        ]
      }
    },
    {
      "type": "Feature",
      "id": "iem-lsr-AKQ-19",
      "properties": {
        "report_id": "iem-lsr-AKQ-19",
        "report_type": "MARINE TSTM WIND",
        "event_category": "marine",
        "valid_utc": "202604051914",
        "standard_time_display": "2026-04-05 14:14 EST",
        "wfo": "AKQ",
        "county_or_zone": "ANZ634",
        "city": "3 NE Bayside",
        "state": "VA",
        "magnitude": 55.0,
        "magnitude_units": null,
        "source": "Mesonet",
        "event_narrative": "Mesonet station XLHI Lynnhaven Inlet Light 2."
      },
      "geometry": {
        "type": "Point",
        "coordinates": [
          -76.09,
          36.92
        ]
      }
    },
    {
      "type": "Feature",
      "id": "iem-lsr-AKQ-20",
      "properties": {
        "report_id": "iem-lsr-AKQ-20",
        "report_type": "TSTM WND DMG",
        "event_category": "thunderstorm_wind",
        "valid_utc": "202604051915",
        "standard_time_display": "2026-04-05 14:15 EST",
        "wfo": "AKQ",
        "county_or_zone": "City of Chesapeake",
        "city": "1 WNW Herberts Corner",
        "state": "VA",
        "magnitude": null,
        "magnitude_units": null,
        "source": "NWS Employee",
        "event_narrative": "Tree down along Moses Grandy Trail in Chesapeake near US 17 and Millville Rd."
      },
      "geometry": {
        "type": "Point",
        "coordinates": [
          -76.31,
          36.73
        ]
      }
    },
    {
      "type": "Feature",
      "id": "iem-lsr-AKQ-21",
      "properties": {
        "report_id": "iem-lsr-AKQ-21",
        "report_type": "MARINE TSTM WIND",
        "event_category": "marine",
        "valid_utc": "202604051918",
        "standard_time_display": "2026-04-05 14:18 EST",
        "wfo": "AKQ",
        "county_or_zone": "ANZ656",
        "city": "Cape Henry",
        "state": "VA",
        "magnitude": 53.0,
        "magnitude_units": null,
        "source": "Mesonet",
        "event_narrative": "Mesonet station CHYV2 Cape Henry_ VA."
      },
      "geometry": {
        "type": "Point",
        "coordinates": [
          -76.01,
          36.93
        ]
      }
    },
    {
      "type": "Feature",
      "id": "iem-lsr-AKQ-22",
      "properties": {
        "report_id": "iem-lsr-AKQ-22",
        "report_type": "MARINE TSTM WIND",
        "event_category": "marine",
        "valid_utc": "202604051934",
        "standard_time_display": "2026-04-05 14:34 EST",
        "wfo": "AKQ",
        "county_or_zone": "City of Virginia Be",
        "city": "1 NNE Munden",
        "state": "VA",
        "magnitude": 54.0,
        "magnitude_units": null,
        "source": "Mesonet",
        "event_narrative": "Mesonet station XCRE Creeds."
      },
      "geometry": {
        "type": "Point",
        "coordinates": [
          -76.02,
          36.59
        ]
      }
    },
    {
      "type": "Feature",
      "id": "iem-lsr-AKQ-23",
      "properties": {
        "report_id": "iem-lsr-AKQ-23",
        "report_type": "MARINE TSTM WIND",
        "event_category": "marine",
        "valid_utc": "202604051940",
        "standard_time_display": "2026-04-05 14:40 EST",
        "wfo": "AKQ",
        "county_or_zone": "ANZ633",
        "city": "2 S Sandbridge Beach",
        "state": "VA",
        "magnitude": 47.0,
        "magnitude_units": null,
        "source": "Mesonet",
        "event_narrative": "Mesonet station XSBR Sandbridge."
      },
      "geometry": {
        "type": "Point",
        "coordinates": [
          -75.93,
          36.7
        ]
      }
    },
    {
      "type": "Feature",
      "id": "iem-lsr-AKQ-24",
      "properties": {
        "report_id": "iem-lsr-AKQ-24",
        "report_type": "MARINE TSTM WIND",
        "event_category": "marine",
        "valid_utc": "202604051950",
        "standard_time_display": "2026-04-05 14:50 EST",
        "wfo": "AKQ",
        "county_or_zone": "ANZ633",
        "city": "4 NNE Sligo",
        "state": "NC",
        "magnitude": 46.0,
        "magnitude_units": null,
        "source": "Mesonet",
        "event_narrative": null
      },
      "geometry": {
        "type": "Point",
        "coordinates": [
          -76.05,
          36.5
        ]
      }
    },
    {
      "type": "Feature",
      "id": "iem-lsr-AKQ-25",
      "properties": {
        "report_id": "iem-lsr-AKQ-25",
        "report_type": "MARINE TSTM WIND",
        "event_category": "marine",
        "valid_utc": "202604191324",
        "standard_time_display": "2026-04-19 08:24 EST",
        "wfo": "AKQ",
        "county_or_zone": "ANZ631",
        "city": "5 NW Silver Beach",
        "state": "VA",
        "magnitude": 39.0,
        "magnitude_units": null,
        "source": "Mesonet",
        "event_narrative": "Mesonet station RPLV2 Rappahannock Light."
      },
      "geometry": {
        "type": "Point",
        "coordinates": [
          -76.02,
          37.54
        ]
      }
    },
    {
      "type": "Feature",
      "id": "iem-lsr-AKQ-26",
      "properties": {
        "report_id": "iem-lsr-AKQ-26",
        "report_type": "MARINE TSTM WIND",
        "event_category": "marine",
        "valid_utc": "202604191329",
        "standard_time_display": "2026-04-19 08:29 EST",
        "wfo": "AKQ",
        "county_or_zone": "Accomack",
        "city": "2 WSW Harborton",
        "state": "VA",
        "magnitude": 39.0,
        "magnitude_units": null,
        "source": "Mesonet",
        "event_narrative": "Mesonet station XHAK Onancock."
      },
      "geometry": {
        "type": "Point",
        "coordinates": [
          -75.88,
          37.65
        ]
      }
    },
    {
      "type": "Feature",
      "id": "iem-lsr-AKQ-27",
      "properties": {
        "report_id": "iem-lsr-AKQ-27",
        "report_type": "MARINE TSTM WIND",
        "event_category": "marine",
        "valid_utc": "202604191336",
        "standard_time_display": "2026-04-19 08:36 EST",
        "wfo": "AKQ",
        "county_or_zone": "ANZ636",
        "city": "2 ESE Yorktown",
        "state": "VA",
        "magnitude": 39.0,
        "magnitude_units": null,
        "source": "Buoy",
        "event_narrative": "Buoy station YKTV2 Yorktown USCG Training Center."
      },
      "geometry": {
        "type": "Point",
        "coordinates": [
          -76.48,
          37.23
        ]
      }
    },
    {
      "type": "Feature",
      "id": "iem-lsr-AKQ-28",
      "properties": {
        "report_id": "iem-lsr-AKQ-28",
        "report_type": "MARINE TSTM WIND",
        "event_category": "marine",
        "valid_utc": "202604191339",
        "standard_time_display": "2026-04-19 08:39 EST",
        "wfo": "AKQ",
        "county_or_zone": "Accomack",
        "city": "2 WSW Harborton",
        "state": "VA",
        "magnitude": 42.0,
        "magnitude_units": null,
        "source": "Mesonet",
        "event_narrative": "Mesonet station XHAK Onancock."
      },
      "geometry": {
        "type": "Point",
        "coordinates": [
          -75.88,
          37.65
        ]
      }
    },
    {
      "type": "Feature",
      "id": "iem-lsr-AKQ-29",
      "properties": {
        "report_id": "iem-lsr-AKQ-29",
        "report_type": "MARINE TSTM WIND",
        "event_category": "marine",
        "valid_utc": "202604191357",
        "standard_time_display": "2026-04-19 08:57 EST",
        "wfo": "AKQ",
        "county_or_zone": "ANZ632",
        "city": "1 WSW Cape Charles",
        "state": "VA",
        "magnitude": 41.0,
        "magnitude_units": null,
        "source": "Mesonet",
        "event_narrative": "Mesonet station XPLT Plantation Flats."
      },
      "geometry": {
        "type": "Point",
        "coordinates": [
          -76.03,
          37.26
        ]
      }
    },
    {
      "type": "Feature",
      "id": "iem-lsr-AKQ-30",
      "properties": {
        "report_id": "iem-lsr-AKQ-30",
        "report_type": "MARINE TSTM WIND",
        "event_category": "marine",
        "valid_utc": "202604191418",
        "standard_time_display": "2026-04-19 09:18 EST",
        "wfo": "AKQ",
        "county_or_zone": "ANZ631",
        "city": "5 NW Silver Beach",
        "state": "VA",
        "magnitude": 46.0,
        "magnitude_units": null,
        "source": "Mesonet",
        "event_narrative": "Mesonet station RPLV2 Rappahannock Light."
      },
      "geometry": {
        "type": "Point",
        "coordinates": [
          -76.02,
          37.54
        ]
      }
    },
    {
      "type": "Feature",
      "id": "iem-lsr-AKQ-31",
      "properties": {
        "report_id": "iem-lsr-AKQ-31",
        "report_type": "MARINE TSTM WIND",
        "event_category": "marine",
        "valid_utc": "202604191423",
        "standard_time_display": "2026-04-19 09:23 EST",
        "wfo": "AKQ",
        "county_or_zone": "ANZ632",
        "city": "7 SW Fishermans Island",
        "state": "VA",
        "magnitude": 46.0,
        "magnitude_units": null,
        "source": "Mesonet",
        "event_narrative": "Mesonet station XBBT Third Island."
      },
      "geometry": {
        "type": "Point",
        "coordinates": [
          -76.08,
          37.04
        ]
      }
    },
    {
      "type": "Feature",
      "id": "iem-lsr-AKQ-32",
      "properties": {
        "report_id": "iem-lsr-AKQ-32",
        "report_type": "MARINE TSTM WIND",
        "event_category": "marine",
        "valid_utc": "202604191515",
        "standard_time_display": "2026-04-19 10:15 EST",
        "wfo": "AKQ",
        "county_or_zone": "ANZ656",
        "city": "15 ENE Virginia Beach",
        "state": "VA",
        "magnitude": 44.0,
        "magnitude_units": null,
        "source": "Mesonet",
        "event_narrative": "Mesonet station XCLT Chesapeake Light Tower."
      },
      "geometry": {
        "type": "Point",
        "coordinates": [
          -75.71,
          36.9
        ]
      }
    },
    {
      "type": "Feature",
      "id": "iem-lsr-AKQ-33",
      "properties": {
        "report_id": "iem-lsr-AKQ-33",
        "report_type": "NON-TSTM WND GST",
        "event_category": "thunderstorm_wind",
        "valid_utc": "202604191528",
        "standard_time_display": "2026-04-19 10:28 EST",
        "wfo": "AKQ",
        "county_or_zone": "ANZ632",
        "city": "7 SW Fishermans Island",
        "state": "VA",
        "magnitude": 49.0,
        "magnitude_units": null,
        "source": "Mesonet",
        "event_narrative": "Mesonet station XBBT Third Island."
      },
      "geometry": {
        "type": "Point",
        "coordinates": [
          -76.08,
          37.04
        ]
      }
    },
    {
      "type": "Feature",
      "id": "iem-lsr-AKQ-34",
      "properties": {
        "report_id": "iem-lsr-AKQ-34",
        "report_type": "MARINE TSTM WIND",
        "event_category": "marine",
        "valid_utc": "202604191542",
        "standard_time_display": "2026-04-19 10:42 EST",
        "wfo": "AKQ",
        "county_or_zone": "ANZ632",
        "city": "1 WSW Cape Charles",
        "state": "VA",
        "magnitude": 44.0,
        "magnitude_units": null,
        "source": "Mesonet",
        "event_narrative": "Mesonet station XPLT Plantation Flats."
      },
      "geometry": {
        "type": "Point",
        "coordinates": [
          -76.03,
          37.26
        ]
      }
    },
    {
      "type": "Feature",
      "id": "iem-lsr-AKQ-35",
      "properties": {
        "report_id": "iem-lsr-AKQ-35",
        "report_type": "TSTM WND DMG",
        "event_category": "thunderstorm_wind",
        "valid_utc": "202604252344",
        "standard_time_display": "2026-04-25 18:44 EST",
        "wfo": "AKQ",
        "county_or_zone": "Southampton",
        "city": "1 NW Newsoms",
        "state": "VA",
        "magnitude": null,
        "magnitude_units": null,
        "source": "911 Call Center",
        "event_narrative": "Tree knocked down along Grays Shop Road. Time estimated from radar."
      },
      "geometry": {
        "type": "Point",
        "coordinates": [
          -77.13,
          36.63
        ]
      }
    },
    {
      "type": "Feature",
      "id": "iem-lsr-AKQ-36",
      "properties": {
        "report_id": "iem-lsr-AKQ-36",
        "report_type": "TSTM WND DMG",
        "event_category": "thunderstorm_wind",
        "valid_utc": "202604252352",
        "standard_time_display": "2026-04-25 18:52 EST",
        "wfo": "AKQ",
        "county_or_zone": "Southampton",
        "city": "3 NE Newsoms",
        "state": "VA",
        "magnitude": null,
        "magnitude_units": null,
        "source": "Public",
        "event_narrative": "2 trees knocked down along Melon Field Rd. Time estimated from radar."
      },
      "geometry": {
        "type": "Point",
        "coordinates": [
          -77.09,
          36.65
        ]
      }
    }
  ]
}