{
  "type": "FeatureCollection",
  "metadata": {
    "schema_version": "0.2.0",
    "year": 2026,
    "month": 4,
    "wfo": "BUF",
    "start_utc": "2026-04-01T00:00:00Z",
    "end_utc": "2026-05-01T00:00:00Z",
    "generated_utc": "2026-05-27T21:20:32Z",
    "mode": "storm_data_prep",
    "public_release_status": "public-source-derived",
    "source": "https://mesonet.agron.iastate.edu/cgi-bin/request/gis/lsr.py?wfo=BUF&sts=2026-04-01T00%3A00%3A00Z&ets=2026-05-01T00%3A00%3A00Z&fmt=csv"
  },
  "features": [
    {
      "type": "Feature",
      "id": "iem-lsr-BUF-1",
      "properties": {
        "report_id": "iem-lsr-BUF-1",
        "report_type": "FLOOD",
        "event_category": "flooding",
        "valid_utc": "202604010200",
        "county_or_zone": "Ontario",
        "city": "West Bloomfield",
        "state": "NY",
        "magnitude": null,
        "magnitude_units": null,
        "source": "NWS Employee",
        "event_narrative": "Delayed Report. Water flowing out of Honeoye Creek over Factory Hollow Rd just south of Rte 20."
      },
      "geometry": {
        "type": "Point",
        "coordinates": [
          -77.56,
          42.91
        ]
      }
    },
    {
      "type": "Feature",
      "id": "iem-lsr-BUF-2",
      "properties": {
        "report_id": "iem-lsr-BUF-2",
        "report_type": "FLOOD",
        "event_category": "flooding",
        "valid_utc": "202604012010",
        "county_or_zone": "Erie",
        "city": "2 SSE Wolcottsville",
        "state": "NY",
        "magnitude": null,
        "magnitude_units": null,
        "source": "Emergency Mngr",
        "event_narrative": "Delayed report. Road closures between Bruning Road and Route 93 including Koepsel Road and Cedar Street due to flooding."
      },
      "geometry": {
        "type": "Point",
        "coordinates": [
          -78.51,
          43.09
        ]
      }
    },
    {
      "type": "Feature",
      "id": "iem-lsr-BUF-3",
      "properties": {
        "report_id": "iem-lsr-BUF-3",
        "report_type": "SNOW",
        "event_category": "winter",
        "valid_utc": "202604071000",
        "county_or_zone": "Oswego",
        "city": "2 SSE Palermo",
        "state": "NY",
        "magnitude": 3.2,
        "magnitude_units": null,
        "source": "CO-OP Observer",
        "event_narrative": "CO-OP Observer station PLMN6 Palermo 2SSE."
      },
      "geometry": {
        "type": "Point",
        "coordinates": [
          -76.27,
          43.33
        ]
      }
    },
    {
      "type": "Feature",
      "id": "iem-lsr-BUF-4",
      "properties": {
        "report_id": "iem-lsr-BUF-4",
        "report_type": "SNOW",
        "event_category": "winter",
        "valid_utc": "202604071100",
        "county_or_zone": "Lewis",
        "city": "1 NE Lowville",
        "state": "NY",
        "magnitude": 1.0,
        "magnitude_units": null,
        "source": "CO-OP Observer",
        "event_narrative": "CO-OP Observer station LOWN6 Lowville."
      },
      "geometry": {
        "type": "Point",
        "coordinates": [
          -75.48,
          43.79
        ]
      }
    },
    {
      "type": "Feature",
      "id": "iem-lsr-BUF-5",
      "properties": {
        "report_id": "iem-lsr-BUF-5",
        "report_type": "SNOW",
        "event_category": "winter",
        "valid_utc": "202604071100",
        "county_or_zone": "Jefferson",
        "city": "1 SSW Watertown",
        "state": "NY",
        "magnitude": 1.0,
        "magnitude_units": null,
        "source": "Cocorahs",
        "event_narrative": "Cocorahs station NY-JF-47 Watertown 0.9 SSW."
      },
      "geometry": {
        "type": "Point",
        "coordinates": [
          -75.92,
          43.96
        ]
      }
    },
    {
      "type": "Feature",
      "id": "iem-lsr-BUF-6",
      "properties": {
        "report_id": "iem-lsr-BUF-6",
        "report_type": "SNOW",
        "event_category": "winter",
        "valid_utc": "202604071100",
        "county_or_zone": "Cattaraugus",
        "city": "1 WSW Little Valley",
        "state": "NY",
        "magnitude": 1.0,
        "magnitude_units": null,
        "source": "CO-OP Observer",
        "event_narrative": "CO-OP Observer station LTVN6 Little Valley."
      },
      "geometry": {
        "type": "Point",
        "coordinates": [
          -78.81,
          42.25
        ]
      }
    },
    {
      "type": "Feature",
      "id": "iem-lsr-BUF-7",
      "properties": {
        "report_id": "iem-lsr-BUF-7",
        "report_type": "SNOW",
        "event_category": "winter",
        "valid_utc": "202604071100",
        "county_or_zone": "Wyoming",
        "city": "3 W Warsaw",
        "state": "NY",
        "magnitude": 1.0,
        "magnitude_units": null,
        "source": "CO-OP Observer",
        "event_narrative": "CO-OP Observer station WSWN6 Warsaw 4W."
      },
      "geometry": {
        "type": "Point",
        "coordinates": [
          -78.21,
          42.74
        ]
      }
    },
    {
      "type": "Feature",
      "id": "iem-lsr-BUF-8",
      "properties": {
        "report_id": "iem-lsr-BUF-8",
        "report_type": "SNOW",
        "event_category": "winter",
        "valid_utc": "202604071100",
        "county_or_zone": "Cattaraugus",
        "city": "2 WNW Cattaraugus",
        "state": "NY",
        "magnitude": 1.1,
        "magnitude_units": null,
        "source": "CO-OP Observer",
        "event_narrative": "CO-OP Observer station CTGN6 Cattaraugus 3W."
      },
      "geometry": {
        "type": "Point",
        "coordinates": [
          -78.91,
          42.34
        ]
      }
    },
    {
      "type": "Feature",
      "id": "iem-lsr-BUF-9",
      "properties": {
        "report_id": "iem-lsr-BUF-9",
        "report_type": "SNOW",
        "event_category": "winter",
        "valid_utc": "202604071100",
        "county_or_zone": "Oswego",
        "city": "2 SW Mexico",
        "state": "NY",
        "magnitude": 1.5,
        "magnitude_units": null,
        "source": "CO-OP Observer",
        "event_narrative": "CO-OP Observer station MXON6 Mexico 2SW."
      },
      "geometry": {
        "type": "Point",
        "coordinates": [
          -76.27,
          43.44
        ]
      }
    },
    {
      "type": "Feature",
      "id": "iem-lsr-BUF-10",
      "properties": {
        "report_id": "iem-lsr-BUF-10",
        "report_type": "SNOW",
        "event_category": "winter",
        "valid_utc": "202604071100",
        "county_or_zone": "Cattaraugus",
        "city": "6 N Hinsdale",
        "state": "NY",
        "magnitude": 2.2,
        "magnitude_units": null,
        "source": "Cocorahs",
        "event_narrative": "Cocorahs station NY-CT-25 Ischua 0.4 SSE."
      },
      "geometry": {
        "type": "Point",
        "coordinates": [
          -78.4,
          42.24
        ]
      }
    },
    {
      "type": "Feature",
      "id": "iem-lsr-BUF-11",
      "properties": {
        "report_id": "iem-lsr-BUF-11",
        "report_type": "SNOW",
        "event_category": "winter",
        "valid_utc": "202604071100",
        "county_or_zone": "Allegany",
        "city": "2 SE Friendship",
        "state": "NY",
        "magnitude": 2.9,
        "magnitude_units": null,
        "source": "Cocorahs",
        "event_narrative": "Cocorahs station NY-AL-15 Friendship 2.5 SE."
      },
      "geometry": {
        "type": "Point",
        "coordinates": [
          -78.11,
          42.18
        ]
      }
    },
    {
      "type": "Feature",
      "id": "iem-lsr-BUF-12",
      "properties": {
        "report_id": "iem-lsr-BUF-12",
        "report_type": "SNOW",
        "event_category": "winter",
        "valid_utc": "202604071130",
        "county_or_zone": "Oswego",
        "city": "4 NW Constantia",
        "state": "NY",
        "magnitude": 2.0,
        "magnitude_units": null,
        "source": "Cocorahs",
        "event_narrative": "Cocorahs station NY-OS-45 West Monroe 1.6 NNE."
      },
      "geometry": {
        "type": "Point",
        "coordinates": [
          -76.06,
          43.3
        ]
      }
    },
    {
      "type": "Feature",
      "id": "iem-lsr-BUF-13",
      "properties": {
        "report_id": "iem-lsr-BUF-13",
        "report_type": "SNOW",
        "event_category": "winter",
        "valid_utc": "202604071200",
        "county_or_zone": "Oswego",
        "city": "1 S Oswego",
        "state": "NY",
        "magnitude": 1.2,
        "magnitude_units": null,
        "source": "Cocorahs",
        "event_narrative": "Cocorahs station NY-OS-46 Oswego 1.3 S."
      },
      "geometry": {
        "type": "Point",
        "coordinates": [
          -76.51,
          43.44
        ]
      }
    },
    {
      "type": "Feature",
      "id": "iem-lsr-BUF-14",
      "properties": {
        "report_id": "iem-lsr-BUF-14",
        "report_type": "SNOW",
        "event_category": "winter",
        "valid_utc": "202604071200",
        "county_or_zone": "Jefferson",
        "city": "2 NE Alexandria Bay",
        "state": "NY",
        "magnitude": 1.3,
        "magnitude_units": null,
        "source": "Cocorahs",
        "event_narrative": "Cocorahs station NY-JF-48 Alexandria Bay 1.7 NE."
      },
      "geometry": {
        "type": "Point",
        "coordinates": [
          -75.89,
          44.35
        ]
      }
    },
    {
      "type": "Feature",
      "id": "iem-lsr-BUF-15",
      "properties": {
        "report_id": "iem-lsr-BUF-15",
        "report_type": "SNOW",
        "event_category": "winter",
        "valid_utc": "202604071200",
        "county_or_zone": "Oswego",
        "city": "2 N Richland",
        "state": "NY",
        "magnitude": 1.8,
        "magnitude_units": null,
        "source": "Trained Spotter",
        "event_narrative": null
      },
      "geometry": {
        "type": "Point",
        "coordinates": [
          -76.05,
          43.59
        ]
      }
    },
    {
      "type": "Feature",
      "id": "iem-lsr-BUF-16",
      "properties": {
        "report_id": "iem-lsr-BUF-16",
        "report_type": "SNOW",
        "event_category": "winter",
        "valid_utc": "202604071200",
        "county_or_zone": "Jefferson",
        "city": "2 NW Deferiet",
        "state": "NY",
        "magnitude": 1.8,
        "magnitude_units": null,
        "source": "CO-OP Observer",
        "event_narrative": "CO-OP Observer station GTBN6 Fort Drum."
      },
      "geometry": {
        "type": "Point",
        "coordinates": [
          -75.71,
          44.06
        ]
      }
    },
    {
      "type": "Feature",
      "id": "iem-lsr-BUF-17",
      "properties": {
        "report_id": "iem-lsr-BUF-17",
        "report_type": "SNOW",
        "event_category": "winter",
        "valid_utc": "202604071200",
        "county_or_zone": "Jefferson",
        "city": "4 NW Copenhagen",
        "state": "NY",
        "magnitude": 2.6,
        "magnitude_units": null,
        "source": "Cocorahs",
        "event_narrative": "Cocorahs station NY-JF-59 Copenhagen 3.7 NW."
      },
      "geometry": {
        "type": "Point",
        "coordinates": [
          -75.72,
          43.93
        ]
      }
    },
    {
      "type": "Feature",
      "id": "iem-lsr-BUF-18",
      "properties": {
        "report_id": "iem-lsr-BUF-18",
        "report_type": "SNOW",
        "event_category": "winter",
        "valid_utc": "202604071200",
        "county_or_zone": "Allegany",
        "city": "5 ESE Angelica",
        "state": "NY",
        "magnitude": 3.1,
        "magnitude_units": null,
        "source": "Cocorahs",
        "event_narrative": "Cocorahs station NY-AL-2 West Almond 3.6 SW."
      },
      "geometry": {
        "type": "Point",
        "coordinates": [
          -77.94,
          42.27
        ]
      }
    },
    {
      "type": "Feature",
      "id": "iem-lsr-BUF-19",
      "properties": {
        "report_id": "iem-lsr-BUF-19",
        "report_type": "SNOW",
        "event_category": "winter",
        "valid_utc": "202604071247",
        "county_or_zone": "Jefferson",
        "city": "West Carthage",
        "state": "NY",
        "magnitude": 1.6,
        "magnitude_units": null,
        "source": "Cocorahs",
        "event_narrative": "Cocorahs station NY-JF-30 West Carthage 0.3 ENE."
      },
      "geometry": {
        "type": "Point",
        "coordinates": [
          -75.62,
          43.97
        ]
      }
    },
    {
      "type": "Feature",
      "id": "iem-lsr-BUF-20",
      "properties": {
        "report_id": "iem-lsr-BUF-20",
        "report_type": "MARINE TSTM WIND",
        "event_category": "marine",
        "valid_utc": "202604150920",
        "county_or_zone": "LEZ040",
        "city": "2 NNW Westfield",
        "state": "NY",
        "magnitude": 53.0,
        "magnitude_units": null,
        "source": "C-Man Station",
        "event_narrative": null
      },
      "geometry": {
        "type": "Point",
        "coordinates": [
          -79.6,
          42.35
        ]
      }
    },
    {
      "type": "Feature",
      "id": "iem-lsr-BUF-21",
      "properties": {
        "report_id": "iem-lsr-BUF-21",
        "report_type": "TSTM WND DMG",
        "event_category": "thunderstorm_wind",
        "valid_utc": "202604152338",
        "county_or_zone": "Chautauqua",
        "city": "Cherry Creek",
        "state": "NY",
        "magnitude": null,
        "magnitude_units": null,
        "source": "911 Call Center",
        "event_narrative": "Reports of several trees_ power lines and power poles downed across Cherry Creek."
      },
      "geometry": {
        "type": "Point",
        "coordinates": [
          -79.1,
          42.3
        ]
      }
    },
    {
      "type": "Feature",
      "id": "iem-lsr-BUF-22",
      "properties": {
        "report_id": "iem-lsr-BUF-22",
        "report_type": "TSTM WND DMG",
        "event_category": "thunderstorm_wind",
        "valid_utc": "202604152341",
        "county_or_zone": "Cattaraugus",
        "city": "Leon",
        "state": "NY",
        "magnitude": null,
        "magnitude_units": null,
        "source": "911 Call Center",
        "event_narrative": "Trees and wires downed in Leon."
      },
      "geometry": {
        "type": "Point",
        "coordinates": [
          -79.02,
          42.29
        ]
      }
    },
    {
      "type": "Feature",
      "id": "iem-lsr-BUF-23",
      "properties": {
        "report_id": "iem-lsr-BUF-23",
        "report_type": "TSTM WND DMG",
        "event_category": "thunderstorm_wind",
        "valid_utc": "202604152347",
        "county_or_zone": "Cattaraugus",
        "city": "Cattaraugus",
        "state": "NY",
        "magnitude": null,
        "magnitude_units": null,
        "source": "911 Call Center",
        "event_narrative": "Several reports of trees and wires downed in Cattaraugus."
      },
      "geometry": {
        "type": "Point",
        "coordinates": [
          -78.87,
          42.33
        ]
      }
    },
    {
      "type": "Feature",
      "id": "iem-lsr-BUF-24",
      "properties": {
        "report_id": "iem-lsr-BUF-24",
        "report_type": "TSTM WND DMG",
        "event_category": "thunderstorm_wind",
        "valid_utc": "202604152350",
        "county_or_zone": "Cattaraugus",
        "city": "New Albion",
        "state": "NY",
        "magnitude": null,
        "magnitude_units": null,
        "source": "911 Call Center",
        "event_narrative": "Several reports of trees and wires downed in New Albion."
      },
      "geometry": {
        "type": "Point",
        "coordinates": [
          -78.89,
          42.29
        ]
      }
    },
    {
      "type": "Feature",
      "id": "iem-lsr-BUF-25",
      "properties": {
        "report_id": "iem-lsr-BUF-25",
        "report_type": "TSTM WND DMG",
        "event_category": "thunderstorm_wind",
        "valid_utc": "202604160007",
        "county_or_zone": "Cattaraugus",
        "city": "Delevan",
        "state": "NY",
        "magnitude": null,
        "magnitude_units": null,
        "source": "911 Call Center",
        "event_narrative": "Several reports of trees and wires downed in Delevan."
      },
      "geometry": {
        "type": "Point",
        "coordinates": [
          -78.48,
          42.49
        ]
      }
    },
    {
      "type": "Feature",
      "id": "iem-lsr-BUF-26",
      "properties": {
        "report_id": "iem-lsr-BUF-26",
        "report_type": "TSTM WND DMG",
        "event_category": "thunderstorm_wind",
        "valid_utc": "202604160009",
        "county_or_zone": "Cattaraugus",
        "city": "1 SW Lime Lake-Machias",
        "state": "NY",
        "magnitude": null,
        "magnitude_units": null,
        "source": "911 Call Center",
        "event_narrative": "Several reports of trees and wires downed in Machias."
      },
      "geometry": {
        "type": "Point",
        "coordinates": [
          -78.49,
          42.42
        ]
      }
    },
    {
      "type": "Feature",
      "id": "iem-lsr-BUF-27",
      "properties": {
        "report_id": "iem-lsr-BUF-27",
        "report_type": "TORNADO",
        "event_category": "tornado",
        "valid_utc": "202604160014",
        "county_or_zone": "Cattaraugus",
        "city": "3 SSW Lime Lake-Machias",
        "state": "NY",
        "magnitude": null,
        "magnitude_units": null,
        "source": "NWS Storm Survey",
        "event_narrative": "Several trees uprooted in multiple directions shortly after the intersection of Tug Hill Road and Gulf Hill Road. Primary residence had a window blown in the upper most story of the house_ with a sec"
      },
      "geometry": {
        "type": "Point",
        "coordinates": [
          -78.51,
          42.39
        ]
      }
    },
    {
      "type": "Feature",
      "id": "iem-lsr-BUF-28",
      "properties": {
        "report_id": "iem-lsr-BUF-28",
        "report_type": "TORNADO",
        "event_category": "tornado",
        "valid_utc": "202604160018",
        "county_or_zone": "Cattaraugus",
        "city": "5 ENE Franklinville",
        "state": "NY",
        "magnitude": null,
        "magnitude_units": null,
        "source": "NWS Storm Survey",
        "event_narrative": "NWS storm survey confirmed 80mph EF-0 tornado damage in the Town of Farmersville with a path length of 0.23 mi and width of 75 yds."
      },
      "geometry": {
        "type": "Point",
        "coordinates": [
          -78.38,
          42.36
        ]
      }
    },
    {
      "type": "Feature",
      "id": "iem-lsr-BUF-29",
      "properties": {
        "report_id": "iem-lsr-BUF-29",
        "report_type": "TSTM WND DMG",
        "event_category": "thunderstorm_wind",
        "valid_utc": "202604160058",
        "county_or_zone": "Allegany",
        "city": "2 WSW Alfred",
        "state": "NY",
        "magnitude": null,
        "magnitude_units": null,
        "source": "911 Call Center",
        "event_narrative": "Quarter mile swath of tree and powerline damage on Water Wells Road in Alfred. Time estimated based on radar."
      },
      "geometry": {
        "type": "Point",
        "coordinates": [
          -77.82,
          42.25
        ]
      }
    },
    {
      "type": "Feature",
      "id": "iem-lsr-BUF-30",
      "properties": {
        "report_id": "iem-lsr-BUF-30",
        "report_type": "TSTM WND DMG",
        "event_category": "thunderstorm_wind",
        "valid_utc": "202604162316",
        "county_or_zone": "Oswego",
        "city": "5 SE Hannibal",
        "state": "NY",
        "magnitude": null,
        "magnitude_units": null,
        "source": "911 Call Center",
        "event_narrative": "Tree downed."
      },
      "geometry": {
        "type": "Point",
        "coordinates": [
          -76.52,
          43.26
        ]
      }
    },
    {
      "type": "Feature",
      "id": "iem-lsr-BUF-31",
      "properties": {
        "report_id": "iem-lsr-BUF-31",
        "report_type": "SNOW",
        "event_category": "winter",
        "valid_utc": "202604201000",
        "county_or_zone": "Lewis",
        "city": "5 W Constableville",
        "state": "NY",
        "magnitude": 1.0,
        "magnitude_units": null,
        "source": "CO-OP Observer",
        "event_narrative": "CO-OP Observer station HGHN6 Highmarket 2W."
      },
      "geometry": {
        "type": "Point",
        "coordinates": [
          -75.52,
          43.58
        ]
      }
    },
    {
      "type": "Feature",
      "id": "iem-lsr-BUF-32",
      "properties": {
        "report_id": "iem-lsr-BUF-32",
        "report_type": "SNOW",
        "event_category": "winter",
        "valid_utc": "202604201000",
        "county_or_zone": "Lewis",
        "city": "1 NW Constableville",
        "state": "NY",
        "magnitude": 2.0,
        "magnitude_units": null,
        "source": "Cocorahs",
        "event_narrative": "Cocorahs station NY-LW-3 Constableville 1.2 NW."
      },
      "geometry": {
        "type": "Point",
        "coordinates": [
          -75.45,
          43.58
        ]
      }
    },
    {
      "type": "Feature",
      "id": "iem-lsr-BUF-33",
      "properties": {
        "report_id": "iem-lsr-BUF-33",
        "report_type": "SNOW",
        "event_category": "winter",
        "valid_utc": "202604201100",
        "county_or_zone": "Wyoming",
        "city": "5 NW Gainesville",
        "state": "NY",
        "magnitude": 1.0,
        "magnitude_units": null,
        "source": "CO-OP Observer",
        "event_narrative": "CO-OP Observer station WRSN6 Warsaw 6SW."
      },
      "geometry": {
        "type": "Point",
        "coordinates": [
          -78.22,
          42.69
        ]
      }
    },
    {
      "type": "Feature",
      "id": "iem-lsr-BUF-34",
      "properties": {
        "report_id": "iem-lsr-BUF-34",
        "report_type": "SNOW",
        "event_category": "winter",
        "valid_utc": "202604201100",
        "county_or_zone": "Niagara",
        "city": "1 SE Cambria Center",
        "state": "NY",
        "magnitude": 1.2,
        "magnitude_units": null,
        "source": "CO-OP Observer",
        "event_narrative": "CO-OP Observer station SBNN6 Sanborn 4NE."
      },
      "geometry": {
        "type": "Point",
        "coordinates": [
          -78.82,
          43.17
        ]
      }
    },
    {
      "type": "Feature",
      "id": "iem-lsr-BUF-35",
      "properties": {
        "report_id": "iem-lsr-BUF-35",
        "report_type": "SNOW",
        "event_category": "winter",
        "valid_utc": "202604201200",
        "county_or_zone": "Niagara",
        "city": "3 WNW Lockport",
        "state": "NY",
        "magnitude": 1.0,
        "magnitude_units": null,
        "source": "Cocorahs",
        "event_narrative": "Cocorahs station NY-NG-27 Lockport 2.8 WNW."
      },
      "geometry": {
        "type": "Point",
        "coordinates": [
          -78.74,
          43.19
        ]
      }
    },
    {
      "type": "Feature",
      "id": "iem-lsr-BUF-36",
      "properties": {
        "report_id": "iem-lsr-BUF-36",
        "report_type": "SNOW",
        "event_category": "winter",
        "valid_utc": "202604201230",
        "county_or_zone": "Erie",
        "city": "3 E East Concord",
        "state": "NY",
        "magnitude": 1.0,
        "magnitude_units": null,
        "source": "CO-OP Observer",
        "event_narrative": "CO-OP Observer station SGVN6 Springville 5NE."
      },
      "geometry": {
        "type": "Point",
        "coordinates": [
          -78.58,
          42.55
        ]
      }
    }
  ]
}