{
  "type": "FeatureCollection",
  "metadata": {
    "schema_version": "0.2.4",
    "year": 2026,
    "month": 10,
    "wfo": "LOT",
    "start_utc": "2026-10-01T00:00:00Z",
    "end_utc": "2026-11-01T00:00:00Z",
    "generated_utc": "2026-10-06T15:55:20Z",
    "mode": "storm_data_prep",
    "public_release_status": "public-source-derived",
    "time_note": "Storm Data entry times should be reviewed in local Standard Time (ST), not daylight time. Candidate reports include standard_time_display.",
    "tornado_track_policy": "Tornado tracks must come from DAT. NCEI begin/end coordinates are not used as a tornado track substitute.",
    "source": "https://mesonet.agron.iastate.edu/cgi-bin/request/gis/lsr.py?wfo=LOT&sts=2026-10-01T00%3A00%3A00Z&ets=2026-11-01T00%3A00%3A00Z&fmt=csv"
  },
  "features": [
    {
      "type": "Feature",
      "id": "iem-lsr-LOT-1",
      "properties": {
        "report_id": "iem-lsr-LOT-1",
        "report_type": "FLOOD",
        "event_category": "flooding",
        "valid_utc": "202610012345",
        "standard_time_display": "2026-10-01 17:45 CST",
        "wfo": "LOT",
        "county_or_zone": "Will",
        "city": "NWS Chicago-Romeoville",
        "state": "IL",
        "magnitude": null,
        "magnitude_units": null,
        "source": "NWS Employee",
        "event_narrative": "NWS employee reports flooding on the road near the entrance of Lewis University off of Route 53 in Romeoville_ IL."
      },
      "geometry": {
        "type": "Point",
        "coordinates": [
          -88.08,
          41.61
        ]
      }
    },
    {
      "type": "Feature",
      "id": "iem-lsr-LOT-2",
      "properties": {
        "report_id": "iem-lsr-LOT-2",
        "report_type": "MISC MRN/SRF HZD",
        "event_category": "other",
        "valid_utc": "202610021430",
        "standard_time_display": "2026-10-02 08:30 CST",
        "wfo": "LOT",
        "county_or_zone": "LMZ741",
        "city": "Edgewater - Chicago",
        "state": "IL",
        "magnitude": null,
        "magnitude_units": null,
        "source": "Broadcast Media",
        "event_narrative": "*** 1 FATAL *** Local broadcast media is reporting that a person was found unresponsive in the water in the 5600 block of North DuSable Lake Shore Drive near Hollywood Beach. It is unclear if the incident was weather related_ though nearby buoys were reporting waves of 2 to 3 feet at the time of the body recovery."
      },
      "geometry": {
        "type": "Point",
        "coordinates": [
          -87.65,
          41.99
        ]
      }
    }
  ]
}