{
  "type": "FeatureCollection",
  "metadata": {
    "schema_version": "0.2.4",
    "year": 2026,
    "month": 10,
    "wfo": "ARX",
    "start_utc": "2026-10-01T00:00:00Z",
    "end_utc": "2026-11-01T00:00:00Z",
    "generated_utc": "2026-10-01T16:23:22Z",
    "mode": "storm_data_prep",
    "public_release_status": "public-source-derived",
    "time_note": "Storm Data entry times should be reviewed in local Standard Time (ST), not daylight time. Candidate reports include standard_time_display.",
    "tornado_track_policy": "Tornado tracks must come from DAT. NCEI begin/end coordinates are not used as a tornado track substitute.",
    "source": "https://mesonet.agron.iastate.edu/cgi-bin/request/gis/lsr.py?wfo=ARX&sts=2026-10-01T00%3A00%3A00Z&ets=2026-11-01T00%3A00%3A00Z&fmt=csv"
  },
  "features": [
    {
      "type": "Feature",
      "id": "iem-lsr-ARX-1",
      "properties": {
        "report_id": "iem-lsr-ARX-1",
        "report_type": "RAIN",
        "event_category": "other",
        "valid_utc": "202610011200",
        "standard_time_display": "2026-10-01 06:00 CST",
        "wfo": "ARX",
        "county_or_zone": "Grant",
        "city": "1 W Platteville",
        "state": "WI",
        "magnitude": 1.3,
        "magnitude_units": null,
        "source": "Trained Spotter",
        "event_narrative": null
      },
      "geometry": {
        "type": "Point",
        "coordinates": [
          -90.49,
          42.74
        ]
      }
    }
  ]
}