{
  "type": "FeatureCollection",
  "name": "counties_parishes",
  "crs": {
    "type": "name",
    "properties": {
      "name": "urn:ogc:def:crs:OGC:1.3:CRS84"
    }
  },
  "features": [
    {
      "type": "Feature",
      "properties": {
        "STATE": "NE",
        "CWA": "CYS",
        "COUNTYNAME": "Kimball",
        "FIPS": "31105",
        "TIME_ZONE": "M"
      },
      "geometry": {
        "type": "Polygon",
        "coordinates": [
          [
            [
              -103.50049591099997,
              41.394611359000066
            ],
            [
              -103.37799835199996,
              41.39411163300008
            ],
            [
              -103.37769317599998,
              41.321411133000026
            ],
            [
              -103.37559509299996,
              41.30641174300007
            ],
            [
              -103.37599945099998,
              41.06191253700007
            ],
            [
              -103.37689971899994,
              41.048011780000024
            ],
            [
              -103.38229370099998,
              41.04761123700007
            ],
            [
              -103.38229370099998,
              41.00271225000006
            ],
            [
              -103.57429504399994,
              41.001010895000036
            ],
            [
              -104.05339813199998,
              41.00141143800005
            ],
            [
              -104.05229949999995,
              41.393310547000056
            ],
            [
              -103.69769287099996,
              41.39291381800007
            ],
            [
              -103.50049591099997,
              41.394611359000066
            ]
          ]
        ]
      }
    },
    {
      "type": "Feature",
      "properties": {
        "STATE": "NE",
        "CWA": "CYS",
        "COUNTYNAME": "Banner",
        "FIPS": "31007",
        "TIME_ZONE": "M"
      },
      "geometry": {
        "type": "Polygon",
        "coordinates": [
          [
            [
              -103.37039947499994,
              41.699211121000076
            ],
            [
              -103.36709594699994,
              41.53151321400003
            ],
            [
              -103.37030029299996,
              41.395412445000034
            ],
            [
              -103.37799835199996,
              41.39411163300008
            ],
            [
              -103.46189880399999,
              41.39351272600004
            ],
            [
              -103.50049591099997,
              41.394611359000066
            ],
            [
              -103.69769287099996,
              41.39291381800007
            ],
            [
              -104.05229949999995,
              41.393310547000056
            ],
            [
              -104.05269622799995,
              41.697910309000065
            ],
            [
              -103.37039947499994,
              41.699211121000076
            ]
          ]
        ]
      }
    },
    {
      "type": "Feature",
      "properties": {
        "STATE": "NE",
        "CWA": "CYS",
        "COUNTYNAME": "Box Butte",
        "FIPS": "31013",
        "TIME_ZONE": "M"
      },
      "geometry": {
        "type": "Polygon",
        "coordinates": [
          [
            [
              -102.74989318799999,
              42.44001388500004
            ],
            [
              -102.75159454299995,
              42.35711288500005
            ],
            [
              -102.74779510499997,
              42.35161209100005
            ],
            [
              -102.74649810799997,
              42.250411987000064
            ],
            [
              -102.74169921899994,
              42.18131256100003
            ],
            [
              -102.74229431199996,
              42.09231185900006
            ],
            [
              -102.70240020799997,
              42.092712402000075
            ],
            [
              -102.70209503199999,
              42.05131149300007
            ],
            [
              -102.69879913299997,
              42.02661132800006
            ],
            [
              -102.69779968299997,
              42.00481033300008
            ],
            [
              -102.84119415299995,
              42.00071334800003
            ],
            [
              -103.12549591099997,
              42.00331115700004
            ],
            [
              -103.26569366499996,
              42.00201034500003
            ],
            [
              -103.40229797399996,
              42.00361251800007
            ],
            [
              -103.40099334699994,
              42.01671218900003
            ],
            [
              -103.40169525099998,
              42.09031295800003
            ],
            [
              -103.44409942599998,
              42.09071350100004
            ],
            [
              -103.44449615499997,
              42.43731308000008
            ],
            [
              -103.00459289599996,
              42.43781280500008
            ],
            [
              -102.74989318799999,
              42.44001388500004
            ]
          ]
        ]
      }
    },
    {
      "type": "Feature",
      "properties": {
        "STATE": "NE",
        "CWA": "CYS",
        "COUNTYNAME": "Cheyenne",
        "FIPS": "31033",
        "TIME_ZONE": "M"
      },
      "geometry": {
        "type": "Polygon",
        "coordinates": [
          [
            [
              -102.63669586199995,
              41.43901062000003
            ],
            [
              -102.63669586199995,
              41.39521026600005
            ],
            [
              -102.60979461699998,
              41.395111084000064
            ],
            [
              -102.61019897499995,
              41.048213959000066
            ],
            [
              -102.62089538599997,
              41.048011780000024
            ],
            [
              -102.62089538599997,
              41.00291061400003
            ],
            [
              -102.65349578899998,
              41.00141143800005
            ],
            [
              -103.38229370099998,
              41.00271225000006
            ],
            [
              -103.38229370099998,
              41.04761123700007
            ],
            [
              -103.37689971899994,
              41.048011780000024
            ],
            [
              -103.37599945099998,
              41.06191253700007
            ],
            [
              -103.37559509299996,
              41.30641174300007
            ],
            [
              -103.37769317599998,
              41.321411133000026
            ],
            [
              -103.37799835199996,
              41.39411163300008
            ],
            [
              -103.37030029299996,
              41.395412445000034
            ],
            [
              -103.36899566699998,
              41.43761062600004
            ],
            [
              -102.63669586199995,
              41.43901062000003
            ]
          ]
        ]
      }
    },
    {
      "type": "Feature",
      "properties": {
        "STATE": "NE",
        "CWA": "CYS",
        "COUNTYNAME": "Dawes",
        "FIPS": "31045",
        "TIME_ZONE": "M"
      },
      "geometry": {
        "type": "Polygon",
        "coordinates": [
          [
            [
              -103.50579833999996,
              43.00071334800003
            ],
            [
              -102.79259491,
              42.999912262000066
            ],
            [
              -102.79269409199998,
              42.78521347000003
            ],
            [
              -102.77339935299995,
              42.78531265300006
            ],
            [
              -102.77319335899995,
              42.44001388500004
            ],
            [
              -103.00459289599996,
              42.43781280500008
            ],
            [
              -103.48009491,
              42.43761062600004
            ],
            [
              -103.48040008499999,
              42.78401184100005
            ],
            [
              -103.503196716,
              42.784812927000075
            ],
            [
              -103.50579833999996,
              43.00071334800003
            ]
          ]
        ]
      }
    },
    {
      "type": "Feature",
      "properties": {
        "STATE": "NE",
        "CWA": "CYS",
        "COUNTYNAME": "Morrill",
        "FIPS": "31123",
        "TIME_ZONE": "M"
      },
      "geometry": {
        "type": "Polygon",
        "coordinates": [
          [
            [
              -102.67759704599996,
              42.005313873000034
            ],
            [
              -102.67910003699996,
              41.842910767000035
            ],
            [
              -102.67720031699997,
              41.78981399500003
            ],
            [
              -102.67419433599997,
              41.77201080300006
            ],
            [
              -102.66409301799996,
              41.74341201800007
            ],
            [
              -102.63649749799998,
              41.743110657000045
            ],
            [
              -102.63839721699998,
              41.71421051000004
            ],
            [
              -102.63669586199995,
              41.43901062000003
            ],
            [
              -103.36899566699998,
              41.43761062600004
            ],
            [
              -103.36709594699994,
              41.53151321400003
            ],
            [
              -103.37119293199999,
              41.72481155400004
            ],
            [
              -103.37009429899996,
              41.74301147500006
            ],
            [
              -103.36279296899994,
              41.74351120000006
            ],
            [
              -103.36309814499998,
              41.794712067000034
            ],
            [
              -103.36149597199994,
              41.83041381800007
            ],
            [
              -103.36299896199995,
              42.00301361100003
            ],
            [
              -103.26569366499996,
              42.00201034500003
            ],
            [
              -103.12549591099997,
              42.00331115700004
            ],
            [
              -102.84119415299995,
              42.00071334800003
            ],
            [
              -102.67759704599996,
              42.005313873000034
            ]
          ]
        ]
      }
    },
    {
      "type": "Feature",
      "properties": {
        "STATE": "NE",
        "CWA": "CYS",
        "COUNTYNAME": "Scotts Bluff",
        "FIPS": "31157",
        "TIME_ZONE": "M"
      },
      "geometry": {
        "type": "Polygon",
        "coordinates": [
          [
            [
              -103.36299896199995,
              42.00301361100003
            ],
            [
              -103.36149597199994,
              41.83041381800007
            ],
            [
              -103.36309814499998,
              41.794712067000034
            ],
            [
              -103.36279296899994,
              41.74351120000006
            ],
            [
              -103.37009429899996,
              41.74301147500006
            ],
            [
              -103.37039947499994,
              41.699211121000076
            ],
            [
              -104.05269622799995,
              41.697910309000065
            ],
            [
              -104.05279540999999,
              41.99451065100004
            ],
            [
              -104.05139923099995,
              42.00211334200003
            ],
            [
              -103.83359527599998,
              42.00061035200008
            ],
            [
              -103.42779540999999,
              42.00421142600004
            ],
            [
              -103.36299896199995,
              42.00301361100003
            ]
          ]
        ]
      }
    },
    {
      "type": "Feature",
      "properties": {
        "STATE": "NE",
        "CWA": "CYS",
        "COUNTYNAME": "Sioux",
        "FIPS": "31165",
        "TIME_ZONE": "M"
      },
      "geometry": {
        "type": "Polygon",
        "coordinates": [
          [
            [
              -104.053092957,
              43.00071334800003
            ],
            [
              -103.50579833999996,
              43.00071334800003
            ],
            [
              -103.503196716,
              42.784812927000075
            ],
            [
              -103.48040008499999,
              42.78401184100005
            ],
            [
              -103.48009491,
              42.43761062600004
            ],
            [
              -103.44449615499997,
              42.43731308000008
            ],
            [
              -103.44409942599998,
              42.09071350100004
            ],
            [
              -103.40169525099998,
              42.09031295800003
            ],
            [
              -103.40099334699994,
              42.01671218900003
            ],
            [
              -103.40229797399996,
              42.00361251800007
            ],
            [
              -103.47969818099995,
              42.004112244000055
            ],
            [
              -103.86409759499998,
              42.00051116900005
            ],
            [
              -104.05139923099995,
              42.00211334200003
            ],
            [
              -104.05269622799995,
              42.01111221300005
            ],
            [
              -104.05299377399996,
              42.074211121000076
            ],
            [
              -104.053092957,
              43.00071334800003
            ]
          ]
        ]
      }
    },
    {
      "type": "Feature",
      "properties": {
        "STATE": "WY",
        "CWA": "CYS",
        "COUNTYNAME": "Goshen",
        "FIPS": "56015",
        "TIME_ZONE": "M"
      },
      "geometry": {
        "type": "Polygon",
        "coordinates": [
          [
            [
              -104.65559387199994,
              42.60921096800007
            ],
            [
              -104.05279540999999,
              42.611511230000076
            ],
            [
              -104.05299377399996,
              42.074211121000076
            ],
            [
              -104.05269622799995,
              42.01111221300005
            ],
            [
              -104.05139923099995,
              42.00211334200003
            ],
            [
              -104.05279540999999,
              41.99451065100004
            ],
            [
              -104.05299377399996,
              41.917713165000066
            ],
            [
              -104.05249786399997,
              41.56431198100006
            ],
            [
              -104.65299987799995,
              41.56501388500004
            ],
            [
              -104.65559387199994,
              42.60921096800007
            ]
          ]
        ]
      }
    },
    {
      "type": "Feature",
      "properties": {
        "STATE": "WY",
        "CWA": "CYS",
        "COUNTYNAME": "Niobrara",
        "FIPS": "56027",
        "TIME_ZONE": "M"
      },
      "geometry": {
        "type": "Polygon",
        "coordinates": [
          [
            [
              -104.05479431199996,
              43.50311279300007
            ],
            [
              -104.05279540999999,
              42.611511230000076
            ],
            [
              -104.24189758299997,
              42.61211395300006
            ],
            [
              -104.60169982899998,
              42.60881042500006
            ],
            [
              -104.76679992699997,
              42.610313416000054
            ],
            [
              -104.89239501999998,
              42.609611511000026
            ],
            [
              -104.89359283399995,
              42.782913208000025
            ],
            [
              -104.89859771699997,
              42.78311157200005
            ],
            [
              -104.89920043899997,
              42.80381393400006
            ],
            [
              -104.89779663099995,
              42.86831283600003
            ],
            [
              -104.89859771699997,
              43.117313385000045
            ],
            [
              -104.896995544,
              43.14561080900006
            ],
            [
              -104.897895813,
              43.36801147500006
            ],
            [
              -104.90069578599997,
              43.499412214000074
            ],
            [
              -104.71279907199994,
              43.50181198100006
            ],
            [
              -104.05479431199996,
              43.50311279300007
            ]
          ]
        ]
      }
    },
    {
      "type": "Feature",
      "properties": {
        "STATE": "WY",
        "CWA": "CYS",
        "COUNTYNAME": "Carbon",
        "FIPS": "56007",
        "TIME_ZONE": "M"
      },
      "geometry": {
        "type": "Polygon",
        "coordinates": [
          [
            [
              -107.27709960899995,
              42.43471145600006
            ],
            [
              -106.62529754599996,
              42.430610657000045
            ],
            [
              -106.48399352999996,
              42.430713654000044
            ],
            [
              -106.32219695999999,
              42.43321228000008
            ],
            [
              -106.07299659999995,
              42.43331216000007
            ],
            [
              -106.07489659999999,
              42.10141216000005
            ],
            [
              -106.07129659999998,
              41.495612160000064
            ],
            [
              -106.06839659999997,
              41.39501216000008
            ],
            [
              -106.32289659999998,
              41.39451216000003
            ],
            [
              -106.3232966,
              41.125812160000066
            ],
            [
              -106.32119660899997,
              40.99941247900006
            ],
            [
              -106.45489501999998,
              41.00211334200003
            ],
            [
              -106.974197388,
              41.00341033900003
            ],
            [
              -107.91919708299997,
              41.00201034500003
            ],
            [
              -107.91759491,
              41.10771179200003
            ],
            [
              -107.91709899899996,
              41.39851379400005
            ],
            [
              -107.92989349399994,
              41.39851379400005
            ],
            [
              -107.92969512899998,
              41.659610748000034
            ],
            [
              -107.50969695999999,
              41.65741348300003
            ],
            [
              -107.51009368899997,
              41.74051284800004
            ],
            [
              -107.50549316399997,
              41.74051284800004
            ],
            [
              -107.50379943799999,
              42.087913513000046
            ],
            [
              -107.52229309099994,
              42.087913513000046
            ],
            [
              -107.52319659999995,
              42.43381216000006
            ],
            [
              -107.27709960899995,
              42.43471145600006
            ]
          ]
        ]
      }
    },
    {
      "type": "Feature",
      "properties": {
        "STATE": "WY",
        "CWA": "CYS",
        "COUNTYNAME": "Albany",
        "FIPS": "56001",
        "TIME_ZONE": "M"
      },
      "geometry": {
        "type": "Polygon",
        "coordinates": [
          [
            [
              -106.07299659999995,
              42.43331216000007
            ],
            [
              -105.55599659999996,
              42.43061216000007
            ],
            [
              -105.55619659999996,
              42.40621216000005
            ],
            [
              -105.57549659999995,
              42.40621216000005
            ],
            [
              -105.57559659999998,
              42.37851216000007
            ],
            [
              -105.61469659999995,
              42.37621216000008
            ],
            [
              -105.61389659999998,
              42.30441216000003
            ],
            [
              -105.59939659999998,
              42.30461216000003
            ],
            [
              -105.59939659999998,
              42.29751216000005
            ],
            [
              -105.56389659999996,
              42.29731216000005
            ],
            [
              -105.53589659999994,
              42.29451216000007
            ],
            [
              -105.52669659999998,
              42.296112160000064
            ],
            [
              -105.52629659999997,
              42.28891216000005
            ],
            [
              -105.37549659999996,
              42.290112160000035
            ],
            [
              -105.37869659999996,
              42.31901216000006
            ],
            [
              -105.35859659999994,
              42.31921216000006
            ],
            [
              -105.36079659999996,
              42.333512160000055
            ],
            [
              -105.36169659999996,
              42.375712160000035
            ],
            [
              -105.35219659999996,
              42.37641216000003
            ],
            [
              -105.35199659999995,
              42.40491216000004
            ],
            [
              -105.3420966,
              42.40491216000004
            ],
            [
              -105.34069659999994,
              42.419112160000054
            ],
            [
              -105.33249659999996,
              42.419112160000054
            ],
            [
              -105.33239659999998,
              42.43091216000005
            ],
            [
              -105.2838966,
              42.431412160000036
            ],
            [
              -105.28139659999994,
              42.321512160000054
            ],
            [
              -105.28109659999996,
              42.08951216000003
            ],
            [
              -105.27379659999997,
              42.08881216000003
            ],
            [
              -105.27429659999996,
              42.00771216000004
            ],
            [
              -105.27169659999998,
              41.986812160000056
            ],
            [
              -105.27179659999996,
              41.74201216000006
            ],
            [
              -105.27899659999997,
              41.74201216000006
            ],
            [
              -105.27749659999995,
              41.39991216000004
            ],
            [
              -105.27799659999994,
              41.39551216000007
            ],
            [
              -105.28019659999995,
              41.395412160000035
            ],
            [
              -105.28069659999994,
              41.32141216000008
            ],
            [
              -105.27879659999996,
              41.059812160000035
            ],
            [
              -105.27679659999995,
              41.04181216000006
            ],
            [
              -105.27675872599997,
              40.998208343000044
            ],
            [
              -106.19119659999996,
              40.99671216000007
            ],
            [
              -106.32119660899997,
              40.99941247900006
            ],
            [
              -106.3232966,
              41.125812160000066
            ],
            [
              -106.32289659999998,
              41.39451216000003
            ],
            [
              -106.06839659999997,
              41.39501216000008
            ],
            [
              -106.07129659999998,
              41.495612160000064
            ],
            [
              -106.07489659999999,
              42.10141216000005
            ],
            [
              -106.07299659999995,
              42.43331216000007
            ]
          ]
        ]
      }
    },
    {
      "type": "Feature",
      "properties": {
        "STATE": "WY",
        "CWA": "CYS",
        "COUNTYNAME": "Converse",
        "FIPS": "56009",
        "TIME_ZONE": "M"
      },
      "geometry": {
        "type": "Polygon",
        "coordinates": [
          [
            [
              -104.90069578599997,
              43.499412214000074
            ],
            [
              -104.897895813,
              43.36801147500006
            ],
            [
              -104.896995544,
              43.14561080900006
            ],
            [
              -104.89859771699997,
              43.117313385000045
            ],
            [
              -104.89779663099995,
              42.86831283600003
            ],
            [
              -104.89920043899997,
              42.80381393400006
            ],
            [
              -104.89859771699997,
              42.78311157200005
            ],
            [
              -104.89359283399995,
              42.782913208000025
            ],
            [
              -104.89239501999998,
              42.609611511000026
            ],
            [
              -105.28629302999997,
              42.60581207300004
            ],
            [
              -105.28259659999998,
              42.445112160000065
            ],
            [
              -105.2838966,
              42.431412160000036
            ],
            [
              -105.33239659999998,
              42.43091216000005
            ],
            [
              -105.33249659999996,
              42.419112160000054
            ],
            [
              -105.34069659999994,
              42.419112160000054
            ],
            [
              -105.3420966,
              42.40491216000004
            ],
            [
              -105.35199659999995,
              42.40491216000004
            ],
            [
              -105.35219659999996,
              42.37641216000003
            ],
            [
              -105.36169659999996,
              42.375712160000035
            ],
            [
              -105.36079659999996,
              42.333512160000055
            ],
            [
              -105.35859659999994,
              42.31921216000006
            ],
            [
              -105.37869659999996,
              42.31901216000006
            ],
            [
              -105.37549659999996,
              42.290112160000035
            ],
            [
              -105.52629659999997,
              42.28891216000005
            ],
            [
              -105.52669659999998,
              42.296112160000064
            ],
            [
              -105.53589659999994,
              42.29451216000007
            ],
            [
              -105.56389659999996,
              42.29731216000005
            ],
            [
              -105.59939659999998,
              42.29751216000005
            ],
            [
              -105.59939659999998,
              42.30461216000003
            ],
            [
              -105.61389659999998,
              42.30441216000003
            ],
            [
              -105.61469659999995,
              42.37621216000008
            ],
            [
              -105.57559659999998,
              42.37851216000007
            ],
            [
              -105.57549659999995,
              42.40621216000005
            ],
            [
              -105.55619659999996,
              42.40621216000005
            ],
            [
              -105.55599659999996,
              42.43061216000007
            ],
            [
              -106.07589721699998,
              42.43321228000008
            ],
            [
              -106.07469940199996,
              42.493110657000045
            ],
            [
              -106.07659912099996,
              42.53561401400003
            ],
            [
              -106.07569885299995,
              42.71851348900003
            ],
            [
              -106.07089996299999,
              42.71871185300006
            ],
            [
              -106.07069396999998,
              42.722110748000034
            ],
            [
              -106.07439422599998,
              42.72241210900006
            ],
            [
              -106.07709503199999,
              42.778011322000054
            ],
            [
              -106.07299804699994,
              42.77861022900004
            ],
            [
              -106.07270049999994,
              42.801513672000056
            ],
            [
              -106.07559966999997,
              43.11951065100004
            ],
            [
              -106.07369995099998,
              43.14291381800007
            ],
            [
              -106.07339477499994,
              43.197910309000065
            ],
            [
              -106.07389831499995,
              43.47191238400006
            ],
            [
              -106.07819366499996,
              43.472511292000036
            ],
            [
              -106.07779693599997,
              43.49421310400004
            ],
            [
              -104.90069578599997,
              43.499412214000074
            ]
          ]
        ]
      }
    },
    {
      "type": "Feature",
      "properties": {
        "STATE": "WY",
        "CWA": "CYS",
        "COUNTYNAME": "Laramie",
        "FIPS": "56021",
        "TIME_ZONE": "M"
      },
      "geometry": {
        "type": "Polygon",
        "coordinates": [
          [
            [
              -105.27819659999994,
              41.657412160000035
            ],
            [
              -104.79799652099996,
              41.653011322000054
            ],
            [
              -104.65329742399996,
              41.653011322000054
            ],
            [
              -104.65299987799995,
              41.56501388500004
            ],
            [
              -104.05249786399997,
              41.56431198100006
            ],
            [
              -104.05339813199998,
              41.00141143800005
            ],
            [
              -104.50419616699998,
              41.00181198100006
            ],
            [
              -104.69559478799994,
              41.001113892000035
            ],
            [
              -104.85529327399996,
              40.99801254300007
            ],
            [
              -105.27675872599997,
              40.998208343000044
            ],
            [
              -105.27679659999995,
              41.04181216000006
            ],
            [
              -105.27879659999996,
              41.059812160000035
            ],
            [
              -105.28069659999994,
              41.32141216000008
            ],
            [
              -105.28019659999995,
              41.395412160000035
            ],
            [
              -105.27799659999994,
              41.39551216000007
            ],
            [
              -105.27749659999995,
              41.39991216000004
            ],
            [
              -105.27819659999994,
              41.657412160000035
            ]
          ]
        ]
      }
    },
    {
      "type": "Feature",
      "properties": {
        "STATE": "WY",
        "CWA": "CYS",
        "COUNTYNAME": "Platte",
        "FIPS": "56031",
        "TIME_ZONE": "M"
      },
      "geometry": {
        "type": "Polygon",
        "coordinates": [
          [
            [
              -104.82899475099998,
              42.61011123700007
            ],
            [
              -104.65559387199994,
              42.60921096800007
            ],
            [
              -104.65329742399996,
              41.653011322000054
            ],
            [
              -104.79799652099996,
              41.653011322000054
            ],
            [
              -105.27819659999994,
              41.657412160000035
            ],
            [
              -105.27899659999997,
              41.74201216000006
            ],
            [
              -105.27179659999996,
              41.74201216000006
            ],
            [
              -105.27169659999998,
              41.986812160000056
            ],
            [
              -105.27429659999996,
              42.00771216000004
            ],
            [
              -105.27379659999997,
              42.08881216000003
            ],
            [
              -105.28109659999996,
              42.08951216000003
            ],
            [
              -105.28139659999994,
              42.321512160000054
            ],
            [
              -105.28379659999996,
              42.40471216000003
            ],
            [
              -105.28259659999998,
              42.445112160000065
            ],
            [
              -105.28629302999997,
              42.60581207300004
            ],
            [
              -104.82899475099998,
              42.61011123700007
            ]
          ]
        ]
      }
    }
  ],
  "metadata": {
    "schema_version": "0.1.0",
    "wfo": "CYS",
    "layer": "counties",
    "source": "https://www.weather.gov/source/gis/Shapefiles/County/c_16ap26.zip",
    "public_release_status": "public-source-derived"
  }
}