{
  "type": "FeatureCollection",
  "name": "cwa",
  "crs": {
    "type": "name",
    "properties": {
      "name": "urn:ogc:def:crs:OGC:1.3:CRS84"
    }
  },
  "features": [
    {
      "type": "Feature",
      "properties": {
        "WFO": "TSA",
        "CWA": "TSA",
        "STATE": "Oklahoma",
        "ST": "OK",
        "CITYSTATE": "Tulsa OK"
      },
      "geometry": {
        "type": "Polygon",
        "coordinates": [
          [
            [
              -96.74999999990001,
              36.999011993009105
            ],
            [
              -94.62519836401327,
              36.99871063199015
            ],
            [
              -94.61809539798418,
              36.99671173136136
            ],
            [
              -94.61779785188929,
              36.49961090112225
            ],
            [
              -93.2959976198942,
              36.498111724976184
            ],
            [
              -93.29619598425722,
              36.36421203605664
            ],
            [
              -93.3000946037829,
              36.121311187661206
            ],
            [
              -93.47999572782055,
              36.125213623010325
            ],
            [
              -93.4800949095524,
              36.081912994089464
            ],
            [
              -93.44579315243197,
              36.08051299967525
            ],
            [
              -93.4481964107357,
              36.0530128475649
            ],
            [
              -93.45069885256993,
              35.97051239033459
            ],
            [
              -93.45199585032822,
              35.96751403804245
            ],
            [
              -93.46689605720724,
              35.96751403804245
            ],
            [
              -93.46879577610417,
              35.953113555646155
            ],
            [
              -93.48609924308556,
              35.95331192000913
            ],
            [
              -93.48729705821262,
              35.92441177438394
            ],
            [
              -93.50489807128895,
              35.92521285988562
            ],
            [
              -93.50669860755465,
              35.881111144563704
            ],
            [
              -93.52369689859296,
              35.880813599368196
            ],
            [
              -93.52539825402619,
              35.823612213432966
            ],
            [
              -93.51709747287003,
              35.823310852413954
            ],
            [
              -93.51919555702932,
              35.762710571435775
            ],
            [
              -93.69599914614366,
              35.768512725681774
            ],
            [
              -93.70989990225866,
              35.375312805341764
            ],
            [
              -93.7141952514097,
              35.373813629195695
            ],
            [
              -93.7180938718347,
              35.36931228583336
            ],
            [
              -93.73389434774589,
              35.36911392236965
            ],
            [
              -93.74749755956469,
              35.36461257900737
            ],
            [
              -93.75449371311436,
              35.36681365982258
            ],
            [
              -93.76019287070437,
              35.37731170686982
            ],
            [
              -93.78599548320494,
              35.39361190816311
            ],
            [
              -93.79380035390318,
              35.401912689319204
            ],
            [
              -93.8020935061104,
              35.41721343984841
            ],
            [
              -93.80679321293638,
              35.42991256681154
            ],
            [
              -93.8100967411716,
              35.313110351561534
            ],
            [
              -93.91619873008727,
              35.31901168843871
            ],
            [
              -93.92009735141158,
              35.23121261636919
            ],
            [
              -93.93329620375675,
              35.22971344022312
            ],
            [
              -94.00689697271707,
              35.23111343373802
            ],
            [
              -94.02829742358722,
              35.230213164705845
            ],
            [
              -94.03149414114165,
              35.14091110156613
            ],
            [
              -94.13929748459122,
              35.143310546744374
            ],
            [
              -94.14059448234946,
              35.0998115543598
            ],
            [
              -94.15859985400004,
              35.0998115543598
            ],
            [
              -94.15889740009493,
              35.09251403799249
            ],
            [
              -94.17689514189726,
              35.09251403799249
            ],
            [
              -94.17720031694103,
              35.089210509757265
            ],
            [
              -94.18159484872325,
              35.089210509757265
            ],
            [
              -94.18169403135443,
              35.08561325125061
            ],
            [
              -94.19529724137453,
              35.08591079734549
            ],
            [
              -94.19549560483824,
              35.07851028432219
            ],
            [
              -94.22029876657479,
              35.07911300725954
            ],
            [
              -94.22289276119193,
              35.07831191995916
            ],
            [
              -94.22309875540321,
              35.07191085769995
            ],
            [
              -94.22829437358644,
              35.07181167596815
            ],
            [
              -94.2494964600935,
              35.06571197472789
            ],
            [
              -94.25000000039967,
              35.05811309824094
            ],
            [
              -94.22859954773088,
              35.0575141911271
            ],
            [
              -94.23049926842646,
              34.96981048586531
            ],
            [
              -94.23410034185724,
              34.967514038242314
            ],
            [
              -94.2496948235572,
              34.96381378218035
            ],
            [
              -94.25529480031474,
              34.96011352521907
            ],
            [
              -94.26479339659795,
              34.958011627035035
            ],
            [
              -94.3009948744139,
              34.95251083380799
            ],
            [
              -94.32289886559016,
              34.955612182756056
            ],
            [
              -94.32919311536995,
              34.954711913723884
            ],
            [
              -94.33379363956476,
              34.949813843434185
            ],
            [
              -94.34239959756331,
              34.9475135799878
            ],
            [
              -94.3504943854075,
              34.94901275613387
            ],
            [
              -94.36029815673453,
              34.961914062384096
            ],
            [
              -94.36809539758451,
              34.96181106572817
            ],
            [
              -94.37599945091387,
              34.94901275613387
            ],
            [
              -94.39209747292,
              34.94381332392584
            ],
            [
              -94.40769958536754,
              34.949813843434185
            ],
            [
              -94.41369628905244,
              34.946712493586745
            ],
            [
              -94.41909790144695,
              34.93921279883165
            ],
            [
              -94.4289932255569,
              34.93171310407655
            ],
            [
              -94.43139648386062,
              34.93101120030673
            ],
            [
              -94.446495056002,
              34.93401336662362
            ],
            [
              -94.44899749783622,
              34.90241241480118
            ],
            [
              -94.46119692190041,
              34.50821211020076
            ],
            [
              -95.04669952376395,
              34.507213592933
            ],
            [
              -95.04660034203215,
              34.24491119429621
            ],
            [
              -95.06019592310332,
              34.24361038161385
            ],
            [
              -95.15129852340812,
              34.243213653787166
            ],
            [
              -95.1520996089098,
              34.1570129386962
            ],
            [
              -95.15639495806084,
              34.156112670563346
            ],
            [
              -95.15649414159134,
              34.15011215195432
            ],
            [
              -95.15569305429096,
              33.93681335385327
            ],
            [
              -95.16219329828203,
              33.938011168980324
            ],
            [
              -95.18539428721652,
              33.950813292599435
            ],
            [
              -95.21019744895307,
              33.957511901852854
            ],
            [
              -95.21969604523628,
              33.96161270066568
            ],
            [
              -95.23079680442896,
              33.960411076909736
            ],
            [
              -95.23219299291225,
              33.95121383714894
            ],
            [
              -95.2348937991095,
              33.946910858149636
            ],
            [
              -95.24169921904371,
              33.9439125058575
            ],
            [
              -95.25019836456283,
              33.93691253738376
            ],
            [
              -95.25370025626177,
              33.9308128361435
            ],
            [
              -95.24909973116763,
              33.920112609809166
            ],
            [
              -95.24819946303478,
              33.91231155403506
            ],
            [
              -95.25299835159262,
              33.89501190197774
            ],
            [
              -95.26129913274872,
              33.88741302459147
            ],
            [
              -95.26749420259534,
              33.8870124818406
            ],
            [
              -95.2689971918669,
              33.891010283997446
            ],
            [
              -95.26719665560114,
              33.89961242707193
            ],
            [
              -95.26889801013505,
              33.910511016869975
            ],
            [
              -95.27109527602613,
              33.912513733322214
            ],
            [
              -95.27709960955929,
              33.91091155962084
            ],
            [
              -95.28299713241171,
              33.90561294568096
            ],
            [
              -95.28529357913533,
              33.90091323885497
            ],
            [
              -95.28029632621445,
              33.885612488325705
            ],
            [
              -95.27969360417643,
              33.87901306170346
            ],
            [
              -95.28369903618153,
              33.8751106263544
            ],
            [
              -95.29489898699859,
              33.87251281681307
            ],
            [
              -95.32809448177488,
              33.8862113954396
            ],
            [
              -95.33389282199607,
              33.885810851789415
            ],
            [
              -95.3347930910283,
              33.87731170716961
            ],
            [
              -95.33919525086009,
              33.868911743382284
            ],
            [
              -95.35209655800969,
              33.86791229171894
            ],
            [
              -95.38479614322739,
              33.869411468764326
            ],
            [
              -95.40609741236563,
              33.86631393384101
            ],
            [
              -95.43919372630938,
              33.870014190802294
            ],
            [
              -95.44799804687233,
              33.86901092511414
            ],
            [
              -95.46139526358053,
              33.872013092330405
            ],
            [
              -95.46389770541475,
              33.87431335397815
            ],
            [
              -95.46029663108465,
              33.88361358589833
            ],
            [
              -95.46059417717947,
              33.888011931705364
            ],
            [
              -95.46469879181575,
              33.888011931705364
            ],
            [
              -95.47859954793074,
              33.879310607798345
            ],
            [
              -95.48869323730304,
              33.875911712755396
            ],
            [
              -95.50319671635532,
              33.875213623010325
            ],
            [
              -95.50619506774814,
              33.876712799156394
            ],
            [
              -95.50559997555837,
              33.88961029138187
            ],
            [
              -95.5116958618745,
              33.8937110901947
            ],
            [
              -95.53409576440794,
              33.8809127806004
            ],
            [
              -95.54519653259388,
              33.880413055218355
            ],
            [
              -95.55169677658495,
              33.887813568241654
            ],
            [
              -95.55229950042155,
              33.89391326858254
            ],
            [
              -95.54929351828122,
              33.90801238995988
            ],
            [
              -95.5511932371781,
              33.9147109992133
            ],
            [
              -95.55979919427733,
              33.9306106568564
            ],
            [
              -95.5662994382684,
              33.932613373308584
            ],
            [
              -95.58609771723582,
              33.93461227393732
            ],
            [
              -95.59289550822109,
              33.94051361081455
            ],
            [
              -95.59679412774676,
              33.94131088319074
            ],
            [
              -95.60389709557444,
              33.92711257918222
            ],
            [
              -95.60799408036246,
              33.92411041286533
            ],
            [
              -95.62429809657988,
              33.91901016238916
            ],
            [
              -95.63339996323765,
              33.90891265899205
            ],
            [
              -95.6379928593829,
              33.906414032081955
            ],
            [
              -95.64539337240615,
              33.906112671063
            ],
            [
              -95.66089630132319,
              33.909011840723906
            ],
            [
              -95.6651992803225,
              33.908111571691734
            ],
            [
              -95.66919708337866,
              33.90641021715783
            ],
            [
              -95.68439483635257,
              33.890613556170706
            ],
            [
              -95.69409942594774,
              33.88611221280843
            ],
            [
              -95.71009826712128,
              33.88461303666236
            ],
            [
              -95.71449279800419,
              33.88551330569453
            ],
            [
              -95.7293930048832,
              33.89401245121371
            ],
            [
              -95.73749542257565,
              33.896011352741766
            ],
            [
              -95.74669647186465,
              33.89581298837874
            ],
            [
              -95.756095886416,
              33.892311095780485
            ],
            [
              -95.75879669171394,
              33.88981246887039
            ],
            [
              -95.76199340836905,
              33.882610321109496
            ],
            [
              -95.76219940258034,
              33.87251281681307
            ],
            [
              -95.76519775397315,
              33.87111282329823
            ],
            [
              -95.77629852305836,
              33.873313904113445
            ],
            [
              -95.7817993162854,
              33.868312836268444
            ],
            [
              -95.78639984137953,
              33.87271118207542
            ],
            [
              -95.79489898689872,
              33.873512267577155
            ],
            [
              -95.80509948695175,
              33.87001037587822
            ],
            [
              -95.81009674077194,
              33.87101364066706
            ],
            [
              -95.8120956423,
              33.86991119414637
            ],
            [
              -95.81669616739418,
              33.87271118207542
            ],
            [
              -95.82769775384821,
              33.8734130858453
            ],
            [
              -95.83169555690438,
              33.8751106263544
            ],
            [
              -95.83669280982525,
              33.873912811227285
            ],
            [
              -95.84039306588727,
              33.874813080259514
            ],
            [
              -95.85809326159472,
              33.88741302459147
            ],
            [
              -95.8614959715618,
              33.888412476254814
            ],
            [
              -95.86589813229295,
              33.89661407477979
            ],
            [
              -95.86669921959327,
              33.902511596732836
            ],
            [
              -95.87779998777916,
              33.914611815682804
            ],
            [
              -95.88659668029254,
              33.916812897397335
            ],
            [
              -95.89509582491235,
              33.92131042493622
            ],
            [
              -95.9008941651336,
              33.920310974172196
            ],
            [
              -95.90390014637461,
              33.92251205408809
            ],
            [
              -95.91539764418587,
              33.923511504852115
            ],
            [
              -95.92169952381391,
              33.92861175532829
            ],
            [
              -95.92249298126603,
              33.93191146863944
            ],
            [
              -95.92519378656397,
              33.932811736772294
            ],
            [
              -95.92929840120024,
              33.93901061974435
            ],
            [
              -95.93560028082828,
              33.94241332971143
            ],
            [
              -95.93789672935054,
              33.953411102140706
            ],
            [
              -95.93829345717728,
              34.11181259177772
            ],
            [
              -95.93959808298513,
              34.12571334789277
            ],
            [
              -95.9412994384183,
              34.12391281072769
            ],
            [
              -95.9440994263474,
              34.124912262391035
            ],
            [
              -95.94939422626248,
              34.13071060171296
            ],
            [
              -95.94969940220562,
              34.135311126807096
            ],
            [
              -95.95219421419159,
              34.139213562156215
            ],
            [
              -95.95039367702651,
              34.14471054135845
            ],
            [
              -95.95559692415867,
              34.14931106555326
            ],
            [
              -95.96640014624973,
              34.15121078534952
            ],
            [
              -95.97079467803195,
              34.153713226284424
            ],
            [
              -95.974800110037,
              34.152713776419716
            ],
            [
              -95.97769928059728,
              34.154613495316596
            ],
            [
              -95.97819519015587,
              34.15171050983224
            ],
            [
              -95.98059845025824,
              34.15211105258305
            ],
            [
              -95.98499298114115,
              34.15541076679352
            ],
            [
              -95.9761962904264,
              34.15671157767724
            ],
            [
              -95.77939605708235,
              34.15671157767724
            ],
            [
              -95.77919769271932,
              34.50641250563268
            ],
            [
              -95.67169952431357,
              34.50681304928287
            ],
            [
              -95.67189788777728,
              34.59381103495133
            ],
            [
              -95.88069915833944,
              34.59361267058836
            ],
            [
              -95.88219451956138,
              34.59991073619159
            ],
            [
              -95.8820953369302,
              34.67441177418408
            ],
            [
              -95.88319397032541,
              34.68051147542428
            ],
            [
              -96.09209442082084,
              34.68031311016193
            ],
            [
              -96.09199523908899,
              34.848011016795056
            ],
            [
              -96.08909606942802,
              34.8596115112623
            ],
            [
              -96.08879852333314,
              35.04911041331496
            ],
            [
              -96.07249450711578,
              35.05381012014101
            ],
            [
              -96.0695953365555,
              35.05611419671288
            ],
            [
              -96.0648956297295,
              35.069110869770896
            ],
            [
              -96.06129455629872,
              35.09091186519049
            ],
            [
              -96.05419921921856,
              35.09771347020052
            ],
            [
              -96.04100036597407,
              35.105312346687526
            ],
            [
              -96.03079986592104,
              35.11941146896419
            ],
            [
              -96.0261993408269,
              35.12061309811605
            ],
            [
              -96.01429748534065,
              35.11681366032224
            ],
            [
              -96.0107955927424,
              35.1173133848049
            ],
            [
              -96.00899505557732,
              35.11931228633301
            ],
            [
              -96.01369476330262,
              35.139713287338395
            ],
            [
              -96.01210022034883,
              35.145111083909455
            ],
            [
              -96.00449371311436,
              35.149013519258574
            ],
            [
              -95.98309326224421,
              35.15171050963238
            ],
            [
              -95.98339843818735,
              35.19611358597325
            ],
            [
              -95.98109435981684,
              35.21681213397284
            ],
            [
              -95.98139953575992,
              35.28991317665185
            ],
            [
              -96.44139862094954,
              35.28991317665185
            ],
            [
              -96.44129943831837,
              35.44991302506611
            ],
            [
              -96.44249725344548,
              35.46081161486421
            ],
            [
              -96.44619751040676,
              35.458610534948264
            ],
            [
              -96.45259857176666,
              35.458412169685914
            ],
            [
              -96.45509338375263,
              35.460411072113345
            ],
            [
              -96.46099853555393,
              35.46121215761502
            ],
            [
              -96.46489715597892,
              35.458412169685914
            ],
            [
              -96.468299865946,
              35.45921325698629
            ],
            [
              -96.47299957277204,
              35.463611602793264
            ],
            [
              -96.47579956160047,
              35.463012694780105
            ],
            [
              -96.47829437358644,
              35.45701217707034
            ],
            [
              -96.48659515384321,
              35.450012206797965
            ],
            [
              -96.48829650927644,
              35.44681167611799
            ],
            [
              -96.4847946175775,
              35.4446105962021
            ],
            [
              -96.48299408041242,
              35.44121170025983
            ],
            [
              -96.48399353027719,
              35.43721389810298
            ],
            [
              -96.49039459343572,
              35.43071365411191
            ],
            [
              -96.49699401915865,
              35.42871093676035
            ],
            [
              -96.51359558057158,
              35.43001174944271
            ],
            [
              -96.51999664283079,
              35.43211364672749
            ],
            [
              -96.52129364058902,
              35.43791198694868
            ],
            [
              -96.52890014602491,
              35.44381332382591
            ],
            [
              -96.53709411739959,
              35.447410583231886
            ],
            [
              -96.54380035380325,
              35.45741271982121
            ],
            [
              -96.54619598405736,
              35.45721054143337
            ],
            [
              -96.54419708342863,
              35.45351028357277
            ],
            [
              -96.55309295677449,
              35.45421218914129
            ],
            [
              -96.55449676521351,
              35.4530105590901
            ],
            [
              -96.55349731444949,
              35.44911193776579
            ],
            [
              -96.55649566674157,
              35.447410583231886
            ],
            [
              -96.55939483640253,
              35.44891357430208
            ],
            [
              -96.56129455619879,
              35.44781112688207
            ],
            [
              -96.56489563142821,
              35.44231414767984
            ],
            [
              -96.5691986077295,
              35.44171142564181
            ],
            [
              -96.56909942599765,
              35.43901062034388
            ],
            [
              -96.56469726616587,
              35.4360122680518
            ],
            [
              -96.55589294380428,
              35.43451309190573
            ],
            [
              -96.56009674107173,
              35.42651367176859
            ],
            [
              -96.56060028137784,
              35.42261123731879
            ],
            [
              -96.55819702127548,
              35.42041015560426
            ],
            [
              -96.55619811974736,
              35.41951370239548
            ],
            [
              -96.55469512957654,
              35.42281341570663
            ],
            [
              -96.55229950022175,
              35.42281341570663
            ],
            [
              -96.55130004855835,
              35.420413971427706
            ],
            [
              -96.54829406731733,
              35.41891098035751
            ],
            [
              -96.54979705838753,
              35.415611267046415
            ],
            [
              -96.5483932499485,
              35.413810729881334
            ],
            [
              -96.53719329823207,
              35.41071319585734
            ],
            [
              -96.5380935672643,
              35.404510497961155
            ],
            [
              -96.53209686357934,
              35.400611876636844
            ],
            [
              -96.53629303009922,
              35.39121246298481
            ],
            [
              -96.55439758258234,
              35.39381408655089
            ],
            [
              -96.55690002441656,
              35.395412445328134
            ],
            [
              -96.5555953977094,
              35.402214050338216
            ],
            [
              -96.56639862159909,
              35.39951324504028
            ],
            [
              -96.5748977662189,
              35.40201187105106
            ],
            [
              -96.57989502003909,
              35.408412933310274
            ],
            [
              -96.58569335936102,
              35.41161346399025
            ],
            [
              -96.5890960693281,
              35.41131210297124
            ],
            [
              -96.59809875515339,
              35.3983116149891
            ],
            [
              -96.60039520277633,
              35.39731216422507
            ],
            [
              -96.60429382320132,
              35.39951324504028
            ],
            [
              -96.60949707033348,
              35.39451217719528
            ],
            [
              -96.61339569075847,
              35.39701080320606
            ],
            [
              -96.61869812142112,
              35.39671325711117
            ],
            [
              -96.62339782734784,
              35.40051269490499
            ],
            [
              -96.62500000014984,
              35.46311187741128
            ],
            [
              -96.62169647191462,
              35.55491256656177
            ],
            [
              -96.61909484924786,
              35.85601043673233
            ],
            [
              -96.62279510530982,
              36.03371047995472
            ],
            [
              -96.62139892581973,
              36.1596107478378
            ],
            [
              -96.81909942639737,
              36.15891265899205
            ],
            [
              -96.8190002437662,
              36.24541091927853
            ],
            [
              -96.83539581276654,
              36.24661254932977
            ],
            [
              -96.92509460373293,
              36.24651336669859
            ],
            [
              -96.92489624026922,
              36.33321380627217
            ],
            [
              -97.03209686258009,
              36.33341216973588
            ],
            [
              -97.03219604521126,
              36.507011414145495
            ],
            [
              -97.00999450704086,
              36.506813048883146
            ],
            [
              -97.00689697301686,
              36.51971054110862
            ],
            [
              -97.00119781542679,
              36.52571105971771
            ],
            [
              -96.98809814481348,
              36.53241348299588
            ],
            [
              -96.97760009776624,
              36.535411835288016
            ],
            [
              -96.959793091378,
              36.53421402016096
            ],
            [
              -96.95409393288867,
              36.535812378038884
            ],
            [
              -96.9490966799678,
              36.53791046129879
            ],
            [
              -96.94319915801469,
              36.54411315919498
            ],
            [
              -96.92539978057539,
              36.55231094369515
            ],
            [
              -96.91269683778881,
              36.552913665733115
            ],
            [
              -96.90249633773578,
              36.55151367221828
            ],
            [
              -96.89909362776865,
              36.553211211828
            ],
            [
              -96.8903961178865,
              36.56361389206751
            ],
            [
              -96.88819885289473,
              36.574611663597466
            ],
            [
              -96.90479278625804,
              36.58941268874463
            ],
            [
              -96.91179657055523,
              36.5984115596458
            ],
            [
              -96.92049408043744,
              36.60071182309224
            ],
            [
              -96.94159698521264,
              36.59401321383882
            ],
            [
              -96.94859314056094,
              36.59001159675785
            ],
            [
              -96.96699523913895,
              36.586311339796566
            ],
            [
              -96.99409484939775,
              36.58471298191864
            ],
            [
              -97.00159454325353,
              36.58271026636578
            ],
            [
              -97.03479766787802,
              36.586112976332856
            ],
            [
              -97.05599975618378,
              36.59251403769275
            ],
            [
              -97.05809783944369,
              36.596210479729905
            ],
            [
              -97.05639648401052,
              36.59791183516313
            ],
            [
              -97.0482940672174,
              36.59741210888177
            ],
            [
              -97.04479980536667,
              36.599010467659014
            ],
            [
              -97.0441970833287,
              36.60161209122509
            ],
            [
              -97.05169677718447,
              36.611110686608924
            ],
            [
              -97.0515975945533,
              36.616813660022444
            ],
            [
              -97.04869842489234,
              36.62261200024369
            ],
            [
              -97.05189514244682,
              36.641910552929744
            ],
            [
              -97.06099700910465,
              36.6507110603672
            ],
            [
              -97.0625991819067,
              36.65411377033428
            ],
            [
              -97.0626983654372,
              36.661411284902954
            ],
            [
              -97.06459808343476,
              36.66721344004827
            ],
            [
              -97.06449890080359,
              36.680713654311774
            ],
            [
              -97.06409454312865,
              36.68421173108658
            ],
            [
              -97.05319976825467,
              36.69221115122372
            ],
            [
              -97.03679657030546,
              36.700611115010986
            ],
            [
              -97.03149414144144,
              36.70181274416285
            ],
            [
              -97.021499633801,
              36.692813873261684
            ],
            [
              -97.01229858541137,
              36.694110870120596
            ],
            [
              -96.99530029257443,
              36.68811035241089
            ],
            [
              -96.96649932958036,
              36.688312530798726
            ],
            [
              -96.94749450716574,
              36.68361282307336
            ],
            [
              -96.93089294395418,
              36.68661117626482
            ],
            [
              -96.92729950037159,
              36.68861389181768
            ],
            [
              -96.92829895023635,
              36.694313049407754
            ],
            [
              -96.92259979174696,
              36.70291137665873
            ],
            [
              -96.92070007285002,
              36.71741104078694
            ],
            [
              -96.909698486396,
              36.72711181635731
            ],
            [
              -96.90639495816077,
              36.73661041264046
            ],
            [
              -96.88969421411667,
              36.75091171330496
            ],
            [
              -96.86750030489515,
              36.753211974952706
            ],
            [
              -96.85350036614892,
              36.746112822948476
            ],
            [
              -96.83929443409085,
              36.74381256130073
            ],
            [
              -96.8303985598456,
              36.74421310405154
            ],
            [
              -96.82559967038844,
              36.74601364121662
            ],
            [
              -96.8200988771614,
              36.752811432201895
            ],
            [
              -96.81809997743198,
              36.75901031517395
            ],
            [
              -96.8188934330854,
              36.763214110642764
            ],
            [
              -96.82259368914742,
              36.767513274717885
            ],
            [
              -96.78869628880267,
              36.767513274717885
            ],
            [
              -96.78839874270778,
              36.782012938846094
            ],
            [
              -96.75259399541653,
              36.782012938846094
            ],
            [
              -96.75219726579115,
              36.92851257299691
            ],
            [
              -96.74999999990001,
              36.94781112658228
            ],
            [
              -96.74999999990001,
              36.999011993009105
            ]
          ]
        ]
      }
    }
  ],
  "metadata": {
    "schema_version": "0.1.0",
    "wfo": "TSA",
    "layer": "cwa",
    "source": "https://www.weather.gov/source/gis/Shapefiles/WSOM/w_16ap26.zip",
    "public_release_status": "public-source-derived"
  }
}