{
  "type": "FeatureCollection",
  "metadata": {
    "schema_version": "0.2.4",
    "year": 2026,
    "month": 7,
    "wfo": "UNR",
    "start_utc": "2026-07-01T00:00:00Z",
    "end_utc": "2026-08-01T00:00:00Z",
    "generated_utc": "2026-07-02T11:43:46Z",
    "mode": "storm_data_prep",
    "public_release_status": "public-source-derived",
    "time_note": "Storm Data entry times should be reviewed in local Standard Time (ST), not daylight time. Candidate reports include standard_time_display.",
    "tornado_track_policy": "Tornado tracks must come from DAT. NCEI begin/end coordinates are not used as a tornado track substitute.",
    "source": "https://mesonet.agron.iastate.edu/cgi-bin/request/gis/lsr.py?wfo=UNR&sts=2026-07-01T00%3A00%3A00Z&ets=2026-08-01T00%3A00%3A00Z&fmt=csv"
  },
  "features": [
    {
      "type": "Feature",
      "id": "iem-lsr-UNR-1",
      "properties": {
        "report_id": "iem-lsr-UNR-1",
        "report_type": "TSTM WND GST",
        "event_category": "thunderstorm_wind",
        "valid_utc": "202607010110",
        "standard_time_display": "2026-06-30 18:10 MST",
        "wfo": "UNR",
        "county_or_zone": "Pennington",
        "city": "6 ESE Scenic",
        "state": "SD",
        "magnitude": 52.0,
        "magnitude_units": null,
        "source": "Mesonet",
        "event_narrative": null
      },
      "geometry": {
        "type": "Point",
        "coordinates": [
          -102.44,
          43.76
        ]
      }
    },
    {
      "type": "Feature",
      "id": "iem-lsr-UNR-2",
      "properties": {
        "report_id": "iem-lsr-UNR-2",
        "report_type": "TSTM WND GST",
        "event_category": "thunderstorm_wind",
        "valid_utc": "202607010145",
        "standard_time_display": "2026-06-30 18:45 MST",
        "wfo": "UNR",
        "county_or_zone": "Fall River",
        "city": "2 SSW Oral",
        "state": "SD",
        "magnitude": 63.0,
        "magnitude_units": null,
        "source": "Mesonet",
        "event_narrative": null
      },
      "geometry": {
        "type": "Point",
        "coordinates": [
          -103.28,
          43.38
        ]
      }
    },
    {
      "type": "Feature",
      "id": "iem-lsr-UNR-3",
      "properties": {
        "report_id": "iem-lsr-UNR-3",
        "report_type": "TSTM WND GST",
        "event_category": "thunderstorm_wind",
        "valid_utc": "202607010220",
        "standard_time_display": "2026-06-30 19:20 MST",
        "wfo": "UNR",
        "county_or_zone": "Fall River",
        "city": "10 ESE Oelrichs",
        "state": "SD",
        "magnitude": 51.0,
        "magnitude_units": null,
        "source": "Mesonet",
        "event_narrative": null
      },
      "geometry": {
        "type": "Point",
        "coordinates": [
          -103.05,
          43.1
        ]
      }
    },
    {
      "type": "Feature",
      "id": "iem-lsr-UNR-4",
      "properties": {
        "report_id": "iem-lsr-UNR-4",
        "report_type": "NON-TSTM WND GST",
        "event_category": "thunderstorm_wind",
        "valid_utc": "202607010220",
        "standard_time_display": "2026-06-30 19:20 MST",
        "wfo": "UNR",
        "county_or_zone": "Pennington",
        "city": "8 S Wall",
        "state": "SD",
        "magnitude": 52.0,
        "magnitude_units": null,
        "source": "Mesonet",
        "event_narrative": null
      },
      "geometry": {
        "type": "Point",
        "coordinates": [
          -102.24,
          43.88
        ]
      }
    },
    {
      "type": "Feature",
      "id": "iem-lsr-UNR-5",
      "properties": {
        "report_id": "iem-lsr-UNR-5",
        "report_type": "TSTM WND GST",
        "event_category": "thunderstorm_wind",
        "valid_utc": "202607010227",
        "standard_time_display": "2026-06-30 19:27 MST",
        "wfo": "UNR",
        "county_or_zone": "Fall River",
        "city": "12 E Oelrichs",
        "state": "SD",
        "magnitude": 52.0,
        "magnitude_units": null,
        "source": "Dept of Highways",
        "event_narrative": null
      },
      "geometry": {
        "type": "Point",
        "coordinates": [
          -103.0,
          43.19
        ]
      }
    },
    {
      "type": "Feature",
      "id": "iem-lsr-UNR-6",
      "properties": {
        "report_id": "iem-lsr-UNR-6",
        "report_type": "TSTM WND GST",
        "event_category": "thunderstorm_wind",
        "valid_utc": "202607010640",
        "standard_time_display": "2026-07-01 00:40 CST",
        "wfo": "UNR",
        "county_or_zone": "Tripp",
        "city": "Wewela",
        "state": "SD",
        "magnitude": 52.0,
        "magnitude_units": null,
        "source": "Dept of Highways",
        "event_narrative": null
      },
      "geometry": {
        "type": "Point",
        "coordinates": [
          -99.78,
          43.01
        ]
      }
    },
    {
      "type": "Feature",
      "id": "iem-lsr-UNR-7",
      "properties": {
        "report_id": "iem-lsr-UNR-7",
        "report_type": "TSTM WND GST",
        "event_category": "thunderstorm_wind",
        "valid_utc": "202607010655",
        "standard_time_display": "2026-07-01 00:55 CST",
        "wfo": "UNR",
        "county_or_zone": "Tripp",
        "city": "1 NE Winner",
        "state": "SD",
        "magnitude": 53.0,
        "magnitude_units": null,
        "source": "ASOS",
        "event_narrative": null
      },
      "geometry": {
        "type": "Point",
        "coordinates": [
          -99.84,
          43.39
        ]
      }
    },
    {
      "type": "Feature",
      "id": "iem-lsr-UNR-8",
      "properties": {
        "report_id": "iem-lsr-UNR-8",
        "report_type": "TSTM WND GST",
        "event_category": "thunderstorm_wind",
        "valid_utc": "202607010725",
        "standard_time_display": "2026-07-01 01:25 CST",
        "wfo": "UNR",
        "county_or_zone": "Tripp",
        "city": "2 W Hamill",
        "state": "SD",
        "magnitude": 51.0,
        "magnitude_units": null,
        "source": "Mesonet",
        "event_narrative": null
      },
      "geometry": {
        "type": "Point",
        "coordinates": [
          -99.71,
          43.59
        ]
      }
    },
    {
      "type": "Feature",
      "id": "iem-lsr-UNR-9",
      "properties": {
        "report_id": "iem-lsr-UNR-9",
        "report_type": "RAIN",
        "event_category": "other",
        "valid_utc": "202607011200",
        "standard_time_display": "2026-07-01 06:00 CST",
        "wfo": "UNR",
        "county_or_zone": "Tripp",
        "city": "7 NW Clearfield",
        "state": "SD",
        "magnitude": 0.75,
        "magnitude_units": null,
        "source": "CoCoRaHS",
        "event_narrative": "24-hour rainfall."
      },
      "geometry": {
        "type": "Point",
        "coordinates": [
          -100.14,
          43.24
        ]
      }
    },
    {
      "type": "Feature",
      "id": "iem-lsr-UNR-10",
      "properties": {
        "report_id": "iem-lsr-UNR-10",
        "report_type": "RAIN",
        "event_category": "other",
        "valid_utc": "202607011200",
        "standard_time_display": "2026-07-01 06:00 CST",
        "wfo": "UNR",
        "county_or_zone": "Tripp",
        "city": "9 ENE Wewela",
        "state": "SD",
        "magnitude": 0.87,
        "magnitude_units": null,
        "source": "CoCoRaHS",
        "event_narrative": "24-hour rainfall."
      },
      "geometry": {
        "type": "Point",
        "coordinates": [
          -99.61,
          43.06
        ]
      }
    },
    {
      "type": "Feature",
      "id": "iem-lsr-UNR-11",
      "properties": {
        "report_id": "iem-lsr-UNR-11",
        "report_type": "RAIN",
        "event_category": "other",
        "valid_utc": "202607011300",
        "standard_time_display": "2026-07-01 07:00 CST",
        "wfo": "UNR",
        "county_or_zone": "Tripp",
        "city": "5 WSW Colome",
        "state": "SD",
        "magnitude": 0.61,
        "magnitude_units": null,
        "source": "CoCoRaHS",
        "event_narrative": "24-hour rainfall."
      },
      "geometry": {
        "type": "Point",
        "coordinates": [
          -99.79,
          43.23
        ]
      }
    },
    {
      "type": "Feature",
      "id": "iem-lsr-UNR-12",
      "properties": {
        "report_id": "iem-lsr-UNR-12",
        "report_type": "RAIN",
        "event_category": "other",
        "valid_utc": "202607011300",
        "standard_time_display": "2026-07-01 07:00 CST",
        "wfo": "UNR",
        "county_or_zone": "Tripp",
        "city": "9 N Wewela",
        "state": "SD",
        "magnitude": 0.8,
        "magnitude_units": null,
        "source": "CoCoRaHS",
        "event_narrative": "24-hour rainfall."
      },
      "geometry": {
        "type": "Point",
        "coordinates": [
          -99.8,
          43.14
        ]
      }
    },
    {
      "type": "Feature",
      "id": "iem-lsr-UNR-13",
      "properties": {
        "report_id": "iem-lsr-UNR-13",
        "report_type": "HAIL",
        "event_category": "hail",
        "valid_utc": "202607012346",
        "standard_time_display": "2026-07-01 16:46 MST",
        "wfo": "UNR",
        "county_or_zone": "Meade",
        "city": "1 ESE Black Hawk",
        "state": "SD",
        "magnitude": 0.7,
        "magnitude_units": null,
        "source": "NWS Employee",
        "event_narrative": null
      },
      "geometry": {
        "type": "Point",
        "coordinates": [
          -103.31,
          44.15
        ]
      }
    },
    {
      "type": "Feature",
      "id": "iem-lsr-UNR-14",
      "properties": {
        "report_id": "iem-lsr-UNR-14",
        "report_type": "HAIL",
        "event_category": "hail",
        "valid_utc": "202607020004",
        "standard_time_display": "2026-07-01 17:04 MST",
        "wfo": "UNR",
        "county_or_zone": "Meade",
        "city": "4 ENE Black Hawk",
        "state": "SD",
        "magnitude": 1.5,
        "magnitude_units": null,
        "source": "Trained Spotter",
        "event_narrative": "Mainly pea to dime."
      },
      "geometry": {
        "type": "Point",
        "coordinates": [
          -103.23,
          44.16
        ]
      }
    },
    {
      "type": "Feature",
      "id": "iem-lsr-UNR-15",
      "properties": {
        "report_id": "iem-lsr-UNR-15",
        "report_type": "HAIL",
        "event_category": "hail",
        "valid_utc": "202607020130",
        "standard_time_display": "2026-07-01 18:30 MST",
        "wfo": "UNR",
        "county_or_zone": "Lawrence",
        "city": "3 SE Saint Onge",
        "state": "SD",
        "magnitude": 0.5,
        "magnitude_units": null,
        "source": "CoCoRaHS",
        "event_narrative": null
      },
      "geometry": {
        "type": "Point",
        "coordinates": [
          -103.67,
          44.52
        ]
      }
    },
    {
      "type": "Feature",
      "id": "iem-lsr-UNR-16",
      "properties": {
        "report_id": "iem-lsr-UNR-16",
        "report_type": "TSTM WND GST",
        "event_category": "thunderstorm_wind",
        "valid_utc": "202607021052",
        "standard_time_display": "2026-07-02 03:52 MST",
        "wfo": "UNR",
        "county_or_zone": "Oglala Lakota",
        "city": "3 ESE Pine Ridge",
        "state": "SD",
        "magnitude": 56.0,
        "magnitude_units": null,
        "source": "ASOS",
        "event_narrative": null
      },
      "geometry": {
        "type": "Point",
        "coordinates": [
          -102.51,
          43.02
        ]
      }
    },
    {
      "type": "Feature",
      "id": "iem-lsr-UNR-17",
      "properties": {
        "report_id": "iem-lsr-UNR-17",
        "report_type": "TSTM WND GST",
        "event_category": "thunderstorm_wind",
        "valid_utc": "202607021105",
        "standard_time_display": "2026-07-02 04:05 MST",
        "wfo": "UNR",
        "county_or_zone": "Oglala Lakota",
        "city": "9 SW Batesland",
        "state": "SD",
        "magnitude": 51.0,
        "magnitude_units": null,
        "source": "Dept of Highways",
        "event_narrative": null
      },
      "geometry": {
        "type": "Point",
        "coordinates": [
          -102.22,
          43.05
        ]
      }
    },
    {
      "type": "Feature",
      "id": "iem-lsr-UNR-18",
      "properties": {
        "report_id": "iem-lsr-UNR-18",
        "report_type": "TSTM WND GST",
        "event_category": "thunderstorm_wind",
        "valid_utc": "202607021115",
        "standard_time_display": "2026-07-02 04:15 MST",
        "wfo": "UNR",
        "county_or_zone": "Oglala Lakota",
        "city": "9 SW Batesland",
        "state": "SD",
        "magnitude": 55.0,
        "magnitude_units": null,
        "source": "Dept of Highways",
        "event_narrative": null
      },
      "geometry": {
        "type": "Point",
        "coordinates": [
          -102.22,
          43.05
        ]
      }
    }
  ]
}