{
  "type": "FeatureCollection",
  "metadata": {
    "schema_version": "0.2.4",
    "year": 2026,
    "month": 8,
    "wfo": "SHV",
    "start_utc": "2026-08-01T00:00:00Z",
    "end_utc": "2026-09-01T00:00:00Z",
    "generated_utc": "2026-08-21T09:51:47Z",
    "mode": "storm_data_prep",
    "public_release_status": "public-source-derived",
    "time_note": "Storm Data entry times should be reviewed in local Standard Time (ST), not daylight time. Candidate reports include standard_time_display.",
    "tornado_track_policy": "Tornado tracks must come from DAT. NCEI begin/end coordinates are not used as a tornado track substitute.",
    "source": "https://mesonet.agron.iastate.edu/cgi-bin/request/gis/lsr.py?wfo=SHV&sts=2026-08-01T00%3A00%3A00Z&ets=2026-09-01T00%3A00%3A00Z&fmt=csv"
  },
  "features": [
    {
      "type": "Feature",
      "id": "iem-lsr-SHV-1",
      "properties": {
        "report_id": "iem-lsr-SHV-1",
        "report_type": "TSTM WND GST",
        "event_category": "thunderstorm_wind",
        "valid_utc": "202608052007",
        "standard_time_display": "2026-08-05 14:07 CST",
        "wfo": "SHV",
        "county_or_zone": "Caddo",
        "city": "2 SW Shreveport",
        "state": "LA",
        "magnitude": 60.0,
        "magnitude_units": null,
        "source": "ASOS",
        "event_narrative": "Measured at the Shreveport Regional Airport."
      },
      "geometry": {
        "type": "Point",
        "coordinates": [
          -93.82,
          32.45
        ]
      }
    },
    {
      "type": "Feature",
      "id": "iem-lsr-SHV-2",
      "properties": {
        "report_id": "iem-lsr-SHV-2",
        "report_type": "TSTM WND GST",
        "event_category": "thunderstorm_wind",
        "valid_utc": "202608052012",
        "standard_time_display": "2026-08-05 14:12 CST",
        "wfo": "SHV",
        "county_or_zone": "Caddo",
        "city": "2 SW Shreveport",
        "state": "LA",
        "magnitude": 63.0,
        "magnitude_units": null,
        "source": "ASOS",
        "event_narrative": "Peak wind gust measured at the Shreveport Regional Airport."
      },
      "geometry": {
        "type": "Point",
        "coordinates": [
          -93.82,
          32.45
        ]
      }
    },
    {
      "type": "Feature",
      "id": "iem-lsr-SHV-3",
      "properties": {
        "report_id": "iem-lsr-SHV-3",
        "report_type": "FLASH FLOOD",
        "event_category": "flooding",
        "valid_utc": "202608081916",
        "standard_time_display": "2026-08-08 13:16 CST",
        "wfo": "SHV",
        "county_or_zone": "Bowie",
        "city": "2 NW Texarkana",
        "state": "TX",
        "magnitude": null,
        "magnitude_units": null,
        "source": "Public",
        "event_narrative": "Social media report of flooding on Richmond Rd."
      },
      "geometry": {
        "type": "Point",
        "coordinates": [
          -94.09,
          33.46
        ]
      }
    },
    {
      "type": "Feature",
      "id": "iem-lsr-SHV-4",
      "properties": {
        "report_id": "iem-lsr-SHV-4",
        "report_type": "TSTM WND DMG",
        "event_category": "thunderstorm_wind",
        "valid_utc": "202608202346",
        "standard_time_display": "2026-08-20 17:46 CST",
        "wfo": "SHV",
        "county_or_zone": "Sevier",
        "city": "7 NW De Queen",
        "state": "AR",
        "magnitude": null,
        "magnitude_units": null,
        "source": "Law Enforcement",
        "event_narrative": "Tree down on Bellah Mine Road and Pine Ridge just west of De Queen Lake."
      },
      "geometry": {
        "type": "Point",
        "coordinates": [
          -94.44,
          34.12
        ]
      }
    },
    {
      "type": "Feature",
      "id": "iem-lsr-SHV-5",
      "properties": {
        "report_id": "iem-lsr-SHV-5",
        "report_type": "TSTM WND DMG",
        "event_category": "thunderstorm_wind",
        "valid_utc": "202608202355",
        "standard_time_display": "2026-08-20 17:55 CST",
        "wfo": "SHV",
        "county_or_zone": "Sevier",
        "city": "4 NW De Queen",
        "state": "AR",
        "magnitude": null,
        "magnitude_units": null,
        "source": "Law Enforcement",
        "event_narrative": "Tree down on Brooks road northwest of De Queen_ Arkansas."
      },
      "geometry": {
        "type": "Point",
        "coordinates": [
          -94.4,
          34.07
        ]
      }
    },
    {
      "type": "Feature",
      "id": "iem-lsr-SHV-6",
      "properties": {
        "report_id": "iem-lsr-SHV-6",
        "report_type": "TSTM WND DMG",
        "event_category": "thunderstorm_wind",
        "valid_utc": "202608210000",
        "standard_time_display": "2026-08-20 18:00 CST",
        "wfo": "SHV",
        "county_or_zone": "Union",
        "city": "2 SSW Huttig",
        "state": "AR",
        "magnitude": null,
        "magnitude_units": null,
        "source": "Law Enforcement",
        "event_narrative": "A tree was downed across State Line Road south of Huttig."
      },
      "geometry": {
        "type": "Point",
        "coordinates": [
          -92.19,
          33.01
        ]
      }
    },
    {
      "type": "Feature",
      "id": "iem-lsr-SHV-7",
      "properties": {
        "report_id": "iem-lsr-SHV-7",
        "report_type": "TSTM WND DMG",
        "event_category": "thunderstorm_wind",
        "valid_utc": "202608210006",
        "standard_time_display": "2026-08-20 18:06 CST",
        "wfo": "SHV",
        "county_or_zone": "Sevier",
        "city": "2 NNE Horatio",
        "state": "AR",
        "magnitude": null,
        "magnitude_units": null,
        "source": "Law Enforcement",
        "event_narrative": "Tree down on Landfill Road north of Horatio_ Arkansas."
      },
      "geometry": {
        "type": "Point",
        "coordinates": [
          -94.34,
          33.97
        ]
      }
    },
    {
      "type": "Feature",
      "id": "iem-lsr-SHV-8",
      "properties": {
        "report_id": "iem-lsr-SHV-8",
        "report_type": "TSTM WND DMG",
        "event_category": "thunderstorm_wind",
        "valid_utc": "202608210442",
        "standard_time_display": "2026-08-20 22:42 CST",
        "wfo": "SHV",
        "county_or_zone": "Howard",
        "city": "9 NNW Dierks",
        "state": "AR",
        "magnitude": null,
        "magnitude_units": null,
        "source": "Emergency Mngr",
        "event_narrative": "Chicken houses received roof damage and several trees were downed."
      },
      "geometry": {
        "type": "Point",
        "coordinates": [
          -94.07,
          34.24
        ]
      }
    }
  ]
}