{
  "type": "FeatureCollection",
  "name": "cwa",
  "crs": {
    "type": "name",
    "properties": {
      "name": "urn:ogc:def:crs:OGC:1.3:CRS84"
    }
  },
  "features": [
    {
      "type": "Feature",
      "properties": {
        "WFO": "BOI",
        "CWA": "BOI",
        "STATE": "Idaho",
        "ST": "ID",
        "CITYSTATE": "Boise ID"
      },
      "geometry": {
        "type": "Polygon",
        "coordinates": [
          [
            [
              -116.68679809585541,
              45.26781082181202
            ],
            [
              -116.34259796112696,
              45.267711639180845
            ],
            [
              -116.34039306628694,
              45.26131057692163
            ],
            [
              -116.33229827934207,
              45.250812530773715
            ],
            [
              -116.3305969239089,
              45.24701309208058
            ],
            [
              -116.33099365173558,
              45.24141311622236
            ],
            [
              -116.32509612978254,
              45.23551178024451
            ],
            [
              -116.32489776631883,
              45.23121261616933
            ],
            [
              -116.32119751025687,
              45.2283134456091
            ],
            [
              -116.31189727833669,
              45.209911346131776
            ],
            [
              -116.30889892604455,
              45.19811248820082
            ],
            [
              -116.30389404327542,
              45.19161224420975
            ],
            [
              -116.3009948727152,
              45.18451309220552
            ],
            [
              -116.30299377424325,
              45.171611785955236
            ],
            [
              -116.29909515381826,
              45.15931320174292
            ],
            [
              -116.29929351818129,
              45.152313232369806
            ],
            [
              -116.29479980556653,
              45.14801025426988
            ],
            [
              -116.28989410542857,
              45.14831161528889
            ],
            [
              -116.28679657140464,
              45.14641189639195
            ],
            [
              -116.2873992934426,
              45.14241409333579
            ],
            [
              -116.28209686277995,
              45.13551330569453
            ],
            [
              -116.28589630057377,
              45.128513336321475
            ],
            [
              -116.30119323707817,
              45.12161254868022
            ],
            [
              -116.30379486244294,
              45.1184120180003
            ],
            [
              -116.3045959470453,
              45.11501312295729
            ],
            [
              -116.30279540988022,
              45.11211395329639
            ],
            [
              -116.30509948735141,
              45.11071395888217
            ],
            [
              -116.30349731544874,
              45.10891342171709
            ],
            [
              -116.14799499457331,
              45.10781097429708
            ],
            [
              -116.1441955567795,
              45.10641097988287
            ],
            [
              -116.14479827881746,
              45.11461257930716
            ],
            [
              -116.13539886516548,
              45.123710631940185
            ],
            [
              -116.13610076893531,
              45.13741302459147
            ],
            [
              -116.1267929080662,
              45.144313812232724
            ],
            [
              -116.12429809608022,
              45.15501022274361
            ],
            [
              -116.12159728988297,
              45.15771102894087
            ],
            [
              -116.1095962517656,
              45.15911102335508
            ],
            [
              -116.10279846257896,
              45.155311583762625
            ],
            [
              -116.09109497055641,
              45.15571212831213
            ],
            [
              -116.08239746157358,
              45.153614044152846
            ],
            [
              -116.07539367727634,
              45.15541076729312
            ],
            [
              -116.07189941542566,
              45.161113738908
            ],
            [
              -116.06349945073902,
              45.16521072369602
            ],
            [
              -116.0501937868138,
              45.16561126734615
            ],
            [
              -116.04739379888468,
              45.1672134401482
            ],
            [
              -116.04689788842677,
              45.17361068658397
            ],
            [
              -116.04409789959834,
              45.178314209233406
            ],
            [
              -116.03539276076725,
              45.18211364702722
            ],
            [
              -116.02809906022344,
              45.179813385379475
            ],
            [
              -116.0186996465714,
              45.183712005804466
            ],
            [
              -116.01059722887896,
              45.190013885432506
            ],
            [
              -116.00669860755465,
              45.196113585773446
            ],
            [
              -115.99179840157495,
              45.20501327494276
            ],
            [
              -115.98919677710956,
              45.213111876811695
            ],
            [
              -115.97639465259113,
              45.2191123963201
            ],
            [
              -115.9720993043394,
              45.21721267742316
            ],
            [
              -115.96679687457606,
              45.20761108358471
            ],
            [
              -115.96599578907438,
              45.20371246315972
            ],
            [
              -115.96769714540687,
              45.201011657861784
            ],
            [
              -115.97289276359015,
              45.199012751837074
            ],
            [
              -115.97579956130068,
              45.195613861290724
            ],
            [
              -115.96949768077332,
              45.19541168200357
            ],
            [
              -114.69499969478005,
              45.19661331205475
            ],
            [
              -114.69860076911016,
              45.190410614158566
            ],
            [
              -114.70089721673315,
              45.189113617299654
            ],
            [
              -114.70849609411943,
              45.18751144359828
            ],
            [
              -114.7138977047153,
              45.188312530898656
            ],
            [
              -114.71649932918064,
              45.18691253738376
            ],
            [
              -114.72249603556355,
              45.1784133927639
            ],
            [
              -114.7209930417954,
              45.17311096210125
            ],
            [
              -114.72449493439365,
              45.159011840723906
            ],
            [
              -114.73129272537892,
              45.152511596732836
            ],
            [
              -114.72699737532855,
              45.12961196881736
            ],
            [
              -114.72189331082762,
              45.122211455794115
            ],
            [
              -114.72639465329058,
              45.10971069319396
            ],
            [
              -114.72999572941933,
              45.10801315268492
            ],
            [
              -114.72959899889463,
              45.09951019314093
            ],
            [
              -114.73269653291862,
              45.09481048631494
            ],
            [
              -114.72989654498951,
              45.09201049838583
            ],
            [
              -114.71989440929951,
              45.08791351269849
            ],
            [
              -114.72109985427483,
              45.08421325663653
            ],
            [
              -114.72709655795973,
              45.07851028412239
            ],
            [
              -114.72839355481864,
              45.07311248755133
            ],
            [
              -114.7260971071957,
              45.0672111506741
            ],
            [
              -114.72739410405461,
              45.0623130803844
            ],
            [
              -114.72369384799265,
              45.05641174260791
            ],
            [
              -114.72699737532855,
              45.04541397107795
            ],
            [
              -114.72269439722862,
              45.041011810346845
            ],
            [
              -114.7260971071957,
              45.036411285252655
            ],
            [
              -114.7245941161255,
              45.03311157194156
            ],
            [
              -114.72769927999775,
              45.02331161463934
            ],
            [
              -114.72559356688959,
              45.01861190781335
            ],
            [
              -114.72849273655049,
              45.01401138271922
            ],
            [
              -114.72259521459745,
              45.01011276229417
            ],
            [
              -114.72219848587139,
              45.006313323601034
            ],
            [
              -114.72889709512481,
              45.00321197465297
            ],
            [
              -114.73119354184843,
              44.98731231700987
            ],
            [
              -114.73549652084773,
              44.9733123782637
            ],
            [
              -114.73039245634675,
              44.96771240240548
            ],
            [
              -114.73379516631383,
              44.959613799637225
            ],
            [
              -114.73529815738402,
              44.949810028310196
            ],
            [
              -114.7268981935967,
              44.9473114014001
            ],
            [
              -114.72669982923372,
              44.940612793046
            ],
            [
              -114.72339630099844,
              44.934013367323075
            ],
            [
              -114.7271957405909,
              44.92971038832383
            ],
            [
              -114.73479461707791,
              44.9270133970507
            ],
            [
              -114.73549652084773,
              44.924510956115796
            ],
            [
              -114.72929382295155,
              44.920413971327775
            ],
            [
              -114.72940063543092,
              44.91791153039287
            ],
            [
              -114.7324981685556,
              44.91491317720141
            ],
            [
              -114.73239898682374,
              44.91051101736963
            ],
            [
              -114.72679901096552,
              44.90081405582407
            ],
            [
              -114.73069763228989,
              44.89731216412514
            ],
            [
              -114.73130035432786,
              44.89351272633132
            ],
            [
              -114.7245941161255,
              44.89271163903095
            ],
            [
              -114.72319793843405,
              44.89111328115308
            ],
            [
              -114.73099517838472,
              44.88671112132124
            ],
            [
              -114.7319946291488,
              44.880813599368196
            ],
            [
              -114.73389434804568,
              44.87911224393497
            ],
            [
              -114.75139617939016,
              44.87881088291596
            ],
            [
              -114.753097533924,
              44.87701034485161
            ],
            [
              -114.7518005370651,
              44.87421035782182
            ],
            [
              -114.75429534905106,
              44.87321090705774
            ],
            [
              -114.76069641131028,
              44.875110625954676
            ],
            [
              -114.76509857204144,
              44.874713898127936
            ],
            [
              -114.76799774260172,
              44.872512817312725
            ],
            [
              -114.76950073187322,
              44.86571121230264
            ],
            [
              -114.76089477477399,
              44.85751342780253
            ],
            [
              -114.76119995071713,
              44.85481262160528
            ],
            [
              -114.77019500759349,
              44.85141372656227
            ],
            [
              -114.76609802190615,
              44.84401321443835
            ],
            [
              -114.7675933840274,
              44.84161377015943
            ],
            [
              -114.78279876684957,
              44.84041214010824
            ],
            [
              -114.78479766837768,
              44.83891296396217
            ],
            [
              -114.7857971191417,
              44.834812164250025
            ],
            [
              -114.78939819257249,
              44.83371353085482
            ],
            [
              -114.79239654486463,
              44.83581161501405
            ],
            [
              -114.79429626556015,
              44.832912445353145
            ],
            [
              -114.79519653279374,
              44.82581329334886
            ],
            [
              -114.80049896255701,
              44.82411193791563
            ],
            [
              -114.80709838917926,
              44.81821060193778
            ],
            [
              -114.81089782697308,
              44.807117461801454
            ],
            [
              -114.81207275435412,
              44.80820083639952
            ],
            [
              -114.8273696899592,
              44.80192947436581
            ],
            [
              -114.8334579473264,
              44.80264663693282
            ],
            [
              -114.84080505410992,
              44.794528961342564
            ],
            [
              -114.84163665810524,
              44.79005050662562
            ],
            [
              -114.85011291497904,
              44.787395476819825
            ],
            [
              -114.85232543876793,
              44.78229522724297
            ],
            [
              -114.85488128684187,
              44.78203201276722
            ],
            [
              -114.85607910196893,
              44.78474044791341
            ],
            [
              -114.85945129434174,
              44.78508377129907
            ],
            [
              -114.8658981320931,
              44.780006408568966
            ],
            [
              -114.87113189681958,
              44.779544829730185
            ],
            [
              -114.89524078373518,
              44.764827728417
            ],
            [
              -114.8952789311777,
              44.760486602874494
            ],
            [
              -114.8970718375952,
              44.75895309420997
            ],
            [
              -114.90805053720248,
              44.75653457620979
            ],
            [
              -114.91327667208071,
              44.75747299178522
            ],
            [
              -114.91695404129592,
              44.749908446917345
            ],
            [
              -114.91446685825889,
              44.74747467011997
            ],
            [
              -114.91555786090652,
              44.74427413944005
            ],
            [
              -114.92784118722096,
              44.73339462336321
            ],
            [
              -114.94259643597672,
              44.730674744344014
            ],
            [
              -114.94403839095895,
              44.72868728578965
            ],
            [
              -114.94317627026862,
              44.72555542014658
            ],
            [
              -114.94625091744587,
              44.723201752259115
            ],
            [
              -114.95513153109528,
              44.720844269447525
            ],
            [
              -114.96818542531707,
              44.72406768787357
            ],
            [
              -114.97270202657722,
              44.728500366199
            ],
            [
              -114.97789764386113,
              44.7298469543735
            ],
            [
              -114.99607849122935,
              44.72880935706621
            ],
            [
              -115.00028228759749,
              44.72658920342906
            ],
            [
              -114.99857330321532,
              44.72174453668106
            ],
            [
              -115.00379180914462,
              44.720668792830566
            ],
            [
              -115.00527191156942,
              44.71616745036761
            ],
            [
              -115.01085662773113,
              44.71358871544692
            ],
            [
              -115.01447296085843,
              44.71900558483992
            ],
            [
              -115.01635742185749,
              44.72803878825954
            ],
            [
              -115.01866149932869,
              44.73098754923603
            ],
            [
              -115.01429748514079,
              44.735786437793934
            ],
            [
              -115.01727294878754,
              44.74325942987883
            ],
            [
              -115.0210876462778,
              44.743766785109074
            ],
            [
              -115.02831268358347,
              44.73643112219861
            ],
            [
              -115.0331878661271,
              44.734878539812826
            ],
            [
              -115.03395080598489,
              44.74379348777927
            ],
            [
              -115.03885650612284,
              44.7504959110575
            ],
            [
              -115.06853485130233,
              44.75909423830848
            ],
            [
              -115.06985473590731,
              44.76288986207754
            ],
            [
              -115.07485961957576,
              44.76506042529843
            ],
            [
              -115.07617187523181,
              44.76928710941263
            ],
            [
              -115.08663177483652,
              44.771347046129335
            ],
            [
              -115.08933258103377,
              44.7705650334496
            ],
            [
              -115.09240722731164,
              44.766498566255905
            ],
            [
              -115.10110473629453,
              44.76320266696956
            ],
            [
              -115.10617065425225,
              44.75920104988859
            ],
            [
              -115.11743164115728,
              44.755882262856176
            ],
            [
              -115.12101745579093,
              44.752174376946016
            ],
            [
              -115.13505554197963,
              44.74412536639261
            ],
            [
              -115.14225006079164,
              44.73427963269893
            ],
            [
              -115.15158844015434,
              44.728908538798066
            ],
            [
              -115.14822387673047,
              44.721637726000324
            ],
            [
              -115.144767761423,
              44.71923828082208
            ],
            [
              -115.14008331339414,
              44.71886825566554
            ],
            [
              -115.13970947331353,
              44.713130950632944
            ],
            [
              -115.14916992215416,
              44.700721740815766
            ],
            [
              -115.15042114442025,
              44.696517944447635
            ],
            [
              -115.14648437475404,
              44.69443511998486
            ],
            [
              -115.15039825397622,
              44.69224166901785
            ],
            [
              -115.15010833683027,
              44.68904113833793
            ],
            [
              -115.15335082987684,
              44.68026351864654
            ],
            [
              -115.15290832475932,
              44.67653655991438
            ],
            [
              -115.1604080204138,
              44.6674842827735
            ],
            [
              -115.15989685115869,
              44.66458129908773
            ],
            [
              -115.1657943731118,
              44.66120147686672
            ],
            [
              -115.16416168181615,
              44.65840911878587
            ],
            [
              -115.1652145388199,
              44.65187072825154
            ],
            [
              -115.16806793208934,
              44.649997711125536
            ],
            [
              -115.16857910224371,
              44.647598266846614
            ],
            [
              -115.18011474659824,
              44.64613723814307
            ],
            [
              -115.18222808775602,
              44.63877487166303
            ],
            [
              -115.19519043009421,
              44.63264846775263
            ],
            [
              -115.19695281981677,
              44.6307525628805
            ],
            [
              -115.19631195123554,
              44.62755203220058
            ],
            [
              -115.19883727991652,
              44.624439240278775
            ],
            [
              -115.20892334033982,
              44.629310607898276
            ],
            [
              -115.2136306761148,
              44.625808716199344
            ],
            [
              -115.217536926388,
              44.62910079966224
            ],
            [
              -115.22256469690319,
              44.63051605197427
            ],
            [
              -115.22589111288454,
              44.627040862945535
            ],
            [
              -115.22191619937308,
              44.621353149228526
            ],
            [
              -115.2248611454255,
              44.618289947722985
            ],
            [
              -115.23129272527899,
              44.61927032476575
            ],
            [
              -115.23503875683315,
              44.62192153874804
            ],
            [
              -115.2498245240825,
              44.618099213208154
            ],
            [
              -115.25742340056945,
              44.61528778140604
            ],
            [
              -115.25958251991733,
              44.60678482096279
            ],
            [
              -115.2624282842379,
              44.60593795817027
            ],
            [
              -115.27384948716406,
              44.61088180485149
            ],
            [
              -115.27947997971728,
              44.61204910328354
            ],
            [
              -115.28134155297028,
              44.61056137101053
            ],
            [
              -115.28304290840344,
              44.60233306891604
            ],
            [
              -115.28992462232344,
              44.598129271648645
            ],
            [
              -115.29072570782512,
              44.59499740600552
            ],
            [
              -115.29481506276488,
              44.59191131585459
            ],
            [
              -115.29507446321588,
              44.58738326982211
            ],
            [
              -115.30016326891968,
              44.58500671418858
            ],
            [
              -115.30506134010875,
              44.57947540336721
            ],
            [
              -115.30259704571705,
              44.56921005230214
            ],
            [
              -115.29994201681058,
              44.56783676055812
            ],
            [
              -115.3017349241274,
              44.56607818575969
            ],
            [
              -115.29907989522093,
              44.562122345070236
            ],
            [
              -115.3000106809481,
              44.559082031310766
            ],
            [
              -115.29726409925871,
              44.553138732966204
            ],
            [
              -115.29847717318296,
              44.55176544212151
            ],
            [
              -115.2941284177922,
              44.54904556310231
            ],
            [
              -115.29409790019793,
              44.54506683286809
            ],
            [
              -115.29013824458428,
              44.54301071197483
            ],
            [
              -115.2913208009142,
              44.5364913942625
            ],
            [
              -115.29474640042599,
              44.53240203932273
            ],
            [
              -115.28052520777209,
              44.52659225522842
            ],
            [
              -115.28221893335706,
              44.522865294697624
            ],
            [
              -115.28046417258344,
              44.5187034606962
            ],
            [
              -115.2755126951547,
              44.517948150686664
            ],
            [
              -115.26672363338895,
              44.51986694330486
            ],
            [
              -115.25579071017313,
              44.51711654669134
            ],
            [
              -115.24962615971947,
              44.52084350632282
            ],
            [
              -115.24694061321867,
              44.519382476719954
            ],
            [
              -115.2447967535673,
              44.51218032805974
            ],
            [
              -115.23866271980864,
              44.51149749801118
            ],
            [
              -115.23932647703526,
              44.50781631477116
            ],
            [
              -115.23785400355939,
              44.50559997605808
            ],
            [
              -115.23919677680976,
              44.50159835807784
            ],
            [
              -115.23717498843496,
              44.49710464456376
            ],
            [
              -115.22819519035573,
              44.49036407474233
            ],
            [
              -115.2272033694399,
              44.4862251275876
            ],
            [
              -115.22847747855275,
              44.483482360822336
            ],
            [
              -115.22672271687986,
              44.48131179760145
            ],
            [
              -115.22658538770543,
              44.47481536943383
            ],
            [
              -115.23510742187,
              44.470218658364445
            ],
            [
              -115.23485565216657,
              44.468299865746246
            ],
            [
              -115.23367309583665,
              44.466537476023746
            ],
            [
              -115.22814941396427,
              44.465923309213395
            ],
            [
              -115.2237701418785,
              44.462814331316395
            ],
            [
              -115.22492217971478,
              44.460323334254554
            ],
            [
              -115.23069763218996,
              44.459110260330306
            ],
            [
              -115.2321929934119,
              44.45698165857675
            ],
            [
              -115.2304687502326,
              44.454376220985864
            ],
            [
              -115.22743988034614,
              44.453624725001134
            ],
            [
              -115.23117065400243,
              44.449005127085
            ],
            [
              -115.22808074982669,
              44.440666199385646
            ],
            [
              -115.22940063533105,
              44.43388366719756
            ],
            [
              -115.2280044558409,
              44.423614502107625
            ],
            [
              -115.23243713416639,
              44.41896820062203
            ],
            [
              -115.23109436001664,
              44.4151229864367
            ],
            [
              -115.23362731944519,
              44.412311553735265
            ],
            [
              -115.23918914786083,
              44.409969329720866
            ],
            [
              -115.23861694341718,
              44.40712738032437
            ],
            [
              -115.24074554427142,
              44.401710510032046
            ],
            [
              -115.24700927735626,
              44.396953582941535
            ],
            [
              -115.2462081909552,
              44.387718201134135
            ],
            [
              -115.2588043212624,
              44.377887726237645
            ],
            [
              -115.25980377202643,
              44.3708724980674
            ],
            [
              -115.27414703415826,
              44.358303070430395
            ],
            [
              -115.27927398730463,
              44.35649108939231
            ],
            [
              -115.28409576540719,
              44.35799789358799
            ],
            [
              -115.2852554321924,
              44.3545227045592
            ],
            [
              -115.28395080638455,
              44.3469848632609
            ],
            [
              -115.29315185477424,
              44.34383773792132
            ],
            [
              -115.29455566411258,
              44.33819580059577
            ],
            [
              -115.29293060356446,
              44.33339691203793
            ],
            [
              -115.28820037824482,
              44.32976150518937
            ],
            [
              -115.28784942591022,
              44.32477188121737
            ],
            [
              -115.27938079798543,
              44.3229408255587
            ],
            [
              -115.27202606225296,
              44.3155403143341
            ],
            [
              -115.26694488459873,
              44.315883635921125
            ],
            [
              -115.26386261027119,
              44.31365203931023
            ],
            [
              -115.2610549933932,
              44.314384459775056
            ],
            [
              -115.26029968338366,
              44.312339782754805
            ],
            [
              -115.24948120159615,
              44.31076049769888
            ],
            [
              -115.24790191743949,
              44.3069229133618
            ],
            [
              -115.24801635706916,
              44.297794342235136
            ],
            [
              -115.24393463107833,
              44.294952392838695
            ],
            [
              -115.243072510388,
              44.29219055235217
            ],
            [
              -115.24018096877666,
              44.29383468572223
            ],
            [
              -115.23908233628077,
              44.296489716427345
            ],
            [
              -115.24188232420988,
              44.30144500698157
            ],
            [
              -115.2364807127147,
              44.308021544958365
            ],
            [
              -115.2325515755947,
              44.30586624143393
            ],
            [
              -115.22238922118555,
              44.30804824762856
            ],
            [
              -115.21265411399611,
              44.30419921941848
            ],
            [
              -115.21299743738177,
              44.299911499216364
            ],
            [
              -115.2094955438842,
              44.28921127288197
            ],
            [
              -115.20199585002842,
              44.28241348279607
            ],
            [
              -115.19069671658019,
              44.28571319610717
            ],
            [
              -115.17899322455764,
              44.29641342244156
            ],
            [
              -115.17548370390978,
              44.29319763206513
            ],
            [
              -115.16615295439527,
              44.276329041252325
            ],
            [
              -115.16759491027688,
              44.267913817768545
            ],
            [
              -115.16383361812694,
              44.26233291563159
            ],
            [
              -115.16751861629109,
              44.25782775914382
            ],
            [
              -115.15654754743133,
              44.24646377558281
            ],
            [
              -115.15976715093325,
              44.23979568482304
            ],
            [
              -115.17389678990492,
              44.23571395883221
            ],
            [
              -115.17399597343541,
              44.23282241812018
            ],
            [
              -115.16960143985455,
              44.225711823142206
            ],
            [
              -115.16996002203734,
              44.22166442877045
            ],
            [
              -115.16279602081966,
              44.21395492577926
            ],
            [
              -115.16880035435281,
              44.20591354417479
            ],
            [
              -115.16479492234777,
              44.201412200812456
            ],
            [
              -115.15437316928632,
              44.19745254519887
            ],
            [
              -115.14329528794713,
              44.190612792746265
            ],
            [
              -115.12954711890438,
              44.192070007424945
            ],
            [
              -115.12504577644137,
              44.18973922728355
            ],
            [
              -115.12099456804486,
              44.18371200600433
            ],
            [
              -115.10938262880524,
              44.175918579179154
            ],
            [
              -115.10799408006272,
              44.17081069885472
            ],
            [
              -115.10260009841579,
              44.17090988238522
            ],
            [
              -115.09871673588862,
              44.17310714737698
            ],
            [
              -115.08919525096002,
              44.17271041865098
            ],
            [
              -115.08252716109956,
              44.1761054987698
            ],
            [
              -115.07887268142906,
              44.17525863597734
            ],
            [
              -115.07628631576085,
              44.172618865868
            ],
            [
              -115.07241821293013,
              44.17219543537112
            ],
            [
              -115.07052612298213,
              44.16775131227331
            ],
            [
              -115.06159973114262,
              44.16081237808885
            ],
            [
              -115.05949401893378,
              44.16381073038093
            ],
            [
              -115.05072784401477,
              44.165328979349
            ],
            [
              -115.04018402057608,
              44.15964126563193
            ],
            [
              -115.03247833340833,
              44.16034698522526
            ],
            [
              -115.02620696957592,
              44.15841674783468
            ],
            [
              -115.02289581329114,
              44.149013519258574
            ],
            [
              -115.01788330157308,
              44.14454650931401
            ],
            [
              -115.01799011225387,
              44.1395492545945
            ],
            [
              -115.02552795355217,
              44.128585814683674
            ],
            [
              -115.03520202555302,
              44.12456130985663
            ],
            [
              -115.04507446281616,
              44.123233795403394
            ],
            [
              -115.04649353005232,
              44.120014191002156
            ],
            [
              -115.04059600809927,
              44.11351013208696
            ],
            [
              -115.0300598154081,
              44.110385895392824
            ],
            [
              -115.0273971557541,
              44.10511016829969
            ],
            [
              -115.01949310332401,
              44.098114013850704
            ],
            [
              -114.99781799320579,
              44.09753417955881
            ],
            [
              -114.99656677183901,
              44.09225845336499
            ],
            [
              -114.99935913081919,
              44.086063385317004
            ],
            [
              -115.0099868771926,
              44.07746887209083
            ],
            [
              -115.01294708294148,
              44.07677078234576
            ],
            [
              -115.02027893092787,
              44.07930755579912
            ],
            [
              -115.02330017096608,
              44.07750701863404
            ],
            [
              -115.02386474556153,
              44.074573517354
            ],
            [
              -115.02713012725354,
              44.071758269728434
            ],
            [
              -115.03462982200864,
              44.06954574593948
            ],
            [
              -115.03657531729704,
              44.06695556624646
            ],
            [
              -115.03523254404666,
              44.06213378904317
            ],
            [
              -115.04639434832046,
              44.055713653962016
            ],
            [
              -115.04799652112251,
              44.039012909018595
            ],
            [
              -115.04660034343107,
              44.035312652956634
            ],
            [
              -115.0396423337267,
              44.028438567985575
            ],
            [
              -115.0400924677931,
              44.02561187738627
            ],
            [
              -115.0338745119991,
              44.022708892801234
            ],
            [
              -115.02989959758833,
              44.0183105469942
            ],
            [
              -115.0197296142303,
              44.01626968399876
            ],
            [
              -115.01789856037021,
              44.013011932154996
            ],
            [
              -115.00651550308794,
              44.01430892901391
            ],
            [
              -115.00444793742236,
              44.017734527626374
            ],
            [
              -114.9982604983233,
              44.02066421488166
            ],
            [
              -114.99288177457419,
              44.01176452571235
            ],
            [
              -114.98559570297925,
              44.01031112685706
            ],
            [
              -114.9825057979042,
              44.011142730852384
            ],
            [
              -114.9827651983552,
              44.00678253158861
            ],
            [
              -114.9846954348464,
              44.00511169374971
            ],
            [
              -114.98215484556965,
              44.000652312754085
            ],
            [
              -114.98649597201148,
              43.99271011378079
            ],
            [
              -114.98509979342072,
              43.98941039957032
            ],
            [
              -114.97666168219087,
              43.98470306379539
            ],
            [
              -114.96722412109625,
              43.98215103064558
            ],
            [
              -114.96925354021869,
              43.97269821165321
            ],
            [
              -114.97099304219512,
              43.9709968571193
            ],
            [
              -114.97809600822416,
              43.97041320790328
            ],
            [
              -114.99084472740219,
              43.95218658414359
            ],
            [
              -114.99075317371995,
              43.94972610467602
            ],
            [
              -114.98744964638405,
              43.94799804657265
            ],
            [
              -114.98320007272514,
              43.94641113256779
            ],
            [
              -114.97821044875315,
              43.946842193812245
            ],
            [
              -114.97051239143366,
              43.93791961689686
            ],
            [
              -114.97852325544386,
              43.93272018378951
            ],
            [
              -114.97862243717572,
              43.92932128874651
            ],
            [
              -114.98342895558181,
              43.92182159399141
            ],
            [
              -114.99042511003074,
              43.92111969022159
            ],
            [
              -114.99632263198384,
              43.913921355586126
            ],
            [
              -114.99612426941945,
              43.910022736060455
            ],
            [
              -114.98872375459757,
              43.89962005582095
            ],
            [
              -114.98832702587151,
              43.886421204375154
            ],
            [
              -114.9745254523877,
              43.87832260070752
            ],
            [
              -114.9732284564281,
              43.872520447360785
            ],
            [
              -114.97432708712535,
              43.86772155790362
            ],
            [
              -114.97712707505445,
              43.86532211272538
            ],
            [
              -114.98292541527564,
              43.864719390687355
            ],
            [
              -114.98952484099857,
              43.86172103929459
            ],
            [
              -114.98901367174352,
              43.859012604148404
            ],
            [
              -114.97292327958564,
              43.85272216839343
            ],
            [
              -114.97020721459126,
              43.84891891477616
            ],
            [
              -114.95909881655712,
              43.8536109917539
            ],
            [
              -114.95131683270563,
              43.85391235367223
            ],
            [
              -114.93062591635294,
              43.84001922560685
            ],
            [
              -114.9162139891842,
              43.83651351898379
            ],
            [
              -114.91032409707941,
              43.83201980636903
            ],
            [
              -114.90171051013192,
              43.82881545986561
            ],
            [
              -114.89081573525795,
              43.82921600261648
            ],
            [
              -114.88301086455971,
              43.823516845925724
            ],
            [
              -114.86551666306349,
              43.822013854855584
            ],
            [
              -114.85770416341637,
              43.81781768833571
            ],
            [
              -114.85121154837424,
              43.81790924111863
            ],
            [
              -114.84832763840973,
              43.815422058081595
            ],
            [
              -114.84792327893615,
              43.81092071471926
            ],
            [
              -114.85332489043134,
              43.8058204651424
            ],
            [
              -114.85582733226556,
              43.79552078155888
            ],
            [
              -114.85220336929001,
              43.79121780435821
            ],
            [
              -114.83949279755456,
              43.79441070608925
            ],
            [
              -114.83172607429884,
              43.79252243016606
            ],
            [
              -114.82941436787871,
              43.78881835917997
            ],
            [
              -114.82559967038844,
              43.78911209125005
            ],
            [
              -114.81559753379912,
              43.79831314143837
            ],
            [
              -114.8022994997221,
              43.80081176834847
            ],
            [
              -114.7999954222509,
              43.80261230461423
            ],
            [
              -114.78760528615499,
              43.80261230461423
            ],
            [
              -114.78022766087781,
              43.799819945634056
            ],
            [
              -114.77561187698649,
              43.79322051991113
            ],
            [
              -114.75929260287131,
              43.79261398294898
            ],
            [
              -114.75550079312706,
              43.79951095566611
            ],
            [
              -114.75289916956098,
              43.80131149283119
            ],
            [
              -114.74989318831996,
              43.801410674563044
            ],
            [
              -114.74099731407478,
              43.8066139216952
            ],
            [
              -114.72289276159165,
              43.80681228605823
            ],
            [
              -114.71959686320463,
              43.81401061979432
            ],
            [
              -114.71630859376654,
              43.815010070558344
            ],
            [
              -114.70232391381751,
              43.8058204651424
            ],
            [
              -114.69282531843368,
              43.784622191760775
            ],
            [
              -114.69472503733056,
              43.77452087433892
            ],
            [
              -114.68922424320425,
              43.76562118516961
            ],
            [
              -114.69032287659945,
              43.75142288206041
            ],
            [
              -114.68041229189373,
              43.74251937886629
            ],
            [
              -114.67649841357087,
              43.74441146881429
            ],
            [
              -114.66921997092487,
              43.74361801136217
            ],
            [
              -114.66662597720705,
              43.73812103305926
            ],
            [
              -114.67682647726008,
              43.725521087827985
            ],
            [
              -114.67932891819498,
              43.7244224553321
            ],
            [
              -114.68152618408607,
              43.71602249064546
            ],
            [
              -114.68152618408607,
              43.70652008123682
            ],
            [
              -114.67682647726008,
              43.69802093481832
            ],
            [
              -114.68712615994428,
              43.690620421795074
            ],
            [
              -114.68792724634528,
              43.68582153323723
            ],
            [
              -114.67952728255801,
              43.67382049601912
            ],
            [
              -114.67932891819498,
              43.670719147071054
            ],
            [
              -114.67781066922697,
              43.66912078919313
            ],
            [
              -114.66812896737792,
              43.66781997741009
            ],
            [
              -114.6624221799396,
              43.660720825405804
            ],
            [
              -114.66202545211291,
              43.656620025693655
            ],
            [
              -114.6637268084454,
              43.64442062411257
            ],
            [
              -114.66992950544227,
              43.64031982440042
            ],
            [
              -114.67173004170803,
              43.6354217532114
            ],
            [
              -114.6693267834043,
              43.63011932434739
            ],
            [
              -114.67142486576489,
              43.62382125874416
            ],
            [
              -114.67832946833028,
              43.61712265039006
            ],
            [
              -114.6817245484491,
              43.6102218627488
            ],
            [
              -114.68062591595321,
              43.6033210751076
            ],
            [
              -114.682624816582,
              43.5916213989085
            ],
            [
              -114.66382598927794,
              43.594520568569465
            ],
            [
              -114.65122222912254,
              43.5926170347484
            ],
            [
              -114.6447296140804,
              43.585220336649286
            ],
            [
              -114.64142608584513,
              43.578220367276174
            ],
            [
              -114.63451385523018,
              43.57382202056982
            ],
            [
              -114.623725891037,
              43.57532119761521
            ],
            [
              -114.61031341643098,
              43.56621933005806
            ],
            [
              -114.60202026422377,
              43.56711578416616
            ],
            [
              -114.58712768629363,
              43.558719635302964
            ],
            [
              -114.58912658692242,
              43.5531196594448
            ],
            [
              -114.58612823642892,
              43.55022048978384
            ],
            [
              -114.59072875972447,
              43.546619414554414
            ],
            [
              -114.59462738014946,
              43.53852081268542
            ],
            [
              -114.59572601444398,
              43.53121948229335
            ],
            [
              -114.58042907704026,
              43.52331924388807
            ],
            [
              -114.5794219973273,
              43.52032089159593
            ],
            [
              -114.58072662403441,
              43.51832199096714
            ],
            [
              -114.57902527039988,
              43.515720367401116
            ],
            [
              -114.57292938228511,
              43.51102065967575
            ],
            [
              -114.56882476944753,
              43.50542068471685
            ],
            [
              -114.56282806396393,
              43.50242233332409
            ],
            [
              -114.56252288802085,
              43.50032043514
            ],
            [
              -114.55352783204376,
              43.49652099644686
            ],
            [
              -114.54270935115562,
              43.49651336659866
            ],
            [
              -114.5372238158264,
              43.492721557753725
            ],
            [
              -114.53029632641432,
              43.49081420900859
            ],
            [
              -114.5163269043631,
              43.49261474617367
            ],
            [
              -114.51322937033916,
              43.483219147445766
            ],
            [
              -114.50882720870868,
              43.48131942675019
            ],
            [
              -114.50702667244292,
              43.478019714338416
            ],
            [
              -114.50852203456424,
              43.47122192425246
            ],
            [
              -114.5147247315611,
              43.457820891720814
            ],
            [
              -114.5184249894217,
              43.45692062358796
            ],
            [
              -114.53132629387335,
              43.44731903064877
            ],
            [
              -114.53412628180246,
              43.439819335893674
            ],
            [
              -114.54142761219452,
              43.44082260068251
            ],
            [
              -114.54532623441816,
              43.437919616996794
            ],
            [
              -114.54692840632089,
              43.431022644279665
            ],
            [
              -114.5467224121096,
              43.39941406170965
            ],
            [
              -114.52672576877916,
              43.39850997865267
            ],
            [
              -114.52732849081718,
              43.36872100786826
            ],
            [
              -114.53442382789729,
              43.36801910409844
            ],
            [
              -114.53442382789729,
              43.33372116100281
            ],
            [
              -114.53020477273202,
              43.33211517327669
            ],
            [
              -114.50771331831493,
              43.33291244475356
            ],
            [
              -114.49922180174474,
              43.32892227244497
            ],
            [
              -114.48659515384327,
              43.3299140933608
            ],
            [
              -114.48069763189017,
              43.332611083734605
            ],
            [
              -114.46460723883297,
              43.32591629030463
            ],
            [
              -114.45909881575773,
              43.325912476279825
            ],
            [
              -114.44919586179952,
              43.33211135925188
            ],
            [
              -114.43909454257903,
              43.33081054656952
            ],
            [
              -114.42950439531154,
              43.33430862424365
            ],
            [
              -114.42481231743449,
              43.32971954302252
            ],
            [
              -114.42220306402015,
              43.33021163855631
            ],
            [
              -114.4190063482643,
              43.32841873213886
            ],
            [
              -114.40641021705784,
              43.32941436797876
            ],
            [
              -114.39990997306677,
              43.3257179259416
            ],
            [
              -114.3955230711328,
              43.32581329274933
            ],
            [
              -114.39492797894303,
              43.25872039762828
            ],
            [
              -114.39160919191062,
              43.25741577092117
            ],
            [
              -114.37502288839556,
              43.25731277516451
            ],
            [
              -114.37502288839556,
              43.19996643110596
            ],
            [
              -114.597274780107,
              43.198310852064196
            ],
            [
              -114.59697723401212,
              42.85111236594298
            ],
            [
              -114.36857604974489,
              42.850513457929765
            ],
            [
              -114.3675765989808,
              42.82371139466517
            ],
            [
              -114.34837341310248,
              42.82351303120146
            ],
            [
              -114.34837341310248,
              42.809013367073305
            ],
            [
              -114.05257415777112,
              42.80851364079194
            ],
            [
              -114.05257415777112,
              42.76511383103855
            ],
            [
              -113.93289947642967,
              42.765010834382565
            ],
            [
              -113.93159484882318,
              42.53621292138928
            ],
            [
              -113.95009613003236,
              42.53031158361273
            ],
            [
              -113.95489502038885,
              42.53041076714322
            ],
            [
              -113.95849609381963,
              42.532012939045956
            ],
            [
              -113.95989227330972,
              42.53471374524321
            ],
            [
              -113.96399688704668,
              42.535213469725875
            ],
            [
              -113.97529602139423,
              42.53301238980998
            ],
            [
              -113.98419952458835,
              42.53431320159302
            ],
            [
              -113.99289703357118,
              42.5311126709131
            ],
            [
              -113.99629974443764,
              42.52621078479996
            ],
            [
              -114.00029754659448,
              42.5263137823552
            ],
            [
              -114.00079345705234,
              42.52071380559772
            ],
            [
              -114.06609344485656,
              42.51491165225099
            ],
            [
              -114.06900024436572,
              42.49991226184147
            ],
            [
              -114.06929779135993,
              42.41711044269283
            ],
            [
              -114.28539276156664,
              42.41731262197999
            ],
            [
              -114.28669738827381,
              42.33161163317038
            ],
            [
              -114.28119659414745,
              42.33101272605654
            ],
            [
              -114.28109741241559,
              41.99450683642141
            ],
            [
              -114.46749878044432,
              41.99551391613437
            ],
            [
              -114.59829712041574,
              41.994510651345536
            ],
            [
              -114.83110046541412,
              42.00221252358915
            ],
            [
              -115.03179931558589,
              41.99601364061709
            ],
            [
              -115.87017822314647,
              41.99688720697907
            ],
            [
              -115.96189880428636,
              41.99851226842651
            ],
            [
              -116.3975982671463,
              41.9963111876113
            ],
            [
              -116.85229492257258,
              41.99890136730431
            ],
            [
              -117.00927734407412,
              41.998107909852195
            ],
            [
              -117.02619934112664,
              42.00021362296036
            ],
            [
              -117.04879760712384,
              41.999011992909175
            ],
            [
              -117.19779968310888,
              42.00041198732339
            ],
            [
              -118.25959777811494,
              41.996913909649265
            ],
            [
              -118.50099945126362,
              41.99541091857907
            ],
            [
              -118.69609832827518,
              41.99181366007241
            ],
            [
              -119.36019897540234,
              41.99441146871436
            ],
            [
              -119.35969543509623,
              42.137012482440184
            ],
            [
              -119.36349487289004,
              42.13691329980901
            ],
            [
              -119.36529541005507,
              42.74901199320897
            ],
            [
              -119.70599365218527,
              42.748710632189955
            ],
            [
              -119.70659637512256,
              42.7467117306619
            ],
            [
              -119.71439361597254,
              42.746612548930045
            ],
            [
              -119.9438934327357,
              42.74631118791103
            ],
            [
              -119.94339752227779,
              42.9171104425929
            ],
            [
              -119.93159484942271,
              42.917011260861045
            ],
            [
              -119.93239593492444,
              43.179012299378144
            ],
            [
              -119.89679718004578,
              43.179012299378144
            ],
            [
              -119.89469909678587,
              43.5836105348983
            ],
            [
              -119.89709472703998,
              43.624912262291105
            ],
            [
              -119.89799499517284,
              43.69831085196432
            ],
            [
              -119.77749633788568,
              43.69811248760129
            ],
            [
              -119.7756958007206,
              43.959110260430236
            ],
            [
              -119.53759765580713,
              43.959114075354364
            ],
            [
              -119.4977951045604,
              43.95741271992114
            ],
            [
              -119.2907943729619,
              43.9603118895821
            ],
            [
              -118.81669616729425,
              43.96001052856309
            ],
            [
              -118.81579589826208,
              44.0475120536384
            ],
            [
              -118.5865936275938,
              44.04711151088759
            ],
            [
              -118.5865936275938,
              44.04121398893449
            ],
            [
              -118.58379364056401,
              44.0401115424138
            ],
            [
              -118.22739410425447,
              44.04001235978262
            ],
            [
              -118.22829437328664,
              44.212512969897716
            ],
            [
              -118.23359680215066,
              44.212512969897716
            ],
            [
              -118.23209381108046,
              44.25651168766433
            ],
            [
              -118.49729919430234,
              44.255111694149434
            ],
            [
              -118.49759674129655,
              44.27691268866971
            ],
            [
              -118.49959564192528,
              44.277210235663915
            ],
            [
              -118.49699401925852,
              44.284812927074995
            ],
            [
              -118.49530029277423,
              44.2877120967359
            ],
            [
              -118.48949432540275,
              44.29121398933421
            ],
            [
              -118.4776000979661,
              44.31641006487263
            ],
            [
              -118.46799469010284,
              44.32261276186949
            ],
            [
              -118.4680938718347,
              44.334613799986926
            ],
            [
              -118.4605941770796,
              44.337413787916034
            ],
            [
              -118.45709228538061,
              44.34571075414806
            ],
            [
              -118.45259857186659,
              44.349311829377484
            ],
            [
              -118.43969726741494,
              44.35131073000622
            ],
            [
              -118.43549346924817,
              44.3539123535723
            ],
            [
              -118.43309783899406,
              44.3606109619264
            ],
            [
              -118.43359375035129,
              44.36831283596865
            ],
            [
              -118.41639709494996,
              44.37291336106284
            ],
            [
              -118.40869903583183,
              44.37201309203061
            ],
            [
              -118.41099548255545,
              44.37971115114874
            ],
            [
              -118.42139434787083,
              44.38601303077678
            ],
            [
              -118.42769622839819,
              44.393711089894964
            ],
            [
              -118.42609405559614,
              44.398513794276255
            ],
            [
              -118.43479919442723,
              44.398712157739965
            ],
            [
              -118.43579864519131,
              44.40221023631341
            ],
            [
              -118.42900085420604,
              44.411010741952225
            ],
            [
              -118.42889404442457,
              44.416011809797226
            ],
            [
              -118.4223938004335,
              44.422710419050645
            ],
            [
              -118.42329406676771,
              44.42611312901772
            ],
            [
              -118.41879272520407,
              44.431812285708475
            ],
            [
              -118.4219970699088,
              44.448513030651895
            ],
            [
              -118.42129516613898,
              44.45381164639042
            ],
            [
              -118.41929626640956,
              44.45611190803817
            ],
            [
              -118.4077987667996,
              44.45341110184091
            ],
            [
              -118.4001007085808,
              44.45741271982121
            ],
            [
              -118.39149475058224,
              44.45731353808935
            ],
            [
              -118.38059997570826,
              44.46181106562824
            ],
            [
              -118.37639617934019,
              44.45991134583198
            ],
            [
              -118.36109924283573,
              44.471611022930404
            ],
            [
              -118.36659240711384,
              44.478412627940486
            ],
            [
              -118.35829925490668,
              44.48431396481766
            ],
            [
              -118.3634948730899,
              44.48851394716098
            ],
            [
              -118.36499786416005,
              44.49491119359675
            ],
            [
              -118.3724975589152,
              44.50451278743526
            ],
            [
              -118.37469482390696,
              44.511512755908996
            ],
            [
              -118.36919403157924,
              44.520812987829174
            ],
            [
              -118.371795654246,
              44.52901077322866
            ],
            [
              -118.36869812022206,
              44.534313202092676
            ],
            [
              -118.36389923076484,
              44.53721237175358
            ],
            [
              -118.35979461702794,
              44.536212920989556
            ],
            [
              -118.35409545943787,
              44.545711517272764
            ],
            [
              -118.34739685108377,
              44.550910950380114
            ],
            [
              -118.34669494641463,
              44.55751419102717
            ],
            [
              -118.34009551979238,
              44.56551361116425
            ],
            [
              -118.33779907216939,
              44.56671142629136
            ],
            [
              -118.33609771673622,
              44.56461334213208
            ],
            [
              -118.3307952878722,
              44.56461334213208
            ],
            [
              -118.32629394540925,
              44.56131362882098
            ],
            [
              -118.32359314011131,
              44.56251144394804
            ],
            [
              -118.31759643642636,
              44.56841278082521
            ],
            [
              -118.3145980832349,
              44.57491302481628
            ],
            [
              -118.31520080617224,
              44.57701110807625
            ],
            [
              -118.3062973020788,
              44.58821105979263
            ],
            [
              -118.31099700890479,
              44.59371185301967
            ],
            [
              -118.31079864544108,
              44.59651184094878
            ],
            [
              -118.31909942659723,
              44.605312346587596
            ],
            [
              -118.33789825390124,
              44.6108131407139
            ],
            [
              -118.34199523958858,
              44.61711120631719
            ],
            [
              -118.34369659412249,
              44.631713867101325
            ],
            [
              -118.35719299256255,
              44.63891220083747
            ],
            [
              -118.3595962517656,
              44.638214111092395
            ],
            [
              -118.36589813229295,
              44.64091110236552
            ],
            [
              -118.37359619141108,
              44.64561080919157
            ],
            [
              -118.37969970757541,
              44.64631271386071
            ],
            [
              -118.3877944954196,
              44.64191055312955
            ],
            [
              -118.3992996221798,
              44.6435127259316
            ],
            [
              -118.40459442119555,
              44.641513824403546
            ],
            [
              -118.41609954795575,
              44.64711380026171
            ],
            [
              -118.42449951174302,
              44.6544113157297
            ],
            [
              -118.43679809595534,
              44.65371322598463
            ],
            [
              -118.44689941427652,
              44.650310516017555
            ],
            [
              -118.45689392101758,
              44.65551376314971
            ],
            [
              -118.46799469010284,
              44.65611267116287
            ],
            [
              -118.47279357956,
              44.65761184730894
            ],
            [
              -118.47699737502882,
              44.66121292073973
            ],
            [
              -118.48809814501334,
              44.664413452319025
            ],
            [
              -118.49189758280716,
              44.66361236591803
            ],
            [
              -118.50429534875133,
              44.666213988584786
            ],
            [
              -118.50779724134958,
              44.676113129417445
            ],
            [
              -118.51509857174165,
              44.68891143811243
            ],
            [
              -118.51899719216664,
              44.692310333155376
            ],
            [
              -118.51719665500161,
              44.70281219512674
            ],
            [
              -118.51879882780361,
              44.70611190843789
            ],
            [
              -118.50469970732559,
              44.7065124511887
            ],
            [
              -118.495094298563,
              44.71301269517977
            ],
            [
              -118.49169921934345,
              44.71301269517977
            ],
            [
              -118.47709655855931,
              44.70911407475478
            ],
            [
              -118.47269439692883,
              44.705112456774486
            ],
            [
              -118.46909332259872,
              44.705112456774486
            ],
            [
              -118.46239471424462,
              44.70761108368464
            ],
            [
              -118.45979309157786,
              44.71431350696281
            ],
            [
              -118.45719909696072,
              44.71681213387291
            ],
            [
              -118.44349670430944,
              44.72401046760905
            ],
            [
              -118.42609405559614,
              44.71871185276984
            ],
            [
              -118.41939544724204,
              44.71911239642003
            ],
            [
              -118.41780090338892,
              44.72621154842426
            ],
            [
              -118.413497925289,
              44.727012633925995
            ],
            [
              -118.40469360382673,
              44.7250137332972
            ],
            [
              -118.39479827881746,
              44.72671127290698
            ],
            [
              -118.39139556885038,
              44.73331069862991
            ],
            [
              -118.37949371336413,
              44.74441146861443
            ],
            [
              -118.3692932133111,
              44.74691009462521
            ],
            [
              -118.3215942385832,
              44.74161148068532
            ],
            [
              -118.30999755904008,
              44.74441146861443
            ],
            [
              -118.30299377384358,
              44.74791336121268
            ],
            [
              -118.29919433604971,
              44.74631118841069
            ],
            [
              -118.29349517756037,
              44.74681091289335
            ],
            [
              -118.28569793671039,
              44.75111389189266
            ],
            [
              -118.28669738837374,
              44.75941085812468
            ],
            [
              -118.28949737540353,
              44.765312195001854
            ],
            [
              -118.28319549577549,
              44.77141189624206
            ],
            [
              -118.29259491032684,
              44.781513213663914
            ],
            [
              -118.2947921753186,
              44.79071044892811
            ],
            [
              -118.29899597258606,
              44.79701232855615
            ],
            [
              -118.29719543542097,
              44.79961395302155
            ],
            [
              -118.29799652092265,
              44.8028106687774
            ],
            [
              -118.29519653299354,
              44.81311035236092
            ],
            [
              -118.29709625189048,
              44.816211700409724
            ],
            [
              -118.30079650885176,
              44.816612244059854
            ],
            [
              -118.3093948361028,
              44.82151031524893
            ],
            [
              -118.31079864544108,
              44.82371139516482
            ],
            [
              -118.30859375060106,
              44.829811096405024
            ],
            [
              -118.31839752192803,
              44.83591079674591
            ],
            [
              -118.30949401873397,
              44.84111022895394
            ],
            [
              -118.30619812034695,
              44.84681320236746
            ],
            [
              -118.29409789959834,
              44.85331344635853
            ],
            [
              -118.29599762029392,
              44.861610412590494
            ],
            [
              -118.28989410412959,
              44.86611175505351
            ],
            [
              -118.28329467840666,
              44.86541366620776
            ],
            [
              -118.26770019490806,
              44.869213104001574
            ],
            [
              -118.25749969485503,
              44.86381149340576
            ],
            [
              -118.2524948120859,
              44.864711760639295
            ],
            [
              -118.23579406714248,
              44.86221313462852
            ],
            [
              -118.22789764456064,
              44.866710663066726
            ],
            [
              -118.2280960080243,
              44.87021255476566
            ],
            [
              -118.22499847400036,
              44.875713347992644
            ],
            [
              -118.22929382315141,
              44.8818130492329
            ],
            [
              -118.23179626498563,
              44.89351272633132
            ],
            [
              -118.23619842481742,
              44.899112701290164
            ],
            [
              -118.2354965210476,
              44.90471267714838
            ],
            [
              -118.236892701437,
              44.9078140260965
            ],
            [
              -118.2283935550185,
              44.916011809697295
            ],
            [
              -118.2280960080243,
              44.91811370788139
            ],
            [
              -118.23159789972328,
              44.92241287195651
            ],
            [
              -118.22789764456064,
              44.92681121776354
            ],
            [
              -118.2241973875993,
              44.93711090134707
            ],
            [
              -118.22859191938153,
              44.940612793046
            ],
            [
              -118.2339935299774,
              44.94001388503284
            ],
            [
              -118.24459839040338,
              44.94511032058489
            ],
            [
              -118.24389648393554,
              44.95461273179217
            ],
            [
              -118.24529266432495,
              44.958713530604996
            ],
            [
              -118.23249816875546,
              44.96141052187812
            ],
            [
              -118.23149871799143,
              44.970012664952606
            ],
            [
              -118.2182998674449,
              44.98781204239191
            ],
            [
              -118.21419525100998,
              44.99091339133997
            ],
            [
              -118.21289825415107,
              44.994812011764964
            ],
            [
              -118.21360015882021,
              45.00661086969592
            ],
            [
              -118.21159362834322,
              45.00861358614816
            ],
            [
              -118.20029449489499,
              45.015010834382565
            ],
            [
              -118.18549346884845,
              45.019313811583174
            ],
            [
              -118.17479705833756,
              45.01911163319539
            ],
            [
              -118.1667938232763,
              45.01641082789746
            ],
            [
              -118.16019439755337,
              45.01641082789746
            ],
            [
              -118.15629577622906,
              45.01831054679434
            ],
            [
              -118.15390014597494,
              45.02291107188853
            ],
            [
              -118.1494979861431,
              45.02591323910474
            ],
            [
              -118.14249420184592,
              45.027812958001675
            ],
            [
              -118.1376953123887,
              45.03911209055059
            ],
            [
              -118.1308975223028,
              45.04481124903998
            ],
            [
              -118.10919952443845,
              45.046611786205006
            ],
            [
              -118.09909820611728,
              45.044712067308126
            ],
            [
              -118.09359741199091,
              45.04201126111087
            ],
            [
              -118.08889770516492,
              45.0338134766107
            ],
            [
              -118.0688934328856,
              45.016712188916415
            ],
            [
              -118.04709625239008,
              45.01011276229417
            ],
            [
              -118.03609466593605,
              45.00381088266613
            ],
            [
              -118.01639556959981,
              45.000713347742874
            ],
            [
              -118.0026931760492,
              44.99501419105212
            ],
            [
              -117.96859741224074,
              44.99621200617918
            ],
            [
              -117.95539855989557,
              45.00121307402418
            ],
            [
              -117.93740081809324,
              45.011711121071414
            ],
            [
              -117.93079376342143,
              45.01391220098736
            ],
            [
              -117.92249298136596,
              45.01921081492725
            ],
            [
              -117.91829681394677,
              45.0246124273217
            ],
            [
              -117.90619659409748,
              45.03031158401245
            ],
            [
              -117.89619445840748,
              45.03931045491362
            ],
            [
              -117.89379882815336,
              45.04581069890469
            ],
            [
              -117.88659668039247,
              45.05061340328598
            ],
            [
              -117.88819885319447,
              45.05691146888921
            ],
            [
              -117.8825988773363,
              45.06011199956919
            ],
            [
              -117.8740997309178,
              45.0604133605882
            ],
            [
              -117.87229919375278,
              45.06271362313527
            ],
            [
              -117.86849975595896,
              45.05751037600311
            ],
            [
              -117.86370086740106,
              45.05481338472998
            ],
            [
              -117.86029815743399,
              45.05561065710617
            ],
            [
              -117.8584976202689,
              45.059013367073305
            ],
            [
              -117.85319519140495,
              45.060314177957025
            ],
            [
              -117.84269714435771,
              45.05741119427125
            ],
            [
              -117.84449768242206,
              45.05521011435536
            ],
            [
              -117.83779907226932,
              45.053813933965955
            ],
            [
              -117.84079742456146,
              45.05061340328598
            ],
            [
              -117.82969665457694,
              45.038414000805574
            ],
            [
              -117.82709503191018,
              45.03241348309581
            ],
            [
              -117.81829834029611,
              45.026512146218636
            ],
            [
              -117.81509399379274,
              45.02501297007257
            ],
            [
              -117.81139373773078,
              45.02661132795049
            ],
            [
              -117.81289672880098,
              45.03161239579549
            ],
            [
              -117.81009674087187,
              45.032310486439826
            ],
            [
              -117.80319976815474,
              45.02981185863041
            ],
            [
              -117.80449676501365,
              45.028213500752486
            ],
            [
              -117.80249786438492,
              45.02761077871452
            ],
            [
              -117.80009460428255,
              45.02921295241589
            ],
            [
              -117.79419708322877,
              45.02561187718646
            ],
            [
              -117.79599762039385,
              45.02361297565835
            ],
            [
              -117.79389953623456,
              45.02241134560717
            ],
            [
              -117.79539489655718,
              45.01971054120855
            ],
            [
              -117.79359436029148,
              45.01771163878118
            ],
            [
              -117.77949523891414,
              45.01121139479011
            ],
            [
              -117.7786941534124,
              45.00771331801525
            ],
            [
              -117.78419494574013,
              45.003311157284145
            ],
            [
              -117.78469848604624,
              44.996810913293075
            ],
            [
              -117.77979278590828,
              44.99501419105212
            ],
            [
              -117.77829742378702,
              44.992912291968764
            ],
            [
              -117.56369781480225,
              44.993213653887096
            ],
            [
              -117.56309509276429,
              45.07961273244172
            ],
            [
              -117.19519806044212,
              45.08111190768847
            ],
            [
              -116.78779602116941,
              45.0790138244285
            ],
            [
              -116.78419494593999,
              45.07791137700849
            ],
            [
              -116.78359985375022,
              45.09291076741806
            ],
            [
              -116.77489471401981,
              45.105510711750014
            ],
            [
              -116.75409698518769,
              45.11531066905218
            ],
            [
              -116.7527923575812,
              45.12141418521651
            ],
            [
              -116.74699401915865,
              45.12421035822149
            ],
            [
              -116.74569702140036,
              45.132110595727454
            ],
            [
              -116.74249267579631,
              45.13531112730675
            ],
            [
              -116.73220062296036,
              45.13921356175655
            ],
            [
              -116.72919464081997,
              45.14331054744389
            ],
            [
              -116.72769927959803,
              45.155311583762625
            ],
            [
              -116.7241973878991,
              45.16391372683705
            ],
            [
              -116.7241973878991,
              45.17151260422338
            ],
            [
              -116.70949554358441,
              45.20301055938984
            ],
            [
              -116.7084960937197,
              45.20871353100472
            ],
            [
              -116.70980072042687,
              45.21721267742316
            ],
            [
              -116.7040939329886,
              45.228111267221266
            ],
            [
              -116.70319366485569,
              45.23951339732548
            ],
            [
              -116.69859313976156,
              45.246311188310756
            ],
            [
              -116.69189453140746,
              45.262710571335845
            ],
            [
              -116.68679809585541,
              45.26781082181202
            ]
          ]
        ]
      }
    }
  ],
  "metadata": {
    "schema_version": "0.1.0",
    "wfo": "BOI",
    "layer": "cwa",
    "source": "https://www.weather.gov/source/gis/Shapefiles/WSOM/w_16ap26.zip",
    "public_release_status": "public-source-derived"
  }
}