{
  "type": "FeatureCollection",
  "metadata": {
    "schema_version": "0.2.4",
    "year": 2026,
    "month": 5,
    "wfo": "ILN",
    "start_utc": "2026-05-01T00:00:00Z",
    "end_utc": "2026-06-01T00:00:00Z",
    "generated_utc": "2026-07-06T13:01:54Z",
    "mode": "storm_data_prep",
    "public_release_status": "public-source-derived",
    "time_note": "Storm Data entry times should be reviewed in local Standard Time (ST), not daylight time. Candidate reports include standard_time_display.",
    "tornado_track_policy": "Tornado tracks must come from DAT. NCEI begin/end coordinates are not used as a tornado track substitute.",
    "source": "https://mesonet.agron.iastate.edu/cgi-bin/request/gis/lsr.py?wfo=ILN&sts=2026-05-01T00%3A00%3A00Z&ets=2026-06-01T00%3A00%3A00Z&fmt=csv"
  },
  "features": [
    {
      "type": "Feature",
      "id": "iem-lsr-ILN-1",
      "properties": {
        "report_id": "iem-lsr-ILN-1",
        "report_type": "TSTM WND GST",
        "event_category": "thunderstorm_wind",
        "valid_utc": "202605052116",
        "standard_time_display": "2026-05-05 16:16 EST",
        "wfo": "ILN",
        "county_or_zone": "Franklin",
        "city": "2 SE Dublin",
        "state": "OH",
        "magnitude": 49.0,
        "magnitude_units": null,
        "source": "ASOS",
        "event_narrative": "KOSU ASOS."
      },
      "geometry": {
        "type": "Point",
        "coordinates": [
          -83.08,
          40.08
        ]
      }
    },
    {
      "type": "Feature",
      "id": "iem-lsr-ILN-2",
      "properties": {
        "report_id": "iem-lsr-ILN-2",
        "report_type": "HAIL",
        "event_category": "hail",
        "valid_utc": "202605161214",
        "standard_time_display": "2026-05-16 07:14 EST",
        "wfo": "ILN",
        "county_or_zone": "Darke",
        "city": "2 N Palestine",
        "state": "OH",
        "magnitude": 0.75,
        "magnitude_units": null,
        "source": "Broadcast Media",
        "event_narrative": "picture from social media."
      },
      "geometry": {
        "type": "Point",
        "coordinates": [
          -84.74,
          40.09
        ]
      }
    },
    {
      "type": "Feature",
      "id": "iem-lsr-ILN-3",
      "properties": {
        "report_id": "iem-lsr-ILN-3",
        "report_type": "HAIL",
        "event_category": "hail",
        "valid_utc": "202605161232",
        "standard_time_display": "2026-05-16 07:32 EST",
        "wfo": "ILN",
        "county_or_zone": "Champaign",
        "city": "1 S Urbana",
        "state": "OH",
        "magnitude": 1.25,
        "magnitude_units": null,
        "source": "Broadcast Media",
        "event_narrative": "Quarter to half dollar size hail south of town."
      },
      "geometry": {
        "type": "Point",
        "coordinates": [
          -83.75,
          40.09
        ]
      }
    },
    {
      "type": "Feature",
      "id": "iem-lsr-ILN-4",
      "properties": {
        "report_id": "iem-lsr-ILN-4",
        "report_type": "HAIL",
        "event_category": "hail",
        "valid_utc": "202605161243",
        "standard_time_display": "2026-05-16 07:43 EST",
        "wfo": "ILN",
        "county_or_zone": "Champaign",
        "city": "5 SW North Lewisburg",
        "state": "OH",
        "magnitude": 0.88,
        "magnitude_units": null,
        "source": "Broadcast Media",
        "event_narrative": "Nickel size hail in Cable."
      },
      "geometry": {
        "type": "Point",
        "coordinates": [
          -83.63,
          40.17
        ]
      }
    },
    {
      "type": "Feature",
      "id": "iem-lsr-ILN-5",
      "properties": {
        "report_id": "iem-lsr-ILN-5",
        "report_type": "TSTM WND DMG",
        "event_category": "thunderstorm_wind",
        "valid_utc": "202605162319",
        "standard_time_display": "2026-05-16 17:19 CST",
        "wfo": "ILN",
        "county_or_zone": "Carroll",
        "city": "Carrollton",
        "state": "KY",
        "magnitude": null,
        "magnitude_units": null,
        "source": "911 Call Center",
        "event_narrative": "Several trees down."
      },
      "geometry": {
        "type": "Point",
        "coordinates": [
          -85.18,
          38.68
        ]
      }
    },
    {
      "type": "Feature",
      "id": "iem-lsr-ILN-6",
      "properties": {
        "report_id": "iem-lsr-ILN-6",
        "report_type": "TSTM WND DMG",
        "event_category": "thunderstorm_wind",
        "valid_utc": "202605162336",
        "standard_time_display": "2026-05-16 18:36 EST",
        "wfo": "ILN",
        "county_or_zone": "Owen",
        "city": "Monterey",
        "state": "KY",
        "magnitude": null,
        "magnitude_units": null,
        "source": "911 Call Center",
        "event_narrative": "Trees down."
      },
      "geometry": {
        "type": "Point",
        "coordinates": [
          -84.87,
          38.42
        ]
      }
    },
    {
      "type": "Feature",
      "id": "iem-lsr-ILN-7",
      "properties": {
        "report_id": "iem-lsr-ILN-7",
        "report_type": "TSTM WND GST",
        "event_category": "thunderstorm_wind",
        "valid_utc": "202605162337",
        "standard_time_display": "2026-05-16 18:37 EST",
        "wfo": "ILN",
        "county_or_zone": "Gallatin",
        "city": "1 W Sparta",
        "state": "KY",
        "magnitude": 48.0,
        "magnitude_units": null,
        "source": "AWOS",
        "event_narrative": "AWOS site K8GK Gallatin County Airport."
      },
      "geometry": {
        "type": "Point",
        "coordinates": [
          -84.93,
          38.68
        ]
      }
    },
    {
      "type": "Feature",
      "id": "iem-lsr-ILN-8",
      "properties": {
        "report_id": "iem-lsr-ILN-8",
        "report_type": "TSTM WND DMG",
        "event_category": "thunderstorm_wind",
        "valid_utc": "202605162346",
        "standard_time_display": "2026-05-16 18:46 EST",
        "wfo": "ILN",
        "county_or_zone": "Owen",
        "city": "Owenton",
        "state": "KY",
        "magnitude": null,
        "magnitude_units": null,
        "source": "911 Call Center",
        "event_narrative": "Trees down. Time estimated from radar."
      },
      "geometry": {
        "type": "Point",
        "coordinates": [
          -84.84,
          38.54
        ]
      }
    },
    {
      "type": "Feature",
      "id": "iem-lsr-ILN-9",
      "properties": {
        "report_id": "iem-lsr-ILN-9",
        "report_type": "TSTM WND DMG",
        "event_category": "thunderstorm_wind",
        "valid_utc": "202605162349",
        "standard_time_display": "2026-05-16 18:49 EST",
        "wfo": "ILN",
        "county_or_zone": "Grant",
        "city": "5 NE Glencoe",
        "state": "KY",
        "magnitude": null,
        "magnitude_units": null,
        "source": "911 Call Center",
        "event_narrative": "Tree down."
      },
      "geometry": {
        "type": "Point",
        "coordinates": [
          -84.76,
          38.76
        ]
      }
    },
    {
      "type": "Feature",
      "id": "iem-lsr-ILN-10",
      "properties": {
        "report_id": "iem-lsr-ILN-10",
        "report_type": "TSTM WND DMG",
        "event_category": "thunderstorm_wind",
        "valid_utc": "202605162357",
        "standard_time_display": "2026-05-16 18:57 EST",
        "wfo": "ILN",
        "county_or_zone": "Grant",
        "city": "1 W Dry Ridge",
        "state": "KY",
        "magnitude": null,
        "magnitude_units": null,
        "source": "911 Call Center",
        "event_narrative": "Tree fell on power lines."
      },
      "geometry": {
        "type": "Point",
        "coordinates": [
          -84.61,
          38.68
        ]
      }
    },
    {
      "type": "Feature",
      "id": "iem-lsr-ILN-11",
      "properties": {
        "report_id": "iem-lsr-ILN-11",
        "report_type": "TSTM WND DMG",
        "event_category": "thunderstorm_wind",
        "valid_utc": "202605162358",
        "standard_time_display": "2026-05-16 18:58 EST",
        "wfo": "ILN",
        "county_or_zone": "Grant",
        "city": "3 SW Crittenden",
        "state": "KY",
        "magnitude": null,
        "magnitude_units": null,
        "source": "911 Call Center",
        "event_narrative": "Power lines and pole down. Tree down."
      },
      "geometry": {
        "type": "Point",
        "coordinates": [
          -84.65,
          38.76
        ]
      }
    },
    {
      "type": "Feature",
      "id": "iem-lsr-ILN-12",
      "properties": {
        "report_id": "iem-lsr-ILN-12",
        "report_type": "TSTM WND DMG",
        "event_category": "thunderstorm_wind",
        "valid_utc": "202605170000",
        "standard_time_display": "2026-05-16 19:00 EST",
        "wfo": "ILN",
        "county_or_zone": "Pendleton",
        "city": "5 W Butler",
        "state": "KY",
        "magnitude": null,
        "magnitude_units": null,
        "source": "911 Call Center",
        "event_narrative": "Tree down."
      },
      "geometry": {
        "type": "Point",
        "coordinates": [
          -84.46,
          38.79
        ]
      }
    },
    {
      "type": "Feature",
      "id": "iem-lsr-ILN-13",
      "properties": {
        "report_id": "iem-lsr-ILN-13",
        "report_type": "TSTM WND DMG",
        "event_category": "thunderstorm_wind",
        "valid_utc": "202605170011",
        "standard_time_display": "2026-05-16 19:11 EST",
        "wfo": "ILN",
        "county_or_zone": "Pendleton",
        "city": "3 WSW Falmouth",
        "state": "KY",
        "magnitude": null,
        "magnitude_units": null,
        "source": "911 Call Center",
        "event_narrative": "Trees down."
      },
      "geometry": {
        "type": "Point",
        "coordinates": [
          -84.38,
          38.66
        ]
      }
    },
    {
      "type": "Feature",
      "id": "iem-lsr-ILN-14",
      "properties": {
        "report_id": "iem-lsr-ILN-14",
        "report_type": "TSTM WND GST",
        "event_category": "thunderstorm_wind",
        "valid_utc": "202605170013",
        "standard_time_display": "2026-05-16 19:13 EST",
        "wfo": "ILN",
        "county_or_zone": "Pendleton",
        "city": "4 WNW Falmouth",
        "state": "KY",
        "magnitude": 48.0,
        "magnitude_units": null,
        "source": "AWOS",
        "event_narrative": "48 MPH measured thunderstorm wind gust."
      },
      "geometry": {
        "type": "Point",
        "coordinates": [
          -84.39,
          38.7
        ]
      }
    },
    {
      "type": "Feature",
      "id": "iem-lsr-ILN-15",
      "properties": {
        "report_id": "iem-lsr-ILN-15",
        "report_type": "TSTM WND DMG",
        "event_category": "thunderstorm_wind",
        "valid_utc": "202605170013",
        "standard_time_display": "2026-05-16 19:13 EST",
        "wfo": "ILN",
        "county_or_zone": "Pendleton",
        "city": "Falmouth",
        "state": "KY",
        "magnitude": null,
        "magnitude_units": null,
        "source": "911 Call Center",
        "event_narrative": "Tree down."
      },
      "geometry": {
        "type": "Point",
        "coordinates": [
          -84.32,
          38.68
        ]
      }
    },
    {
      "type": "Feature",
      "id": "iem-lsr-ILN-16",
      "properties": {
        "report_id": "iem-lsr-ILN-16",
        "report_type": "TSTM WND DMG",
        "event_category": "thunderstorm_wind",
        "valid_utc": "202605170019",
        "standard_time_display": "2026-05-16 19:19 EST",
        "wfo": "ILN",
        "county_or_zone": "Pendleton",
        "city": "2 SSE Butler",
        "state": "KY",
        "magnitude": null,
        "magnitude_units": null,
        "source": "911 Call Center",
        "event_narrative": "Trees down."
      },
      "geometry": {
        "type": "Point",
        "coordinates": [
          -84.35,
          38.76
        ]
      }
    },
    {
      "type": "Feature",
      "id": "iem-lsr-ILN-17",
      "properties": {
        "report_id": "iem-lsr-ILN-17",
        "report_type": "TSTM WND DMG",
        "event_category": "thunderstorm_wind",
        "valid_utc": "202605170100",
        "standard_time_display": "2026-05-16 20:00 EST",
        "wfo": "ILN",
        "county_or_zone": "Mason",
        "city": "Maysville",
        "state": "KY",
        "magnitude": null,
        "magnitude_units": null,
        "source": "911 Call Center",
        "event_narrative": "2 Trees down."
      },
      "geometry": {
        "type": "Point",
        "coordinates": [
          -83.76,
          38.65
        ]
      }
    },
    {
      "type": "Feature",
      "id": "iem-lsr-ILN-18",
      "properties": {
        "report_id": "iem-lsr-ILN-18",
        "report_type": "TSTM WND GST",
        "event_category": "thunderstorm_wind",
        "valid_utc": "202605182140",
        "standard_time_display": "2026-05-18 16:40 EST",
        "wfo": "ILN",
        "county_or_zone": "Hardin",
        "city": "3 SW Kenton",
        "state": "OH",
        "magnitude": 47.0,
        "magnitude_units": null,
        "source": "AWOS",
        "event_narrative": null
      },
      "geometry": {
        "type": "Point",
        "coordinates": [
          -83.64,
          40.61
        ]
      }
    },
    {
      "type": "Feature",
      "id": "iem-lsr-ILN-19",
      "properties": {
        "report_id": "iem-lsr-ILN-19",
        "report_type": "TSTM WND DMG",
        "event_category": "thunderstorm_wind",
        "valid_utc": "202605182340",
        "standard_time_display": "2026-05-18 18:40 EST",
        "wfo": "ILN",
        "county_or_zone": "Dearborn",
        "city": "2 NNW Aurora",
        "state": "IN",
        "magnitude": null,
        "magnitude_units": null,
        "source": "911 Call Center",
        "event_narrative": "Tree and power lines downed on State Route 148."
      },
      "geometry": {
        "type": "Point",
        "coordinates": [
          -84.91,
          39.08
        ]
      }
    },
    {
      "type": "Feature",
      "id": "iem-lsr-ILN-20",
      "properties": {
        "report_id": "iem-lsr-ILN-20",
        "report_type": "TSTM WND DMG",
        "event_category": "thunderstorm_wind",
        "valid_utc": "202605192202",
        "standard_time_display": "2026-05-19 16:02 CST",
        "wfo": "ILN",
        "county_or_zone": "Wayne",
        "city": "Centerville",
        "state": "IN",
        "magnitude": null,
        "magnitude_units": null,
        "source": "911 Call Center",
        "event_narrative": "Trees down in Centerville. Time estimated from RADAR."
      },
      "geometry": {
        "type": "Point",
        "coordinates": [
          -85.0,
          39.82
        ]
      }
    },
    {
      "type": "Feature",
      "id": "iem-lsr-ILN-21",
      "properties": {
        "report_id": "iem-lsr-ILN-21",
        "report_type": "HAIL",
        "event_category": "hail",
        "valid_utc": "202605192205",
        "standard_time_display": "2026-05-19 16:05 CST",
        "wfo": "ILN",
        "county_or_zone": "Wayne",
        "city": "Centerville",
        "state": "IN",
        "magnitude": 1.0,
        "magnitude_units": null,
        "source": "Public",
        "event_narrative": "Photo posted on social media."
      },
      "geometry": {
        "type": "Point",
        "coordinates": [
          -85.0,
          39.82
        ]
      }
    },
    {
      "type": "Feature",
      "id": "iem-lsr-ILN-22",
      "properties": {
        "report_id": "iem-lsr-ILN-22",
        "report_type": "TSTM WND DMG",
        "event_category": "thunderstorm_wind",
        "valid_utc": "202605192207",
        "standard_time_display": "2026-05-19 17:07 EST",
        "wfo": "ILN",
        "county_or_zone": "Wayne",
        "city": "Richmond",
        "state": "IN",
        "magnitude": null,
        "magnitude_units": null,
        "source": "911 Call Center",
        "event_narrative": "Trees down in Richmond. Time estimated from RADAR."
      },
      "geometry": {
        "type": "Point",
        "coordinates": [
          -84.89,
          39.83
        ]
      }
    },
    {
      "type": "Feature",
      "id": "iem-lsr-ILN-23",
      "properties": {
        "report_id": "iem-lsr-ILN-23",
        "report_type": "TSTM WND DMG",
        "event_category": "thunderstorm_wind",
        "valid_utc": "202605192218",
        "standard_time_display": "2026-05-19 17:18 EST",
        "wfo": "ILN",
        "county_or_zone": "Darke",
        "city": "4 WSW New Madison",
        "state": "OH",
        "magnitude": null,
        "magnitude_units": null,
        "source": "911 Call Center",
        "event_narrative": "A large tree branch fell onto a large propane tank_ causing a propane leak."
      },
      "geometry": {
        "type": "Point",
        "coordinates": [
          -84.77,
          39.94
        ]
      }
    },
    {
      "type": "Feature",
      "id": "iem-lsr-ILN-24",
      "properties": {
        "report_id": "iem-lsr-ILN-24",
        "report_type": "TSTM WND DMG",
        "event_category": "thunderstorm_wind",
        "valid_utc": "202605192223",
        "standard_time_display": "2026-05-19 17:23 EST",
        "wfo": "ILN",
        "county_or_zone": "Darke",
        "city": "2 NNW New Madison",
        "state": "OH",
        "magnitude": null,
        "magnitude_units": null,
        "source": "911 Call Center",
        "event_narrative": "Numerous trees and power lines down in southwest corner of Darke County_ all south of US-36. Time estimated from RADAR."
      },
      "geometry": {
        "type": "Point",
        "coordinates": [
          -84.72,
          39.99
        ]
      }
    },
    {
      "type": "Feature",
      "id": "iem-lsr-ILN-25",
      "properties": {
        "report_id": "iem-lsr-ILN-25",
        "report_type": "TSTM WND DMG",
        "event_category": "thunderstorm_wind",
        "valid_utc": "202605192232",
        "standard_time_display": "2026-05-19 17:32 EST",
        "wfo": "ILN",
        "county_or_zone": "Darke",
        "city": "4 ENE Wayne Lakes",
        "state": "OH",
        "magnitude": null,
        "magnitude_units": null,
        "source": "Broadcast Media",
        "event_narrative": "Metal roof damage. Photos posted. Time estimated by RADAR."
      },
      "geometry": {
        "type": "Point",
        "coordinates": [
          -84.6,
          40.05
        ]
      }
    },
    {
      "type": "Feature",
      "id": "iem-lsr-ILN-26",
      "properties": {
        "report_id": "iem-lsr-ILN-26",
        "report_type": "TSTM WND DMG",
        "event_category": "thunderstorm_wind",
        "valid_utc": "202605192252",
        "standard_time_display": "2026-05-19 16:52 CST",
        "wfo": "ILN",
        "county_or_zone": "Fayette",
        "city": "3 N Laurel",
        "state": "IN",
        "magnitude": null,
        "magnitude_units": null,
        "source": "911 Call Center",
        "event_narrative": "Tree down on power line. Time estimated from RADAR."
      },
      "geometry": {
        "type": "Point",
        "coordinates": [
          -85.18,
          39.55
        ]
      }
    },
    {
      "type": "Feature",
      "id": "iem-lsr-ILN-27",
      "properties": {
        "report_id": "iem-lsr-ILN-27",
        "report_type": "TSTM WND DMG",
        "event_category": "thunderstorm_wind",
        "valid_utc": "202605192255",
        "standard_time_display": "2026-05-19 17:55 EST",
        "wfo": "ILN",
        "county_or_zone": "Miami",
        "city": "2 NE Ludlow Falls",
        "state": "OH",
        "magnitude": null,
        "magnitude_units": null,
        "source": "Broadcast Media",
        "event_narrative": "Tree down on Greenlee Road. Photo posted. Time estimated by RADAR."
      },
      "geometry": {
        "type": "Point",
        "coordinates": [
          -84.31,
          40.02
        ]
      }
    },
    {
      "type": "Feature",
      "id": "iem-lsr-ILN-28",
      "properties": {
        "report_id": "iem-lsr-ILN-28",
        "report_type": "TSTM WND DMG",
        "event_category": "thunderstorm_wind",
        "valid_utc": "202605192255",
        "standard_time_display": "2026-05-19 16:55 CST",
        "wfo": "ILN",
        "county_or_zone": "Franklin",
        "city": "5 SE Laurel",
        "state": "IN",
        "magnitude": null,
        "magnitude_units": null,
        "source": "911 Call Center",
        "event_narrative": null
      },
      "geometry": {
        "type": "Point",
        "coordinates": [
          -85.13,
          39.45
        ]
      }
    },
    {
      "type": "Feature",
      "id": "iem-lsr-ILN-29",
      "properties": {
        "report_id": "iem-lsr-ILN-29",
        "report_type": "TSTM WND DMG",
        "event_category": "thunderstorm_wind",
        "valid_utc": "202605192257",
        "standard_time_display": "2026-05-19 17:57 EST",
        "wfo": "ILN",
        "county_or_zone": "Miami",
        "city": "2 NW Piqua",
        "state": "OH",
        "magnitude": null,
        "magnitude_units": null,
        "source": "Broadcast Media",
        "event_narrative": "Trees down at Ziegler and Versailles Roads. Photos posted. Time estimated from RADAR."
      },
      "geometry": {
        "type": "Point",
        "coordinates": [
          -84.27,
          40.17
        ]
      }
    },
    {
      "type": "Feature",
      "id": "iem-lsr-ILN-30",
      "properties": {
        "report_id": "iem-lsr-ILN-30",
        "report_type": "TSTM WND DMG",
        "event_category": "thunderstorm_wind",
        "valid_utc": "202605192257",
        "standard_time_display": "2026-05-19 17:57 EST",
        "wfo": "ILN",
        "county_or_zone": "Miami",
        "city": "3 NW Piqua",
        "state": "OH",
        "magnitude": null,
        "magnitude_units": null,
        "source": "Public",
        "event_narrative": "Very large tree down on Brunson Lane."
      },
      "geometry": {
        "type": "Point",
        "coordinates": [
          -84.29,
          40.17
        ]
      }
    },
    {
      "type": "Feature",
      "id": "iem-lsr-ILN-31",
      "properties": {
        "report_id": "iem-lsr-ILN-31",
        "report_type": "TSTM WND DMG",
        "event_category": "thunderstorm_wind",
        "valid_utc": "202605192321",
        "standard_time_display": "2026-05-19 18:21 EST",
        "wfo": "ILN",
        "county_or_zone": "Butler",
        "city": "Oxford",
        "state": "OH",
        "magnitude": null,
        "magnitude_units": null,
        "source": "Public",
        "event_narrative": "2 foot diameter branches down."
      },
      "geometry": {
        "type": "Point",
        "coordinates": [
          -84.74,
          39.51
        ]
      }
    },
    {
      "type": "Feature",
      "id": "iem-lsr-ILN-32",
      "properties": {
        "report_id": "iem-lsr-ILN-32",
        "report_type": "TSTM WND DMG",
        "event_category": "thunderstorm_wind",
        "valid_utc": "202605192337",
        "standard_time_display": "2026-05-19 18:37 EST",
        "wfo": "ILN",
        "county_or_zone": "Logan",
        "city": "West Liberty",
        "state": "OH",
        "magnitude": null,
        "magnitude_units": null,
        "source": "911 Call Center",
        "event_narrative": "Trees down."
      },
      "geometry": {
        "type": "Point",
        "coordinates": [
          -83.76,
          40.25
        ]
      }
    },
    {
      "type": "Feature",
      "id": "iem-lsr-ILN-33",
      "properties": {
        "report_id": "iem-lsr-ILN-33",
        "report_type": "TSTM WND GST",
        "event_category": "thunderstorm_wind",
        "valid_utc": "202605200000",
        "standard_time_display": "2026-05-19 19:00 EST",
        "wfo": "ILN",
        "county_or_zone": "Montgomery",
        "city": "3 N Springboro",
        "state": "OH",
        "magnitude": 49.0,
        "magnitude_units": null,
        "source": "ASOS",
        "event_narrative": "KMGY ASOS."
      },
      "geometry": {
        "type": "Point",
        "coordinates": [
          -84.23,
          39.59
        ]
      }
    },
    {
      "type": "Feature",
      "id": "iem-lsr-ILN-34",
      "properties": {
        "report_id": "iem-lsr-ILN-34",
        "report_type": "TSTM WND DMG",
        "event_category": "thunderstorm_wind",
        "valid_utc": "202605200007",
        "standard_time_display": "2026-05-19 19:07 EST",
        "wfo": "ILN",
        "county_or_zone": "Montgomery",
        "city": "Centerville",
        "state": "OH",
        "magnitude": null,
        "magnitude_units": null,
        "source": "Trained Spotter",
        "event_narrative": "Large healthy tree down. Time estimated from RADAR."
      },
      "geometry": {
        "type": "Point",
        "coordinates": [
          -84.16,
          39.63
        ]
      }
    },
    {
      "type": "Feature",
      "id": "iem-lsr-ILN-35",
      "properties": {
        "report_id": "iem-lsr-ILN-35",
        "report_type": "TSTM WND DMG",
        "event_category": "thunderstorm_wind",
        "valid_utc": "202605200013",
        "standard_time_display": "2026-05-19 19:13 EST",
        "wfo": "ILN",
        "county_or_zone": "Greene",
        "city": "3 NE Bellbrook",
        "state": "OH",
        "magnitude": null,
        "magnitude_units": null,
        "source": "Amateur Radio",
        "event_narrative": "Tree down on Upper Bellbrook Road and Shepherd Road. Time estimated from RADAR."
      },
      "geometry": {
        "type": "Point",
        "coordinates": [
          -84.03,
          39.67
        ]
      }
    },
    {
      "type": "Feature",
      "id": "iem-lsr-ILN-36",
      "properties": {
        "report_id": "iem-lsr-ILN-36",
        "report_type": "TSTM WND DMG",
        "event_category": "thunderstorm_wind",
        "valid_utc": "202605200013",
        "standard_time_display": "2026-05-19 19:13 EST",
        "wfo": "ILN",
        "county_or_zone": "Greene",
        "city": "Bellbrook",
        "state": "OH",
        "magnitude": null,
        "magnitude_units": null,
        "source": "Amateur Radio",
        "event_narrative": "Top 20 feet of a very large tree down."
      },
      "geometry": {
        "type": "Point",
        "coordinates": [
          -84.07,
          39.64
        ]
      }
    },
    {
      "type": "Feature",
      "id": "iem-lsr-ILN-37",
      "properties": {
        "report_id": "iem-lsr-ILN-37",
        "report_type": "TSTM WND DMG",
        "event_category": "thunderstorm_wind",
        "valid_utc": "202605200018",
        "standard_time_display": "2026-05-19 19:18 EST",
        "wfo": "ILN",
        "county_or_zone": "Greene",
        "city": "4 WNW Port William",
        "state": "OH",
        "magnitude": null,
        "magnitude_units": null,
        "source": "Amateur Radio",
        "event_narrative": "Tree down on US-68."
      },
      "geometry": {
        "type": "Point",
        "coordinates": [
          -83.86,
          39.58
        ]
      }
    },
    {
      "type": "Feature",
      "id": "iem-lsr-ILN-38",
      "properties": {
        "report_id": "iem-lsr-ILN-38",
        "report_type": "TSTM WND DMG",
        "event_category": "thunderstorm_wind",
        "valid_utc": "202605200021",
        "standard_time_display": "2026-05-19 19:21 EST",
        "wfo": "ILN",
        "county_or_zone": "Greene",
        "city": "3 NNE Jamestown",
        "state": "OH",
        "magnitude": null,
        "magnitude_units": null,
        "source": "Broadcast Media",
        "event_narrative": "Tree downed across South Charleston Road south of Paullin Road. Video evidence from area residents indicate a gustnado crossed west-to-east across South Charleston Road at this location."
      },
      "geometry": {
        "type": "Point",
        "coordinates": [
          -83.72,
          39.69
        ]
      }
    },
    {
      "type": "Feature",
      "id": "iem-lsr-ILN-39",
      "properties": {
        "report_id": "iem-lsr-ILN-39",
        "report_type": "TSTM WND DMG",
        "event_category": "thunderstorm_wind",
        "valid_utc": "202605200021",
        "standard_time_display": "2026-05-19 19:21 EST",
        "wfo": "ILN",
        "county_or_zone": "Greene",
        "city": "Xenia",
        "state": "OH",
        "magnitude": null,
        "magnitude_units": null,
        "source": "Broadcast Media",
        "event_narrative": "Tree down on Galloway Street. Photo posted. Time estimated from RADAR."
      },
      "geometry": {
        "type": "Point",
        "coordinates": [
          -83.93,
          39.68
        ]
      }
    },
    {
      "type": "Feature",
      "id": "iem-lsr-ILN-40",
      "properties": {
        "report_id": "iem-lsr-ILN-40",
        "report_type": "TSTM WND DMG",
        "event_category": "thunderstorm_wind",
        "valid_utc": "202605200029",
        "standard_time_display": "2026-05-19 19:29 EST",
        "wfo": "ILN",
        "county_or_zone": "Delaware",
        "city": "1 W Delaware",
        "state": "OH",
        "magnitude": null,
        "magnitude_units": null,
        "source": "911 Call Center",
        "event_narrative": "Around 20 trees were downed across the city of Delaware_ blocking multiple streets."
      },
      "geometry": {
        "type": "Point",
        "coordinates": [
          -83.08,
          40.3
        ]
      }
    },
    {
      "type": "Feature",
      "id": "iem-lsr-ILN-41",
      "properties": {
        "report_id": "iem-lsr-ILN-41",
        "report_type": "TSTM WND DMG",
        "event_category": "thunderstorm_wind",
        "valid_utc": "202605200031",
        "standard_time_display": "2026-05-19 19:31 EST",
        "wfo": "ILN",
        "county_or_zone": "Greene",
        "city": "1 E Shawnee Hills",
        "state": "OH",
        "magnitude": null,
        "magnitude_units": null,
        "source": "Trained Spotter",
        "event_narrative": "Power lines down between Jamestown and Shawnee Hills. Time estimated from RADAR."
      },
      "geometry": {
        "type": "Point",
        "coordinates": [
          -83.76,
          39.66
        ]
      }
    },
    {
      "type": "Feature",
      "id": "iem-lsr-ILN-42",
      "properties": {
        "report_id": "iem-lsr-ILN-42",
        "report_type": "TSTM WND DMG",
        "event_category": "thunderstorm_wind",
        "valid_utc": "202605200031",
        "standard_time_display": "2026-05-19 19:31 EST",
        "wfo": "ILN",
        "county_or_zone": "Greene",
        "city": "1 SSW Shawnee Hills",
        "state": "OH",
        "magnitude": null,
        "magnitude_units": null,
        "source": "Public",
        "event_narrative": "2 foot diameter limbs down. Fence down."
      },
      "geometry": {
        "type": "Point",
        "coordinates": [
          -83.79,
          39.64
        ]
      }
    },
    {
      "type": "Feature",
      "id": "iem-lsr-ILN-43",
      "properties": {
        "report_id": "iem-lsr-ILN-43",
        "report_type": "TSTM WND DMG",
        "event_category": "thunderstorm_wind",
        "valid_utc": "202605200045",
        "standard_time_display": "2026-05-19 19:45 EST",
        "wfo": "ILN",
        "county_or_zone": "Madison",
        "city": "Choctaw Lake",
        "state": "OH",
        "magnitude": null,
        "magnitude_units": null,
        "source": "Public",
        "event_narrative": "Tree limbs down and minor shed damage. Time estimated from RADAR."
      },
      "geometry": {
        "type": "Point",
        "coordinates": [
          -83.49,
          39.96
        ]
      }
    },
    {
      "type": "Feature",
      "id": "iem-lsr-ILN-44",
      "properties": {
        "report_id": "iem-lsr-ILN-44",
        "report_type": "FLOOD",
        "event_category": "flooding",
        "valid_utc": "202605200101",
        "standard_time_display": "2026-05-19 20:01 EST",
        "wfo": "ILN",
        "county_or_zone": "Greene",
        "city": "Cedarville",
        "state": "OH",
        "magnitude": null,
        "magnitude_units": null,
        "source": "Amateur Radio",
        "event_narrative": "4-5 inches of standing water on US-72."
      },
      "geometry": {
        "type": "Point",
        "coordinates": [
          -83.81,
          39.74
        ]
      }
    },
    {
      "type": "Feature",
      "id": "iem-lsr-ILN-45",
      "properties": {
        "report_id": "iem-lsr-ILN-45",
        "report_type": "TSTM WND DMG",
        "event_category": "thunderstorm_wind",
        "valid_utc": "202605200130",
        "standard_time_display": "2026-05-19 20:30 EST",
        "wfo": "ILN",
        "county_or_zone": "Fairfield",
        "city": "Pickerington",
        "state": "OH",
        "magnitude": null,
        "magnitude_units": null,
        "source": "911 Call Center",
        "event_narrative": "One tree down."
      },
      "geometry": {
        "type": "Point",
        "coordinates": [
          -82.76,
          39.88
        ]
      }
    },
    {
      "type": "Feature",
      "id": "iem-lsr-ILN-46",
      "properties": {
        "report_id": "iem-lsr-ILN-46",
        "report_type": "FLOOD",
        "event_category": "flooding",
        "valid_utc": "202605200130",
        "standard_time_display": "2026-05-19 20:30 EST",
        "wfo": "ILN",
        "county_or_zone": "Logan",
        "city": "West Liberty",
        "state": "OH",
        "magnitude": null,
        "magnitude_units": null,
        "source": "911 Call Center",
        "event_narrative": "Isolated high water on roadways."
      },
      "geometry": {
        "type": "Point",
        "coordinates": [
          -83.76,
          40.25
        ]
      }
    },
    {
      "type": "Feature",
      "id": "iem-lsr-ILN-47",
      "properties": {
        "report_id": "iem-lsr-ILN-47",
        "report_type": "TSTM WND DMG",
        "event_category": "thunderstorm_wind",
        "valid_utc": "202605200154",
        "standard_time_display": "2026-05-19 20:54 EST",
        "wfo": "ILN",
        "county_or_zone": "Fairfield",
        "city": "Millersport",
        "state": "OH",
        "magnitude": null,
        "magnitude_units": null,
        "source": "911 Call Center",
        "event_narrative": "One tree down."
      },
      "geometry": {
        "type": "Point",
        "coordinates": [
          -82.54,
          39.9
        ]
      }
    },
    {
      "type": "Feature",
      "id": "iem-lsr-ILN-48",
      "properties": {
        "report_id": "iem-lsr-ILN-48",
        "report_type": "FLOOD",
        "event_category": "flooding",
        "valid_utc": "202605230030",
        "standard_time_display": "2026-05-22 19:30 EST",
        "wfo": "ILN",
        "county_or_zone": "Kenton",
        "city": "3 WNW Independence",
        "state": "KY",
        "magnitude": null,
        "magnitude_units": null,
        "source": "911 Call Center",
        "event_narrative": "Water over road near intersection of Timber Ln and Bristow Rd."
      },
      "geometry": {
        "type": "Point",
        "coordinates": [
          -84.59,
          38.96
        ]
      }
    },
    {
      "type": "Feature",
      "id": "iem-lsr-ILN-49",
      "properties": {
        "report_id": "iem-lsr-ILN-49",
        "report_type": "FLOOD",
        "event_category": "flooding",
        "valid_utc": "202605230100",
        "standard_time_display": "2026-05-22 20:00 EST",
        "wfo": "ILN",
        "county_or_zone": "Pendleton",
        "city": "Butler",
        "state": "KY",
        "magnitude": null,
        "magnitude_units": null,
        "source": "911 Call Center",
        "event_narrative": "Water over road near intersection of Hwy 177 and Hogback Ridge Rd. Time estimated."
      },
      "geometry": {
        "type": "Point",
        "coordinates": [
          -84.37,
          38.78
        ]
      }
    },
    {
      "type": "Feature",
      "id": "iem-lsr-ILN-50",
      "properties": {
        "report_id": "iem-lsr-ILN-50",
        "report_type": "FLASH FLOOD",
        "event_category": "flooding",
        "valid_utc": "202605230128",
        "standard_time_display": "2026-05-22 20:28 EST",
        "wfo": "ILN",
        "county_or_zone": "Pendleton",
        "city": "Butler",
        "state": "KY",
        "magnitude": null,
        "magnitude_units": null,
        "source": "Emergency Mngr",
        "event_narrative": "Strong current covering Hogback Ridge Road and intersection of KY177 with logs floating."
      },
      "geometry": {
        "type": "Point",
        "coordinates": [
          -84.37,
          38.78
        ]
      }
    },
    {
      "type": "Feature",
      "id": "iem-lsr-ILN-51",
      "properties": {
        "report_id": "iem-lsr-ILN-51",
        "report_type": "FLOOD",
        "event_category": "flooding",
        "valid_utc": "202605230230",
        "standard_time_display": "2026-05-22 21:30 EST",
        "wfo": "ILN",
        "county_or_zone": "Clermont",
        "city": "2 ENE Amelia",
        "state": "OH",
        "magnitude": null,
        "magnitude_units": null,
        "source": "911 Call Center",
        "event_narrative": "High water reported near intersection of Chapel Rd and SR-222."
      },
      "geometry": {
        "type": "Point",
        "coordinates": [
          -84.18,
          39.03
        ]
      }
    },
    {
      "type": "Feature",
      "id": "iem-lsr-ILN-52",
      "properties": {
        "report_id": "iem-lsr-ILN-52",
        "report_type": "FLOOD",
        "event_category": "flooding",
        "valid_utc": "202605230232",
        "standard_time_display": "2026-05-22 21:32 EST",
        "wfo": "ILN",
        "county_or_zone": "Clermont",
        "city": "2 SE Amelia",
        "state": "OH",
        "magnitude": null,
        "magnitude_units": null,
        "source": "911 Call Center",
        "event_narrative": "High water reported near intersection of Tracy Dr and Leeds Rd."
      },
      "geometry": {
        "type": "Point",
        "coordinates": [
          -84.19,
          39.0
        ]
      }
    },
    {
      "type": "Feature",
      "id": "iem-lsr-ILN-53",
      "properties": {
        "report_id": "iem-lsr-ILN-53",
        "report_type": "FLOOD",
        "event_category": "flooding",
        "valid_utc": "202605231022",
        "standard_time_display": "2026-05-23 04:22 CST",
        "wfo": "ILN",
        "county_or_zone": "Ripley",
        "city": "6 SSE Versailles",
        "state": "IN",
        "magnitude": null,
        "magnitude_units": null,
        "source": "Emergency Mngr",
        "event_narrative": "Time of report. Water in both lanes of State Route 129."
      },
      "geometry": {
        "type": "Point",
        "coordinates": [
          -85.22,
          38.99
        ]
      }
    },
    {
      "type": "Feature",
      "id": "iem-lsr-ILN-54",
      "properties": {
        "report_id": "iem-lsr-ILN-54",
        "report_type": "FLOOD",
        "event_category": "flooding",
        "valid_utc": "202605231042",
        "standard_time_display": "2026-05-23 05:42 EST",
        "wfo": "ILN",
        "county_or_zone": "Montgomery",
        "city": "2 WSW Park Layne",
        "state": "OH",
        "magnitude": null,
        "magnitude_units": null,
        "source": "Fire Dept/Rescue",
        "event_narrative": "Artz Road closed east of Bellefontaine Road due to high water fully covering the roadway_ with one or two vehicles partially submerged."
      },
      "geometry": {
        "type": "Point",
        "coordinates": [
          -84.07,
          39.87
        ]
      }
    },
    {
      "type": "Feature",
      "id": "iem-lsr-ILN-55",
      "properties": {
        "report_id": "iem-lsr-ILN-55",
        "report_type": "FLOOD",
        "event_category": "flooding",
        "valid_utc": "202605231100",
        "standard_time_display": "2026-05-23 06:00 EST",
        "wfo": "ILN",
        "county_or_zone": "Preble",
        "city": "1 S West Elkton",
        "state": "OH",
        "magnitude": null,
        "magnitude_units": null,
        "source": "911 Call Center",
        "event_narrative": "Flooding reported south of Route 503 and West Elkin-Gifford Rd."
      },
      "geometry": {
        "type": "Point",
        "coordinates": [
          -84.55,
          39.58
        ]
      }
    },
    {
      "type": "Feature",
      "id": "iem-lsr-ILN-56",
      "properties": {
        "report_id": "iem-lsr-ILN-56",
        "report_type": "FLOOD",
        "event_category": "flooding",
        "valid_utc": "202605231130",
        "standard_time_display": "2026-05-23 06:30 EST",
        "wfo": "ILN",
        "county_or_zone": "Montgomery",
        "city": "2 NE Northview",
        "state": "OH",
        "magnitude": null,
        "magnitude_units": null,
        "source": "Amateur Radio",
        "event_narrative": "Approx 6-8 homes near the intersection of Little York Rd and Alvira Ave in Butler Township had high water that intruded the first floor."
      },
      "geometry": {
        "type": "Point",
        "coordinates": [
          -84.25,
          39.86
        ]
      }
    },
    {
      "type": "Feature",
      "id": "iem-lsr-ILN-57",
      "properties": {
        "report_id": "iem-lsr-ILN-57",
        "report_type": "FLOOD",
        "event_category": "flooding",
        "valid_utc": "202605231130",
        "standard_time_display": "2026-05-23 06:30 EST",
        "wfo": "ILN",
        "county_or_zone": "Delaware",
        "city": "2 NW Ostrander",
        "state": "OH",
        "magnitude": null,
        "magnitude_units": null,
        "source": "Trained Spotter",
        "event_narrative": "Water over Burnt Pond Road."
      },
      "geometry": {
        "type": "Point",
        "coordinates": [
          -83.23,
          40.28
        ]
      }
    },
    {
      "type": "Feature",
      "id": "iem-lsr-ILN-58",
      "properties": {
        "report_id": "iem-lsr-ILN-58",
        "report_type": "FLOOD",
        "event_category": "flooding",
        "valid_utc": "202605231230",
        "standard_time_display": "2026-05-23 07:30 EST",
        "wfo": "ILN",
        "county_or_zone": "Montgomery",
        "city": "1 NNE Northridge",
        "state": "OH",
        "magnitude": null,
        "magnitude_units": null,
        "source": "911 Call Center",
        "event_narrative": "Water over several roads in the county. including multiple in Harrison Township on the north side of Dayton."
      },
      "geometry": {
        "type": "Point",
        "coordinates": [
          -84.19,
          39.82
        ]
      }
    },
    {
      "type": "Feature",
      "id": "iem-lsr-ILN-59",
      "properties": {
        "report_id": "iem-lsr-ILN-59",
        "report_type": "FLOOD",
        "event_category": "flooding",
        "valid_utc": "202605231300",
        "standard_time_display": "2026-05-23 08:00 EST",
        "wfo": "ILN",
        "county_or_zone": "Delaware",
        "city": "6 NE Magnetic Springs",
        "state": "OH",
        "magnitude": null,
        "magnitude_units": null,
        "source": "Broadcast Media",
        "event_narrative": "High water reaching homes and buildings on Curtis Road near State Route 203."
      },
      "geometry": {
        "type": "Point",
        "coordinates": [
          -83.16,
          40.41
        ]
      }
    },
    {
      "type": "Feature",
      "id": "iem-lsr-ILN-60",
      "properties": {
        "report_id": "iem-lsr-ILN-60",
        "report_type": "FLOOD",
        "event_category": "flooding",
        "valid_utc": "202605231332",
        "standard_time_display": "2026-05-23 08:32 EST",
        "wfo": "ILN",
        "county_or_zone": "Hardin",
        "city": "Mount Victory",
        "state": "OH",
        "magnitude": null,
        "magnitude_units": null,
        "source": "Public",
        "event_narrative": "W North Street flooded in Mt Victory."
      },
      "geometry": {
        "type": "Point",
        "coordinates": [
          -83.53,
          40.53
        ]
      }
    },
    {
      "type": "Feature",
      "id": "iem-lsr-ILN-61",
      "properties": {
        "report_id": "iem-lsr-ILN-61",
        "report_type": "FLOOD",
        "event_category": "flooding",
        "valid_utc": "202605231336",
        "standard_time_display": "2026-05-23 08:36 EST",
        "wfo": "ILN",
        "county_or_zone": "Owen",
        "city": "1 SE Sparta",
        "state": "KY",
        "magnitude": null,
        "magnitude_units": null,
        "source": "Emergency Mngr",
        "event_narrative": "Water completely over Old Sparta Road."
      },
      "geometry": {
        "type": "Point",
        "coordinates": [
          -84.9,
          38.67
        ]
      }
    },
    {
      "type": "Feature",
      "id": "iem-lsr-ILN-62",
      "properties": {
        "report_id": "iem-lsr-ILN-62",
        "report_type": "FLOOD",
        "event_category": "flooding",
        "valid_utc": "202605231415",
        "standard_time_display": "2026-05-23 09:15 EST",
        "wfo": "ILN",
        "county_or_zone": "Logan",
        "city": "Rushsylvania",
        "state": "OH",
        "magnitude": null,
        "magnitude_units": null,
        "source": "Emergency Mngr",
        "event_narrative": "Flooding on County Road 5 at SR 274. 911 call center also reported flooding on several other roads in the county."
      },
      "geometry": {
        "type": "Point",
        "coordinates": [
          -83.67,
          40.46
        ]
      }
    },
    {
      "type": "Feature",
      "id": "iem-lsr-ILN-63",
      "properties": {
        "report_id": "iem-lsr-ILN-63",
        "report_type": "FLOOD",
        "event_category": "flooding",
        "valid_utc": "202605231441",
        "standard_time_display": "2026-05-23 09:41 EST",
        "wfo": "ILN",
        "county_or_zone": "Pendleton",
        "city": "5 WSW Butler",
        "state": "KY",
        "magnitude": null,
        "magnitude_units": null,
        "source": "Emergency Mngr",
        "event_narrative": "Three or four trees laying across the bridge on Kelly Road. Time is when report was called in."
      },
      "geometry": {
        "type": "Point",
        "coordinates": [
          -84.46,
          38.76
        ]
      }
    },
    {
      "type": "Feature",
      "id": "iem-lsr-ILN-64",
      "properties": {
        "report_id": "iem-lsr-ILN-64",
        "report_type": "FLOOD",
        "event_category": "flooding",
        "valid_utc": "202605231502",
        "standard_time_display": "2026-05-23 10:02 EST",
        "wfo": "ILN",
        "county_or_zone": "Champaign",
        "city": "3 NE Saint Paris",
        "state": "OH",
        "magnitude": null,
        "magnitude_units": null,
        "source": "Public",
        "event_narrative": "Entire western 1/2 of county flooded. Numerous calls for high water on and debris in roadways_ along with some basement flooding."
      },
      "geometry": {
        "type": "Point",
        "coordinates": [
          -83.92,
          40.16
        ]
      }
    },
    {
      "type": "Feature",
      "id": "iem-lsr-ILN-65",
      "properties": {
        "report_id": "iem-lsr-ILN-65",
        "report_type": "FLOOD",
        "event_category": "flooding",
        "valid_utc": "202605231503",
        "standard_time_display": "2026-05-23 10:03 EST",
        "wfo": "ILN",
        "county_or_zone": "Logan",
        "city": "1 S Ridgeway",
        "state": "OH",
        "magnitude": null,
        "magnitude_units": null,
        "source": "Public",
        "event_narrative": "High water across State Route 292 just south of County Road 40. High water also reported near the Ridgeway Baseball Fields."
      },
      "geometry": {
        "type": "Point",
        "coordinates": [
          -83.57,
          40.5
        ]
      }
    },
    {
      "type": "Feature",
      "id": "iem-lsr-ILN-66",
      "properties": {
        "report_id": "iem-lsr-ILN-66",
        "report_type": "FLOOD",
        "event_category": "flooding",
        "valid_utc": "202605231505",
        "standard_time_display": "2026-05-23 10:05 EST",
        "wfo": "ILN",
        "county_or_zone": "Miami",
        "city": "4 NW New Carlisle",
        "state": "OH",
        "magnitude": null,
        "magnitude_units": null,
        "source": "911 Call Center",
        "event_narrative": "Route 36 flooded in eastern part of county. Most flooding reports called in were from south of SR 55."
      },
      "geometry": {
        "type": "Point",
        "coordinates": [
          -84.08,
          39.99
        ]
      }
    },
    {
      "type": "Feature",
      "id": "iem-lsr-ILN-67",
      "properties": {
        "report_id": "iem-lsr-ILN-67",
        "report_type": "FLOOD",
        "event_category": "flooding",
        "valid_utc": "202605231600",
        "standard_time_display": "2026-05-23 11:00 EST",
        "wfo": "ILN",
        "county_or_zone": "Logan",
        "city": "4 NNW West Mansfield",
        "state": "OH",
        "magnitude": null,
        "magnitude_units": null,
        "source": "Public",
        "event_narrative": "High water across County Road 20 just east of State Route 292."
      },
      "geometry": {
        "type": "Point",
        "coordinates": [
          -83.58,
          40.45
        ]
      }
    },
    {
      "type": "Feature",
      "id": "iem-lsr-ILN-68",
      "properties": {
        "report_id": "iem-lsr-ILN-68",
        "report_type": "FLOOD",
        "event_category": "flooding",
        "valid_utc": "202605231625",
        "standard_time_display": "2026-05-23 11:25 EST",
        "wfo": "ILN",
        "county_or_zone": "Greene",
        "city": "2 NNW Fairborn",
        "state": "OH",
        "magnitude": null,
        "magnitude_units": null,
        "source": "Fire Dept/Rescue",
        "event_narrative": "High water over Medway Road just north of State Route 235_ along Mud Run. One car stranded."
      },
      "geometry": {
        "type": "Point",
        "coordinates": [
          -84.04,
          39.84
        ]
      }
    },
    {
      "type": "Feature",
      "id": "iem-lsr-ILN-69",
      "properties": {
        "report_id": "iem-lsr-ILN-69",
        "report_type": "FLOOD",
        "event_category": "flooding",
        "valid_utc": "202605231849",
        "standard_time_display": "2026-05-23 13:49 EST",
        "wfo": "ILN",
        "county_or_zone": "Champaign",
        "city": "6 ENE Saint Paris",
        "state": "OH",
        "magnitude": null,
        "magnitude_units": null,
        "source": "911 Call Center",
        "event_narrative": "High water at doors forcing people from homes on Runkle Rd and also at intersection of Church Rd and Route 560. Water in basements in St. Paris."
      },
      "geometry": {
        "type": "Point",
        "coordinates": [
          -83.85,
          40.16
        ]
      }
    },
    {
      "type": "Feature",
      "id": "iem-lsr-ILN-70",
      "properties": {
        "report_id": "iem-lsr-ILN-70",
        "report_type": "FLOOD",
        "event_category": "flooding",
        "valid_utc": "202605231905",
        "standard_time_display": "2026-05-23 14:05 EST",
        "wfo": "ILN",
        "county_or_zone": "Miami",
        "city": "4 WNW Saint Paris",
        "state": "OH",
        "magnitude": null,
        "magnitude_units": null,
        "source": "Trained Spotter",
        "event_narrative": "Flooding along US Route 36 in Lena. Water reaching the bottom of homes and buildings."
      },
      "geometry": {
        "type": "Point",
        "coordinates": [
          -84.03,
          40.14
        ]
      }
    },
    {
      "type": "Feature",
      "id": "iem-lsr-ILN-71",
      "properties": {
        "report_id": "iem-lsr-ILN-71",
        "report_type": "FLOOD",
        "event_category": "flooding",
        "valid_utc": "202605232100",
        "standard_time_display": "2026-05-23 16:00 EST",
        "wfo": "ILN",
        "county_or_zone": "Clark",
        "city": "2 ESE Crystal Lakes",
        "state": "OH",
        "magnitude": null,
        "magnitude_units": null,
        "source": "Trained Spotter",
        "event_narrative": "Water from Mad River out of its banks and beginning to cover portions of Spangler Rd_ near the intersection of Union Rd."
      },
      "geometry": {
        "type": "Point",
        "coordinates": [
          -84.0,
          39.88
        ]
      }
    },
    {
      "type": "Feature",
      "id": "iem-lsr-ILN-72",
      "properties": {
        "report_id": "iem-lsr-ILN-72",
        "report_type": "FLOOD",
        "event_category": "flooding",
        "valid_utc": "202605241752",
        "standard_time_display": "2026-05-24 12:52 EST",
        "wfo": "ILN",
        "county_or_zone": "Adams",
        "city": "1 SW West Union",
        "state": "OH",
        "magnitude": null,
        "magnitude_units": null,
        "source": "911 Call Center",
        "event_narrative": "High water on SR41."
      },
      "geometry": {
        "type": "Point",
        "coordinates": [
          -83.56,
          38.78
        ]
      }
    },
    {
      "type": "Feature",
      "id": "iem-lsr-ILN-73",
      "properties": {
        "report_id": "iem-lsr-ILN-73",
        "report_type": "FLASH FLOOD",
        "event_category": "flooding",
        "valid_utc": "202605241755",
        "standard_time_display": "2026-05-24 12:55 EST",
        "wfo": "ILN",
        "county_or_zone": "Mason",
        "city": "3 ESE Maysville",
        "state": "KY",
        "magnitude": null,
        "magnitude_units": null,
        "source": "911 Call Center",
        "event_narrative": "Washed out road reported at Mason Lewis Road and Kelsey Street."
      },
      "geometry": {
        "type": "Point",
        "coordinates": [
          -83.71,
          38.63
        ]
      }
    },
    {
      "type": "Feature",
      "id": "iem-lsr-ILN-74",
      "properties": {
        "report_id": "iem-lsr-ILN-74",
        "report_type": "FLASH FLOOD",
        "event_category": "flooding",
        "valid_utc": "202605241821",
        "standard_time_display": "2026-05-24 13:21 EST",
        "wfo": "ILN",
        "county_or_zone": "Mason",
        "city": "4 NNE Germantown",
        "state": "KY",
        "magnitude": null,
        "magnitude_units": null,
        "source": "911 Call Center",
        "event_narrative": "Bridge is flooded."
      },
      "geometry": {
        "type": "Point",
        "coordinates": [
          -83.93,
          38.7
        ]
      }
    },
    {
      "type": "Feature",
      "id": "iem-lsr-ILN-75",
      "properties": {
        "report_id": "iem-lsr-ILN-75",
        "report_type": "FLOOD",
        "event_category": "flooding",
        "valid_utc": "202605241847",
        "standard_time_display": "2026-05-24 13:47 EST",
        "wfo": "ILN",
        "county_or_zone": "Mason",
        "city": "3 E Germantown",
        "state": "KY",
        "magnitude": null,
        "magnitude_units": null,
        "source": "911 Call Center",
        "event_narrative": "High water on KY-10 near fairgrounds."
      },
      "geometry": {
        "type": "Point",
        "coordinates": [
          -83.91,
          38.66
        ]
      }
    },
    {
      "type": "Feature",
      "id": "iem-lsr-ILN-76",
      "properties": {
        "report_id": "iem-lsr-ILN-76",
        "report_type": "FLASH FLOOD",
        "event_category": "flooding",
        "valid_utc": "202605241916",
        "standard_time_display": "2026-05-24 14:16 EST",
        "wfo": "ILN",
        "county_or_zone": "Adams",
        "city": "3 SE Cherry Fork",
        "state": "OH",
        "magnitude": null,
        "magnitude_units": null,
        "source": "Public",
        "event_narrative": "One to two feet of water flowing over Cross Road near Alexander Salamon Airport."
      },
      "geometry": {
        "type": "Point",
        "coordinates": [
          -83.57,
          38.85
        ]
      }
    },
    {
      "type": "Feature",
      "id": "iem-lsr-ILN-77",
      "properties": {
        "report_id": "iem-lsr-ILN-77",
        "report_type": "FLASH FLOOD",
        "event_category": "flooding",
        "valid_utc": "202605241939",
        "standard_time_display": "2026-05-24 14:39 EST",
        "wfo": "ILN",
        "county_or_zone": "Adams",
        "city": "4 W Manchester",
        "state": "OH",
        "magnitude": null,
        "magnitude_units": null,
        "source": "Public",
        "event_narrative": "Big Threemile Creek out of banks and flooding SR 41 near Ripley Pike."
      },
      "geometry": {
        "type": "Point",
        "coordinates": [
          -83.67,
          38.7
        ]
      }
    },
    {
      "type": "Feature",
      "id": "iem-lsr-ILN-78",
      "properties": {
        "report_id": "iem-lsr-ILN-78",
        "report_type": "FLOOD",
        "event_category": "flooding",
        "valid_utc": "202605241955",
        "standard_time_display": "2026-05-24 14:55 EST",
        "wfo": "ILN",
        "county_or_zone": "Robertson",
        "city": "5 S Mount Olivet",
        "state": "KY",
        "magnitude": null,
        "magnitude_units": null,
        "source": "911 Call Center",
        "event_narrative": "Water over roadway."
      },
      "geometry": {
        "type": "Point",
        "coordinates": [
          -84.05,
          38.47
        ]
      }
    },
    {
      "type": "Feature",
      "id": "iem-lsr-ILN-79",
      "properties": {
        "report_id": "iem-lsr-ILN-79",
        "report_type": "FLOOD",
        "event_category": "flooding",
        "valid_utc": "202605241957",
        "standard_time_display": "2026-05-24 14:57 EST",
        "wfo": "ILN",
        "county_or_zone": "Adams",
        "city": "8 ENE West Union",
        "state": "OH",
        "magnitude": null,
        "magnitude_units": null,
        "source": "911 Call Center",
        "event_narrative": "High water near Cedar Mill Rd and SR-348."
      },
      "geometry": {
        "type": "Point",
        "coordinates": [
          -83.39,
          38.82
        ]
      }
    },
    {
      "type": "Feature",
      "id": "iem-lsr-ILN-80",
      "properties": {
        "report_id": "iem-lsr-ILN-80",
        "report_type": "FLOOD",
        "event_category": "flooding",
        "valid_utc": "202605242047",
        "standard_time_display": "2026-05-24 15:47 EST",
        "wfo": "ILN",
        "county_or_zone": "Mason",
        "city": "3 S Lewisburg",
        "state": "KY",
        "magnitude": null,
        "magnitude_units": null,
        "source": "911 Call Center",
        "event_narrative": "Water running over Mill Creek Pike at KY 11."
      },
      "geometry": {
        "type": "Point",
        "coordinates": [
          -83.76,
          38.51
        ]
      }
    },
    {
      "type": "Feature",
      "id": "iem-lsr-ILN-81",
      "properties": {
        "report_id": "iem-lsr-ILN-81",
        "report_type": "FLOOD",
        "event_category": "flooding",
        "valid_utc": "202605242047",
        "standard_time_display": "2026-05-24 15:47 EST",
        "wfo": "ILN",
        "county_or_zone": "Mason",
        "city": "5 SW Washington",
        "state": "KY",
        "magnitude": null,
        "magnitude_units": null,
        "source": "911 Call Center",
        "event_narrative": "High water reported over Murphysville Rd. and US 62."
      },
      "geometry": {
        "type": "Point",
        "coordinates": [
          -83.87,
          38.57
        ]
      }
    },
    {
      "type": "Feature",
      "id": "iem-lsr-ILN-82",
      "properties": {
        "report_id": "iem-lsr-ILN-82",
        "report_type": "FLASH FLOOD",
        "event_category": "flooding",
        "valid_utc": "202605242102",
        "standard_time_display": "2026-05-24 16:02 EST",
        "wfo": "ILN",
        "county_or_zone": "Robertson",
        "city": "5 SW Mount Olivet",
        "state": "KY",
        "magnitude": null,
        "magnitude_units": null,
        "source": "911 Call Center",
        "event_narrative": "Car stuck in flooded road at Piqua-Kentontown and US 62. Occupant is out of the vehicle."
      },
      "geometry": {
        "type": "Point",
        "coordinates": [
          -84.11,
          38.49
        ]
      }
    },
    {
      "type": "Feature",
      "id": "iem-lsr-ILN-83",
      "properties": {
        "report_id": "iem-lsr-ILN-83",
        "report_type": "FLOOD",
        "event_category": "flooding",
        "valid_utc": "202605242125",
        "standard_time_display": "2026-05-24 16:25 EST",
        "wfo": "ILN",
        "county_or_zone": "Ross",
        "city": "7 NE Waverly",
        "state": "OH",
        "magnitude": null,
        "magnitude_units": null,
        "source": "911 Call Center",
        "event_narrative": "Water over Old Route 35 and Higby Rd."
      },
      "geometry": {
        "type": "Point",
        "coordinates": [
          -82.88,
          39.19
        ]
      }
    },
    {
      "type": "Feature",
      "id": "iem-lsr-ILN-84",
      "properties": {
        "report_id": "iem-lsr-ILN-84",
        "report_type": "FLASH FLOOD",
        "event_category": "flooding",
        "valid_utc": "202605242220",
        "standard_time_display": "2026-05-24 17:20 EST",
        "wfo": "ILN",
        "county_or_zone": "Robertson",
        "city": "5 SSW Mount Olivet",
        "state": "KY",
        "magnitude": null,
        "magnitude_units": null,
        "source": "911 Call Center",
        "event_narrative": "Culvert/bridge washed out and road no longer passable."
      },
      "geometry": {
        "type": "Point",
        "coordinates": [
          -84.07,
          38.46
        ]
      }
    },
    {
      "type": "Feature",
      "id": "iem-lsr-ILN-85",
      "properties": {
        "report_id": "iem-lsr-ILN-85",
        "report_type": "FLASH FLOOD",
        "event_category": "flooding",
        "valid_utc": "202605242222",
        "standard_time_display": "2026-05-24 17:22 EST",
        "wfo": "ILN",
        "county_or_zone": "Scioto",
        "city": "1 NE Rarden",
        "state": "OH",
        "magnitude": null,
        "magnitude_units": null,
        "source": "Public",
        "event_narrative": "Fast moving water over driveway and around home. Partial washout of culvert."
      },
      "geometry": {
        "type": "Point",
        "coordinates": [
          -83.23,
          38.93
        ]
      }
    },
    {
      "type": "Feature",
      "id": "iem-lsr-ILN-86",
      "properties": {
        "report_id": "iem-lsr-ILN-86",
        "report_type": "FLASH FLOOD",
        "event_category": "flooding",
        "valid_utc": "202605242226",
        "standard_time_display": "2026-05-24 17:26 EST",
        "wfo": "ILN",
        "county_or_zone": "Adams",
        "city": "2 SW West Union",
        "state": "OH",
        "magnitude": null,
        "magnitude_units": null,
        "source": "Public",
        "event_narrative": "Photos from social media showing water approaching and entering the lowest level of the apartment complex off Rice Drive."
      },
      "geometry": {
        "type": "Point",
        "coordinates": [
          -83.56,
          38.78
        ]
      }
    },
    {
      "type": "Feature",
      "id": "iem-lsr-ILN-87",
      "properties": {
        "report_id": "iem-lsr-ILN-87",
        "report_type": "FLASH FLOOD",
        "event_category": "flooding",
        "valid_utc": "202605242308",
        "standard_time_display": "2026-05-24 18:08 EST",
        "wfo": "ILN",
        "county_or_zone": "Scioto",
        "city": "Rarden",
        "state": "OH",
        "magnitude": null,
        "magnitude_units": null,
        "source": "Public",
        "event_narrative": "Rarden Creek out of banks and flowing over Main Street west of Rarden."
      },
      "geometry": {
        "type": "Point",
        "coordinates": [
          -83.25,
          38.92
        ]
      }
    },
    {
      "type": "Feature",
      "id": "iem-lsr-ILN-88",
      "properties": {
        "report_id": "iem-lsr-ILN-88",
        "report_type": "FLOOD",
        "event_category": "flooding",
        "valid_utc": "202605250000",
        "standard_time_display": "2026-05-24 19:00 EST",
        "wfo": "ILN",
        "county_or_zone": "Hocking",
        "city": "1 NE Logan",
        "state": "OH",
        "magnitude": null,
        "magnitude_units": null,
        "source": "911 Call Center",
        "event_narrative": "SR-93 N in Hocking County shut down due to high water."
      },
      "geometry": {
        "type": "Point",
        "coordinates": [
          -82.4,
          39.55
        ]
      }
    },
    {
      "type": "Feature",
      "id": "iem-lsr-ILN-89",
      "properties": {
        "report_id": "iem-lsr-ILN-89",
        "report_type": "FLOOD",
        "event_category": "flooding",
        "valid_utc": "202605250000",
        "standard_time_display": "2026-05-24 19:00 EST",
        "wfo": "ILN",
        "county_or_zone": "Hocking",
        "city": "8 ESE Laurelville",
        "state": "OH",
        "magnitude": null,
        "magnitude_units": null,
        "source": "911 Call Center",
        "event_narrative": "SR-56 closed near South Bloomingville due to high water."
      },
      "geometry": {
        "type": "Point",
        "coordinates": [
          -82.6,
          39.42
        ]
      }
    },
    {
      "type": "Feature",
      "id": "iem-lsr-ILN-90",
      "properties": {
        "report_id": "iem-lsr-ILN-90",
        "report_type": "FLOOD",
        "event_category": "flooding",
        "valid_utc": "202605250000",
        "standard_time_display": "2026-05-24 19:00 EST",
        "wfo": "ILN",
        "county_or_zone": "Hocking",
        "city": "Laurelville",
        "state": "OH",
        "magnitude": null,
        "magnitude_units": null,
        "source": "911 Call Center",
        "event_narrative": "SR-56 closed near Laurelville due to high water. Several roads near Laurelville also dealing with high water issues."
      },
      "geometry": {
        "type": "Point",
        "coordinates": [
          -82.74,
          39.47
        ]
      }
    },
    {
      "type": "Feature",
      "id": "iem-lsr-ILN-91",
      "properties": {
        "report_id": "iem-lsr-ILN-91",
        "report_type": "FLOOD",
        "event_category": "flooding",
        "valid_utc": "202605262103",
        "standard_time_display": "2026-05-26 16:03 EST",
        "wfo": "ILN",
        "county_or_zone": "Logan",
        "city": "2 W Bellefontaine",
        "state": "OH",
        "magnitude": null,
        "magnitude_units": null,
        "source": "Emergency Mngr",
        "event_narrative": "County Road 32 North still closed near SR47 due to high water."
      },
      "geometry": {
        "type": "Point",
        "coordinates": [
          -83.79,
          40.36
        ]
      }
    },
    {
      "type": "Feature",
      "id": "iem-lsr-ILN-92",
      "properties": {
        "report_id": "iem-lsr-ILN-92",
        "report_type": "FLOOD",
        "event_category": "flooding",
        "valid_utc": "202605270959",
        "standard_time_display": "2026-05-27 04:59 EST",
        "wfo": "ILN",
        "county_or_zone": "Franklin",
        "city": "2 NE Urbancrest",
        "state": "OH",
        "magnitude": null,
        "magnitude_units": null,
        "source": "Dept of Highways",
        "event_narrative": "High water over Alkire Road at Harrisburg Pike."
      },
      "geometry": {
        "type": "Point",
        "coordinates": [
          -83.07,
          39.92
        ]
      }
    },
    {
      "type": "Feature",
      "id": "iem-lsr-ILN-93",
      "properties": {
        "report_id": "iem-lsr-ILN-93",
        "report_type": "FLOOD",
        "event_category": "flooding",
        "valid_utc": "202605271130",
        "standard_time_display": "2026-05-27 06:30 EST",
        "wfo": "ILN",
        "county_or_zone": "Franklin",
        "city": "3 E Urbancrest",
        "state": "OH",
        "magnitude": null,
        "magnitude_units": null,
        "source": "Broadcast Media",
        "event_narrative": "Two cars submerged up to their windows in high standing water near Jackson Pike_ requiring water rescues."
      },
      "geometry": {
        "type": "Point",
        "coordinates": [
          -83.02,
          39.9
        ]
      }
    },
    {
      "type": "Feature",
      "id": "iem-lsr-ILN-94",
      "properties": {
        "report_id": "iem-lsr-ILN-94",
        "report_type": "FLOOD",
        "event_category": "flooding",
        "valid_utc": "202605271307",
        "standard_time_display": "2026-05-27 08:07 EST",
        "wfo": "ILN",
        "county_or_zone": "Clark",
        "city": "1 SSW Enon",
        "state": "OH",
        "magnitude": null,
        "magnitude_units": null,
        "source": "Broadcast Media",
        "event_narrative": "High water on Green Meadows Drive."
      },
      "geometry": {
        "type": "Point",
        "coordinates": [
          -83.94,
          39.87
        ]
      }
    },
    {
      "type": "Feature",
      "id": "iem-lsr-ILN-95",
      "properties": {
        "report_id": "iem-lsr-ILN-95",
        "report_type": "FLOOD",
        "event_category": "flooding",
        "valid_utc": "202605271345",
        "standard_time_display": "2026-05-27 08:45 EST",
        "wfo": "ILN",
        "county_or_zone": "Montgomery",
        "city": "1 ESE Brookville",
        "state": "OH",
        "magnitude": null,
        "magnitude_units": null,
        "source": "Trained Spotter",
        "event_narrative": "High water on Brooke Woode Drive."
      },
      "geometry": {
        "type": "Point",
        "coordinates": [
          -84.39,
          39.83
        ]
      }
    },
    {
      "type": "Feature",
      "id": "iem-lsr-ILN-96",
      "properties": {
        "report_id": "iem-lsr-ILN-96",
        "report_type": "FLOOD",
        "event_category": "flooding",
        "valid_utc": "202605271352",
        "standard_time_display": "2026-05-27 08:52 EST",
        "wfo": "ILN",
        "county_or_zone": "Greene",
        "city": "2 NW Fairborn",
        "state": "OH",
        "magnitude": null,
        "magnitude_units": null,
        "source": "Trained Spotter",
        "event_narrative": "6-8 inches of standing water on Medway Road just north of 235."
      },
      "geometry": {
        "type": "Point",
        "coordinates": [
          -84.04,
          39.84
        ]
      }
    },
    {
      "type": "Feature",
      "id": "iem-lsr-ILN-97",
      "properties": {
        "report_id": "iem-lsr-ILN-97",
        "report_type": "FLOOD",
        "event_category": "flooding",
        "valid_utc": "202605271440",
        "standard_time_display": "2026-05-27 09:40 EST",
        "wfo": "ILN",
        "county_or_zone": "Clark",
        "city": "2 ESE Donnelsville",
        "state": "OH",
        "magnitude": null,
        "magnitude_units": null,
        "source": "Trained Spotter",
        "event_narrative": "8 inches of standing water at Lower Valley Pike and SR4 ramp."
      },
      "geometry": {
        "type": "Point",
        "coordinates": [
          -83.91,
          39.91
        ]
      }
    },
    {
      "type": "Feature",
      "id": "iem-lsr-ILN-98",
      "properties": {
        "report_id": "iem-lsr-ILN-98",
        "report_type": "FLASH FLOOD",
        "event_category": "flooding",
        "valid_utc": "202605271449",
        "standard_time_display": "2026-05-27 09:49 EST",
        "wfo": "ILN",
        "county_or_zone": "Franklin",
        "city": "3 ESE Urbancrest",
        "state": "OH",
        "magnitude": null,
        "magnitude_units": null,
        "source": "911 Call Center",
        "event_narrative": "Jackson Pike closed from Dyer to Stringtown."
      },
      "geometry": {
        "type": "Point",
        "coordinates": [
          -83.03,
          39.89
        ]
      }
    },
    {
      "type": "Feature",
      "id": "iem-lsr-ILN-99",
      "properties": {
        "report_id": "iem-lsr-ILN-99",
        "report_type": "FLOOD",
        "event_category": "flooding",
        "valid_utc": "202605271500",
        "standard_time_display": "2026-05-27 10:00 EST",
        "wfo": "ILN",
        "county_or_zone": "Madison",
        "city": "3 E Choctaw Lake",
        "state": "OH",
        "magnitude": null,
        "magnitude_units": null,
        "source": "911 Call Center",
        "event_narrative": "38 between 29 and 40 closed due to high water. Road open at 2 PM."
      },
      "geometry": {
        "type": "Point",
        "coordinates": [
          -83.43,
          39.96
        ]
      }
    },
    {
      "type": "Feature",
      "id": "iem-lsr-ILN-100",
      "properties": {
        "report_id": "iem-lsr-ILN-100",
        "report_type": "FLASH FLOOD",
        "event_category": "flooding",
        "valid_utc": "202605271504",
        "standard_time_display": "2026-05-27 10:04 EST",
        "wfo": "ILN",
        "county_or_zone": "Franklin",
        "city": "3 S Bexley",
        "state": "OH",
        "magnitude": null,
        "magnitude_units": null,
        "source": "Public",
        "event_narrative": "Video shows rushing water at Creeksedge Apartments."
      },
      "geometry": {
        "type": "Point",
        "coordinates": [
          -82.93,
          39.93
        ]
      }
    },
    {
      "type": "Feature",
      "id": "iem-lsr-ILN-101",
      "properties": {
        "report_id": "iem-lsr-ILN-101",
        "report_type": "FLASH FLOOD",
        "event_category": "flooding",
        "valid_utc": "202605271510",
        "standard_time_display": "2026-05-27 10:10 EST",
        "wfo": "ILN",
        "county_or_zone": "Franklin",
        "city": "2 S Lincoln Village",
        "state": "OH",
        "magnitude": null,
        "magnitude_units": null,
        "source": "Public",
        "event_narrative": "High water at Emerald Glen apartments breaching apartments."
      },
      "geometry": {
        "type": "Point",
        "coordinates": [
          -83.13,
          39.93
        ]
      }
    },
    {
      "type": "Feature",
      "id": "iem-lsr-ILN-102",
      "properties": {
        "report_id": "iem-lsr-ILN-102",
        "report_type": "FLASH FLOOD",
        "event_category": "flooding",
        "valid_utc": "202605271515",
        "standard_time_display": "2026-05-27 10:15 EST",
        "wfo": "ILN",
        "county_or_zone": "Franklin",
        "city": "1 SSE Downtown Columbus",
        "state": "OH",
        "magnitude": null,
        "magnitude_units": null,
        "source": "Broadcast Media",
        "event_narrative": "Video of moving water at Third and Willow."
      },
      "geometry": {
        "type": "Point",
        "coordinates": [
          -82.99,
          39.95
        ]
      }
    },
    {
      "type": "Feature",
      "id": "iem-lsr-ILN-103",
      "properties": {
        "report_id": "iem-lsr-ILN-103",
        "report_type": "TSTM WND DMG",
        "event_category": "thunderstorm_wind",
        "valid_utc": "202605271537",
        "standard_time_display": "2026-05-27 10:37 EST",
        "wfo": "ILN",
        "county_or_zone": "Fairfield",
        "city": "4 NNW Baltimore",
        "state": "OH",
        "magnitude": null,
        "magnitude_units": null,
        "source": "911 Call Center",
        "event_narrative": "Trees reported down on Stemen Road. Time estimated from RADAR."
      },
      "geometry": {
        "type": "Point",
        "coordinates": [
          -82.64,
          39.89
        ]
      }
    },
    {
      "type": "Feature",
      "id": "iem-lsr-ILN-104",
      "properties": {
        "report_id": "iem-lsr-ILN-104",
        "report_type": "FLOOD",
        "event_category": "flooding",
        "valid_utc": "202605271554",
        "standard_time_display": "2026-05-27 10:54 EST",
        "wfo": "ILN",
        "county_or_zone": "Preble",
        "city": "2 S Eldorado",
        "state": "OH",
        "magnitude": null,
        "magnitude_units": null,
        "source": "911 Call Center",
        "event_narrative": "High water over OH-726_ near Shurley Road."
      },
      "geometry": {
        "type": "Point",
        "coordinates": [
          -84.68,
          39.87
        ]
      }
    },
    {
      "type": "Feature",
      "id": "iem-lsr-ILN-105",
      "properties": {
        "report_id": "iem-lsr-ILN-105",
        "report_type": "FLOOD",
        "event_category": "flooding",
        "valid_utc": "202605271557",
        "standard_time_display": "2026-05-27 10:57 EST",
        "wfo": "ILN",
        "county_or_zone": "Preble",
        "city": "3 NE West Alexandria",
        "state": "OH",
        "magnitude": null,
        "magnitude_units": null,
        "source": "911 Call Center",
        "event_narrative": "High water was reported over Lexington Salem Road near the county line."
      },
      "geometry": {
        "type": "Point",
        "coordinates": [
          -84.5,
          39.78
        ]
      }
    },
    {
      "type": "Feature",
      "id": "iem-lsr-ILN-106",
      "properties": {
        "report_id": "iem-lsr-ILN-106",
        "report_type": "TSTM WND DMG",
        "event_category": "thunderstorm_wind",
        "valid_utc": "202605271602",
        "standard_time_display": "2026-05-27 11:02 EST",
        "wfo": "ILN",
        "county_or_zone": "Fairfield",
        "city": "2 W Pleasantville",
        "state": "OH",
        "magnitude": null,
        "magnitude_units": null,
        "source": "Trained Spotter",
        "event_narrative": "5-6 inch branches down on Pleasantville Road. Time estimated from RADAR."
      },
      "geometry": {
        "type": "Point",
        "coordinates": [
          -82.56,
          39.81
        ]
      }
    },
    {
      "type": "Feature",
      "id": "iem-lsr-ILN-107",
      "properties": {
        "report_id": "iem-lsr-ILN-107",
        "report_type": "FLOOD",
        "event_category": "flooding",
        "valid_utc": "202605271606",
        "standard_time_display": "2026-05-27 11:06 EST",
        "wfo": "ILN",
        "county_or_zone": "Montgomery",
        "city": "1 SE Clayton",
        "state": "OH",
        "magnitude": null,
        "magnitude_units": null,
        "source": "Law Enforcement",
        "event_narrative": "Kimmel Road closed between Crestway and Wastler due to high water."
      },
      "geometry": {
        "type": "Point",
        "coordinates": [
          -84.35,
          39.85
        ]
      }
    },
    {
      "type": "Feature",
      "id": "iem-lsr-ILN-108",
      "properties": {
        "report_id": "iem-lsr-ILN-108",
        "report_type": "FLOOD",
        "event_category": "flooding",
        "valid_utc": "202605271625",
        "standard_time_display": "2026-05-27 11:25 EST",
        "wfo": "ILN",
        "county_or_zone": "Madison",
        "city": "1 NNE London",
        "state": "OH",
        "magnitude": null,
        "magnitude_units": null,
        "source": "Public",
        "event_narrative": "Kroger gas station closed due to high water."
      },
      "geometry": {
        "type": "Point",
        "coordinates": [
          -83.44,
          39.9
        ]
      }
    },
    {
      "type": "Feature",
      "id": "iem-lsr-ILN-109",
      "properties": {
        "report_id": "iem-lsr-ILN-109",
        "report_type": "FLOOD",
        "event_category": "flooding",
        "valid_utc": "202605271640",
        "standard_time_display": "2026-05-27 11:40 EST",
        "wfo": "ILN",
        "county_or_zone": "Fairfield",
        "city": "Rushville",
        "state": "OH",
        "magnitude": null,
        "magnitude_units": null,
        "source": "Trained Spotter",
        "event_narrative": "High water in Rushville reported by spotter chasing rotating cell."
      },
      "geometry": {
        "type": "Point",
        "coordinates": [
          -82.43,
          39.76
        ]
      }
    },
    {
      "type": "Feature",
      "id": "iem-lsr-ILN-110",
      "properties": {
        "report_id": "iem-lsr-ILN-110",
        "report_type": "FLOOD",
        "event_category": "flooding",
        "valid_utc": "202605271647",
        "standard_time_display": "2026-05-27 11:47 EST",
        "wfo": "ILN",
        "county_or_zone": "Franklin",
        "city": "2 SSE Bexley",
        "state": "OH",
        "magnitude": null,
        "magnitude_units": null,
        "source": "Public",
        "event_narrative": "Basement flooding on Burnaby Road."
      },
      "geometry": {
        "type": "Point",
        "coordinates": [
          -82.92,
          39.94
        ]
      }
    },
    {
      "type": "Feature",
      "id": "iem-lsr-ILN-111",
      "properties": {
        "report_id": "iem-lsr-ILN-111",
        "report_type": "FLOOD",
        "event_category": "flooding",
        "valid_utc": "202605271658",
        "standard_time_display": "2026-05-27 11:58 EST",
        "wfo": "ILN",
        "county_or_zone": "Clark",
        "city": "5 SW South Vienna",
        "state": "OH",
        "magnitude": null,
        "magnitude_units": null,
        "source": "Broadcast Media",
        "event_narrative": "Video showing creek out of its banks."
      },
      "geometry": {
        "type": "Point",
        "coordinates": [
          -83.68,
          39.89
        ]
      }
    },
    {
      "type": "Feature",
      "id": "iem-lsr-ILN-112",
      "properties": {
        "report_id": "iem-lsr-ILN-112",
        "report_type": "FLOOD",
        "event_category": "flooding",
        "valid_utc": "202605271813",
        "standard_time_display": "2026-05-27 13:13 EST",
        "wfo": "ILN",
        "county_or_zone": "Madison",
        "city": "1 SSW Choctaw Lake",
        "state": "OH",
        "magnitude": null,
        "magnitude_units": null,
        "source": "911 Call Center",
        "event_narrative": "Old Columbus Road between West Choctaw and East Choctaw closed due to flooding."
      },
      "geometry": {
        "type": "Point",
        "coordinates": [
          -83.49,
          39.95
        ]
      }
    },
    {
      "type": "Feature",
      "id": "iem-lsr-ILN-113",
      "properties": {
        "report_id": "iem-lsr-ILN-113",
        "report_type": "FLOOD",
        "event_category": "flooding",
        "valid_utc": "202605271815",
        "standard_time_display": "2026-05-27 13:15 EST",
        "wfo": "ILN",
        "county_or_zone": "Madison",
        "city": "3 ENE London",
        "state": "OH",
        "magnitude": null,
        "magnitude_units": null,
        "source": "911 Call Center",
        "event_narrative": "Spring Valley closed between 42 and 142."
      },
      "geometry": {
        "type": "Point",
        "coordinates": [
          -83.4,
          39.91
        ]
      }
    },
    {
      "type": "Feature",
      "id": "iem-lsr-ILN-114",
      "properties": {
        "report_id": "iem-lsr-ILN-114",
        "report_type": "FLOOD",
        "event_category": "flooding",
        "valid_utc": "202605271843",
        "standard_time_display": "2026-05-27 13:43 EST",
        "wfo": "ILN",
        "county_or_zone": "Clark",
        "city": "6 NW South Charleston",
        "state": "OH",
        "magnitude": null,
        "magnitude_units": null,
        "source": "Emergency Mngr",
        "event_narrative": "High water has trapped residents in homes along South Charleston Pike. Water rescue in progress."
      },
      "geometry": {
        "type": "Point",
        "coordinates": [
          -83.71,
          39.88
        ]
      }
    },
    {
      "type": "Feature",
      "id": "iem-lsr-ILN-115",
      "properties": {
        "report_id": "iem-lsr-ILN-115",
        "report_type": "FLOOD",
        "event_category": "flooding",
        "valid_utc": "202605271848",
        "standard_time_display": "2026-05-27 13:48 EST",
        "wfo": "ILN",
        "county_or_zone": "Butler",
        "city": "3 W Ross",
        "state": "OH",
        "magnitude": null,
        "magnitude_units": null,
        "source": "Trained Spotter",
        "event_narrative": "Water crossing Morgan-Ross at Cincinnati-Brookville. Driveway washed out."
      },
      "geometry": {
        "type": "Point",
        "coordinates": [
          -84.7,
          39.32
        ]
      }
    },
    {
      "type": "Feature",
      "id": "iem-lsr-ILN-116",
      "properties": {
        "report_id": "iem-lsr-ILN-116",
        "report_type": "FLOOD",
        "event_category": "flooding",
        "valid_utc": "202605271850",
        "standard_time_display": "2026-05-27 13:50 EST",
        "wfo": "ILN",
        "county_or_zone": "Butler",
        "city": "5 WNW Ross",
        "state": "OH",
        "magnitude": null,
        "magnitude_units": null,
        "source": "Trained Spotter",
        "event_narrative": "Water running across New London Rd. near Race Lane."
      },
      "geometry": {
        "type": "Point",
        "coordinates": [
          -84.75,
          39.33
        ]
      }
    },
    {
      "type": "Feature",
      "id": "iem-lsr-ILN-117",
      "properties": {
        "report_id": "iem-lsr-ILN-117",
        "report_type": "FLASH FLOOD",
        "event_category": "flooding",
        "valid_utc": "202605272000",
        "standard_time_display": "2026-05-27 15:00 EST",
        "wfo": "ILN",
        "county_or_zone": "Clark",
        "city": "5 SE Springfield",
        "state": "OH",
        "magnitude": null,
        "magnitude_units": null,
        "source": "Trained Spotter",
        "event_narrative": "Video posted of moving water on Ridge Road between 41 and Mitchell."
      },
      "geometry": {
        "type": "Point",
        "coordinates": [
          -83.73,
          39.88
        ]
      }
    },
    {
      "type": "Feature",
      "id": "iem-lsr-ILN-118",
      "properties": {
        "report_id": "iem-lsr-ILN-118",
        "report_type": "FLOOD",
        "event_category": "flooding",
        "valid_utc": "202605272018",
        "standard_time_display": "2026-05-27 14:18 CST",
        "wfo": "ILN",
        "county_or_zone": "Franklin",
        "city": "4 W Laurel",
        "state": "IN",
        "magnitude": null,
        "magnitude_units": null,
        "source": "911 Call Center",
        "event_narrative": "Slab Bridge on Bulltown Road closed due to high water."
      },
      "geometry": {
        "type": "Point",
        "coordinates": [
          -85.26,
          39.49
        ]
      }
    },
    {
      "type": "Feature",
      "id": "iem-lsr-ILN-119",
      "properties": {
        "report_id": "iem-lsr-ILN-119",
        "report_type": "FLOOD",
        "event_category": "flooding",
        "valid_utc": "202605272020",
        "standard_time_display": "2026-05-27 14:20 CST",
        "wfo": "ILN",
        "county_or_zone": "Franklin",
        "city": "3 NW Brookville",
        "state": "IN",
        "magnitude": null,
        "magnitude_units": null,
        "source": "911 Call Center",
        "event_narrative": "Slab Bridge on Yellow Bank Road closed due to high water."
      },
      "geometry": {
        "type": "Point",
        "coordinates": [
          -85.06,
          39.45
        ]
      }
    },
    {
      "type": "Feature",
      "id": "iem-lsr-ILN-120",
      "properties": {
        "report_id": "iem-lsr-ILN-120",
        "report_type": "FLOOD",
        "event_category": "flooding",
        "valid_utc": "202605272025",
        "standard_time_display": "2026-05-27 14:25 CST",
        "wfo": "ILN",
        "county_or_zone": "Franklin",
        "city": "7 N Brookville",
        "state": "IN",
        "magnitude": null,
        "magnitude_units": null,
        "source": "911 Call Center",
        "event_narrative": "Slab bridge on Shays Road closed due to high water."
      },
      "geometry": {
        "type": "Point",
        "coordinates": [
          -85.02,
          39.52
        ]
      }
    },
    {
      "type": "Feature",
      "id": "iem-lsr-ILN-121",
      "properties": {
        "report_id": "iem-lsr-ILN-121",
        "report_type": "FLOOD",
        "event_category": "flooding",
        "valid_utc": "202605272026",
        "standard_time_display": "2026-05-27 15:26 EST",
        "wfo": "ILN",
        "county_or_zone": "Clark",
        "city": "4 W South Vienna",
        "state": "OH",
        "magnitude": null,
        "magnitude_units": null,
        "source": "Emergency Mngr",
        "event_narrative": "Water rescue just finished. Persons trapped in house and in boat on Beaver Creek."
      },
      "geometry": {
        "type": "Point",
        "coordinates": [
          -83.68,
          39.92
        ]
      }
    },
    {
      "type": "Feature",
      "id": "iem-lsr-ILN-122",
      "properties": {
        "report_id": "iem-lsr-ILN-122",
        "report_type": "FLOOD",
        "event_category": "flooding",
        "valid_utc": "202605272110",
        "standard_time_display": "2026-05-27 16:10 EST",
        "wfo": "ILN",
        "county_or_zone": "Clark",
        "city": "5 NE Clifton",
        "state": "OH",
        "magnitude": null,
        "magnitude_units": null,
        "source": "Trained Spotter",
        "event_narrative": "High water on Selma Pike."
      },
      "geometry": {
        "type": "Point",
        "coordinates": [
          -83.77,
          39.85
        ]
      }
    }
  ]
}