{
  "type": "FeatureCollection",
  "metadata": {
    "schema_version": "0.2.4",
    "year": 2026,
    "month": 6,
    "wfo": "LBF",
    "start_utc": "2026-06-01T00:00:00Z",
    "end_utc": "2026-07-01T00:00:00Z",
    "generated_utc": "2026-06-04T12:17:12Z",
    "mode": "storm_data_prep",
    "public_release_status": "public-source-derived",
    "time_note": "Storm Data entry times should be reviewed in local Standard Time (ST), not daylight time. Candidate reports include standard_time_display.",
    "tornado_track_policy": "Tornado tracks must come from DAT. NCEI begin/end coordinates are not used as a tornado track substitute.",
    "source": "https://mesonet.agron.iastate.edu/cgi-bin/request/gis/lsr.py?wfo=LBF&sts=2026-06-01T00%3A00%3A00Z&ets=2026-07-01T00%3A00%3A00Z&fmt=csv"
  },
  "features": [
    {
      "type": "Feature",
      "id": "iem-lsr-LBF-1",
      "properties": {
        "report_id": "iem-lsr-LBF-1",
        "report_type": "TSTM WND GST",
        "event_category": "thunderstorm_wind",
        "valid_utc": "202606020043",
        "standard_time_display": "2026-06-01 17:43 MST",
        "wfo": "LBF",
        "county_or_zone": "Garden",
        "city": "2 NW Crescent Lake Nwr",
        "state": "NE",
        "magnitude": 62.0,
        "magnitude_units": null,
        "source": "Public",
        "event_narrative": null
      },
      "geometry": {
        "type": "Point",
        "coordinates": [
          -102.44,
          41.76
        ]
      }
    },
    {
      "type": "Feature",
      "id": "iem-lsr-LBF-2",
      "properties": {
        "report_id": "iem-lsr-LBF-2",
        "report_type": "RAIN",
        "event_category": "other",
        "valid_utc": "202606030100",
        "standard_time_display": "2026-06-02 19:00 CST",
        "wfo": "LBF",
        "county_or_zone": "Grant",
        "city": "5 ENE Whitman",
        "state": "NE",
        "magnitude": 0.23,
        "magnitude_units": null,
        "source": "Mesonet",
        "event_narrative": "Mesonet station WHTN1 GUDMUNDSEN SAND LAB WHITMAN 5ENE NE US."
      },
      "geometry": {
        "type": "Point",
        "coordinates": [
          -101.44,
          42.07
        ]
      }
    },
    {
      "type": "Feature",
      "id": "iem-lsr-LBF-3",
      "properties": {
        "report_id": "iem-lsr-LBF-3",
        "report_type": "RAIN",
        "event_category": "other",
        "valid_utc": "202606031055",
        "standard_time_display": "2026-06-03 03:55 MST",
        "wfo": "LBF",
        "county_or_zone": "Sheridan",
        "city": "1 ENE Gordon",
        "state": "NE",
        "magnitude": 0.82,
        "magnitude_units": null,
        "source": "AWOS",
        "event_narrative": "AWOS station KGRN Gordon Airport."
      },
      "geometry": {
        "type": "Point",
        "coordinates": [
          -102.18,
          42.81
        ]
      }
    },
    {
      "type": "Feature",
      "id": "iem-lsr-LBF-4",
      "properties": {
        "report_id": "iem-lsr-LBF-4",
        "report_type": "RAIN",
        "event_category": "other",
        "valid_utc": "202606031145",
        "standard_time_display": "2026-06-03 05:45 CST",
        "wfo": "LBF",
        "county_or_zone": "Cherry",
        "city": "9 SE Merritt Reservoir",
        "state": "NE",
        "magnitude": 1.08,
        "magnitude_units": null,
        "source": "Cocorahs",
        "event_narrative": "Cocorahs station NE-CH-9 Valentine 23.4 SSW."
      },
      "geometry": {
        "type": "Point",
        "coordinates": [
          -100.74,
          42.57
        ]
      }
    },
    {
      "type": "Feature",
      "id": "iem-lsr-LBF-5",
      "properties": {
        "report_id": "iem-lsr-LBF-5",
        "report_type": "RAIN",
        "event_category": "other",
        "valid_utc": "202606031145",
        "standard_time_display": "2026-06-03 05:45 CST",
        "wfo": "LBF",
        "county_or_zone": "Keya Paha",
        "city": "6 S Springview",
        "state": "NE",
        "magnitude": 2.29,
        "magnitude_units": null,
        "source": "Mesonet",
        "event_narrative": "Mesonet station DW4989 Custer."
      },
      "geometry": {
        "type": "Point",
        "coordinates": [
          -99.74,
          42.74
        ]
      }
    },
    {
      "type": "Feature",
      "id": "iem-lsr-LBF-6",
      "properties": {
        "report_id": "iem-lsr-LBF-6",
        "report_type": "RAIN",
        "event_category": "other",
        "valid_utc": "202606031149",
        "standard_time_display": "2026-06-03 05:49 CST",
        "wfo": "LBF",
        "county_or_zone": "Cherry",
        "city": "13 WNW Merritt Reservoi",
        "state": "NE",
        "magnitude": 0.49,
        "magnitude_units": null,
        "source": "Mesonet",
        "event_narrative": "Mesonet station MKVN1 Mckelvie."
      },
      "geometry": {
        "type": "Point",
        "coordinates": [
          -101.13,
          42.69
        ]
      }
    },
    {
      "type": "Feature",
      "id": "iem-lsr-LBF-7",
      "properties": {
        "report_id": "iem-lsr-LBF-7",
        "report_type": "RAIN",
        "event_category": "other",
        "valid_utc": "202606031150",
        "standard_time_display": "2026-06-03 05:50 CST",
        "wfo": "LBF",
        "county_or_zone": "Cherry",
        "city": "1 N Valentine",
        "state": "NE",
        "magnitude": 1.57,
        "magnitude_units": null,
        "source": "Mesonet",
        "event_narrative": "Mesonet station EW3958 Valentine 1N."
      },
      "geometry": {
        "type": "Point",
        "coordinates": [
          -100.55,
          42.88
        ]
      }
    },
    {
      "type": "Feature",
      "id": "iem-lsr-LBF-8",
      "properties": {
        "report_id": "iem-lsr-LBF-8",
        "report_type": "RAIN",
        "event_category": "other",
        "valid_utc": "202606031152",
        "standard_time_display": "2026-06-03 05:52 CST",
        "wfo": "LBF",
        "county_or_zone": "Cherry",
        "city": "1 S Valentine",
        "state": "NE",
        "magnitude": 1.59,
        "magnitude_units": null,
        "source": "ASOS",
        "event_narrative": "ASOS station KVTN Valentine Airport."
      },
      "geometry": {
        "type": "Point",
        "coordinates": [
          -100.55,
          42.86
        ]
      }
    },
    {
      "type": "Feature",
      "id": "iem-lsr-LBF-9",
      "properties": {
        "report_id": "iem-lsr-LBF-9",
        "report_type": "RAIN",
        "event_category": "other",
        "valid_utc": "202606031155",
        "standard_time_display": "2026-06-03 05:55 CST",
        "wfo": "LBF",
        "county_or_zone": "Keya Paha",
        "city": "10 SE Mills",
        "state": "NE",
        "magnitude": 0.25,
        "magnitude_units": null,
        "source": "Mesonet",
        "event_narrative": "Mesonet station NB100 Naper 12SW."
      },
      "geometry": {
        "type": "Point",
        "coordinates": [
          -99.26,
          42.84
        ]
      }
    },
    {
      "type": "Feature",
      "id": "iem-lsr-LBF-10",
      "properties": {
        "report_id": "iem-lsr-LBF-10",
        "report_type": "RAIN",
        "event_category": "other",
        "valid_utc": "202606031155",
        "standard_time_display": "2026-06-03 05:55 CST",
        "wfo": "LBF",
        "county_or_zone": "Brown",
        "city": "3 E Johnstown",
        "state": "NE",
        "magnitude": 0.58,
        "magnitude_units": null,
        "source": "AWOS",
        "event_narrative": "AWOS station KANW Ainsworth Airport."
      },
      "geometry": {
        "type": "Point",
        "coordinates": [
          -100.0,
          42.58
        ]
      }
    },
    {
      "type": "Feature",
      "id": "iem-lsr-LBF-11",
      "properties": {
        "report_id": "iem-lsr-LBF-11",
        "report_type": "RAIN",
        "event_category": "other",
        "valid_utc": "202606031200",
        "standard_time_display": "2026-06-03 06:00 CST",
        "wfo": "LBF",
        "county_or_zone": "Keya Paha",
        "city": "7 ESE Mills",
        "state": "NE",
        "magnitude": 0.75,
        "magnitude_units": null,
        "source": "Cocorahs",
        "event_narrative": "Cocorahs station NE-KP-2 Naper 9WSW."
      },
      "geometry": {
        "type": "Point",
        "coordinates": [
          -99.26,
          42.92
        ]
      }
    },
    {
      "type": "Feature",
      "id": "iem-lsr-LBF-12",
      "properties": {
        "report_id": "iem-lsr-LBF-12",
        "report_type": "RAIN",
        "event_category": "other",
        "valid_utc": "202606031200",
        "standard_time_display": "2026-06-03 06:00 CST",
        "wfo": "LBF",
        "county_or_zone": "Brown",
        "city": "Ainsworth",
        "state": "NE",
        "magnitude": 0.76,
        "magnitude_units": null,
        "source": "CO-OP Observer",
        "event_narrative": "CO-OP Observer station ASWN1 Ainsworth."
      },
      "geometry": {
        "type": "Point",
        "coordinates": [
          -99.86,
          42.55
        ]
      }
    },
    {
      "type": "Feature",
      "id": "iem-lsr-LBF-13",
      "properties": {
        "report_id": "iem-lsr-LBF-13",
        "report_type": "RAIN",
        "event_category": "other",
        "valid_utc": "202606031200",
        "standard_time_display": "2026-06-03 06:00 CST",
        "wfo": "LBF",
        "county_or_zone": "Keya Paha",
        "city": "Burton",
        "state": "NE",
        "magnitude": 1.4,
        "magnitude_units": null,
        "source": "Cocorahs",
        "event_narrative": "Cocorahs station KEYA4258 Burton 0.14 SW."
      },
      "geometry": {
        "type": "Point",
        "coordinates": [
          -99.59,
          42.91
        ]
      }
    },
    {
      "type": "Feature",
      "id": "iem-lsr-LBF-14",
      "properties": {
        "report_id": "iem-lsr-LBF-14",
        "report_type": "RAIN",
        "event_category": "other",
        "valid_utc": "202606031200",
        "standard_time_display": "2026-06-03 06:00 CST",
        "wfo": "LBF",
        "county_or_zone": "Holt",
        "city": "1 W Oneill",
        "state": "NE",
        "magnitude": 1.49,
        "magnitude_units": null,
        "source": "Cocorahs",
        "event_narrative": "Cocorahs station HOLT001 ONeill 1WNW."
      },
      "geometry": {
        "type": "Point",
        "coordinates": [
          -98.66,
          42.46
        ]
      }
    },
    {
      "type": "Feature",
      "id": "iem-lsr-LBF-15",
      "properties": {
        "report_id": "iem-lsr-LBF-15",
        "report_type": "RAIN",
        "event_category": "other",
        "valid_utc": "202606031200",
        "standard_time_display": "2026-06-03 06:00 CST",
        "wfo": "LBF",
        "county_or_zone": "Cherry",
        "city": "1 NNE Valentine",
        "state": "NE",
        "magnitude": 1.69,
        "magnitude_units": null,
        "source": "Cocorahs",
        "event_narrative": "Cocorahs station NE-CH-6 Valentine 0.8 NNE."
      },
      "geometry": {
        "type": "Point",
        "coordinates": [
          -100.54,
          42.88
        ]
      }
    },
    {
      "type": "Feature",
      "id": "iem-lsr-LBF-16",
      "properties": {
        "report_id": "iem-lsr-LBF-16",
        "report_type": "RAIN",
        "event_category": "other",
        "valid_utc": "202606031200",
        "standard_time_display": "2026-06-03 06:00 CST",
        "wfo": "LBF",
        "county_or_zone": "Cherry",
        "city": "4 N Valentine",
        "state": "NE",
        "magnitude": 1.85,
        "magnitude_units": null,
        "source": "Public",
        "event_narrative": "24-hour rain total."
      },
      "geometry": {
        "type": "Point",
        "coordinates": [
          -100.55,
          42.93
        ]
      }
    },
    {
      "type": "Feature",
      "id": "iem-lsr-LBF-17",
      "properties": {
        "report_id": "iem-lsr-LBF-17",
        "report_type": "RAIN",
        "event_category": "other",
        "valid_utc": "202606031200",
        "standard_time_display": "2026-06-03 06:00 CST",
        "wfo": "LBF",
        "county_or_zone": "Holt",
        "city": "Atkinson",
        "state": "NE",
        "magnitude": 2.0,
        "magnitude_units": null,
        "source": "Cocorahs",
        "event_narrative": "Cocorahs station HOLT4250 Atkinson."
      },
      "geometry": {
        "type": "Point",
        "coordinates": [
          -98.98,
          42.53
        ]
      }
    }
  ]
}