{
  "type": "FeatureCollection",
  "name": "marine_zones",
  "crs": {
    "type": "name",
    "properties": {
      "name": "urn:ogc:def:crs:OGC:1.3:CRS84"
    }
  },
  "features": [
    {
      "type": "Feature",
      "properties": {
        "ID": "ANZ635",
        "WFO": "AKQ",
        "GL_WFO": null,
        "NAME": "Rappahannock River from Urbanna to Windmill Point"
      },
      "geometry": {
        "type": "Polygon",
        "coordinates": [
          [
            [
              -76.497217,
              37.747267
            ],
            [
              -76.502135,
              37.745392
            ],
            [
              -76.501417,
              37.742622
            ],
            [
              -76.511822,
              37.74313
            ],
            [
              -76.513582,
              37.73972
            ],
            [
              -76.512112,
              37.739926
            ],
            [
              -76.511364,
              37.73743
            ],
            [
              -76.512804,
              37.738873
            ],
            [
              -76.51367,
              37.737752
            ],
            [
              -76.509465,
              37.733103
            ],
            [
              -76.509583,
              37.728594
            ],
            [
              -76.506846,
              37.728341
            ],
            [
              -76.507943,
              37.72516
            ],
            [
              -76.503967,
              37.723465
            ],
            [
              -76.503018,
              37.721038
            ],
            [
              -76.498809,
              37.721561
            ],
            [
              -76.496819,
              37.720692
            ],
            [
              -76.495865,
              37.717168
            ],
            [
              -76.491659,
              37.717216
            ],
            [
              -76.493071,
              37.718428
            ],
            [
              -76.488465,
              37.723901
            ],
            [
              -76.491484,
              37.715064
            ],
            [
              -76.487997,
              37.714471
            ],
            [
              -76.487131,
              37.711793
            ],
            [
              -76.482551,
              37.7131
            ],
            [
              -76.481659,
              37.71548
            ],
            [
              -76.481658,
              37.712528
            ],
            [
              -76.479007,
              37.712483
            ],
            [
              -76.478288,
              37.714497
            ],
            [
              -76.478431,
              37.712414
            ],
            [
              -76.474742,
              37.71079
            ],
            [
              -76.476038,
              37.710492
            ],
            [
              -76.477965,
              37.704013
            ],
            [
              -76.46693,
              37.704589
            ],
            [
              -76.465231,
              37.705757
            ],
            [
              -76.468457,
              37.704588
            ],
            [
              -76.469553,
              37.706534
            ],
            [
              -76.46575,
              37.706169
            ],
            [
              -76.46385,
              37.710289
            ],
            [
              -76.458521,
              37.712991
            ],
            [
              -76.457053,
              37.716837
            ],
            [
              -76.453365,
              37.717181
            ],
            [
              -76.44982,
              37.714939
            ],
            [
              -76.449677,
              37.717136
            ],
            [
              -76.442791,
              37.719677
            ],
            [
              -76.440428,
              37.718853
            ],
            [
              -76.441926,
              37.72279
            ],
            [
              -76.434981,
              37.719082
            ],
            [
              -76.433137,
              37.724095
            ],
            [
              -76.426826,
              37.726658
            ],
            [
              -76.427344,
              37.729084
            ],
            [
              -76.424145,
              37.730023
            ],
            [
              -76.424577,
              37.732106
            ],
            [
              -76.421667,
              37.731785
            ],
            [
              -76.414778,
              37.734965
            ],
            [
              -76.40838,
              37.73375
            ],
            [
              -76.4106,
              37.731782
            ],
            [
              -76.415499,
              37.733363
            ],
            [
              -76.416018,
              37.731623
            ],
            [
              -76.418957,
              37.731991
            ],
            [
              -76.422733,
              37.728466
            ],
            [
              -76.425558,
              37.728008
            ],
            [
              -76.421956,
              37.724094
            ],
            [
              -76.42357,
              37.721805
            ],
            [
              -76.420891,
              37.717914
            ],
            [
              -76.423282,
              37.71915
            ],
            [
              -76.424665,
              37.722171
            ],
            [
              -76.423829,
              37.723636
            ],
            [
              -76.425443,
              37.724804
            ],
            [
              -76.430745,
              37.72208
            ],
            [
              -76.431639,
              37.715946
            ],
            [
              -76.432647,
              37.718715
            ],
            [
              -76.433857,
              37.716472
            ],
            [
              -76.438266,
              37.716197
            ],
            [
              -76.437574,
              37.715396
            ],
            [
              -76.43815,
              37.713245
            ],
            [
              -76.439016,
              37.71606
            ],
            [
              -76.44207,
              37.716014
            ],
            [
              -76.442617,
              37.714275
            ],
            [
              -76.446593,
              37.715625
            ],
            [
              -76.448552,
              37.712238
            ],
            [
              -76.452816,
              37.711779
            ],
            [
              -76.453277,
              37.71036
            ],
            [
              -76.450626,
              37.709605
            ],
            [
              -76.453507,
              37.708735
            ],
            [
              -76.454227,
              37.710497
            ],
            [
              -76.457743,
              37.711366
            ],
            [
              -76.456993,
              37.709169
            ],
            [
              -76.461426,
              37.699669
            ],
            [
              -76.465401,
              37.698844
            ],
            [
              -76.46854,
              37.696051
            ],
            [
              -76.463268,
              37.694427
            ],
            [
              -76.463384,
              37.696052
            ],
            [
              -76.461109,
              37.697449
            ],
            [
              -76.462059,
              37.695778
            ],
            [
              -76.460272,
              37.694977
            ],
            [
              -76.457191,
              37.696946
            ],
            [
              -76.457508,
              37.698388
            ],
            [
              -76.456298,
              37.697061
            ],
            [
              -76.45506,
              37.69967
            ],
            [
              -76.452064,
              37.700609
            ],
            [
              -76.454915,
              37.696855
            ],
            [
              -76.451919,
              37.696787
            ],
            [
              -76.45189,
              37.694498
            ],
            [
              -76.457622,
              37.695412
            ],
            [
              -76.457305,
              37.692963
            ],
            [
              -76.4584,
              37.694245
            ],
            [
              -76.460099,
              37.693489
            ],
            [
              -76.458716,
              37.691429
            ],
            [
              -76.462316,
              37.690513
            ],
            [
              -76.460557,
              37.683646
            ],
            [
              -76.459376,
              37.683807
            ],
            [
              -76.46024,
              37.685821
            ],
            [
              -76.457447,
              37.685387
            ],
            [
              -76.459117,
              37.686485
            ],
            [
              -76.457793,
              37.68692
            ],
            [
              -76.45834,
              37.688431
            ],
            [
              -76.455344,
              37.686531
            ],
            [
              -76.453733,
              37.691407
            ],
            [
              -76.453012,
              37.69008
            ],
            [
              -76.45042,
              37.690834
            ],
            [
              -76.453415,
              37.689073
            ],
            [
              -76.450563,
              37.685661
            ],
            [
              -76.446934,
              37.685914
            ],
            [
              -76.441865,
              37.690835
            ],
            [
              -76.44702,
              37.684174
            ],
            [
              -76.44437,
              37.683373
            ],
            [
              -76.442325,
              37.68541
            ],
            [
              -76.442671,
              37.684106
            ],
            [
              -76.440251,
              37.684266
            ],
            [
              -76.436622,
              37.686257
            ],
            [
              -76.439099,
              37.684586
            ],
            [
              -76.437429,
              37.683534
            ],
            [
              -76.441202,
              37.683717
            ],
            [
              -76.442872,
              37.681473
            ],
            [
              -76.44823,
              37.682823
            ],
            [
              -76.449382,
              37.681358
            ],
            [
              -76.449094,
              37.683075
            ],
            [
              -76.454192,
              37.684426
            ],
            [
              -76.456524,
              37.683166
            ],
            [
              -76.454709,
              37.678268
            ],
            [
              -76.450619,
              37.677558
            ],
            [
              -76.469565,
              37.670368
            ],
            [
              -76.472442,
              37.665812
            ],
            [
              -76.462938,
              37.660481
            ],
            [
              -76.459916,
              37.661695
            ],
            [
              -76.459858,
              37.659726
            ],
            [
              -76.455654,
              37.657759
            ],
            [
              -76.459195,
              37.657506
            ],
            [
              -76.456257,
              37.65176
            ],
            [
              -76.452109,
              37.648785
            ],
            [
              -76.448684,
              37.649152
            ],
            [
              -76.446266,
              37.650091
            ],
            [
              -76.444999,
              37.652838
            ],
            [
              -76.440509,
              37.65444
            ],
            [
              -76.443302,
              37.658514
            ],
            [
              -76.451219,
              37.660986
            ],
            [
              -76.446584,
              37.660597
            ],
            [
              -76.444022,
              37.662841
            ],
            [
              -76.444022,
              37.660712
            ],
            [
              -76.439444,
              37.659545
            ],
            [
              -76.438033,
              37.657118
            ],
            [
              -76.435557,
              37.661788
            ],
            [
              -76.436996,
              37.663116
            ],
            [
              -76.435614,
              37.663734
            ],
            [
              -76.436478,
              37.665725
            ],
            [
              -76.438263,
              37.665725
            ],
            [
              -76.437169,
              37.668861
            ],
            [
              -76.439415,
              37.670692
            ],
            [
              -76.433656,
              37.673233
            ],
            [
              -76.433743,
              37.671539
            ],
            [
              -76.436709,
              37.669662
            ],
            [
              -76.43524,
              37.66648
            ],
            [
              -76.432965,
              37.666595
            ],
            [
              -76.432217,
              37.66941
            ],
            [
              -76.430402,
              37.669937
            ],
            [
              -76.430949,
              37.671562
            ],
            [
              -76.427292,
              37.669959
            ],
            [
              -76.429221,
              37.673233
            ],
            [
              -76.426342,
              37.670852
            ],
            [
              -76.425305,
              37.673782
            ],
            [
              -76.422281,
              37.675109
            ],
            [
              -76.424499,
              37.67353
            ],
            [
              -76.423866,
              37.671287
            ],
            [
              -76.426025,
              37.670211
            ],
            [
              -76.424931,
              37.668998
            ],
            [
              -76.421994,
              37.669799
            ],
            [
              -76.423118,
              37.667395
            ],
            [
              -76.429164,
              37.668769
            ],
            [
              -76.430633,
              37.6679
            ],
            [
              -76.429856,
              37.666274
            ],
            [
              -76.433772,
              37.664764
            ],
            [
              -76.431929,
              37.663116
            ],
            [
              -76.434837,
              37.658034
            ],
            [
              -76.43406,
              37.655402
            ],
            [
              -76.426258,
              37.654669
            ],
            [
              -76.428992,
              37.660369
            ],
            [
              -76.425854,
              37.656981
            ],
            [
              -76.423233,
              37.65856
            ],
            [
              -76.425221,
              37.656317
            ],
            [
              -76.424184,
              37.654554
            ],
            [
              -76.420672,
              37.655354
            ],
            [
              -76.414339,
              37.652766
            ],
            [
              -76.41287,
              37.654391
            ],
            [
              -76.416525,
              37.657436
            ],
            [
              -76.411085,
              37.6551
            ],
            [
              -76.40737,
              37.656084
            ],
            [
              -76.405728,
              37.660593
            ],
            [
              -76.408232,
              37.662104
            ],
            [
              -76.405152,
              37.660776
            ],
            [
              -76.406247,
              37.657274
            ],
            [
              -76.404462,
              37.658441
            ],
            [
              -76.400344,
              37.658691
            ],
            [
              -76.406363,
              37.65629
            ],
            [
              -76.40383,
              37.654732
            ],
            [
              -76.411373,
              37.653521
            ],
            [
              -76.407257,
              37.650384
            ],
            [
              -76.410395,
              37.652193
            ],
            [
              -76.412669,
              37.652056
            ],
            [
              -76.412842,
              37.650431
            ],
            [
              -76.419233,
              37.651027
            ],
            [
              -76.420471,
              37.649998
            ],
            [
              -76.41981,
              37.64764
            ],
            [
              -76.421968,
              37.653134
            ],
            [
              -76.42528,
              37.651166
            ],
            [
              -76.428734,
              37.652746
            ],
            [
              -76.433225,
              37.651877
            ],
            [
              -76.427065,
              37.64842
            ],
            [
              -76.42908,
              37.647756
            ],
            [
              -76.430922,
              37.649656
            ],
            [
              -76.433945,
              37.649382
            ],
            [
              -76.436766,
              37.652105
            ],
            [
              -76.43976,
              37.652426
            ],
            [
              -76.42885,
              37.641003
            ],
            [
              -76.414947,
              37.638231
            ],
            [
              -76.403295,
              37.627355
            ],
            [
              -76.390946,
              37.63035
            ],
            [
              -76.381106,
              37.627003
            ],
            [
              -76.361427,
              37.608628
            ],
            [
              -76.359039,
              37.609041
            ],
            [
              -76.358847,
              37.611065
            ],
            [
              -76.351448,
              37.618726
            ],
            [
              -76.349607,
              37.619551
            ],
            [
              -76.350932,
              37.620695
            ],
            [
              -76.354669,
              37.615726
            ],
            [
              -76.354097,
              37.621358
            ],
            [
              -76.337723,
              37.624178
            ],
            [
              -76.326729,
              37.622349
            ],
            [
              -76.325175,
              37.61942
            ],
            [
              -76.325089,
              37.620564
            ],
            [
              -76.32365,
              37.619763
            ],
            [
              -76.324455,
              37.618641
            ],
            [
              -76.331045,
              37.617496
            ],
            [
              -76.334095,
              37.619006
            ],
            [
              -76.332771,
              37.61587
            ],
            [
              -76.32602827199997,
              37.617368749000036
            ],
            [
              -76.33190189899994,
              37.569817785000055
            ],
            [
              -76.33405,
              37.569676
            ],
            [
              -76.333244,
              37.566838
            ],
            [
              -76.334654,
              37.569287
            ],
            [
              -76.336667,
              37.56805
            ],
            [
              -76.331258,
              37.563908
            ],
            [
              -76.330769,
              37.562489
            ],
            [
              -76.334164,
              37.564068
            ],
            [
              -76.336377,
              37.561137
            ],
            [
              -76.335628,
              37.558436
            ],
            [
              -76.337009,
              37.56029
            ],
            [
              -76.336665,
              37.562259
            ],
            [
              -76.33839,
              37.562533
            ],
            [
              -76.340776,
              37.559831
            ],
            [
              -76.342587,
              37.559899
            ],
            [
              -76.344598,
              37.555984
            ],
            [
              -76.345289,
              37.558891
            ],
            [
              -76.349717,
              37.558798
            ],
            [
              -76.350521,
              37.557081
            ],
            [
              -76.350408,
              37.55921
            ],
            [
              -76.35334,
              37.55898
            ],
            [
              -76.354261,
              37.560194
            ],
            [
              -76.344427,
              37.559166
            ],
            [
              -76.344658,
              37.561181
            ],
            [
              -76.341754,
              37.560976
            ],
            [
              -76.342013,
              37.562601
            ],
            [
              -76.338851,
              37.565142
            ],
            [
              -76.33868,
              37.570018
            ],
            [
              -76.335747,
              37.568966
            ],
            [
              -76.342793,
              37.571734
            ],
            [
              -76.342936,
              37.568483
            ],
            [
              -76.347967,
              37.565048
            ],
            [
              -76.347508,
              37.568001
            ],
            [
              -76.345495,
              37.567521
            ],
            [
              -76.344115,
              37.569353
            ],
            [
              -76.345841,
              37.570245
            ],
            [
              -76.343397,
              37.57139
            ],
            [
              -76.357835,
              37.573699
            ],
            [
              -76.38477,
              37.573171
            ],
            [
              -76.387388,
              37.571203
            ],
            [
              -76.386384,
              37.566831
            ],
            [
              -76.390613,
              37.565184
            ],
            [
              -76.390615,
              37.56214
            ],
            [
              -76.391937,
              37.563811
            ],
            [
              -76.397285,
              37.563471
            ],
            [
              -76.396825,
              37.565004
            ],
            [
              -76.392051,
              37.564841
            ],
            [
              -76.387792,
              37.568182
            ],
            [
              -76.387936,
              37.570265
            ],
            [
              -76.390553,
              37.569671
            ],
            [
              -76.385287,
              37.5734
            ],
            [
              -76.396933,
              37.578235
            ],
            [
              -76.408349,
              37.581695
            ],
            [
              -76.415196,
              37.580414
            ],
            [
              -76.422155,
              37.585085
            ],
            [
              -76.425176,
              37.583872
            ],
            [
              -76.426872,
              37.585497
            ],
            [
              -76.427505,
              37.582727
            ],
            [
              -76.429461,
              37.584513
            ],
            [
              -76.43622,
              37.585453
            ],
            [
              -76.439787,
              37.581721
            ],
            [
              -76.441484,
              37.582797
            ],
            [
              -76.445051,
              37.581195
            ],
            [
              -76.440074,
              37.584033
            ],
            [
              -76.439557,
              37.58646
            ],
            [
              -76.430266,
              37.586254
            ],
            [
              -76.427907,
              37.589343
            ],
            [
              -76.42342,
              37.590693
            ],
            [
              -76.423564,
              37.59241
            ],
            [
              -76.429346,
              37.590579
            ],
            [
              -76.432395,
              37.592938
            ],
            [
              -76.434236,
              37.589161
            ],
            [
              -76.437256,
              37.591244
            ],
            [
              -76.441744,
              37.59145
            ],
            [
              -76.447468,
              37.58813
            ],
            [
              -76.450431,
              37.58845
            ],
            [
              -76.442837,
              37.592503
            ],
            [
              -76.444823,
              37.594517
            ],
            [
              -76.436508,
              37.592091
            ],
            [
              -76.434322,
              37.593739
            ],
            [
              -76.434437,
              37.595524
            ],
            [
              -76.437084,
              37.595364
            ],
            [
              -76.438868,
              37.597035
            ],
            [
              -76.435559,
              37.598523
            ],
            [
              -76.430697,
              37.596875
            ],
            [
              -76.4311,
              37.602323
            ],
            [
              -76.433977,
              37.600698
            ],
            [
              -76.440106,
              37.602391
            ],
            [
              -76.435933,
              37.6023
            ],
            [
              -76.43343,
              37.606054
            ],
            [
              -76.431761,
              37.606054
            ],
            [
              -76.430438,
              37.609327
            ],
            [
              -76.433246,
              37.61399050000006
            ],
            [
              -76.444336,
              37.611891
            ],
            [
              -76.443904,
              37.60919
            ],
            [
              -76.445717,
              37.608457
            ],
            [
              -76.447903,
              37.608411
            ],
            [
              -76.447415,
              37.61244
            ],
            [
              -76.454636,
              37.610905
            ],
            [
              -76.451384,
              37.607747
            ],
            [
              -76.450981,
              37.605183
            ],
            [
              -76.452161,
              37.607655
            ],
            [
              -76.454923,
              37.606968
            ],
            [
              -76.455642,
              37.604885
            ],
            [
              -76.455269,
              37.608295
            ],
            [
              -76.457053,
              37.609966
            ],
            [
              -76.457569,
              37.605708
            ],
            [
              -76.459238,
              37.605571
            ],
            [
              -76.458834,
              37.603121
            ],
            [
              -76.45613,
              37.601428
            ],
            [
              -76.460043,
              37.60248
            ],
            [
              -76.45938,
              37.598612
            ],
            [
              -76.462227,
              37.597993
            ],
            [
              -76.460187,
              37.603945
            ],
            [
              -76.46594,
              37.601907
            ],
            [
              -76.466747,
              37.603693
            ],
            [
              -76.461798,
              37.604357
            ],
            [
              -76.459095,
              37.606967
            ],
            [
              -76.460102,
              37.608729
            ],
            [
              -76.462921,
              37.607264
            ],
            [
              -76.462922,
              37.609759
            ],
            [
              -76.465224,
              37.608317
            ],
            [
              -76.464736,
              37.610812
            ],
            [
              -76.459153,
              37.6104
            ],
            [
              -76.45924,
              37.612048
            ],
            [
              -76.453687,
              37.612942
            ],
            [
              -76.472188,
              37.610741
            ],
            [
              -76.491352,
              37.61316
            ],
            [
              -76.504601,
              37.611833
            ],
            [
              -76.505407,
              37.610689
            ],
            [
              -76.501954,
              37.611351
            ],
            [
              -76.502272,
              37.609772
            ],
            [
              -76.498891,
              37.611943
            ],
            [
              -76.489653,
              37.610849
            ],
            [
              -76.486314,
              37.608264
            ],
            [
              -76.483811,
              37.608997
            ],
            [
              -76.48073,
              37.605267
            ],
            [
              -76.486946,
              37.607668
            ],
            [
              -76.487576,
              37.603227
            ],
            [
              -76.489159,
              37.604646
            ],
            [
              -76.488068,
              37.607507
            ],
            [
              -76.493336,
              37.609611
            ],
            [
              -76.496037,
              37.605192
            ],
            [
              -76.49558,
              37.609655
            ],
            [
              -76.499672,
              37.609884
            ],
            [
              -76.502906,
              37.608788
            ],
            [
              -76.501872,
              37.606155
            ],
            [
              -76.503282,
              37.60595
            ],
            [
              -76.503571,
              37.603867
            ],
            [
              -76.505239,
              37.604829
            ],
            [
              -76.503741,
              37.606934
            ],
            [
              -76.506964,
              37.606341
            ],
            [
              -76.504603,
              37.608629
            ],
            [
              -76.505925,
              37.610621
            ],
            [
              -76.530756,
              37.611751
            ],
            [
              -76.542235,
              37.616605
            ],
            [
              -76.549285,
              37.621413
            ],
            [
              -76.557165,
              37.633614
            ],
            [
              -76.567844,
              37.639772
            ],
            [
              -76.569053,
              37.638971
            ],
            [
              -76.567498,
              37.638353
            ],
            [
              -76.5677,
              37.636522
            ],
            [
              -76.56957,
              37.634233
            ],
            [
              -76.568649,
              37.63096
            ],
            [
              -76.572707,
              37.630799
            ],
            [
              -76.573973,
              37.628213
            ],
            [
              -76.573199,
              37.623748
            ],
            [
              -76.579788,
              37.623678
            ],
            [
              -76.578204,
              37.617338
            ],
            [
              -76.582378,
              37.623174
            ],
            [
              -76.586407,
              37.622624
            ],
            [
              -76.589743,
              37.619876
            ],
            [
              -76.592421,
              37.620723
            ],
            [
              -76.589141,
              37.623287
            ],
            [
              -76.596708,
              37.627155
            ],
            [
              -76.598379,
              37.630519
            ],
            [
              -76.587098,
              37.624249
            ],
            [
              -76.583443,
              37.624799
            ],
            [
              -76.583584,
              37.626563
            ],
            [
              -76.579325,
              37.6259
            ],
            [
              -76.57921,
              37.627937
            ],
            [
              -76.57616,
              37.627457
            ],
            [
              -76.573887,
              37.632401
            ],
            [
              -76.575125,
              37.633294
            ],
            [
              -76.571498,
              37.633065
            ],
            [
              -76.57265,
              37.6354
            ],
            [
              -76.570377,
              37.637872
            ],
            [
              -76.570866,
              37.641237
            ],
            [
              -76.567096,
              37.642038
            ],
            [
              -76.570608,
              37.644052
            ],
            [
              -76.54162641599999,
              37.66149189300006
            ],
            [
              -76.535598,
              37.662109
            ],
            [
              -76.533698,
              37.660712
            ],
            [
              -76.531883,
              37.662031
            ],
            [
              -76.526594,
              37.65492450000005
            ],
            [
              -76.522013,
              37.652903
            ],
            [
              -76.519913,
              37.649675
            ],
            [
              -76.512661,
              37.645209
            ],
            [
              -76.51384,
              37.648162
            ],
            [
              -76.512746,
              37.647979
            ],
            [
              -76.510187,
              37.642324
            ],
            [
              -76.503911,
              37.643557
            ],
            [
              -76.503564,
              37.645846
            ],
            [
              -76.500112,
              37.647767
            ],
            [
              -76.502097,
              37.645433
            ],
            [
              -76.50112,
              37.643281
            ],
            [
              -76.497564,
              37.647056
            ],
            [
              -76.494921,
              37.653123
            ],
            [
              -76.503097,
              37.654246
            ],
            [
              -76.50402,
              37.652072
            ],
            [
              -76.508136,
              37.652646
            ],
            [
              -76.509462,
              37.650289
            ],
            [
              -76.512743,
              37.653335
            ],
            [
              -76.514126,
              37.651756
            ],
            [
              -76.516973,
              37.655625
            ],
            [
              -76.514525,
              37.657433
            ],
            [
              -76.514038,
              37.654663
            ],
            [
              -76.511273,
              37.656081
            ],
            [
              -76.511418,
              37.653884
            ],
            [
              -76.509228,
              37.655874
            ],
            [
              -76.50897,
              37.654157
            ],
            [
              -76.506466,
              37.654087
            ],
            [
              -76.501453,
              37.658022
            ],
            [
              -76.504475,
              37.659168
            ],
            [
              -76.505078,
              37.661068
            ],
            [
              -76.507468,
              37.660703
            ],
            [
              -76.507122,
              37.66203
            ],
            [
              -76.511784,
              37.667022
            ],
            [
              -76.5062,
              37.662602
            ],
            [
              -76.505451,
              37.663655
            ],
            [
              -76.502315,
              37.660105
            ],
            [
              -76.500211,
              37.663172
            ],
            [
              -76.501792,
              37.666652
            ],
            [
              -76.499297,
              37.665344
            ],
            [
              -76.498238,
              37.661613
            ],
            [
              -76.500731,
              37.66102
            ],
            [
              -76.500762,
              37.657861
            ],
            [
              -76.499013,
              37.657767
            ],
            [
              -76.489949,
              37.665371
            ],
            [
              -76.48324,
              37.674775
            ],
            [
              -76.477459,
              37.677507
            ],
            [
              -76.484374,
              37.681374
            ],
            [
              -76.487429,
              37.68492
            ],
            [
              -76.489501,
              37.68318
            ],
            [
              -76.489643,
              37.679815
            ],
            [
              -76.490826,
              37.682813
            ],
            [
              -76.494685,
              37.682193
            ],
            [
              -76.490337,
              37.684072
            ],
            [
              -76.4927,
              37.685009
            ],
            [
              -76.490194,
              37.685011
            ],
            [
              -76.488729,
              37.689978
            ],
            [
              -76.494173,
              37.690548
            ],
            [
              -76.497079,
              37.687113
            ],
            [
              -76.496073,
              37.689174
            ],
            [
              -76.498809,
              37.68979
            ],
            [
              -76.495066,
              37.691303
            ],
            [
              -76.499672,
              37.691497
            ],
            [
              -76.498438,
              37.693064
            ],
            [
              -76.499672,
              37.695948
            ],
            [
              -76.492907,
              37.692014
            ],
            [
              -76.490318,
              37.69673
            ],
            [
              -76.492507,
              37.697027
            ],
            [
              -76.490953,
              37.69808
            ],
            [
              -76.494151,
              37.699704
            ],
            [
              -76.491099,
              37.700644
            ],
            [
              -76.488187,
              37.697166
            ],
            [
              -76.489855,
              37.693823
            ],
            [
              -76.488269,
              37.692176
            ],
            [
              -76.484497,
              37.693391
            ],
            [
              -76.484928,
              37.691353
            ],
            [
              -76.482852,
              37.689088
            ],
            [
              -76.478218,
              37.694331
            ],
            [
              -76.485712,
              37.700761
            ],
            [
              -76.487298,
              37.702889
            ],
            [
              -76.486377,
              37.704583
            ],
            [
              -76.49119,
              37.706916
            ],
            [
              -76.493931,
              37.71227
            ],
            [
              -76.499303,
              37.712908
            ],
            [
              -76.506425,
              37.711174
            ],
            [
              -76.50069,
              37.713346
            ],
            [
              -76.499247,
              37.715884
            ],
            [
              -76.500142,
              37.717099
            ],
            [
              -76.504318,
              37.716781
            ],
            [
              -76.504836,
              37.718315
            ],
            [
              -76.507515,
              37.718339
            ],
            [
              -76.507284,
              37.719506
            ],
            [
              -76.51296,
              37.7196
            ],
            [
              -76.51172,
              37.722026
            ],
            [
              -76.513333,
              37.723079
            ],
            [
              -76.51287,
              37.725826
            ],
            [
              -76.514772,
              37.72585
            ],
            [
              -76.517426,
              37.720998
            ],
            [
              -76.515578,
              37.726262
            ],
            [
              -76.520074,
              37.726149
            ],
            [
              -76.523156,
              37.728347
            ],
            [
              -76.51186,
              37.727542
            ],
            [
              -76.514683,
              37.729237
            ],
            [
              -76.513932,
              37.732464
            ],
            [
              -76.517073,
              37.73361
            ],
            [
              -76.515774,
              37.736585
            ],
            [
              -76.517935,
              37.738371
            ],
            [
              -76.516348,
              37.741461
            ],
            [
              -76.518654,
              37.740798
            ],
            [
              -76.51528,
              37.743108
            ],
            [
              -76.516575,
              37.746794
            ],
            [
              -76.521534,
              37.74707
            ],
            [
              -76.519457,
              37.74826
            ],
            [
              -76.521879,
              37.748536
            ],
            [
              -76.527378,
              37.755223
            ],
            [
              -76.522422,
              37.751399
            ],
            [
              -76.520865,
              37.751787
            ],
            [
              -76.519918,
              37.749589
            ],
            [
              -76.517842,
              37.749671
            ],
            [
              -76.517439,
              37.74803
            ],
            [
              -76.513317,
              37.749013
            ],
            [
              -76.514818,
              37.745718
            ],
            [
              -76.509226,
              37.745212
            ],
            [
              -76.509715,
              37.746677
            ],
            [
              -76.50548,
              37.744523
            ],
            [
              -76.49771,
              37.749734
            ],
            [
              -76.498198,
              37.751387
            ],
            [
              -76.489353,
              37.759037
            ],
            [
              -76.486758,
              37.759839
            ],
            [
              -76.483993,
              37.763799
            ],
            [
              -76.484571,
              37.765172
            ],
            [
              -76.484312,
              37.766088
            ],
            [
              -76.483476,
              37.766454
            ],
            [
              -76.482522,
              37.762357
            ],
            [
              -76.487939,
              37.75803
            ],
            [
              -76.488053,
              37.756382
            ],
            [
              -76.492694,
              37.753793
            ],
            [
              -76.497217,
              37.747267
            ]
          ],
          [
            [
              -76.353747,
              37.612476
            ],
            [
              -76.345547,
              37.615684
            ],
            [
              -76.347504,
              37.615729
            ],
            [
              -76.352079,
              37.613713
            ],
            [
              -76.34503,
              37.617836
            ],
            [
              -76.348426,
              37.617079
            ],
            [
              -76.349261,
              37.617811
            ],
            [
              -76.347765,
              37.618499
            ],
            [
              -76.351017,
              37.618383
            ],
            [
              -76.353748,
              37.61536
            ],
            [
              -76.352281,
              37.615636
            ],
            [
              -76.353747,
              37.612476
            ]
          ],
          [
            [
              -76.345808,
              37.619964
            ],
            [
              -76.346182,
              37.618728
            ],
            [
              -76.344628,
              37.620079
            ],
            [
              -76.345808,
              37.619964
            ]
          ]
        ]
      }
    }
  ],
  "metadata": {
    "schema_version": "0.1.0",
    "wfo": "PAH",
    "layer": "marine_zones",
    "source": "https://www.weather.gov/source/gis/Shapefiles/WSOM/mz16ap26.zip",
    "public_release_status": "public-source-derived"
  }
}