{
  "type": "FeatureCollection",
  "metadata": {
    "schema_version": "0.2.4",
    "year": 2026,
    "month": 8,
    "wfo": "MQT",
    "start_utc": "2026-08-01T00:00:00Z",
    "end_utc": "2026-09-01T00:00:00Z",
    "generated_utc": "2026-08-01T10:47:37Z",
    "mode": "storm_data_prep",
    "public_release_status": "public-source-derived",
    "time_note": "Storm Data entry times should be reviewed in local Standard Time (ST), not daylight time. Candidate reports include standard_time_display.",
    "tornado_track_policy": "Tornado tracks must come from DAT. NCEI begin/end coordinates are not used as a tornado track substitute.",
    "source": "https://mesonet.agron.iastate.edu/cgi-bin/request/gis/lsr.py?wfo=MQT&sts=2026-08-01T00%3A00%3A00Z&ets=2026-09-01T00%3A00%3A00Z&fmt=csv"
  },
  "features": [
    {
      "type": "Feature",
      "id": "iem-lsr-MQT-1",
      "properties": {
        "report_id": "iem-lsr-MQT-1",
        "report_type": "RAIN",
        "event_category": "other",
        "valid_utc": "202608010000",
        "standard_time_display": "2026-07-31 18:00 CST",
        "wfo": "MQT",
        "county_or_zone": "Marquette",
        "city": "NWS Marquette",
        "state": "MI",
        "magnitude": 1.41,
        "magnitude_units": null,
        "source": "Official NWS Obs",
        "event_narrative": "The bulk of rain fell in a heavy thunderstorm from 538 PM and 632 PM with some light rain showers prior to and following the storm."
      },
      "geometry": {
        "type": "Point",
        "coordinates": [
          -87.56,
          46.53
        ]
      }
    }
  ]
}