{
  "type": "FeatureCollection",
  "name": "marine_zones",
  "crs": {
    "type": "name",
    "properties": {
      "name": "urn:ogc:def:crs:OGC:1.3:CRS84"
    }
  },
  "features": [
    {
      "type": "Feature",
      "properties": {
        "ID": "AMZ630",
        "WFO": "MFL",
        "GL_WFO": null,
        "NAME": "Biscayne Bay"
      },
      "geometry": {
        "type": "Polygon",
        "coordinates": [
          [
            [
              -80.13345336899994,
              25.937944412000036
            ],
            [
              -80.129867,
              25.93637
            ],
            [
              -80.13074493399995,
              25.933511734000035
            ],
            [
              -80.12926508299995,
              25.930571
            ],
            [
              -80.12266540499996,
              25.930171967000035
            ],
            [
              -80.13005065899995,
              25.92896270800003
            ],
            [
              -80.12286376999998,
              25.928770065000037
            ],
            [
              -80.12473784599996,
              25.92771001400007
            ],
            [
              -80.12296295199997,
              25.927869797000028
            ],
            [
              -80.123267,
              25.92267940200003
            ],
            [
              -80.12896704699995,
              25.922386067000048
            ],
            [
              -80.12566375699998,
              25.920970917000034
            ],
            [
              -80.12366485599995,
              25.905469894000078
            ],
            [
              -80.12570644699997,
              25.89900615600004
            ],
            [
              -80.12995571899995,
              25.896093036000025
            ],
            [
              -80.12946724999995,
              25.894172668000067
            ],
            [
              -80.12826538099995,
              25.895273209000038
            ],
            [
              -80.127767,
              25.894072
            ],
            [
              -80.12934558699999,
              25.893191108000053
            ],
            [
              -80.12726592999996,
              25.88248062100007
            ],
            [
              -80.13076782199994,
              25.878179550000027
            ],
            [
              -80.131167,
              25.880580402000078
            ],
            [
              -80.14076710299997,
              25.883879812000032
            ],
            [
              -80.14245510299997,
              25.874249207000048
            ],
            [
              -80.13786907399998,
              25.87157339500004
            ],
            [
              -80.13006591799996,
              25.876972198000033
            ],
            [
              -80.13233751999996,
              25.872547731000054
            ],
            [
              -80.12456512499995,
              25.87197303800008
            ],
            [
              -80.12396751599994,
              25.866496365000046
            ],
            [
              -80.12805709899999,
              25.861524243000076
            ],
            [
              -80.12457275399998,
              25.866668701000037
            ],
            [
              -80.124667,
              25.86928140200007
            ],
            [
              -80.12846397599998,
              25.87048131800003
            ],
            [
              -80.13770294199998,
              25.868631363000077
            ],
            [
              -80.12916564899996,
              25.867773056000033
            ],
            [
              -80.12915039099994,
              25.865709305000053
            ],
            [
              -80.12937940799998,
              25.866873738000038
            ],
            [
              -80.132767,
              25.864781402000062
            ],
            [
              -80.14311738399994,
              25.863423384000043
            ],
            [
              -80.12893410199996,
              25.860947945000078
            ],
            [
              -80.12941122299998,
              25.859218587000043
            ],
            [
              -80.12216949499998,
              25.849981308000054
            ],
            [
              -80.121267,
              25.83388240200003
            ],
            [
              -80.122367,
              25.820083402000023
            ],
            [
              -80.12466430699999,
              25.808082581000065
            ],
            [
              -80.12726592999996,
              25.800083160000042
            ],
            [
              -80.12845611599994,
              25.799591064000026
            ],
            [
              -80.125567,
              25.807575
            ],
            [
              -80.12317201899998,
              25.824762707000048
            ],
            [
              -80.12307094399995,
              25.83899248800003
            ],
            [
              -80.12577031399996,
              25.84628219500007
            ],
            [
              -80.12736511199995,
              25.846181870000066
            ],
            [
              -80.13275146499996,
              25.84148979200006
            ],
            [
              -80.13304901099997,
              25.837949753000032
            ],
            [
              -80.130467,
              25.83058240200006
            ],
            [
              -80.13362884499998,
              25.826034546000074
            ],
            [
              -80.12646484399994,
              25.82328224200006
            ],
            [
              -80.12986700499994,
              25.82198337500006
            ],
            [
              -80.13306426999998,
              25.80998230000006
            ],
            [
              -80.140668,
              25.805883402000063
            ],
            [
              -80.139768,
              25.801275
            ],
            [
              -80.14146423299997,
              25.79598426800004
            ],
            [
              -80.14486695399995,
              25.795783464000067
            ],
            [
              -80.14556593199995,
              25.78727317700003
            ],
            [
              -80.141868,
              25.774076
            ],
            [
              -80.13666534399994,
              25.766277313000046
            ],
            [
              -80.13227648899993,
              25.764437240000063
            ],
            [
              -80.13225375199994,
              25.761906485000054
            ],
            [
              -80.13846674699994,
              25.764384935000066
            ],
            [
              -80.14126586899994,
              25.76418495200005
            ],
            [
              -80.141368,
              25.762685402000045
            ],
            [
              -80.14176940899995,
              25.76398468000008
            ],
            [
              -80.14896222999994,
              25.76398468000008
            ],
            [
              -80.14886474599996,
              25.76247787500006
            ],
            [
              -80.14066892099999,
              25.75597773000004
            ],
            [
              -80.13718484999998,
              25.75616530600007
            ],
            [
              -80.14109298299996,
              25.749427040000057
            ],
            [
              -80.14196776699998,
              25.750885014000062
            ],
            [
              -80.14395141599994,
              25.75048828100006
            ],
            [
              -80.144468,
              25.746885402000032
            ],
            [
              -80.146068,
              25.746685402000026
            ],
            [
              -80.14417563299997,
              25.74989303500007
            ],
            [
              -80.14617156999998,
              25.749685287000034
            ],
            [
              -80.14886773799998,
              25.754885053000066
            ],
            [
              -80.15066528299997,
              25.755084991000047
            ],
            [
              -80.15214538599997,
              25.752716064000026
            ],
            [
              -80.15136718799994,
              25.750185013000078
            ],
            [
              -80.15436553999996,
              25.749385834000066
            ],
            [
              -80.15894235999997,
              25.74371717300005
            ],
            [
              -80.158268,
              25.740786402000026
            ],
            [
              -80.161868,
              25.73928640200006
            ],
            [
              -80.16197204599996,
              25.741485596000075
            ],
            [
              -80.17291217399998,
              25.75176916600003
            ],
            [
              -80.162068,
              25.740878
            ],
            [
              -80.164069,
              25.73828640200003
            ],
            [
              -80.17676733699994,
              25.748883739000064
            ],
            [
              -80.175269,
              25.746185402000037
            ],
            [
              -80.17787067899997,
              25.747384423000028
            ],
            [
              -80.18206787099996,
              25.745477676000064
            ],
            [
              -80.175169,
              25.743977
            ],
            [
              -80.16616821299993,
              25.735977173000038
            ],
            [
              -80.16696076699998,
              25.73177696500005
            ],
            [
              -80.15537149599999,
              25.728439580000042
            ],
            [
              -80.15877532999997,
              25.72734642000006
            ],
            [
              -80.15720645199997,
              25.725664288000075
            ],
            [
              -80.15586852999996,
              25.726778030000048
            ],
            [
              -80.15436553999996,
              25.725778580000053
            ],
            [
              -80.156668,
              25.71958640200006
            ],
            [
              -80.16157531699997,
              25.715856552000048
            ],
            [
              -80.15996551499995,
              25.715385437000066
            ],
            [
              -80.16266632099996,
              25.71177913400004
            ],
            [
              -80.15976715099998,
              25.711687088000076
            ],
            [
              -80.16677093499999,
              25.708187103000057
            ],
            [
              -80.17016710099995,
              25.710586061000072
            ],
            [
              -80.17554297599997,
              25.709814134000055
            ],
            [
              -80.168869,
              25.706379
            ],
            [
              -80.166669,
              25.701079
            ],
            [
              -80.16894528899996,
              25.698608324000077
            ],
            [
              -80.167869,
              25.69788740200005
            ],
            [
              -80.17156913499997,
              25.695787233000033
            ],
            [
              -80.171569,
              25.69388740200003
            ],
            [
              -80.174969,
              25.69108740200005
            ],
            [
              -80.17516927299994,
              25.688381454000023
            ],
            [
              -80.172569,
              25.690779
            ],
            [
              -80.173641778,
              25.689614624000058
            ],
            [
              -80.172569,
              25.687079
            ],
            [
              -80.167769,
              25.68248
            ],
            [
              -80.16537030699999,
              25.68238078400003
            ],
            [
              -80.16696929899996,
              25.68507957500003
            ],
            [
              -80.162369,
              25.685279
            ],
            [
              -80.15996575299994,
              25.68298027800006
            ],
            [
              -80.15653228799994,
              25.682762146000073
            ],
            [
              -80.16986837199994,
              25.68128007000007
            ],
            [
              -80.161869,
              25.67568
            ],
            [
              -80.16353284199994,
              25.675800455000058
            ],
            [
              -80.15920041199996,
              25.66626946200006
            ],
            [
              -80.15648605499996,
              25.666469922000033
            ],
            [
              -80.16114637899994,
              25.590125186000023
            ],
            [
              -80.170156,
              25.536658
            ],
            [
              -80.173216,
              25.530145
            ],
            [
              -80.17270331699996,
              25.526393363000068
            ],
            [
              -80.176275,
              25.525053
            ],
            [
              -80.177059,
              25.521704
            ],
            [
              -80.17558491399996,
              25.517567889000077
            ],
            [
              -80.17751322999999,
              25.518310319000022
            ],
            [
              -80.17864990199996,
              25.51615333600006
            ],
            [
              -80.178222,
              25.51143
            ],
            [
              -80.18064880399999,
              25.509916025000052
            ],
            [
              -80.179587,
              25.507623
            ],
            [
              -80.183455,
              25.5051
            ],
            [
              -80.187853,
              25.505742
            ],
            [
              -80.18972015399999,
              25.504091263000078
            ],
            [
              -80.18709564199997,
              25.481245041000022
            ],
            [
              -80.19216918899997,
              25.47159576400003
            ],
            [
              -80.193915,
              25.459989
            ],
            [
              -80.202856,
              25.437419
            ],
            [
              -80.206695,
              25.431135
            ],
            [
              -80.21215,
              25.42774
            ],
            [
              -80.2097,
              25.425699
            ],
            [
              -80.210356,
              25.420607
            ],
            [
              -80.20838928199998,
              25.415527344000054
            ],
            [
              -80.216994,
              25.40556
            ],
            [
              -80.222348,
              25.40588
            ],
            [
              -80.228584,
              25.399318
            ],
            [
              -80.230552,
              25.395464
            ],
            [
              -80.227596,
              25.390832
            ],
            [
              -80.22912597699997,
              25.38311767600004
            ],
            [
              -80.23201751699997,
              25.387481689000026
            ],
            [
              -80.239284,
              25.385415402000035
            ],
            [
              -80.238248,
              25.381929402000026
            ],
            [
              -80.239737,
              25.381241
            ],
            [
              -80.238424,
              25.380508402000032
            ],
            [
              -80.24132537799994,
              25.376131058000055
            ],
            [
              -80.23831939699994,
              25.376379013000076
            ],
            [
              -80.237889,
              25.374139402000026
            ],
            [
              -80.243566,
              25.36521440200005
            ],
            [
              -80.243438,
              25.363242402000026
            ],
            [
              -80.24495535899996,
              25.364387391000037
            ],
            [
              -80.246946,
              25.361520402000053
            ],
            [
              -80.24897003199999,
              25.36241531400003
            ],
            [
              -80.250712,
              25.36481340200004
            ],
            [
              -80.24929809599996,
              25.367002487000036
            ],
            [
              -80.25049685299996,
              25.368123828000023
            ],
            [
              -80.253706,
              25.367644402000053
            ],
            [
              -80.256308,
              25.364089402000047
            ],
            [
              -80.258428,
              25.364297402000034
            ],
            [
              -80.25859832799995,
              25.359062195000035
            ],
            [
              -80.25706831899998,
              25.358744924000064
            ],
            [
              -80.262774,
              25.354092
            ],
            [
              -80.256474,
              25.350692
            ],
            [
              -80.24991463799995,
              25.341794023000034
            ],
            [
              -80.25273118599995,
              25.339747799000065
            ],
            [
              -80.25689697299998,
              25.34121699600007
            ],
            [
              -80.26269531299994,
              25.347991898000032
            ],
            [
              -80.26391601599994,
              25.345794632000036
            ],
            [
              -80.26489257799994,
              25.348236039000028
            ],
            [
              -80.27160644499997,
              25.34780879300007
            ],
            [
              -80.27416992199994,
              25.345794632000036
            ],
            [
              -80.27392578099995,
              25.34332275400004
            ],
            [
              -80.26977539099994,
              25.34350585900006
            ],
            [
              -80.27032470699999,
              25.341125488000046
            ],
            [
              -80.26660156299994,
              25.338684082000043
            ],
            [
              -80.26361083999996,
              25.339904785000044
            ],
            [
              -80.26576995799996,
              25.337490082000045
            ],
            [
              -80.26470947299998,
              25.336486816000047
            ],
            [
              -80.25500852,
              25.336486816000047
            ],
            [
              -80.25692655699999,
              25.333275333000074
            ],
            [
              -80.26147460899995,
              25.334808304000035
            ],
            [
              -80.26898193399995,
              25.334625199000072
            ],
            [
              -80.26910400399998,
              25.332611039000028
            ],
            [
              -80.27288818399995,
              25.334381058000076
            ],
            [
              -80.27539062499994,
              25.331024125000056
            ],
            [
              -80.27960205099998,
              25.331024125000056
            ],
            [
              -80.281799316,
              25.328033402000074
            ],
            [
              -80.28965322399995,
              25.323828519000074
            ],
            [
              -80.29020488499998,
              25.319269717000054
            ],
            [
              -80.28601074199997,
              25.318633988000045
            ],
            [
              -80.29010009899997,
              25.318389848000038
            ],
            [
              -80.29101562499994,
              25.314880371000072
            ],
            [
              -80.29571533199999,
              25.312927246000072
            ],
            [
              -80.29870605499997,
              25.308471680000025
            ],
            [
              -80.30450439499998,
              25.30572509800004
            ],
            [
              -80.30657958999996,
              25.30108642600004
            ],
            [
              -80.32940673799999,
              25.286926270000038
            ],
            [
              -80.33020019499997,
              25.282714844000054
            ],
            [
              -80.33020019499997,
              25.285888672000056
            ],
            [
              -80.33679199199997,
              25.287719727000024
            ],
            [
              -80.33990478499999,
              25.291076660000044
            ],
            [
              -80.34252929699994,
              25.290710449000073
            ],
            [
              -80.34448242199994,
              25.287719727000024
            ],
            [
              -80.35070800799997,
              25.28668212900004
            ],
            [
              -80.35522460899995,
              25.283874512000068
            ],
            [
              -80.36480532999997,
              25.285727510000072
            ],
            [
              -80.37985229499998,
              25.292594910000048
            ],
            [
              -80.38520136399995,
              25.29732393000006
            ],
            [
              -80.385805,
              25.301773
            ],
            [
              -80.380153,
              25.301565
            ],
            [
              -80.38267517099996,
              25.304822922000028
            ],
            [
              -80.38113403299997,
              25.312713623000036
            ],
            [
              -80.37689208999996,
              25.312871933000054
            ],
            [
              -80.37441253699996,
              25.310945511000057
            ],
            [
              -80.376011,
              25.309614
            ],
            [
              -80.373416,
              25.309707
            ],
            [
              -80.373544,
              25.312781
            ],
            [
              -80.37606048599997,
              25.313789368000073
            ],
            [
              -80.37477874799998,
              25.318136215000038
            ],
            [
              -80.372487,
              25.319066
            ],
            [
              -80.37054443399995,
              25.31748390200005
            ],
            [
              -80.371706,
              25.322185
            ],
            [
              -80.36537221299994,
              25.324321712000028
            ],
            [
              -80.365475,
              25.326913
            ],
            [
              -80.36295318599997,
              25.32870292700005
            ],
            [
              -80.35091400099998,
              25.32808685300006
            ],
            [
              -80.35253143299997,
              25.330333710000048
            ],
            [
              -80.344984,
              25.333112
            ],
            [
              -80.343823,
              25.33267640200006
            ],
            [
              -80.345008,
              25.331185
            ],
            [
              -80.34246063199998,
              25.331186295000066
            ],
            [
              -80.333855,
              25.342517
            ],
            [
              -80.33413696299993,
              25.344076157000075
            ],
            [
              -80.33337485099997,
              25.34332194600006
            ],
            [
              -80.33143615899996,
              25.34570504100003
            ],
            [
              -80.327118,
              25.356074
            ],
            [
              -80.322801,
              25.361464
            ],
            [
              -80.313082,
              25.368047
            ],
            [
              -80.31058502199994,
              25.37224388100003
            ],
            [
              -80.308811,
              25.384043
            ],
            [
              -80.30607604999994,
              25.385591507000072
            ],
            [
              -80.30877550399998,
              25.390384453000024
            ],
            [
              -80.311675,
              25.387091
            ],
            [
              -80.31069946299993,
              25.387441635000073
            ],
            [
              -80.30940246599994,
              25.386236191000023
            ],
            [
              -80.310032,
              25.382055
            ],
            [
              -80.31257909199996,
              25.381391328000063
            ],
            [
              -80.31247711199995,
              25.378690720000066
            ],
            [
              -80.31351470899995,
              25.38301277200003
            ],
            [
              -80.31497192399996,
              25.380594254000073
            ],
            [
              -80.31487504199998,
              25.381888375000074
            ],
            [
              -80.31583,
              25.380613
            ],
            [
              -80.31626129199998,
              25.381544113000075
            ],
            [
              -80.31633758499999,
              25.38260841400006
            ],
            [
              -80.314975,
              25.383591
            ],
            [
              -80.31797790499996,
              25.387090683000054
            ],
            [
              -80.31647503799996,
              25.388890996000043
            ],
            [
              -80.31937,
              25.388029
            ],
            [
              -80.32107547399994,
              25.391789965000044
            ],
            [
              -80.32397489499994,
              25.393798339000057
            ],
            [
              -80.325016,
              25.392399402000024
            ],
            [
              -80.329517,
              25.398861402000023
            ],
            [
              -80.327775,
              25.40239
            ],
            [
              -80.32682270099997,
              25.401723309000033
            ],
            [
              -80.32901763899997,
              25.407226562000062
            ],
            [
              -80.326939,
              25.410256
            ],
            [
              -80.32533862399998,
              25.409646188000067
            ],
            [
              -80.32778930699999,
              25.41652870200005
            ],
            [
              -80.32584381099997,
              25.41883277900007
            ],
            [
              -80.328449,
              25.420246402000032
            ],
            [
              -80.32664073699993,
              25.42070194000007
            ],
            [
              -80.32631683299996,
              25.423763275000056
            ],
            [
              -80.328675,
              25.42529740200007
            ],
            [
              -80.32946014399994,
              25.428173065000067
            ],
            [
              -80.327175,
              25.430989
            ],
            [
              -80.32496013299993,
              25.43085001000003
            ],
            [
              -80.325123,
              25.433918
            ],
            [
              -80.322758,
              25.435104
            ],
            [
              -80.32169341999997,
              25.432880402000023
            ],
            [
              -80.32163238499999,
              25.43561554000007
            ],
            [
              -80.31720077399996,
              25.438753890000044
            ],
            [
              -80.321875,
              25.437097402000063
            ],
            [
              -80.32637518299998,
              25.43799683900005
            ],
            [
              -80.32897949199997,
              25.434253693000073
            ],
            [
              -80.330082,
              25.43457740200006
            ],
            [
              -80.32682037399996,
              25.43835449200003
            ],
            [
              -80.33136749299996,
              25.443088531000058
            ],
            [
              -80.33040618899997,
              25.450323105000052
            ],
            [
              -80.33646,
              25.456564402000026
            ],
            [
              -80.33408355699999,
              25.46490097000003
            ],
            [
              -80.34037780799997,
              25.47039604200006
            ],
            [
              -80.34057617199994,
              25.493387222000024
            ],
            [
              -80.33714391499996,
              25.493778100000043
            ],
            [
              -80.340775,
              25.498387
            ],
            [
              -80.33557891799995,
              25.50678634600007
            ],
            [
              -80.33240543499994,
              25.50411168000005
            ],
            [
              -80.33327490299996,
              25.507494025000028
            ],
            [
              -80.33577728299997,
              25.50968742400005
            ],
            [
              -80.33097839399994,
              25.51798629800004
            ],
            [
              -80.33027648899997,
              25.53068542500006
            ],
            [
              -80.32087707499994,
              25.53898429900005
            ],
            [
              -80.316475,
              25.540785
            ],
            [
              -80.315375,
              25.538585
            ],
            [
              -80.31695470099999,
              25.537999745000036
            ],
            [
              -80.31647491499996,
              25.53598594700003
            ],
            [
              -80.313775,
              25.536285
            ],
            [
              -80.31288438899998,
              25.544992539000077
            ],
            [
              -80.31607818599997,
              25.545093536000024
            ],
            [
              -80.315875,
              25.547785
            ],
            [
              -80.314575,
              25.550385
            ],
            [
              -80.314375,
              25.547785
            ],
            [
              -80.31187495399996,
              25.546385127000065
            ],
            [
              -80.308374,
              25.555884
            ],
            [
              -80.30689289799994,
              25.564801356000032
            ],
            [
              -80.307774,
              25.567484
            ],
            [
              -80.30657268599998,
              25.565385176000063
            ],
            [
              -80.302774,
              25.568784
            ],
            [
              -80.308474,
              25.586491402000036
            ],
            [
              -80.308674,
              25.607583
            ],
            [
              -80.305874,
              25.615282
            ],
            [
              -80.29858398399995,
              25.619874954000068
            ],
            [
              -80.298874,
              25.626482
            ],
            [
              -80.28823175599996,
              25.630090402000064
            ],
            [
              -80.29847717299998,
              25.63099098200007
            ],
            [
              -80.29130912899996,
              25.630784337000023
            ],
            [
              -80.295074,
              25.635981
            ],
            [
              -80.291273,
              25.633582
            ],
            [
              -80.29106907499994,
              25.630982
            ],
            [
              -80.28877258299997,
              25.63099098200007
            ],
            [
              -80.28798163699997,
              25.63627738200006
            ],
            [
              -80.290973,
              25.63309040200005
            ],
            [
              -80.29117584199997,
              25.634580612000036
            ],
            [
              -80.28612099899993,
              25.641217942000026
            ],
            [
              -80.28977203399995,
              25.643388748000064
            ],
            [
              -80.291073,
              25.642589402000056
            ],
            [
              -80.289073,
              25.643981
            ],
            [
              -80.283673,
              25.642681
            ],
            [
              -80.28607177699996,
              25.640089035000074
            ],
            [
              -80.28794032499997,
              25.633101047000025
            ],
            [
              -80.28217315699999,
              25.637481689000026
            ],
            [
              -80.28407954599999,
              25.634562309000046
            ],
            [
              -80.281973,
              25.634481
            ],
            [
              -80.28047233899997,
              25.62718341300007
            ],
            [
              -80.27540657699996,
              25.638009243000056
            ],
            [
              -80.277573,
              25.639381
            ],
            [
              -80.27227282899997,
              25.638881411000057
            ],
            [
              -80.269045,
              25.643489
            ],
            [
              -80.26877593999995,
              25.650588989000028
            ],
            [
              -80.270073,
              25.648589402000027
            ],
            [
              -80.270173,
              25.65068940200007
            ],
            [
              -80.27046966599994,
              25.648689270000034
            ],
            [
              -80.27137287099998,
              25.650688179000042
            ],
            [
              -80.272473,
              25.648789402000034
            ],
            [
              -80.27277370799999,
              25.65068940200007
            ],
            [
              -80.273373,
              25.648889402000066
            ],
            [
              -80.27516758799999,
              25.650588989000028
            ],
            [
              -80.27537536599993,
              25.648889542000063
            ],
            [
              -80.27537536599993,
              25.650489807000042
            ],
            [
              -80.275973,
              25.649089402000072
            ],
            [
              -80.275973,
              25.65068940200007
            ],
            [
              -80.27767181399997,
              25.65108871500007
            ],
            [
              -80.277873,
              25.64928940200008
            ],
            [
              -80.27817535399998,
              25.653089402000035
            ],
            [
              -80.28277587899998,
              25.65358161900008
            ],
            [
              -80.27827453599997,
              25.65358161900008
            ],
            [
              -80.27897643999995,
              25.65578079200003
            ],
            [
              -80.277873,
              25.656081
            ],
            [
              -80.277273,
              25.651781
            ],
            [
              -80.26587676999998,
              25.651281357000073
            ],
            [
              -80.27557372999996,
              25.65248107900004
            ],
            [
              -80.26397705099998,
              25.65268135100007
            ],
            [
              -80.26787567099996,
              25.653289795000035
            ],
            [
              -80.26370239299996,
              25.66789245600006
            ],
            [
              -80.265773,
              25.66828
            ],
            [
              -80.26157379199998,
              25.670579910000072
            ],
            [
              -80.25920200499996,
              25.676723862000074
            ],
            [
              -80.26027060799998,
              25.677986757000042
            ],
            [
              -80.265173,
              25.673588402000064
            ],
            [
              -80.26917266799995,
              25.672080994000055
            ],
            [
              -80.261072,
              25.67868
            ],
            [
              -80.25570793499998,
              25.67738422800005
            ],
            [
              -80.25887291999999,
              25.681888425000068
            ],
            [
              -80.266772,
              25.682088402000034
            ],
            [
              -80.266772,
              25.68578
            ],
            [
              -80.26657104499998,
              25.682380676000037
            ],
            [
              -80.264972,
              25.682380676000037
            ],
            [
              -80.264972,
              25.68458
            ],
            [
              -80.26088714599996,
              25.683980946000077
            ],
            [
              -80.26107187999997,
              25.68548731900006
            ],
            [
              -80.26357269299996,
              25.68507957500003
            ],
            [
              -80.260372,
              25.68628
            ],
            [
              -80.26016998299997,
              25.683488846000046
            ],
            [
              -80.26456451399997,
              25.68358802800003
            ],
            [
              -80.26447205199997,
              25.682380676000037
            ],
            [
              -80.25907197699996,
              25.682380676000037
            ],
            [
              -80.259372,
              25.686988402000054
            ],
            [
              -80.264572,
              25.685588402000064
            ],
            [
              -80.26253586099995,
              25.68787366500004
            ],
            [
              -80.26817321799996,
              25.686588287000063
            ],
            [
              -80.266772,
              25.68858
            ],
            [
              -80.25907174199995,
              25.689786971000046
            ],
            [
              -80.267572,
              25.690379
            ],
            [
              -80.26607513399995,
              25.693078995000064
            ],
            [
              -80.26216888399995,
              25.693979263000074
            ],
            [
              -80.250672,
              25.693579
            ],
            [
              -80.25106811499995,
              25.690479279000044
            ],
            [
              -80.24937438999996,
              25.690479279000044
            ],
            [
              -80.246172,
              25.698979
            ],
            [
              -80.24498,
              25.698383402000047
            ],
            [
              -80.245272,
              25.701887402000068
            ],
            [
              -80.247047,
              25.703130402000056
            ],
            [
              -80.248972,
              25.701487402000055
            ],
            [
              -80.257272,
              25.70218740200005
            ],
            [
              -80.25070185599998,
              25.702639817000033
            ],
            [
              -80.25302886999998,
              25.70418167100007
            ],
            [
              -80.24861992999996,
              25.704052129000047
            ],
            [
              -80.25967407199994,
              25.70527839700003
            ],
            [
              -80.251672,
              25.705579
            ],
            [
              -80.251372,
              25.707379
            ],
            [
              -80.251172,
              25.705479
            ],
            [
              -80.25016784699994,
              25.707078934000037
            ],
            [
              -80.24927518299995,
              25.704880196000033
            ],
            [
              -80.24897003199999,
              25.706779480000023
            ],
            [
              -80.24797196799994,
              25.704479736000053
            ],
            [
              -80.247572,
              25.706779
            ],
            [
              -80.24647486199996,
              25.704079859000046
            ],
            [
              -80.24588937899995,
              25.706021071000066
            ],
            [
              -80.248666,
              25.711273402000074
            ],
            [
              -80.251872,
              25.711579
            ],
            [
              -80.24880233899995,
              25.711678022000058
            ],
            [
              -80.249672,
              25.714679
            ],
            [
              -80.24598518899995,
              25.716073583000025
            ],
            [
              -80.247172,
              25.717578
            ],
            [
              -80.24557454099994,
              25.716679429000067
            ],
            [
              -80.23827362099996,
              25.72717857400005
            ],
            [
              -80.23587066399995,
              25.726078336000057
            ],
            [
              -80.23313271899997,
              25.727765756000053
            ],
            [
              -80.232971191,
              25.73177909900005
            ],
            [
              -80.22990417499994,
              25.732370377000052
            ],
            [
              -80.22837066699998,
              25.735778809000067
            ],
            [
              -80.22589882599993,
              25.734468724000067
            ],
            [
              -80.22687530499996,
              25.73657798800008
            ],
            [
              -80.224571,
              25.735078
            ],
            [
              -80.221771,
              25.736378
            ],
            [
              -80.22050654499998,
              25.737739720000036
            ],
            [
              -80.22267150899995,
              25.738878250000027
            ],
            [
              -80.214384,
              25.738183
            ],
            [
              -80.21028900099998,
              25.74086570700007
            ],
            [
              -80.20907,
              25.745077
            ],
            [
              -80.20207214399994,
              25.74797630300003
            ],
            [
              -80.19637298599997,
              25.75367736800007
            ],
            [
              -80.18898862799995,
              25.757944286000054
            ],
            [
              -80.18807983399995,
              25.768892288000075
            ],
            [
              -80.18997192399996,
              25.769977570000037
            ],
            [
              -80.185169,
              25.771376
            ],
            [
              -80.185169,
              25.776076
            ],
            [
              -80.18301482299995,
              25.777707313000064
            ],
            [
              -80.186069,
              25.77758440200006
            ],
            [
              -80.18547058099995,
              25.781784058000028
            ],
            [
              -80.187869,
              25.782384402000048
            ],
            [
              -80.18537141299998,
              25.782875614000034
            ],
            [
              -80.18547058099995,
              25.79438400300006
            ],
            [
              -80.186969,
              25.796976
            ],
            [
              -80.18547056699998,
              25.798074858000064
            ],
            [
              -80.185269,
              25.80268340200007
            ],
            [
              -80.18656921399997,
              25.80337524400005
            ],
            [
              -80.18527221699998,
              25.804176331000065
            ],
            [
              -80.185169,
              25.810275
            ],
            [
              -80.18129096299998,
              25.81055875900006
            ],
            [
              -80.18576812699996,
              25.812083105000056
            ],
            [
              -80.18617248499999,
              25.810783386000026
            ],
            [
              -80.18627166699997,
              25.81347465500005
            ],
            [
              -80.18276977499994,
              25.816274643000042
            ],
            [
              -80.18447112999996,
              25.82047462500003
            ],
            [
              -80.18316650399998,
              25.821275711000055
            ],
            [
              -80.17816922399999,
              25.821375028000034
            ],
            [
              -80.18077087399996,
              25.832473755000024
            ],
            [
              -80.179369,
              25.837874
            ],
            [
              -80.17463073599998,
              25.841291686000034
            ],
            [
              -80.17538452099996,
              25.843288422000057
            ],
            [
              -80.17906951899994,
              25.844982147000053
            ],
            [
              -80.179169,
              25.846674
            ],
            [
              -80.17327117899998,
              25.844974518000072
            ],
            [
              -80.17327117899998,
              25.85047340400007
            ],
            [
              -80.17211162699994,
              25.851178849000064
            ],
            [
              -80.17327117899998,
              25.851373672000022
            ],
            [
              -80.171968,
              25.852181402000042
            ],
            [
              -80.176569,
              25.852274
            ],
            [
              -80.17176816599994,
              25.852872990000037
            ],
            [
              -80.17148591599994,
              25.854680918000042
            ],
            [
              -80.17517089799998,
              25.854972839000027
            ],
            [
              -80.17137114199994,
              25.85507291700003
            ],
            [
              -80.17117339599997,
              25.856981274000077
            ],
            [
              -80.175369,
              25.856881402000056
            ],
            [
              -80.17118082199994,
              25.857472404000077
            ],
            [
              -80.175469,
              25.858573
            ],
            [
              -80.17137145999999,
              25.858774185000073
            ],
            [
              -80.17066955599995,
              25.86757278400006
            ],
            [
              -80.16770935099998,
              25.86856079100005
            ],
            [
              -80.17066955599995,
              25.869672775000026
            ],
            [
              -80.16686913599995,
              25.869074988000023
            ],
            [
              -80.16484864199998,
              25.871381402000054
            ],
            [
              -80.163668,
              25.879073
            ],
            [
              -80.15762626399999,
              25.882031943000072
            ],
            [
              -80.16017150899995,
              25.884372711000026
            ],
            [
              -80.15756891199999,
              25.882572829000026
            ],
            [
              -80.15663921299995,
              25.88304148000003
            ],
            [
              -80.15847015399999,
              25.885272980000025
            ],
            [
              -80.15626647199997,
              25.883273273000043
            ],
            [
              -80.15747070299994,
              25.88597106900005
            ],
            [
              -80.15460497899994,
              25.884712759000024
            ],
            [
              -80.15676879899996,
              25.887172699000075
            ],
            [
              -80.15426672599995,
              25.88507301900006
            ],
            [
              -80.155968,
              25.887472
            ],
            [
              -80.153168,
              25.885972
            ],
            [
              -80.15140533399995,
              25.889307022000025
            ],
            [
              -80.152568,
              25.889972
            ],
            [
              -80.14923095699999,
              25.894081116000052
            ],
            [
              -80.153268,
              25.894180402000075
            ],
            [
              -80.153268,
              25.895972
            ],
            [
              -80.15246619899995,
              25.89457230000005
            ],
            [
              -80.15216827399996,
              25.89607238800005
            ],
            [
              -80.15146636999998,
              25.894672394000054
            ],
            [
              -80.15097045899995,
              25.89607238800005
            ],
            [
              -80.14826840599994,
              25.894872
            ],
            [
              -80.14266967799995,
              25.900972366000076
            ],
            [
              -80.13636747199996,
              25.903271843000027
            ],
            [
              -80.13569641099997,
              25.905578613000046
            ],
            [
              -80.13787078899998,
              25.905578613000046
            ],
            [
              -80.13896942099996,
              25.909370422000052
            ],
            [
              -80.13759694499998,
              25.909241055000052
            ],
            [
              -80.13986968999995,
              25.913471222000055
            ],
            [
              -80.13646697999997,
              25.910371780000048
            ],
            [
              -80.13396453899998,
              25.916070938000075
            ],
            [
              -80.13494110099998,
              25.912460327000076
            ],
            [
              -80.132367,
              25.912579402000063
            ],
            [
              -80.13510824699995,
              25.908659984000053
            ],
            [
              -80.133567,
              25.908371
            ],
            [
              -80.13433837899998,
              25.906055450000053
            ],
            [
              -80.13146972699997,
              25.905071259000067
            ],
            [
              -80.128167,
              25.912271
            ],
            [
              -80.12787160799996,
              25.917588059000025
            ],
            [
              -80.131167,
              25.923779402000036
            ],
            [
              -80.13107301599996,
              25.928279001000078
            ],
            [
              -80.13256835899995,
              25.928178787000036
            ],
            [
              -80.13054162499998,
              25.930125795000038
            ],
            [
              -80.13345336899994,
              25.937944412000036
            ]
          ],
          [
            [
              -80.12639769499998,
              25.92766934900004
            ],
            [
              -80.13001894899998,
              25.92557550500004
            ],
            [
              -80.12348937999997,
              25.92671585100004
            ],
            [
              -80.12807464599996,
              25.92620468100006
            ],
            [
              -80.12639769499998,
              25.92766934900004
            ]
          ],
          [
            [
              -80.123767,
              25.925578664000057
            ],
            [
              -80.12886701599996,
              25.92487922500004
            ],
            [
              -80.12895849899996,
              25.923872107000022
            ],
            [
              -80.12386695599997,
              25.924371353000026
            ],
            [
              -80.123767,
              25.925578664000057
            ]
          ],
          [
            [
              -80.12356584999998,
              25.923778540000058
            ],
            [
              -80.12899301299996,
              25.922798399000044
            ],
            [
              -80.12322235099998,
              25.92351913500005
            ],
            [
              -80.12356584999998,
              25.923778540000058
            ]
          ],
          [
            [
              -80.13416290299995,
              25.893482208000023
            ],
            [
              -80.13366699199997,
              25.883472443000073
            ],
            [
              -80.12966918899997,
              25.88057327300004
            ],
            [
              -80.12827637599997,
              25.883055411000043
            ],
            [
              -80.129167,
              25.887880402000064
            ],
            [
              -80.13047027599998,
              25.891580582000074
            ],
            [
              -80.13416290299995,
              25.893482208000023
            ]
          ],
          [
            [
              -80.134767,
              25.892680402000053
            ],
            [
              -80.13856506299999,
              25.889881134000063
            ],
            [
              -80.13915252699996,
              25.885959625000055
            ],
            [
              -80.137467,
              25.884072
            ],
            [
              -80.13427100299998,
              25.88368050200006
            ],
            [
              -80.134767,
              25.892680402000053
            ]
          ],
          [
            [
              -80.143768,
              25.859081402000072
            ],
            [
              -80.145568,
              25.853173
            ],
            [
              -80.143768,
              25.850573
            ],
            [
              -80.13946601499998,
              25.848774242000047
            ],
            [
              -80.12568188199998,
              25.85267069100007
            ],
            [
              -80.131767,
              25.860881402000075
            ],
            [
              -80.139267,
              25.860881402000075
            ],
            [
              -80.143768,
              25.859081402000072
            ]
          ],
          [
            [
              -80.12525176999998,
              25.84959602400005
            ],
            [
              -80.12376424099995,
              25.842474637000066
            ],
            [
              -80.12248243399995,
              25.84277043800006
            ],
            [
              -80.123767,
              25.84988140200005
            ],
            [
              -80.12525176999998,
              25.84959602400005
            ]
          ],
          [
            [
              -80.12696838399995,
              25.84918022200003
            ],
            [
              -80.13006619799995,
              25.849481324000067
            ],
            [
              -80.13262939499998,
              25.84711647000006
            ],
            [
              -80.127367,
              25.846274
            ],
            [
              -80.12609863299997,
              25.84686088600006
            ],
            [
              -80.12696838399995,
              25.84918022200003
            ]
          ],
          [
            [
              -80.146068,
              25.848374
            ],
            [
              -80.155468,
              25.850274
            ],
            [
              -80.155268,
              25.843974
            ],
            [
              -80.146168,
              25.844074
            ],
            [
              -80.146068,
              25.848374
            ]
          ],
          [
            [
              -80.157068,
              25.843774
            ],
            [
              -80.157168,
              25.854773
            ],
            [
              -80.158368,
              25.854673
            ],
            [
              -80.158168,
              25.849974
            ],
            [
              -80.160268,
              25.854673
            ],
            [
              -80.159968,
              25.843874
            ],
            [
              -80.157068,
              25.843774
            ]
          ],
          [
            [
              -80.13765709699999,
              25.821395780000046
            ],
            [
              -80.13766479499998,
              25.818382263000046
            ],
            [
              -80.141568,
              25.811383402000047
            ],
            [
              -80.14471167799996,
              25.81062806600005
            ],
            [
              -80.133967,
              25.809675
            ],
            [
              -80.130367,
              25.82228240200004
            ],
            [
              -80.13426900899998,
              25.825480996000067
            ],
            [
              -80.13765709699999,
              25.821395780000046
            ]
          ],
          [
            [
              -80.17867279099994,
              25.82027435300006
            ],
            [
              -80.18306744599994,
              25.821075
            ],
            [
              -80.18376899699996,
              25.81937500400005
            ],
            [
              -80.18237026499997,
              25.816677238000068
            ],
            [
              -80.17867279099994,
              25.82027435300006
            ]
          ],
          [
            [
              -80.20056915299995,
              25.746776581000063
            ],
            [
              -80.19957,
              25.745677
            ],
            [
              -80.18946933699993,
              25.74577712000007
            ],
            [
              -80.19087219199997,
              25.746276855000076
            ],
            [
              -80.20056915299995,
              25.746776581000063
            ]
          ],
          [
            [
              -80.22026824999995,
              25.735177994000026
            ],
            [
              -80.21967145699995,
              25.733678343000065
            ],
            [
              -80.21697235099998,
              25.736078262000035
            ],
            [
              -80.21836852999996,
              25.736877441000047
            ],
            [
              -80.22026824999995,
              25.735177994000026
            ]
          ],
          [
            [
              -80.25140002999996,
              25.692790906000027
            ],
            [
              -80.25297209499996,
              25.692987023000057
            ],
            [
              -80.25337219199997,
              25.691387177000024
            ],
            [
              -80.25487473399994,
              25.69268722000004
            ],
            [
              -80.25717163099995,
              25.691286087000037
            ],
            [
              -80.258172,
              25.692387402000065
            ],
            [
              -80.266172,
              25.691987402000052
            ],
            [
              -80.26645564299997,
              25.690380091000065
            ],
            [
              -80.25207519499997,
              25.690679550000027
            ],
            [
              -80.25140002999996,
              25.692790906000027
            ]
          ],
          [
            [
              -80.25856780999999,
              25.689786911000056
            ],
            [
              -80.25767369099998,
              25.68628202900004
            ],
            [
              -80.252572,
              25.689379
            ],
            [
              -80.25237224699998,
              25.68727924700005
            ],
            [
              -80.24976348899997,
              25.689987183000028
            ],
            [
              -80.25856780999999,
              25.689786911000056
            ]
          ],
          [
            [
              -80.17596988799994,
              25.687578201000065
            ],
            [
              -80.17826843299997,
              25.68637847900004
            ],
            [
              -80.17797024799995,
              25.68578149700005
            ],
            [
              -80.16957092299998,
              25.681680679000067
            ],
            [
              -80.16947174099994,
              25.683679581000035
            ],
            [
              -80.17596988799994,
              25.687578201000065
            ]
          ],
          [
            [
              -80.26737233799997,
              25.65068948000004
            ],
            [
              -80.26757812199997,
              25.647838507000074
            ],
            [
              -80.26739600099995,
              25.64748816200006
            ],
            [
              -80.267,
              25.650249
            ],
            [
              -80.26525231199997,
              25.650701688000026
            ],
            [
              -80.26737233799997,
              25.65068948000004
            ]
          ],
          [
            [
              -80.28392177799998,
              25.62247854700007
            ],
            [
              -80.28796386699997,
              25.620119095000064
            ],
            [
              -80.28627251599994,
              25.619582411000067
            ],
            [
              -80.28392177799998,
              25.62247854700007
            ]
          ],
          [
            [
              -80.303959,
              25.40532
            ],
            [
              -80.301575,
              25.40329
            ],
            [
              -80.299975,
              25.40629
            ],
            [
              -80.30203875399997,
              25.40682134000008
            ],
            [
              -80.303959,
              25.40532
            ]
          ],
          [
            [
              -80.23522186299994,
              25.400691986000027
            ],
            [
              -80.236441,
              25.397813
            ],
            [
              -80.23345982499995,
              25.396421435000036
            ],
            [
              -80.23307800299995,
              25.397964478000063
            ],
            [
              -80.22962188699995,
              25.399087906000034
            ],
            [
              -80.22904205299994,
              25.40291976900005
            ],
            [
              -80.23522186299994,
              25.400691986000027
            ]
          ],
          [
            [
              -80.242586,
              25.398518402000036
            ],
            [
              -80.246449,
              25.39677540200006
            ],
            [
              -80.24592590299994,
              25.393064499000047
            ],
            [
              -80.24303,
              25.39384
            ],
            [
              -80.24375152599998,
              25.395183563000046
            ],
            [
              -80.24224,
              25.394147
            ],
            [
              -80.24011993399995,
              25.395589828000027
            ],
            [
              -80.242586,
              25.398518402000036
            ]
          ],
          [
            [
              -80.237141249,
              25.393420724000066
            ],
            [
              -80.240951538,
              25.393716812000036
            ],
            [
              -80.24306487999996,
              25.39207840000006
            ],
            [
              -80.23888385799995,
              25.391515952000077
            ],
            [
              -80.237141249,
              25.393420724000066
            ]
          ],
          [
            [
              -80.23469342499999,
              25.394064169000046
            ],
            [
              -80.23267364499998,
              25.392528534000064
            ],
            [
              -80.23292541499995,
              25.39369773900006
            ],
            [
              -80.23469342499999,
              25.394064169000046
            ]
          ],
          [
            [
              -80.23233032199994,
              25.393810272000053
            ],
            [
              -80.23138427699996,
              25.393583298000067
            ],
            [
              -80.23211669899996,
              25.394086838000078
            ],
            [
              -80.23233032199994,
              25.393810272000053
            ]
          ],
          [
            [
              -80.23825073199998,
              25.391378403000033
            ],
            [
              -80.23645782499995,
              25.38903999300004
            ],
            [
              -80.23873120699994,
              25.388786303000074
            ],
            [
              -80.23892974899996,
              25.386608124000077
            ],
            [
              -80.235598,
              25.386471
            ],
            [
              -80.23304145499998,
              25.388729777000037
            ],
            [
              -80.23593038599995,
              25.39227431200004
            ],
            [
              -80.23825073199998,
              25.391378403000033
            ]
          ],
          [
            [
              -80.24143458799995,
              25.386587159000044
            ],
            [
              -80.24741363499999,
              25.387958527000023
            ],
            [
              -80.25067138699995,
              25.384899139000026
            ],
            [
              -80.25022888199999,
              25.38159561200007
            ],
            [
              -80.25127410899995,
              25.38409805300006
            ],
            [
              -80.25537109399994,
              25.380588531000058
            ],
            [
              -80.25608822299995,
              25.374042389000067
            ],
            [
              -80.254865,
              25.37175
            ],
            [
              -80.25367736799996,
              25.372827530000052
            ],
            [
              -80.25345331099999,
              25.368791567000073
            ],
            [
              -80.24922943099995,
              25.37104034400005
            ],
            [
              -80.249451,
              25.373263
            ],
            [
              -80.245594,
              25.379588
            ],
            [
              -80.241252,
              25.382455
            ],
            [
              -80.24143458799995,
              25.386587159000044
            ]
          ],
          [
            [
              -80.24291992199994,
              25.37859916700006
            ],
            [
              -80.242084,
              25.378305
            ],
            [
              -80.241983,
              25.378694402000065
            ],
            [
              -80.24291992199994,
              25.37859916700006
            ]
          ],
          [
            [
              -80.241957,
              25.377433402000065
            ],
            [
              -80.24412536599993,
              25.376214981000032
            ],
            [
              -80.24339392599995,
              25.37539238200003
            ],
            [
              -80.241754,
              25.376171
            ],
            [
              -80.241957,
              25.377433402000065
            ]
          ],
          [
            [
              -80.24889373799994,
              25.370349884000063
            ],
            [
              -80.24682617199994,
              25.37324142500006
            ],
            [
              -80.24553680399998,
              25.372783661000028
            ],
            [
              -80.244604,
              25.373173
            ],
            [
              -80.244502,
              25.37104
            ],
            [
              -80.24420165499998,
              25.37413779700006
            ],
            [
              -80.245513,
              25.373104402000024
            ],
            [
              -80.24732971199995,
              25.37415283300004
            ],
            [
              -80.24889373799994,
              25.370349884000063
            ]
          ],
          [
            [
              -80.29028320299994,
              25.374788284000033
            ],
            [
              -80.287684,
              25.374352
            ],
            [
              -80.28867488599997,
              25.376290811000047
            ],
            [
              -80.29028320299994,
              25.374788284000033
            ]
          ],
          [
            [
              -80.29287719699994,
              25.379390717000035
            ],
            [
              -80.29416304399996,
              25.38527497700005
            ],
            [
              -80.29897308299996,
              25.38189125100007
            ],
            [
              -80.29794311499995,
              25.380475998000065
            ],
            [
              -80.29907226599994,
              25.379491806000033
            ],
            [
              -80.302464,
              25.380194
            ],
            [
              -80.303654,
              25.378366
            ],
            [
              -80.295175,
              25.376591
            ],
            [
              -80.29287719699994,
              25.379390717000035
            ]
          ],
          [
            [
              -80.24655914299996,
              25.39278030400004
            ],
            [
              -80.24859432199997,
              25.39505831400004
            ],
            [
              -80.250022888,
              25.394615173000034
            ],
            [
              -80.24812316899994,
              25.391994476000036
            ],
            [
              -80.24655914299996,
              25.39278030400004
            ]
          ],
          [
            [
              -80.315662,
              25.39454
            ],
            [
              -80.316135,
              25.39454
            ],
            [
              -80.31567499299996,
              25.394290135000062
            ],
            [
              -80.315662,
              25.39454
            ]
          ],
          [
            [
              -80.28577423099995,
              25.396690369000055
            ],
            [
              -80.28625488299997,
              25.39758491500004
            ],
            [
              -80.28720094299996,
              25.395595859000025
            ],
            [
              -80.28577423099995,
              25.396690369000055
            ]
          ],
          [
            [
              -80.31390380899995,
              25.384115219000023
            ],
            [
              -80.31277465799997,
              25.38369178800008
            ],
            [
              -80.31060002099997,
              25.387070700000038
            ],
            [
              -80.311832,
              25.38637
            ],
            [
              -80.31390380899995,
              25.384115219000023
            ]
          ],
          [
            [
              -80.31438445999999,
              25.383108139000058
            ],
            [
              -80.31440734899996,
              25.383680344000027
            ],
            [
              -80.31467430699996,
              25.382191016000036
            ],
            [
              -80.31438445999999,
              25.383108139000058
            ]
          ],
          [
            [
              -80.315128,
              25.382345
            ],
            [
              -80.315876,
              25.382174
            ],
            [
              -80.31567412599998,
              25.381492037000044
            ],
            [
              -80.315128,
              25.382345
            ]
          ],
          [
            [
              -80.26837158199999,
              25.34869384800004
            ],
            [
              -80.26287841799996,
              25.350280762000068
            ],
            [
              -80.25909423799999,
              25.348876953000058
            ],
            [
              -80.25755310099998,
              25.350223541000048
            ],
            [
              -80.26599121099997,
              25.352203324000072
            ],
            [
              -80.26927185099998,
              25.350023270000065
            ],
            [
              -80.26837158199999,
              25.34869384800004
            ]
          ],
          [
            [
              -80.27209472699997,
              25.342193558000076
            ],
            [
              -80.27471923799999,
              25.342193558000076
            ],
            [
              -80.27525329599996,
              25.33924675000003
            ],
            [
              -80.27257537799994,
              25.336301804000072
            ],
            [
              -80.27050781299994,
              25.336486816000047
            ],
            [
              -80.272740963,
              25.335441901000024
            ],
            [
              -80.27032470699999,
              25.334899902000075
            ],
            [
              -80.27001953099995,
              25.336486816000047
            ],
            [
              -80.26534452499999,
              25.33550099100006
            ],
            [
              -80.27209472699997,
              25.342193558000076
            ]
          ],
          [
            [
              -80.27337646499996,
              25.33551025400004
            ],
            [
              -80.27490234399994,
              25.337799027000074
            ],
            [
              -80.27648925899996,
              25.337615923000044
            ],
            [
              -80.27691650399998,
              25.33551025400004
            ],
            [
              -80.27337646499996,
              25.33551025400004
            ]
          ],
          [
            [
              -80.27880859399994,
              25.331481934000067
            ],
            [
              -80.27587890599995,
              25.331481934000067
            ],
            [
              -80.27503204299995,
              25.334014893000074
            ],
            [
              -80.27838134799998,
              25.333587601000033
            ],
            [
              -80.27880859399994,
              25.331481934000067
            ]
          ],
          [
            [
              -80.29449462899998,
              25.324279785000044
            ],
            [
              -80.29357910199997,
              25.32647705100004
            ],
            [
              -80.29510497999996,
              25.32769775400004
            ],
            [
              -80.29699706999997,
              25.325500488000046
            ],
            [
              -80.29449462899998,
              25.324279785000044
            ]
          ],
          [
            [
              -80.16057667399997,
              25.682880327000078
            ],
            [
              -80.16107071399995,
              25.683779878000053
            ],
            [
              -80.16526756499997,
              25.68348010300008
            ],
            [
              -80.16486902499997,
              25.682480062000025
            ],
            [
              -80.16057667399997,
              25.682880327000078
            ]
          ],
          [
            [
              -80.162769,
              25.684879
            ],
            [
              -80.166069,
              25.684979
            ],
            [
              -80.16625578999998,
              25.684280396000077
            ],
            [
              -80.164169,
              25.68398
            ],
            [
              -80.162769,
              25.684879
            ]
          ]
        ]
      }
    }
  ],
  "metadata": {
    "schema_version": "0.1.0",
    "wfo": "BIS",
    "layer": "marine_zones",
    "source": "https://www.weather.gov/source/gis/Shapefiles/WSOM/mz16ap26.zip",
    "public_release_status": "public-source-derived"
  }
}