{
  "type": "FeatureCollection",
  "metadata": {
    "schema_version": "0.2.4",
    "year": 2026,
    "month": 6,
    "wfo": "AFC",
    "start_utc": "2026-06-01T00:00:00Z",
    "end_utc": "2026-07-01T00:00:00Z",
    "generated_utc": "2026-07-29T11:34:10Z",
    "mode": "storm_data_prep",
    "public_release_status": "public-source-derived",
    "time_note": "Storm Data entry times should be reviewed in local Standard Time (ST), not daylight time. Candidate reports include standard_time_display.",
    "tornado_track_policy": "Tornado tracks must come from DAT. NCEI begin/end coordinates are not used as a tornado track substitute.",
    "source": "https://mesonet.agron.iastate.edu/cgi-bin/request/gis/lsr.py?wfo=AFC&sts=2026-06-01T00%3A00%3A00Z&ets=2026-07-01T00%3A00%3A00Z&fmt=csv"
  },
  "features": [
    {
      "type": "Feature",
      "id": "iem-lsr-AFC-1",
      "properties": {
        "report_id": "iem-lsr-AFC-1",
        "report_type": "RAIN",
        "event_category": "other",
        "valid_utc": "202606141816",
        "standard_time_display": "2026-06-14 09:16 AKST",
        "wfo": "AFC",
        "county_or_zone": "Chugach",
        "city": "5 E Valdez",
        "state": "AK",
        "magnitude": 0.31,
        "magnitude_units": null,
        "source": "Trained Spotter",
        "event_narrative": "50.2 degrees F_ raining."
      },
      "geometry": {
        "type": "Point",
        "coordinates": [
          -146.22,
          61.11
        ]
      }
    },
    {
      "type": "Feature",
      "id": "iem-lsr-AFC-2",
      "properties": {
        "report_id": "iem-lsr-AFC-2",
        "report_type": "RAIN",
        "event_category": "other",
        "valid_utc": "202606151510",
        "standard_time_display": "2026-06-15 06:10 AKST",
        "wfo": "AFC",
        "county_or_zone": "Chugach",
        "city": "5 E Valdez",
        "state": "AK",
        "magnitude": 0.18,
        "magnitude_units": null,
        "source": "Trained Spotter",
        "event_narrative": "46.8 degrees F_ overcast."
      },
      "geometry": {
        "type": "Point",
        "coordinates": [
          -146.22,
          61.11
        ]
      }
    }
  ]
}