{
  "type": "FeatureCollection",
  "metadata": {
    "schema_version": "0.2.4",
    "year": 2026,
    "month": 9,
    "wfo": "BIS",
    "start_utc": "2026-09-01T00:00:00Z",
    "end_utc": "2026-10-01T00:00:00Z",
    "generated_utc": "2026-09-29T15:45:47Z",
    "mode": "storm_data_prep",
    "public_release_status": "public-source-derived",
    "time_note": "Storm Data entry times should be reviewed in local Standard Time (ST), not daylight time. Candidate reports include standard_time_display.",
    "tornado_track_policy": "Tornado tracks must come from DAT. NCEI begin/end coordinates are not used as a tornado track substitute.",
    "source": "https://mesonet.agron.iastate.edu/cgi-bin/request/gis/lsr.py?wfo=BIS&sts=2026-09-01T00%3A00%3A00Z&ets=2026-10-01T00%3A00%3A00Z&fmt=csv"
  },
  "features": [
    {
      "type": "Feature",
      "id": "iem-lsr-BIS-1",
      "properties": {
        "report_id": "iem-lsr-BIS-1",
        "report_type": "HAIL",
        "event_category": "hail",
        "valid_utc": "202609030840",
        "standard_time_display": "2026-09-03 01:40 MST",
        "wfo": "BIS",
        "county_or_zone": "Williams",
        "city": "Williston",
        "state": "ND",
        "magnitude": 1.0,
        "magnitude_units": null,
        "source": "Trained Spotter",
        "event_narrative": "Multiple reports of penny to quarter size hail."
      },
      "geometry": {
        "type": "Point",
        "coordinates": [
          -103.63,
          48.15
        ]
      }
    },
    {
      "type": "Feature",
      "id": "iem-lsr-BIS-2",
      "properties": {
        "report_id": "iem-lsr-BIS-2",
        "report_type": "RAIN",
        "event_category": "other",
        "valid_utc": "202609030930",
        "standard_time_display": "2026-09-03 02:30 MST",
        "wfo": "BIS",
        "county_or_zone": "Williams",
        "city": "Williston",
        "state": "ND",
        "magnitude": 1.63,
        "magnitude_units": null,
        "source": "CO-OP Observer",
        "event_narrative": null
      },
      "geometry": {
        "type": "Point",
        "coordinates": [
          -103.63,
          48.16
        ]
      }
    },
    {
      "type": "Feature",
      "id": "iem-lsr-BIS-3",
      "properties": {
        "report_id": "iem-lsr-BIS-3",
        "report_type": "TSTM WND GST",
        "event_category": "thunderstorm_wind",
        "valid_utc": "202609031014",
        "standard_time_display": "2026-09-03 04:14 CST",
        "wfo": "BIS",
        "county_or_zone": "Ward",
        "city": "8 SSW Sawyer",
        "state": "ND",
        "magnitude": 62.0,
        "magnitude_units": null,
        "source": "Mesonet",
        "event_narrative": "10 m wind gust at NDAWN station Sawyer 7 S."
      },
      "geometry": {
        "type": "Point",
        "coordinates": [
          -101.09,
          47.98
        ]
      }
    },
    {
      "type": "Feature",
      "id": "iem-lsr-BIS-4",
      "properties": {
        "report_id": "iem-lsr-BIS-4",
        "report_type": "RAIN",
        "event_category": "other",
        "valid_utc": "202609031152",
        "standard_time_display": "2026-09-03 05:52 CST",
        "wfo": "BIS",
        "county_or_zone": "Ward",
        "city": "15 S Minot",
        "state": "ND",
        "magnitude": 4.0,
        "magnitude_units": null,
        "source": "Public",
        "event_narrative": "Very heavy rain fell in about 45 minutes. Also had pea size hail. Passed on to NWS by broadcast media partner."
      },
      "geometry": {
        "type": "Point",
        "coordinates": [
          -101.3,
          48.02
        ]
      }
    },
    {
      "type": "Feature",
      "id": "iem-lsr-BIS-5",
      "properties": {
        "report_id": "iem-lsr-BIS-5",
        "report_type": "HAIL",
        "event_category": "hail",
        "valid_utc": "202609031200",
        "standard_time_display": "2026-09-03 06:00 CST",
        "wfo": "BIS",
        "county_or_zone": "McHenry",
        "city": "3 NNE Simcoe",
        "state": "ND",
        "magnitude": 1.5,
        "magnitude_units": null,
        "source": "Public",
        "event_narrative": "Largest hail size reported."
      },
      "geometry": {
        "type": "Point",
        "coordinates": [
          -100.84,
          48.2
        ]
      }
    },
    {
      "type": "Feature",
      "id": "iem-lsr-BIS-6",
      "properties": {
        "report_id": "iem-lsr-BIS-6",
        "report_type": "RAIN",
        "event_category": "other",
        "valid_utc": "202609031220",
        "standard_time_display": "2026-09-03 05:20 MST",
        "wfo": "BIS",
        "county_or_zone": "Williams",
        "city": "Williston",
        "state": "ND",
        "magnitude": 1.63,
        "magnitude_units": null,
        "source": "CO-OP Observer",
        "event_narrative": "Storm total. Fell within 40 minutes."
      },
      "geometry": {
        "type": "Point",
        "coordinates": [
          -103.63,
          48.16
        ]
      }
    },
    {
      "type": "Feature",
      "id": "iem-lsr-BIS-7",
      "properties": {
        "report_id": "iem-lsr-BIS-7",
        "report_type": "RAIN",
        "event_category": "other",
        "valid_utc": "202609031223",
        "standard_time_display": "2026-09-03 05:23 MST",
        "wfo": "BIS",
        "county_or_zone": "Williams",
        "city": "1 ESE Williston",
        "state": "ND",
        "magnitude": 3.0,
        "magnitude_units": null,
        "source": "Public",
        "event_narrative": "Heavy rainfall on the east side of Williston. Relayed to NWS by broadcast media partner."
      },
      "geometry": {
        "type": "Point",
        "coordinates": [
          -103.61,
          48.15
        ]
      }
    },
    {
      "type": "Feature",
      "id": "iem-lsr-BIS-8",
      "properties": {
        "report_id": "iem-lsr-BIS-8",
        "report_type": "RAIN",
        "event_category": "other",
        "valid_utc": "202609031405",
        "standard_time_display": "2026-09-03 08:05 CST",
        "wfo": "BIS",
        "county_or_zone": "McHenry",
        "city": "Velva",
        "state": "ND",
        "magnitude": 1.3,
        "magnitude_units": null,
        "source": "Broadcast Media",
        "event_narrative": "Broadcast media relayed report. Storm total."
      },
      "geometry": {
        "type": "Point",
        "coordinates": [
          -100.93,
          48.06
        ]
      }
    },
    {
      "type": "Feature",
      "id": "iem-lsr-BIS-9",
      "properties": {
        "report_id": "iem-lsr-BIS-9",
        "report_type": "RAIN",
        "event_category": "other",
        "valid_utc": "202609031452",
        "standard_time_display": "2026-09-03 08:52 CST",
        "wfo": "BIS",
        "county_or_zone": "Ward",
        "city": "2 SE Rice Lake",
        "state": "ND",
        "magnitude": 2.31,
        "magnitude_units": null,
        "source": "Mesonet",
        "event_narrative": "NDAWN storm total."
      },
      "geometry": {
        "type": "Point",
        "coordinates": [
          -101.51,
          47.99
        ]
      }
    },
    {
      "type": "Feature",
      "id": "iem-lsr-BIS-10",
      "properties": {
        "report_id": "iem-lsr-BIS-10",
        "report_type": "RAIN",
        "event_category": "other",
        "valid_utc": "202609031452",
        "standard_time_display": "2026-09-03 08:52 CST",
        "wfo": "BIS",
        "county_or_zone": "McHenry",
        "city": "5 NNE Sawyer",
        "state": "ND",
        "magnitude": 2.4,
        "magnitude_units": null,
        "source": "Mesonet",
        "event_narrative": "NDAWN. Storm total."
      },
      "geometry": {
        "type": "Point",
        "coordinates": [
          -100.99,
          48.15
        ]
      }
    },
    {
      "type": "Feature",
      "id": "iem-lsr-BIS-11",
      "properties": {
        "report_id": "iem-lsr-BIS-11",
        "report_type": "RAIN",
        "event_category": "other",
        "valid_utc": "202609031507",
        "standard_time_display": "2026-09-03 09:07 CST",
        "wfo": "BIS",
        "county_or_zone": "Pierce",
        "city": "3 SSE Barton",
        "state": "ND",
        "magnitude": 2.22,
        "magnitude_units": null,
        "source": "Broadcast Media",
        "event_narrative": "Broadcast media relayed report."
      },
      "geometry": {
        "type": "Point",
        "coordinates": [
          -100.15,
          48.47
        ]
      }
    },
    {
      "type": "Feature",
      "id": "iem-lsr-BIS-12",
      "properties": {
        "report_id": "iem-lsr-BIS-12",
        "report_type": "RAIN",
        "event_category": "other",
        "valid_utc": "202609031511",
        "standard_time_display": "2026-09-03 09:11 CST",
        "wfo": "BIS",
        "county_or_zone": "McHenry",
        "city": "Denbigh",
        "state": "ND",
        "magnitude": 2.0,
        "magnitude_units": null,
        "source": "Broadcast Media",
        "event_narrative": "Broadcast media relayed report."
      },
      "geometry": {
        "type": "Point",
        "coordinates": [
          -100.59,
          48.32
        ]
      }
    },
    {
      "type": "Feature",
      "id": "iem-lsr-BIS-13",
      "properties": {
        "report_id": "iem-lsr-BIS-13",
        "report_type": "RAIN",
        "event_category": "other",
        "valid_utc": "202609031514",
        "standard_time_display": "2026-09-03 09:14 CST",
        "wfo": "BIS",
        "county_or_zone": "Ward",
        "city": "6 S Makoti",
        "state": "ND",
        "magnitude": 2.1,
        "magnitude_units": null,
        "source": "Broadcast Media",
        "event_narrative": "Broadcast media relayed report."
      },
      "geometry": {
        "type": "Point",
        "coordinates": [
          -101.81,
          47.88
        ]
      }
    },
    {
      "type": "Feature",
      "id": "iem-lsr-BIS-14",
      "properties": {
        "report_id": "iem-lsr-BIS-14",
        "report_type": "RAIN",
        "event_category": "other",
        "valid_utc": "202609031517",
        "standard_time_display": "2026-09-03 09:17 CST",
        "wfo": "BIS",
        "county_or_zone": "McHenry",
        "city": "4 E Granville",
        "state": "ND",
        "magnitude": 2.5,
        "magnitude_units": null,
        "source": "Broadcast Media",
        "event_narrative": "Broadcast media relayed report."
      },
      "geometry": {
        "type": "Point",
        "coordinates": [
          -100.76,
          48.27
        ]
      }
    },
    {
      "type": "Feature",
      "id": "iem-lsr-BIS-15",
      "properties": {
        "report_id": "iem-lsr-BIS-15",
        "report_type": "RAIN",
        "event_category": "other",
        "valid_utc": "202609031553",
        "standard_time_display": "2026-09-03 09:53 CST",
        "wfo": "BIS",
        "county_or_zone": "Pierce",
        "city": "2 E Selz",
        "state": "ND",
        "magnitude": 1.2,
        "magnitude_units": null,
        "source": "Broadcast Media",
        "event_narrative": "Broadcast media relayed report."
      },
      "geometry": {
        "type": "Point",
        "coordinates": [
          -99.85,
          47.86
        ]
      }
    },
    {
      "type": "Feature",
      "id": "iem-lsr-BIS-16",
      "properties": {
        "report_id": "iem-lsr-BIS-16",
        "report_type": "RAIN",
        "event_category": "other",
        "valid_utc": "202609031555",
        "standard_time_display": "2026-09-03 09:55 CST",
        "wfo": "BIS",
        "county_or_zone": "Ward",
        "city": "6 SW Sawyer",
        "state": "ND",
        "magnitude": 3.1,
        "magnitude_units": null,
        "source": "Broadcast Media",
        "event_narrative": "Broadcast media relayed report."
      },
      "geometry": {
        "type": "Point",
        "coordinates": [
          -101.14,
          48.03
        ]
      }
    },
    {
      "type": "Feature",
      "id": "iem-lsr-BIS-17",
      "properties": {
        "report_id": "iem-lsr-BIS-17",
        "report_type": "RAIN",
        "event_category": "other",
        "valid_utc": "202609031609",
        "standard_time_display": "2026-09-03 10:09 CST",
        "wfo": "BIS",
        "county_or_zone": "Ward",
        "city": "3 SW Sawyer",
        "state": "ND",
        "magnitude": 3.75,
        "magnitude_units": null,
        "source": "Broadcast Media",
        "event_narrative": "Broadcast media relayed report."
      },
      "geometry": {
        "type": "Point",
        "coordinates": [
          -101.1,
          48.06
        ]
      }
    },
    {
      "type": "Feature",
      "id": "iem-lsr-BIS-18",
      "properties": {
        "report_id": "iem-lsr-BIS-18",
        "report_type": "RAIN",
        "event_category": "other",
        "valid_utc": "202609031614",
        "standard_time_display": "2026-09-03 10:14 CST",
        "wfo": "BIS",
        "county_or_zone": "McHenry",
        "city": "1 W Simcoe",
        "state": "ND",
        "magnitude": 3.52,
        "magnitude_units": null,
        "source": "Broadcast Media",
        "event_narrative": "Broadcast media relayed report."
      },
      "geometry": {
        "type": "Point",
        "coordinates": [
          -100.89,
          48.16
        ]
      }
    },
    {
      "type": "Feature",
      "id": "iem-lsr-BIS-19",
      "properties": {
        "report_id": "iem-lsr-BIS-19",
        "report_type": "RAIN",
        "event_category": "other",
        "valid_utc": "202609031627",
        "standard_time_display": "2026-09-03 10:27 CST",
        "wfo": "BIS",
        "county_or_zone": "McHenry",
        "city": "3 NW Velva",
        "state": "ND",
        "magnitude": 4.1,
        "magnitude_units": null,
        "source": "Broadcast Media",
        "event_narrative": "Broadcast media relayed report."
      },
      "geometry": {
        "type": "Point",
        "coordinates": [
          -100.98,
          48.09
        ]
      }
    },
    {
      "type": "Feature",
      "id": "iem-lsr-BIS-20",
      "properties": {
        "report_id": "iem-lsr-BIS-20",
        "report_type": "RAIN",
        "event_category": "other",
        "valid_utc": "202609031731",
        "standard_time_display": "2026-09-03 11:31 CST",
        "wfo": "BIS",
        "county_or_zone": "Wells",
        "city": "3 E Bremen",
        "state": "ND",
        "magnitude": 1.84,
        "magnitude_units": null,
        "source": "Mesonet",
        "event_narrative": "NDAWN storm total."
      },
      "geometry": {
        "type": "Point",
        "coordinates": [
          -99.32,
          47.75
        ]
      }
    },
    {
      "type": "Feature",
      "id": "iem-lsr-BIS-21",
      "properties": {
        "report_id": "iem-lsr-BIS-21",
        "report_type": "RAIN",
        "event_category": "other",
        "valid_utc": "202609031814",
        "standard_time_display": "2026-09-03 12:14 CST",
        "wfo": "BIS",
        "county_or_zone": "Ward",
        "city": "2 E Plaza",
        "state": "ND",
        "magnitude": 1.5,
        "magnitude_units": null,
        "source": "Broadcast Media",
        "event_narrative": "Broadcast media relayed report."
      },
      "geometry": {
        "type": "Point",
        "coordinates": [
          -101.92,
          48.03
        ]
      }
    },
    {
      "type": "Feature",
      "id": "iem-lsr-BIS-22",
      "properties": {
        "report_id": "iem-lsr-BIS-22",
        "report_type": "RAIN",
        "event_category": "other",
        "valid_utc": "202609031814",
        "standard_time_display": "2026-09-03 12:14 CST",
        "wfo": "BIS",
        "county_or_zone": "Rolette",
        "city": "Mylo",
        "state": "ND",
        "magnitude": 1.62,
        "magnitude_units": null,
        "source": "Broadcast Media",
        "event_narrative": "Broadcast media relayed report."
      },
      "geometry": {
        "type": "Point",
        "coordinates": [
          -99.62,
          48.64
        ]
      }
    },
    {
      "type": "Feature",
      "id": "iem-lsr-BIS-23",
      "properties": {
        "report_id": "iem-lsr-BIS-23",
        "report_type": "RAIN",
        "event_category": "other",
        "valid_utc": "202609031959",
        "standard_time_display": "2026-09-03 13:59 CST",
        "wfo": "BIS",
        "county_or_zone": "Wells",
        "city": "2 SSE Harvey",
        "state": "ND",
        "magnitude": 1.5,
        "magnitude_units": null,
        "source": "Broadcast Media",
        "event_narrative": "Broadcast media relayed report."
      },
      "geometry": {
        "type": "Point",
        "coordinates": [
          -99.92,
          47.75
        ]
      }
    },
    {
      "type": "Feature",
      "id": "iem-lsr-BIS-24",
      "properties": {
        "report_id": "iem-lsr-BIS-24",
        "report_type": "HAIL",
        "event_category": "hail",
        "valid_utc": "202609050855",
        "standard_time_display": "2026-09-05 01:55 MST",
        "wfo": "BIS",
        "county_or_zone": "Renville",
        "city": "12 E Northgate",
        "state": "ND",
        "magnitude": 0.75,
        "magnitude_units": null,
        "source": "Public",
        "event_narrative": "Report from mPING: Dime (0.75 in.)."
      },
      "geometry": {
        "type": "Point",
        "coordinates": [
          -102.0,
          48.95
        ]
      }
    },
    {
      "type": "Feature",
      "id": "iem-lsr-BIS-25",
      "properties": {
        "report_id": "iem-lsr-BIS-25",
        "report_type": "RAIN",
        "event_category": "other",
        "valid_utc": "202609052229",
        "standard_time_display": "2026-09-05 16:29 CST",
        "wfo": "BIS",
        "county_or_zone": "Rolette",
        "city": "5 SW Thorne",
        "state": "ND",
        "magnitude": 1.87,
        "magnitude_units": null,
        "source": "Cocorahs",
        "event_narrative": "Cocorahs station ND-RL-5 Rolette 8.1 WNW."
      },
      "geometry": {
        "type": "Point",
        "coordinates": [
          -100.01,
          48.69
        ]
      }
    },
    {
      "type": "Feature",
      "id": "iem-lsr-BIS-26",
      "properties": {
        "report_id": "iem-lsr-BIS-26",
        "report_type": "RAIN",
        "event_category": "other",
        "valid_utc": "202609052300",
        "standard_time_display": "2026-09-05 16:00 MST",
        "wfo": "BIS",
        "county_or_zone": "Burke",
        "city": "4 ESE Northgate",
        "state": "ND",
        "magnitude": 1.55,
        "magnitude_units": null,
        "source": "Mesonet",
        "event_narrative": "Mesonet station NGTN8 DES LACS NWR NORTHGATE 5 ESE ND US."
      },
      "geometry": {
        "type": "Point",
        "coordinates": [
          -102.17,
          48.97
        ]
      }
    },
    {
      "type": "Feature",
      "id": "iem-lsr-BIS-27",
      "properties": {
        "report_id": "iem-lsr-BIS-27",
        "report_type": "HAIL",
        "event_category": "hail",
        "valid_utc": "202609052348",
        "standard_time_display": "2026-09-05 17:48 CST",
        "wfo": "BIS",
        "county_or_zone": "Rolette",
        "city": "2 SE Saint John",
        "state": "ND",
        "magnitude": 1.0,
        "magnitude_units": null,
        "source": "Trained Spotter",
        "event_narrative": "Trained spotter called in a report of quarter size hail."
      },
      "geometry": {
        "type": "Point",
        "coordinates": [
          -99.68,
          48.91
        ]
      }
    },
    {
      "type": "Feature",
      "id": "iem-lsr-BIS-28",
      "properties": {
        "report_id": "iem-lsr-BIS-28",
        "report_type": "HAIL",
        "event_category": "hail",
        "valid_utc": "202609052350",
        "standard_time_display": "2026-09-05 17:50 CST",
        "wfo": "BIS",
        "county_or_zone": "Rolette",
        "city": "1 NNE Rolla",
        "state": "ND",
        "magnitude": 1.5,
        "magnitude_units": null,
        "source": "Broadcast Media",
        "event_narrative": "Relayed through broadcast media of slightly larger than half dollar size hail in Rolla. Time estimated based on radar."
      },
      "geometry": {
        "type": "Point",
        "coordinates": [
          -99.61,
          48.87
        ]
      }
    },
    {
      "type": "Feature",
      "id": "iem-lsr-BIS-29",
      "properties": {
        "report_id": "iem-lsr-BIS-29",
        "report_type": "RAIN",
        "event_category": "other",
        "valid_utc": "202609060001",
        "standard_time_display": "2026-09-05 18:01 CST",
        "wfo": "BIS",
        "county_or_zone": "Bottineau",
        "city": "6 SSE Roth",
        "state": "ND",
        "magnitude": 1.22,
        "magnitude_units": null,
        "source": "Mesonet",
        "event_narrative": "NDAWN reported 1.22 inches or 24 hour rain."
      },
      "geometry": {
        "type": "Point",
        "coordinates": [
          -100.76,
          48.82
        ]
      }
    },
    {
      "type": "Feature",
      "id": "iem-lsr-BIS-30",
      "properties": {
        "report_id": "iem-lsr-BIS-30",
        "report_type": "RAIN",
        "event_category": "other",
        "valid_utc": "202609060002",
        "standard_time_display": "2026-09-05 18:02 CST",
        "wfo": "BIS",
        "county_or_zone": "Bottineau",
        "city": "4 E Willow City",
        "state": "ND",
        "magnitude": 1.33,
        "magnitude_units": null,
        "source": "Mesonet",
        "event_narrative": "NDAWN reported 1.33 inches or 24 hour rain."
      },
      "geometry": {
        "type": "Point",
        "coordinates": [
          -100.21,
          48.6
        ]
      }
    },
    {
      "type": "Feature",
      "id": "iem-lsr-BIS-31",
      "properties": {
        "report_id": "iem-lsr-BIS-31",
        "report_type": "RAIN",
        "event_category": "other",
        "valid_utc": "202609060003",
        "standard_time_display": "2026-09-05 18:03 CST",
        "wfo": "BIS",
        "county_or_zone": "Rolette",
        "city": "1 S Rolla",
        "state": "ND",
        "magnitude": 1.4,
        "magnitude_units": null,
        "source": "Mesonet",
        "event_narrative": "NDAWN reported 1.4 inches or 24 hour rain."
      },
      "geometry": {
        "type": "Point",
        "coordinates": [
          -99.61,
          48.84
        ]
      }
    },
    {
      "type": "Feature",
      "id": "iem-lsr-BIS-32",
      "properties": {
        "report_id": "iem-lsr-BIS-32",
        "report_type": "HAIL",
        "event_category": "hail",
        "valid_utc": "202609061500",
        "standard_time_display": "2026-09-06 08:00 MST",
        "wfo": "BIS",
        "county_or_zone": "Stark",
        "city": "6 S Gladstone",
        "state": "ND",
        "magnitude": 1.5,
        "magnitude_units": null,
        "source": "Public",
        "event_narrative": "Relayed through broadcast media. Estimated size from photos."
      },
      "geometry": {
        "type": "Point",
        "coordinates": [
          -102.57,
          46.77
        ]
      }
    },
    {
      "type": "Feature",
      "id": "iem-lsr-BIS-33",
      "properties": {
        "report_id": "iem-lsr-BIS-33",
        "report_type": "HAIL",
        "event_category": "hail",
        "valid_utc": "202609061552",
        "standard_time_display": "2026-09-06 08:52 MST",
        "wfo": "BIS",
        "county_or_zone": "Morton",
        "city": "Hebron",
        "state": "ND",
        "magnitude": 1.25,
        "magnitude_units": null,
        "source": "Trained Spotter",
        "event_narrative": null
      },
      "geometry": {
        "type": "Point",
        "coordinates": [
          -102.05,
          46.9
        ]
      }
    },
    {
      "type": "Feature",
      "id": "iem-lsr-BIS-34",
      "properties": {
        "report_id": "iem-lsr-BIS-34",
        "report_type": "HAIL",
        "event_category": "hail",
        "valid_utc": "202609061634",
        "standard_time_display": "2026-09-06 10:34 CST",
        "wfo": "BIS",
        "county_or_zone": "McLean",
        "city": "4 S Garrison",
        "state": "ND",
        "magnitude": 1.0,
        "magnitude_units": null,
        "source": "NWS Employee",
        "event_narrative": "Fort Stevenson State Park."
      },
      "geometry": {
        "type": "Point",
        "coordinates": [
          -101.42,
          47.6
        ]
      }
    },
    {
      "type": "Feature",
      "id": "iem-lsr-BIS-35",
      "properties": {
        "report_id": "iem-lsr-BIS-35",
        "report_type": "RAIN",
        "event_category": "other",
        "valid_utc": "202609061800",
        "standard_time_display": "2026-09-06 12:00 CST",
        "wfo": "BIS",
        "county_or_zone": "Burleigh",
        "city": "3 SSE Bismarck",
        "state": "ND",
        "magnitude": 1.15,
        "magnitude_units": null,
        "source": "Official NWS Obs",
        "event_narrative": null
      },
      "geometry": {
        "type": "Point",
        "coordinates": [
          -100.76,
          46.77
        ]
      }
    },
    {
      "type": "Feature",
      "id": "iem-lsr-BIS-36",
      "properties": {
        "report_id": "iem-lsr-BIS-36",
        "report_type": "HAIL",
        "event_category": "hail",
        "valid_utc": "202609062358",
        "standard_time_display": "2026-09-06 16:58 MST",
        "wfo": "BIS",
        "county_or_zone": "McKenzie",
        "city": "11 NNE Alexander",
        "state": "ND",
        "magnitude": 1.25,
        "magnitude_units": null,
        "source": "Trained Spotter",
        "event_narrative": null
      },
      "geometry": {
        "type": "Point",
        "coordinates": [
          -103.53,
          47.98
        ]
      }
    },
    {
      "type": "Feature",
      "id": "iem-lsr-BIS-37",
      "properties": {
        "report_id": "iem-lsr-BIS-37",
        "report_type": "HAIL",
        "event_category": "hail",
        "valid_utc": "202609070016",
        "standard_time_display": "2026-09-06 17:16 MST",
        "wfo": "BIS",
        "county_or_zone": "McKenzie",
        "city": "7 S Watford City",
        "state": "ND",
        "magnitude": 1.75,
        "magnitude_units": null,
        "source": "Public",
        "event_narrative": "Report from mPING: Golf Ball (1.75 in.)."
      },
      "geometry": {
        "type": "Point",
        "coordinates": [
          -103.28,
          47.7
        ]
      }
    },
    {
      "type": "Feature",
      "id": "iem-lsr-BIS-38",
      "properties": {
        "report_id": "iem-lsr-BIS-38",
        "report_type": "TORNADO",
        "event_category": "tornado",
        "valid_utc": "202609070017",
        "standard_time_display": "2026-09-06 17:17 MST",
        "wfo": "BIS",
        "county_or_zone": "McKenzie",
        "city": "8 SSW Arnegard",
        "state": "ND",
        "magnitude": null,
        "magnitude_units": null,
        "source": "Storm Chaser",
        "event_narrative": "Storm chaser reported brief touchdown. Radar estimated location."
      },
      "geometry": {
        "type": "Point",
        "coordinates": [
          -103.48,
          47.69
        ]
      }
    },
    {
      "type": "Feature",
      "id": "iem-lsr-BIS-39",
      "properties": {
        "report_id": "iem-lsr-BIS-39",
        "report_type": "HAIL",
        "event_category": "hail",
        "valid_utc": "202609070029",
        "standard_time_display": "2026-09-06 17:29 MST",
        "wfo": "BIS",
        "county_or_zone": "McKenzie",
        "city": "5 S Watford City",
        "state": "ND",
        "magnitude": 1.75,
        "magnitude_units": null,
        "source": "Public",
        "event_narrative": "Report from mPING: Golf Ball (1.75 in.)."
      },
      "geometry": {
        "type": "Point",
        "coordinates": [
          -103.28,
          47.73
        ]
      }
    },
    {
      "type": "Feature",
      "id": "iem-lsr-BIS-40",
      "properties": {
        "report_id": "iem-lsr-BIS-40",
        "report_type": "RAIN",
        "event_category": "other",
        "valid_utc": "202609070143",
        "standard_time_display": "2026-09-06 18:43 MST",
        "wfo": "BIS",
        "county_or_zone": "McKenzie",
        "city": "3 SW Watford City",
        "state": "ND",
        "magnitude": 1.07,
        "magnitude_units": null,
        "source": "Mesonet",
        "event_narrative": "NDAWN 3 SW Watford City."
      },
      "geometry": {
        "type": "Point",
        "coordinates": [
          -103.35,
          47.78
        ]
      }
    },
    {
      "type": "Feature",
      "id": "iem-lsr-BIS-41",
      "properties": {
        "report_id": "iem-lsr-BIS-41",
        "report_type": "RAIN",
        "event_category": "other",
        "valid_utc": "202609070144",
        "standard_time_display": "2026-09-06 19:44 CST",
        "wfo": "BIS",
        "county_or_zone": "Stutsman",
        "city": "5 W Courtenay",
        "state": "ND",
        "magnitude": 1.07,
        "magnitude_units": null,
        "source": "Mesonet",
        "event_narrative": "NDAWN 5W Courtenay."
      },
      "geometry": {
        "type": "Point",
        "coordinates": [
          -98.68,
          47.22
        ]
      }
    },
    {
      "type": "Feature",
      "id": "iem-lsr-BIS-42",
      "properties": {
        "report_id": "iem-lsr-BIS-42",
        "report_type": "RAIN",
        "event_category": "other",
        "valid_utc": "202609070145",
        "standard_time_display": "2026-09-06 19:45 CST",
        "wfo": "BIS",
        "county_or_zone": "Morton",
        "city": "4 S Mandan",
        "state": "ND",
        "magnitude": 1.05,
        "magnitude_units": null,
        "source": "Mesonet",
        "event_narrative": "NDAWN mesonet 4S Mandan."
      },
      "geometry": {
        "type": "Point",
        "coordinates": [
          -100.91,
          46.77
        ]
      }
    },
    {
      "type": "Feature",
      "id": "iem-lsr-BIS-43",
      "properties": {
        "report_id": "iem-lsr-BIS-43",
        "report_type": "TSTM WND GST",
        "event_category": "thunderstorm_wind",
        "valid_utc": "202609070924",
        "standard_time_display": "2026-09-07 02:24 MST",
        "wfo": "BIS",
        "county_or_zone": "McKenzie",
        "city": "5 NNW Charbonneau",
        "state": "ND",
        "magnitude": 60.0,
        "magnitude_units": null,
        "source": "Mesonet",
        "event_narrative": "NDAWN station Charbonneau 5 NW."
      },
      "geometry": {
        "type": "Point",
        "coordinates": [
          -103.79,
          47.92
        ]
      }
    },
    {
      "type": "Feature",
      "id": "iem-lsr-BIS-44",
      "properties": {
        "report_id": "iem-lsr-BIS-44",
        "report_type": "RAIN",
        "event_category": "other",
        "valid_utc": "202609071000",
        "standard_time_display": "2026-09-07 04:00 CST",
        "wfo": "BIS",
        "county_or_zone": "Bottineau",
        "city": "Lansford",
        "state": "ND",
        "magnitude": 1.15,
        "magnitude_units": null,
        "source": "CO-OP Observer",
        "event_narrative": "CO-OP Observer station LFDN8 Lansford."
      },
      "geometry": {
        "type": "Point",
        "coordinates": [
          -101.38,
          48.63
        ]
      }
    },
    {
      "type": "Feature",
      "id": "iem-lsr-BIS-45",
      "properties": {
        "report_id": "iem-lsr-BIS-45",
        "report_type": "RAIN",
        "event_category": "other",
        "valid_utc": "202609071200",
        "standard_time_display": "2026-09-07 06:00 CST",
        "wfo": "BIS",
        "county_or_zone": "Ward",
        "city": "Burlington",
        "state": "ND",
        "magnitude": 1.2,
        "magnitude_units": null,
        "source": "Cocorahs",
        "event_narrative": "Cocorahs station ND-WR-12 Burlington 0.3 N."
      },
      "geometry": {
        "type": "Point",
        "coordinates": [
          -101.43,
          48.28
        ]
      }
    },
    {
      "type": "Feature",
      "id": "iem-lsr-BIS-46",
      "properties": {
        "report_id": "iem-lsr-BIS-46",
        "report_type": "RAIN",
        "event_category": "other",
        "valid_utc": "202609071326",
        "standard_time_display": "2026-09-07 07:26 CST",
        "wfo": "BIS",
        "county_or_zone": "McHenry",
        "city": "Deering",
        "state": "ND",
        "magnitude": 1.0,
        "magnitude_units": null,
        "source": "Broadcast Media",
        "event_narrative": "Relayed through broadcast media."
      },
      "geometry": {
        "type": "Point",
        "coordinates": [
          -101.05,
          48.4
        ]
      }
    },
    {
      "type": "Feature",
      "id": "iem-lsr-BIS-47",
      "properties": {
        "report_id": "iem-lsr-BIS-47",
        "report_type": "RAIN",
        "event_category": "other",
        "valid_utc": "202609071332",
        "standard_time_display": "2026-09-07 06:32 MST",
        "wfo": "BIS",
        "county_or_zone": "Morton",
        "city": "Hebron",
        "state": "ND",
        "magnitude": 1.38,
        "magnitude_units": null,
        "source": "Broadcast Media",
        "event_narrative": "Rainfall on Sunday. Relayed through broadcast media."
      },
      "geometry": {
        "type": "Point",
        "coordinates": [
          -102.05,
          46.9
        ]
      }
    },
    {
      "type": "Feature",
      "id": "iem-lsr-BIS-48",
      "properties": {
        "report_id": "iem-lsr-BIS-48",
        "report_type": "RAIN",
        "event_category": "other",
        "valid_utc": "202609071529",
        "standard_time_display": "2026-09-07 08:29 MST",
        "wfo": "BIS",
        "county_or_zone": "McKenzie",
        "city": "Watford City",
        "state": "ND",
        "magnitude": 1.3,
        "magnitude_units": null,
        "source": "Broadcast Media",
        "event_narrative": "Relayed through broadcast media."
      },
      "geometry": {
        "type": "Point",
        "coordinates": [
          -103.28,
          47.8
        ]
      }
    },
    {
      "type": "Feature",
      "id": "iem-lsr-BIS-49",
      "properties": {
        "report_id": "iem-lsr-BIS-49",
        "report_type": "RAIN",
        "event_category": "other",
        "valid_utc": "202609071826",
        "standard_time_display": "2026-09-07 12:26 CST",
        "wfo": "BIS",
        "county_or_zone": "Ward",
        "city": "1 E Minot Air Force Bas",
        "state": "ND",
        "magnitude": 1.39,
        "magnitude_units": null,
        "source": "AWOS",
        "event_narrative": "AWOS station KMIB Minot AFB."
      },
      "geometry": {
        "type": "Point",
        "coordinates": [
          -101.33,
          48.42
        ]
      }
    },
    {
      "type": "Feature",
      "id": "iem-lsr-BIS-50",
      "properties": {
        "report_id": "iem-lsr-BIS-50",
        "report_type": "RAIN",
        "event_category": "other",
        "valid_utc": "202609071846",
        "standard_time_display": "2026-09-07 12:46 CST",
        "wfo": "BIS",
        "county_or_zone": "McHenry",
        "city": "2 N Upham",
        "state": "ND",
        "magnitude": 1.03,
        "magnitude_units": null,
        "source": "Mesonet",
        "event_narrative": "Mesonet station JCSN8 J. Clark Salyer."
      },
      "geometry": {
        "type": "Point",
        "coordinates": [
          -100.73,
          48.62
        ]
      }
    },
    {
      "type": "Feature",
      "id": "iem-lsr-BIS-51",
      "properties": {
        "report_id": "iem-lsr-BIS-51",
        "report_type": "RAIN",
        "event_category": "other",
        "valid_utc": "202609071854",
        "standard_time_display": "2026-09-07 12:54 CST",
        "wfo": "BIS",
        "county_or_zone": "Ward",
        "city": "2 NE Minot",
        "state": "ND",
        "magnitude": 1.3,
        "magnitude_units": null,
        "source": "ASOS",
        "event_narrative": "ASOS station KMOT Minot Airport."
      },
      "geometry": {
        "type": "Point",
        "coordinates": [
          -101.27,
          48.25
        ]
      }
    },
    {
      "type": "Feature",
      "id": "iem-lsr-BIS-52",
      "properties": {
        "report_id": "iem-lsr-BIS-52",
        "report_type": "RAIN",
        "event_category": "other",
        "valid_utc": "202609071855",
        "standard_time_display": "2026-09-07 12:55 CST",
        "wfo": "BIS",
        "county_or_zone": "McHenry",
        "city": "2 WNW Balfour",
        "state": "ND",
        "magnitude": 1.1,
        "magnitude_units": null,
        "source": "AWOS",
        "event_narrative": "AWOS station K1AN 2 WNW Balfour."
      },
      "geometry": {
        "type": "Point",
        "coordinates": [
          -100.58,
          47.97
        ]
      }
    },
    {
      "type": "Feature",
      "id": "iem-lsr-BIS-53",
      "properties": {
        "report_id": "iem-lsr-BIS-53",
        "report_type": "RAIN",
        "event_category": "other",
        "valid_utc": "202609071855",
        "standard_time_display": "2026-09-07 11:55 MST",
        "wfo": "BIS",
        "county_or_zone": "Mountrail",
        "city": "4 WNW Parshall",
        "state": "ND",
        "magnitude": 1.33,
        "magnitude_units": null,
        "source": "AWOS",
        "event_narrative": "AWOS station K1HN 4 W Parshall."
      },
      "geometry": {
        "type": "Point",
        "coordinates": [
          -102.22,
          47.97
        ]
      }
    },
    {
      "type": "Feature",
      "id": "iem-lsr-BIS-54",
      "properties": {
        "report_id": "iem-lsr-BIS-54",
        "report_type": "RAIN",
        "event_category": "other",
        "valid_utc": "202609071856",
        "standard_time_display": "2026-09-07 11:56 MST",
        "wfo": "BIS",
        "county_or_zone": "Divide",
        "city": "9 NW Alkabo",
        "state": "ND",
        "magnitude": 1.14,
        "magnitude_units": null,
        "source": "Mesonet",
        "event_narrative": "Mesonet station CSBN8 30 W Crosby."
      },
      "geometry": {
        "type": "Point",
        "coordinates": [
          -104.0,
          48.97
        ]
      }
    },
    {
      "type": "Feature",
      "id": "iem-lsr-BIS-55",
      "properties": {
        "report_id": "iem-lsr-BIS-55",
        "report_type": "RAIN",
        "event_category": "other",
        "valid_utc": "202609071900",
        "standard_time_display": "2026-09-07 12:00 MST",
        "wfo": "BIS",
        "county_or_zone": "Williams",
        "city": "11 SSE Williston",
        "state": "ND",
        "magnitude": 1.0,
        "magnitude_units": null,
        "source": "Mesonet",
        "event_narrative": "Mesonet station GW7395 WILLISTON."
      },
      "geometry": {
        "type": "Point",
        "coordinates": [
          -103.49,
          48.02
        ]
      }
    },
    {
      "type": "Feature",
      "id": "iem-lsr-BIS-56",
      "properties": {
        "report_id": "iem-lsr-BIS-56",
        "report_type": "HAIL",
        "event_category": "hail",
        "valid_utc": "202609072330",
        "standard_time_display": "2026-09-07 17:30 CST",
        "wfo": "BIS",
        "county_or_zone": "McLean",
        "city": "4 SSW Ruso",
        "state": "ND",
        "magnitude": 1.75,
        "magnitude_units": null,
        "source": "Public",
        "event_narrative": "Photo relayed from broadcast media."
      },
      "geometry": {
        "type": "Point",
        "coordinates": [
          -100.98,
          47.78
        ]
      }
    },
    {
      "type": "Feature",
      "id": "iem-lsr-BIS-57",
      "properties": {
        "report_id": "iem-lsr-BIS-57",
        "report_type": "TORNADO",
        "event_category": "tornado",
        "valid_utc": "202609072335",
        "standard_time_display": "2026-09-07 17:35 CST",
        "wfo": "BIS",
        "county_or_zone": "McLean",
        "city": "6 S Strawberry Lake",
        "state": "ND",
        "magnitude": null,
        "magnitude_units": null,
        "source": "Trained Spotter",
        "event_narrative": "Multiple reports of a cone tornado that lasted less than a minute. Storm was still rapidly rotating after tornado dissipated."
      },
      "geometry": {
        "type": "Point",
        "coordinates": [
          -100.87,
          47.67
        ]
      }
    },
    {
      "type": "Feature",
      "id": "iem-lsr-BIS-58",
      "properties": {
        "report_id": "iem-lsr-BIS-58",
        "report_type": "TSTM WND GST",
        "event_category": "thunderstorm_wind",
        "valid_utc": "202609080029",
        "standard_time_display": "2026-09-07 18:29 CST",
        "wfo": "BIS",
        "county_or_zone": "Sheridan",
        "city": "3 ESE Krueger Lake",
        "state": "ND",
        "magnitude": 59.0,
        "magnitude_units": null,
        "source": "Mesonet",
        "event_narrative": "10 meter measured wind gust at NDAWN station 3 north Skogmo."
      },
      "geometry": {
        "type": "Point",
        "coordinates": [
          -100.43,
          47.75
        ]
      }
    },
    {
      "type": "Feature",
      "id": "iem-lsr-BIS-59",
      "properties": {
        "report_id": "iem-lsr-BIS-59",
        "report_type": "RAIN",
        "event_category": "other",
        "valid_utc": "202609141315",
        "standard_time_display": "2026-09-14 07:15 CST",
        "wfo": "BIS",
        "county_or_zone": "McIntosh",
        "city": "6 ESE Green Lake",
        "state": "ND",
        "magnitude": 1.6,
        "magnitude_units": null,
        "source": "Trained Spotter",
        "event_narrative": "24 hour rain total."
      },
      "geometry": {
        "type": "Point",
        "coordinates": [
          -99.35,
          46.18
        ]
      }
    },
    {
      "type": "Feature",
      "id": "iem-lsr-BIS-60",
      "properties": {
        "report_id": "iem-lsr-BIS-60",
        "report_type": "NON-TSTM WND GST",
        "event_category": "thunderstorm_wind",
        "valid_utc": "202609142227",
        "standard_time_display": "2026-09-14 15:27 MST",
        "wfo": "BIS",
        "county_or_zone": "Dunn",
        "city": "4 SW Manning",
        "state": "ND",
        "magnitude": 59.0,
        "magnitude_units": null,
        "source": "Mesonet",
        "event_narrative": "NDAWN Station Manning 4SW. Report at 10 meters_ 54 MPH observed at the surface."
      },
      "geometry": {
        "type": "Point",
        "coordinates": [
          -102.83,
          47.19
        ]
      }
    },
    {
      "type": "Feature",
      "id": "iem-lsr-BIS-61",
      "properties": {
        "report_id": "iem-lsr-BIS-61",
        "report_type": "NON-TSTM WND GST",
        "event_category": "thunderstorm_wind",
        "valid_utc": "202609142256",
        "standard_time_display": "2026-09-14 15:56 MST",
        "wfo": "BIS",
        "county_or_zone": "Stark",
        "city": "5 S Dickinson",
        "state": "ND",
        "magnitude": 59.0,
        "magnitude_units": null,
        "source": "ASOS",
        "event_narrative": "ASOS station KDIK Dickinson Airport."
      },
      "geometry": {
        "type": "Point",
        "coordinates": [
          -102.8,
          46.8
        ]
      }
    },
    {
      "type": "Feature",
      "id": "iem-lsr-BIS-62",
      "properties": {
        "report_id": "iem-lsr-BIS-62",
        "report_type": "NON-TSTM WND GST",
        "event_category": "thunderstorm_wind",
        "valid_utc": "202609142319",
        "standard_time_display": "2026-09-14 16:19 MST",
        "wfo": "BIS",
        "county_or_zone": "Golden Valley",
        "city": "10 SE Trotters",
        "state": "ND",
        "magnitude": 58.0,
        "magnitude_units": null,
        "source": "Mesonet",
        "event_narrative": "NDAWN Station Mosher 4E. Report at 10 meters_ 55 MPH observed at the surface."
      },
      "geometry": {
        "type": "Point",
        "coordinates": [
          -103.79,
          47.21
        ]
      }
    },
    {
      "type": "Feature",
      "id": "iem-lsr-BIS-63",
      "properties": {
        "report_id": "iem-lsr-BIS-63",
        "report_type": "NON-TSTM WND GST",
        "event_category": "thunderstorm_wind",
        "valid_utc": "202609142324",
        "standard_time_display": "2026-09-14 16:24 MST",
        "wfo": "BIS",
        "county_or_zone": "Golden Valley",
        "city": "10 SE Trotters",
        "state": "ND",
        "magnitude": 60.0,
        "magnitude_units": null,
        "source": "Public",
        "event_narrative": "NDAWN Station Mosher 4E. Report at 10 meters_ 57 MPH observed at the surface."
      },
      "geometry": {
        "type": "Point",
        "coordinates": [
          -103.79,
          47.21
        ]
      }
    },
    {
      "type": "Feature",
      "id": "iem-lsr-BIS-64",
      "properties": {
        "report_id": "iem-lsr-BIS-64",
        "report_type": "NON-TSTM WND GST",
        "event_category": "thunderstorm_wind",
        "valid_utc": "202609142351",
        "standard_time_display": "2026-09-14 16:51 MST",
        "wfo": "BIS",
        "county_or_zone": "Williams",
        "city": "10 NW Williston",
        "state": "ND",
        "magnitude": 60.0,
        "magnitude_units": null,
        "source": "AWOS",
        "event_narrative": "AWOS station KXWA Williston Airport."
      },
      "geometry": {
        "type": "Point",
        "coordinates": [
          -103.75,
          48.27
        ]
      }
    },
    {
      "type": "Feature",
      "id": "iem-lsr-BIS-65",
      "properties": {
        "report_id": "iem-lsr-BIS-65",
        "report_type": "NON-TSTM WND GST",
        "event_category": "thunderstorm_wind",
        "valid_utc": "202609150006",
        "standard_time_display": "2026-09-14 17:06 MST",
        "wfo": "BIS",
        "county_or_zone": "Williams",
        "city": "4 N Ray",
        "state": "ND",
        "magnitude": 58.0,
        "magnitude_units": null,
        "source": "Mesonet",
        "event_narrative": "NDAWN Station Ray 4N. Report at 10 meters_ 53 MPH observed at the surface."
      },
      "geometry": {
        "type": "Point",
        "coordinates": [
          -103.17,
          48.4
        ]
      }
    },
    {
      "type": "Feature",
      "id": "iem-lsr-BIS-66",
      "properties": {
        "report_id": "iem-lsr-BIS-66",
        "report_type": "NON-TSTM WND GST",
        "event_category": "thunderstorm_wind",
        "valid_utc": "202609150100",
        "standard_time_display": "2026-09-14 18:00 MST",
        "wfo": "BIS",
        "county_or_zone": "McKenzie",
        "city": "4 Bears Lodge",
        "state": "ND",
        "magnitude": 58.0,
        "magnitude_units": null,
        "source": "Mesonet",
        "event_narrative": "NDDOT Station New Town ND-23 MP 46. Reports every 30 minutes."
      },
      "geometry": {
        "type": "Point",
        "coordinates": [
          -102.57,
          47.98
        ]
      }
    },
    {
      "type": "Feature",
      "id": "iem-lsr-BIS-67",
      "properties": {
        "report_id": "iem-lsr-BIS-67",
        "report_type": "NON-TSTM WND GST",
        "event_category": "thunderstorm_wind",
        "valid_utc": "202609150115",
        "standard_time_display": "2026-09-14 18:15 MST",
        "wfo": "BIS",
        "county_or_zone": "Mountrail",
        "city": "1 SSW Stanley",
        "state": "ND",
        "magnitude": 60.0,
        "magnitude_units": null,
        "source": "AWOS",
        "event_narrative": "AWOS station K08D Stanley."
      },
      "geometry": {
        "type": "Point",
        "coordinates": [
          -102.4,
          48.3
        ]
      }
    },
    {
      "type": "Feature",
      "id": "iem-lsr-BIS-68",
      "properties": {
        "report_id": "iem-lsr-BIS-68",
        "report_type": "TORNADO",
        "event_category": "tornado",
        "valid_utc": "202609232236",
        "standard_time_display": "2026-09-23 15:36 MST",
        "wfo": "BIS",
        "county_or_zone": "Adams",
        "city": "3 SSW Bucyrus",
        "state": "ND",
        "magnitude": null,
        "magnitude_units": null,
        "source": "Broadcast Media",
        "event_narrative": "Social media reports of a tornado touching down for about one minute west of Hettinger. The location is approximant based on multiple images and radar data."
      },
      "geometry": {
        "type": "Point",
        "coordinates": [
          -102.82,
          46.03
        ]
      }
    },
    {
      "type": "Feature",
      "id": "iem-lsr-BIS-69",
      "properties": {
        "report_id": "iem-lsr-BIS-69",
        "report_type": "HAIL",
        "event_category": "hail",
        "valid_utc": "202609232307",
        "standard_time_display": "2026-09-23 16:07 MST",
        "wfo": "BIS",
        "county_or_zone": "Hettinger",
        "city": "New England",
        "state": "ND",
        "magnitude": 1.0,
        "magnitude_units": null,
        "source": "Trained Spotter",
        "event_narrative": "COOP observer reported quarter size hail in New England."
      },
      "geometry": {
        "type": "Point",
        "coordinates": [
          -102.87,
          46.54
        ]
      }
    },
    {
      "type": "Feature",
      "id": "iem-lsr-BIS-70",
      "properties": {
        "report_id": "iem-lsr-BIS-70",
        "report_type": "HAIL",
        "event_category": "hail",
        "valid_utc": "202609232340",
        "standard_time_display": "2026-09-23 16:40 MST",
        "wfo": "BIS",
        "county_or_zone": "Stark",
        "city": "3 SE Belfield",
        "state": "ND",
        "magnitude": 1.25,
        "magnitude_units": null,
        "source": "Public",
        "event_narrative": "Social media report of half dollar size hail."
      },
      "geometry": {
        "type": "Point",
        "coordinates": [
          -103.15,
          46.85
        ]
      }
    },
    {
      "type": "Feature",
      "id": "iem-lsr-BIS-71",
      "properties": {
        "report_id": "iem-lsr-BIS-71",
        "report_type": "HAIL",
        "event_category": "hail",
        "valid_utc": "202609232345",
        "standard_time_display": "2026-09-23 16:45 MST",
        "wfo": "BIS",
        "county_or_zone": "Stark",
        "city": "2 SW South Heart",
        "state": "ND",
        "magnitude": 2.75,
        "magnitude_units": null,
        "source": "Public",
        "event_narrative": "Social media report of baseball size hail southwest of South Heart."
      },
      "geometry": {
        "type": "Point",
        "coordinates": [
          -103.02,
          46.84
        ]
      }
    },
    {
      "type": "Feature",
      "id": "iem-lsr-BIS-72",
      "properties": {
        "report_id": "iem-lsr-BIS-72",
        "report_type": "RAIN",
        "event_category": "other",
        "valid_utc": "202609241810",
        "standard_time_display": "2026-09-24 11:10 MST",
        "wfo": "BIS",
        "county_or_zone": "Stark",
        "city": "4 SW Dickinson",
        "state": "ND",
        "magnitude": 2.5,
        "magnitude_units": null,
        "source": "Broadcast Media",
        "event_narrative": "Relayed through broadcast media. Rain occurred last night."
      },
      "geometry": {
        "type": "Point",
        "coordinates": [
          -102.84,
          46.84
        ]
      }
    },
    {
      "type": "Feature",
      "id": "iem-lsr-BIS-73",
      "properties": {
        "report_id": "iem-lsr-BIS-73",
        "report_type": "RAIN",
        "event_category": "other",
        "valid_utc": "202609281200",
        "standard_time_display": "2026-09-28 06:00 CST",
        "wfo": "BIS",
        "county_or_zone": "McLean",
        "city": "5 E Garrison",
        "state": "ND",
        "magnitude": 1.46,
        "magnitude_units": null,
        "source": "Cocorahs",
        "event_narrative": "Cocorahs station ND-ML-9 Garrison 5.2 E."
      },
      "geometry": {
        "type": "Point",
        "coordinates": [
          -101.31,
          47.64
        ]
      }
    },
    {
      "type": "Feature",
      "id": "iem-lsr-BIS-74",
      "properties": {
        "report_id": "iem-lsr-BIS-74",
        "report_type": "RAIN",
        "event_category": "other",
        "valid_utc": "202609281300",
        "standard_time_display": "2026-09-28 07:00 CST",
        "wfo": "BIS",
        "county_or_zone": "McHenry",
        "city": "3 ENE Velva",
        "state": "ND",
        "magnitude": 1.42,
        "magnitude_units": null,
        "source": "CO-OP Observer",
        "event_narrative": "CO-OP Observer station VLAN8 Velva 3 NE."
      },
      "geometry": {
        "type": "Point",
        "coordinates": [
          -100.88,
          48.08
        ]
      }
    },
    {
      "type": "Feature",
      "id": "iem-lsr-BIS-75",
      "properties": {
        "report_id": "iem-lsr-BIS-75",
        "report_type": "RAIN",
        "event_category": "other",
        "valid_utc": "202609281300",
        "standard_time_display": "2026-09-28 07:00 CST",
        "wfo": "BIS",
        "county_or_zone": "McLean",
        "city": "Garrison",
        "state": "ND",
        "magnitude": 1.5,
        "magnitude_units": null,
        "source": "Public",
        "event_narrative": "Bulk of the rain fell after midnight. Relayed via broadcast media."
      },
      "geometry": {
        "type": "Point",
        "coordinates": [
          -101.41,
          47.66
        ]
      }
    },
    {
      "type": "Feature",
      "id": "iem-lsr-BIS-76",
      "properties": {
        "report_id": "iem-lsr-BIS-76",
        "report_type": "RAIN",
        "event_category": "other",
        "valid_utc": "202609281330",
        "standard_time_display": "2026-09-28 07:30 CST",
        "wfo": "BIS",
        "county_or_zone": "McLean",
        "city": "7 SE Max",
        "state": "ND",
        "magnitude": 2.34,
        "magnitude_units": null,
        "source": "Cocorahs",
        "event_narrative": "Cocorahs station ND-ML-2 Max 6.4 SE."
      },
      "geometry": {
        "type": "Point",
        "coordinates": [
          -101.21,
          47.75
        ]
      }
    },
    {
      "type": "Feature",
      "id": "iem-lsr-BIS-77",
      "properties": {
        "report_id": "iem-lsr-BIS-77",
        "report_type": "RAIN",
        "event_category": "other",
        "valid_utc": "202609281415",
        "standard_time_display": "2026-09-28 08:15 CST",
        "wfo": "BIS",
        "county_or_zone": "McHenry",
        "city": "9 NE Drake",
        "state": "ND",
        "magnitude": 1.24,
        "magnitude_units": null,
        "source": "Public",
        "event_narrative": "Department of Water Resources Atmospheric Research Division spotter report. This is the rainfall so far_ additional rain is falling."
      },
      "geometry": {
        "type": "Point",
        "coordinates": [
          -100.24,
          48.02
        ]
      }
    },
    {
      "type": "Feature",
      "id": "iem-lsr-BIS-78",
      "properties": {
        "report_id": "iem-lsr-BIS-78",
        "report_type": "RAIN",
        "event_category": "other",
        "valid_utc": "202609281445",
        "standard_time_display": "2026-09-28 08:45 CST",
        "wfo": "BIS",
        "county_or_zone": "McLean",
        "city": "5 W Mercer",
        "state": "ND",
        "magnitude": 1.09,
        "magnitude_units": null,
        "source": "Trained Spotter",
        "event_narrative": "Department of Water Resources Atmospheric Research Division spotter report."
      },
      "geometry": {
        "type": "Point",
        "coordinates": [
          -100.82,
          47.49
        ]
      }
    },
    {
      "type": "Feature",
      "id": "iem-lsr-BIS-79",
      "properties": {
        "report_id": "iem-lsr-BIS-79",
        "report_type": "RAIN",
        "event_category": "other",
        "valid_utc": "202609281453",
        "standard_time_display": "2026-09-28 08:53 CST",
        "wfo": "BIS",
        "county_or_zone": "McLean",
        "city": "8 SW Garrison",
        "state": "ND",
        "magnitude": 2.7,
        "magnitude_units": null,
        "source": "Public",
        "event_narrative": "Relayed to NWS by broadcast media partner."
      },
      "geometry": {
        "type": "Point",
        "coordinates": [
          -101.53,
          47.59
        ]
      }
    },
    {
      "type": "Feature",
      "id": "iem-lsr-BIS-80",
      "properties": {
        "report_id": "iem-lsr-BIS-80",
        "report_type": "RAIN",
        "event_category": "other",
        "valid_utc": "202609281454",
        "standard_time_display": "2026-09-28 07:54 MST",
        "wfo": "BIS",
        "county_or_zone": "Adams",
        "city": "Haynes",
        "state": "ND",
        "magnitude": 1.8,
        "magnitude_units": null,
        "source": "Public",
        "event_narrative": "Relayed to NWS by broadcast media partner."
      },
      "geometry": {
        "type": "Point",
        "coordinates": [
          -102.47,
          45.97
        ]
      }
    },
    {
      "type": "Feature",
      "id": "iem-lsr-BIS-81",
      "properties": {
        "report_id": "iem-lsr-BIS-81",
        "report_type": "RAIN",
        "event_category": "other",
        "valid_utc": "202609281612",
        "standard_time_display": "2026-09-28 10:12 CST",
        "wfo": "BIS",
        "county_or_zone": "Wells",
        "city": "5 S Harvey",
        "state": "ND",
        "magnitude": 2.9,
        "magnitude_units": null,
        "source": "Public",
        "event_narrative": "Relayed to NWS by broadcast media partner."
      },
      "geometry": {
        "type": "Point",
        "coordinates": [
          -99.94,
          47.7
        ]
      }
    },
    {
      "type": "Feature",
      "id": "iem-lsr-BIS-82",
      "properties": {
        "report_id": "iem-lsr-BIS-82",
        "report_type": "RAIN",
        "event_category": "other",
        "valid_utc": "202609281614",
        "standard_time_display": "2026-09-28 10:14 CST",
        "wfo": "BIS",
        "county_or_zone": "McHenry",
        "city": "5 N Balfour",
        "state": "ND",
        "magnitude": 1.5,
        "magnitude_units": null,
        "source": "Public",
        "event_narrative": "Relayed to NWS by broadcast media partner. Rainfall so far."
      },
      "geometry": {
        "type": "Point",
        "coordinates": [
          -100.54,
          48.02
        ]
      }
    },
    {
      "type": "Feature",
      "id": "iem-lsr-BIS-83",
      "properties": {
        "report_id": "iem-lsr-BIS-83",
        "report_type": "RAIN",
        "event_category": "other",
        "valid_utc": "202609281617",
        "standard_time_display": "2026-09-28 10:17 CST",
        "wfo": "BIS",
        "county_or_zone": "McLean",
        "city": "3 S Garrison",
        "state": "ND",
        "magnitude": 1.9,
        "magnitude_units": null,
        "source": "Public",
        "event_narrative": "Relayed to NWS by broadcast media partner."
      },
      "geometry": {
        "type": "Point",
        "coordinates": [
          -101.41,
          47.61
        ]
      }
    },
    {
      "type": "Feature",
      "id": "iem-lsr-BIS-84",
      "properties": {
        "report_id": "iem-lsr-BIS-84",
        "report_type": "RAIN",
        "event_category": "other",
        "valid_utc": "202609281700",
        "standard_time_display": "2026-09-28 11:00 CST",
        "wfo": "BIS",
        "county_or_zone": "Emmons",
        "city": "Westfield",
        "state": "ND",
        "magnitude": 2.35,
        "magnitude_units": null,
        "source": "Public",
        "event_narrative": "Report relayed via social media."
      },
      "geometry": {
        "type": "Point",
        "coordinates": [
          -100.2,
          46.03
        ]
      }
    },
    {
      "type": "Feature",
      "id": "iem-lsr-BIS-85",
      "properties": {
        "report_id": "iem-lsr-BIS-85",
        "report_type": "RAIN",
        "event_category": "other",
        "valid_utc": "202609281731",
        "standard_time_display": "2026-09-28 11:31 CST",
        "wfo": "BIS",
        "county_or_zone": "Wells",
        "city": "1 NNE Fessenden",
        "state": "ND",
        "magnitude": 2.9,
        "magnitude_units": null,
        "source": "Public",
        "event_narrative": "Relayed to NWS by broadcast media partner. Rain report at the Fessenden Country Club north of the city."
      },
      "geometry": {
        "type": "Point",
        "coordinates": [
          -99.62,
          47.66
        ]
      }
    },
    {
      "type": "Feature",
      "id": "iem-lsr-BIS-86",
      "properties": {
        "report_id": "iem-lsr-BIS-86",
        "report_type": "RAIN",
        "event_category": "other",
        "valid_utc": "202609281805",
        "standard_time_display": "2026-09-28 12:05 CST",
        "wfo": "BIS",
        "county_or_zone": "Wells",
        "city": "Bremen",
        "state": "ND",
        "magnitude": 3.2,
        "magnitude_units": null,
        "source": "Public",
        "event_narrative": "Relayed to NWS by broadcast media partner."
      },
      "geometry": {
        "type": "Point",
        "coordinates": [
          -99.39,
          47.75
        ]
      }
    },
    {
      "type": "Feature",
      "id": "iem-lsr-BIS-87",
      "properties": {
        "report_id": "iem-lsr-BIS-87",
        "report_type": "RAIN",
        "event_category": "other",
        "valid_utc": "202609281832",
        "standard_time_display": "2026-09-28 12:32 CST",
        "wfo": "BIS",
        "county_or_zone": "Wells",
        "city": "1 SE Harvey",
        "state": "ND",
        "magnitude": 2.2,
        "magnitude_units": null,
        "source": "Broadcast Media",
        "event_narrative": "Rainfall at KHND radio tower."
      },
      "geometry": {
        "type": "Point",
        "coordinates": [
          -99.92,
          47.76
        ]
      }
    },
    {
      "type": "Feature",
      "id": "iem-lsr-BIS-88",
      "properties": {
        "report_id": "iem-lsr-BIS-88",
        "report_type": "RAIN",
        "event_category": "other",
        "valid_utc": "202609281834",
        "standard_time_display": "2026-09-28 12:34 CST",
        "wfo": "BIS",
        "county_or_zone": "Wells",
        "city": "Harvey",
        "state": "ND",
        "magnitude": 1.85,
        "magnitude_units": null,
        "source": "Trained Spotter",
        "event_narrative": null
      },
      "geometry": {
        "type": "Point",
        "coordinates": [
          -99.93,
          47.77
        ]
      }
    },
    {
      "type": "Feature",
      "id": "iem-lsr-BIS-89",
      "properties": {
        "report_id": "iem-lsr-BIS-89",
        "report_type": "RAIN",
        "event_category": "other",
        "valid_utc": "202609282054",
        "standard_time_display": "2026-09-28 14:54 CST",
        "wfo": "BIS",
        "county_or_zone": "McLean",
        "city": "1 W Garrison",
        "state": "ND",
        "magnitude": 1.25,
        "magnitude_units": null,
        "source": "ASOS",
        "event_narrative": "ASOS station KN60 Garrison."
      },
      "geometry": {
        "type": "Point",
        "coordinates": [
          -101.43,
          47.65
        ]
      }
    },
    {
      "type": "Feature",
      "id": "iem-lsr-BIS-90",
      "properties": {
        "report_id": "iem-lsr-BIS-90",
        "report_type": "RAIN",
        "event_category": "other",
        "valid_utc": "202609282130",
        "standard_time_display": "2026-09-28 15:30 CST",
        "wfo": "BIS",
        "county_or_zone": "Logan",
        "city": "10 E Napoleon",
        "state": "ND",
        "magnitude": 1.8,
        "magnitude_units": null,
        "source": "Trained Spotter",
        "event_narrative": "Still raining."
      },
      "geometry": {
        "type": "Point",
        "coordinates": [
          -99.57,
          46.52
        ]
      }
    },
    {
      "type": "Feature",
      "id": "iem-lsr-BIS-91",
      "properties": {
        "report_id": "iem-lsr-BIS-91",
        "report_type": "RAIN",
        "event_category": "other",
        "valid_utc": "202609282340",
        "standard_time_display": "2026-09-28 17:40 CST",
        "wfo": "BIS",
        "county_or_zone": "Stutsman",
        "city": "3 ESE Montpelier",
        "state": "ND",
        "magnitude": 2.82,
        "magnitude_units": null,
        "source": "Cocorahs",
        "event_narrative": "Standing water is present in places that were dry this morning."
      },
      "geometry": {
        "type": "Point",
        "coordinates": [
          -98.52,
          46.69
        ]
      }
    },
    {
      "type": "Feature",
      "id": "iem-lsr-BIS-92",
      "properties": {
        "report_id": "iem-lsr-BIS-92",
        "report_type": "RAIN",
        "event_category": "other",
        "valid_utc": "202609282356",
        "standard_time_display": "2026-09-28 16:56 MST",
        "wfo": "BIS",
        "county_or_zone": "Stark",
        "city": "5 S Dickinson",
        "state": "ND",
        "magnitude": 1.14,
        "magnitude_units": null,
        "source": "ASOS",
        "event_narrative": "ASOS station KDIK Dickinson Airport."
      },
      "geometry": {
        "type": "Point",
        "coordinates": [
          -102.8,
          46.8
        ]
      }
    },
    {
      "type": "Feature",
      "id": "iem-lsr-BIS-93",
      "properties": {
        "report_id": "iem-lsr-BIS-93",
        "report_type": "RAIN",
        "event_category": "other",
        "valid_utc": "202609290145",
        "standard_time_display": "2026-09-28 19:45 CST",
        "wfo": "BIS",
        "county_or_zone": "LaMoure",
        "city": "Marion",
        "state": "ND",
        "magnitude": 2.65,
        "magnitude_units": null,
        "source": "Trained Spotter",
        "event_narrative": "Ponding in fields_ but no water on roadways."
      },
      "geometry": {
        "type": "Point",
        "coordinates": [
          -98.33,
          46.61
        ]
      }
    },
    {
      "type": "Feature",
      "id": "iem-lsr-BIS-94",
      "properties": {
        "report_id": "iem-lsr-BIS-94",
        "report_type": "RAIN",
        "event_category": "other",
        "valid_utc": "202609290148",
        "standard_time_display": "2026-09-28 19:48 CST",
        "wfo": "BIS",
        "county_or_zone": "Mercer",
        "city": "8 SW Pick City",
        "state": "ND",
        "magnitude": 1.18,
        "magnitude_units": null,
        "source": "Mesonet",
        "event_narrative": "NDAWN mesonet station 8 SW Pick City."
      },
      "geometry": {
        "type": "Point",
        "coordinates": [
          -101.61,
          47.47
        ]
      }
    },
    {
      "type": "Feature",
      "id": "iem-lsr-BIS-95",
      "properties": {
        "report_id": "iem-lsr-BIS-95",
        "report_type": "RAIN",
        "event_category": "other",
        "valid_utc": "202609290150",
        "standard_time_display": "2026-09-28 19:50 CST",
        "wfo": "BIS",
        "county_or_zone": "Ward",
        "city": "3 N Max",
        "state": "ND",
        "magnitude": 1.07,
        "magnitude_units": null,
        "source": "Mesonet",
        "event_narrative": "NDAWN mesonet 3N Max."
      },
      "geometry": {
        "type": "Point",
        "coordinates": [
          -101.31,
          47.87
        ]
      }
    },
    {
      "type": "Feature",
      "id": "iem-lsr-BIS-96",
      "properties": {
        "report_id": "iem-lsr-BIS-96",
        "report_type": "RAIN",
        "event_category": "other",
        "valid_utc": "202609290151",
        "standard_time_display": "2026-09-28 19:51 CST",
        "wfo": "BIS",
        "county_or_zone": "Ward",
        "city": "7S Sawyer",
        "state": "ND",
        "magnitude": 1.15,
        "magnitude_units": null,
        "source": "Mesonet",
        "event_narrative": "NDAWN mesonet 7S Sawyer."
      },
      "geometry": {
        "type": "Point",
        "coordinates": [
          -101.09,
          47.98
        ]
      }
    },
    {
      "type": "Feature",
      "id": "iem-lsr-BIS-97",
      "properties": {
        "report_id": "iem-lsr-BIS-97",
        "report_type": "RAIN",
        "event_category": "other",
        "valid_utc": "202609290151",
        "standard_time_display": "2026-09-28 19:51 CST",
        "wfo": "BIS",
        "county_or_zone": "Wells",
        "city": "4 WNW Harvey",
        "state": "ND",
        "magnitude": 2.07,
        "magnitude_units": null,
        "source": "Mesonet",
        "event_narrative": "NDAWN mesonet 4SE Benedict."
      },
      "geometry": {
        "type": "Point",
        "coordinates": [
          -100.01,
          47.79
        ]
      }
    },
    {
      "type": "Feature",
      "id": "iem-lsr-BIS-98",
      "properties": {
        "report_id": "iem-lsr-BIS-98",
        "report_type": "RAIN",
        "event_category": "other",
        "valid_utc": "202609290152",
        "standard_time_display": "2026-09-28 19:52 CST",
        "wfo": "BIS",
        "county_or_zone": "McLean",
        "city": "4 N Turtle Lake",
        "state": "ND",
        "magnitude": 1.07,
        "magnitude_units": null,
        "source": "Mesonet",
        "event_narrative": "NDAWN mesonet 4N Turtle Lake."
      },
      "geometry": {
        "type": "Point",
        "coordinates": [
          -100.92,
          47.57
        ]
      }
    },
    {
      "type": "Feature",
      "id": "iem-lsr-BIS-99",
      "properties": {
        "report_id": "iem-lsr-BIS-99",
        "report_type": "RAIN",
        "event_category": "other",
        "valid_utc": "202609290153",
        "standard_time_display": "2026-09-28 19:53 CST",
        "wfo": "BIS",
        "county_or_zone": "Sheridan",
        "city": "3 ESE Krueger Lake",
        "state": "ND",
        "magnitude": 1.0,
        "magnitude_units": null,
        "source": "Mesonet",
        "event_narrative": "NDAWN mesonet 3N Skogmo."
      },
      "geometry": {
        "type": "Point",
        "coordinates": [
          -100.43,
          47.75
        ]
      }
    },
    {
      "type": "Feature",
      "id": "iem-lsr-BIS-100",
      "properties": {
        "report_id": "iem-lsr-BIS-100",
        "report_type": "RAIN",
        "event_category": "other",
        "valid_utc": "202609290154",
        "standard_time_display": "2026-09-28 19:54 CST",
        "wfo": "BIS",
        "county_or_zone": "Wells",
        "city": "3 S Harvey",
        "state": "ND",
        "magnitude": 1.68,
        "magnitude_units": null,
        "source": "Mesonet",
        "event_narrative": "NDAWN mesonet 3S Harvey."
      },
      "geometry": {
        "type": "Point",
        "coordinates": [
          -99.92,
          47.73
        ]
      }
    },
    {
      "type": "Feature",
      "id": "iem-lsr-BIS-101",
      "properties": {
        "report_id": "iem-lsr-BIS-101",
        "report_type": "RAIN",
        "event_category": "other",
        "valid_utc": "202609290155",
        "standard_time_display": "2026-09-28 19:55 CST",
        "wfo": "BIS",
        "county_or_zone": "Foster",
        "city": "4 N Carrington",
        "state": "ND",
        "magnitude": 1.24,
        "magnitude_units": null,
        "source": "Mesonet",
        "event_narrative": "NDAWN mesonet 4N Carrington."
      },
      "geometry": {
        "type": "Point",
        "coordinates": [
          -99.13,
          47.51
        ]
      }
    },
    {
      "type": "Feature",
      "id": "iem-lsr-BIS-102",
      "properties": {
        "report_id": "iem-lsr-BIS-102",
        "report_type": "RAIN",
        "event_category": "other",
        "valid_utc": "202609290155",
        "standard_time_display": "2026-09-28 19:55 CST",
        "wfo": "BIS",
        "county_or_zone": "Wells",
        "city": "3 E Bremen",
        "state": "ND",
        "magnitude": 1.46,
        "magnitude_units": null,
        "source": "Mesonet",
        "event_narrative": "NDAWN mesonet 3E Bremen."
      },
      "geometry": {
        "type": "Point",
        "coordinates": [
          -99.32,
          47.75
        ]
      }
    },
    {
      "type": "Feature",
      "id": "iem-lsr-BIS-103",
      "properties": {
        "report_id": "iem-lsr-BIS-103",
        "report_type": "RAIN",
        "event_category": "other",
        "valid_utc": "202609290216",
        "standard_time_display": "2026-09-28 19:16 MST",
        "wfo": "BIS",
        "county_or_zone": "Dunn",
        "city": "9 W Manning",
        "state": "ND",
        "magnitude": 1.17,
        "magnitude_units": null,
        "source": "Mesonet",
        "event_narrative": "NDAWN mesonet 3W Fayette."
      },
      "geometry": {
        "type": "Point",
        "coordinates": [
          -102.96,
          47.24
        ]
      }
    },
    {
      "type": "Feature",
      "id": "iem-lsr-BIS-104",
      "properties": {
        "report_id": "iem-lsr-BIS-104",
        "report_type": "RAIN",
        "event_category": "other",
        "valid_utc": "202609290217",
        "standard_time_display": "2026-09-28 20:17 CST",
        "wfo": "BIS",
        "county_or_zone": "McIntosh",
        "city": "7 W Venturia",
        "state": "ND",
        "magnitude": 1.58,
        "magnitude_units": null,
        "source": "Mesonet",
        "event_narrative": "NDAWN mesonet."
      },
      "geometry": {
        "type": "Point",
        "coordinates": [
          -99.69,
          46.01
        ]
      }
    },
    {
      "type": "Feature",
      "id": "iem-lsr-BIS-105",
      "properties": {
        "report_id": "iem-lsr-BIS-105",
        "report_type": "RAIN",
        "event_category": "other",
        "valid_utc": "202609290218",
        "standard_time_display": "2026-09-28 20:18 CST",
        "wfo": "BIS",
        "county_or_zone": "McIntosh",
        "city": "5 W Wishek",
        "state": "ND",
        "magnitude": 1.28,
        "magnitude_units": null,
        "source": "Mesonet",
        "event_narrative": "NDAWN mesonet 5W Wishek."
      },
      "geometry": {
        "type": "Point",
        "coordinates": [
          -99.67,
          46.26
        ]
      }
    },
    {
      "type": "Feature",
      "id": "iem-lsr-BIS-106",
      "properties": {
        "report_id": "iem-lsr-BIS-106",
        "report_type": "RAIN",
        "event_category": "other",
        "valid_utc": "202609290219",
        "standard_time_display": "2026-09-28 20:19 CST",
        "wfo": "BIS",
        "county_or_zone": "Logan",
        "city": "11 S Streeter",
        "state": "ND",
        "magnitude": 2.23,
        "magnitude_units": null,
        "source": "Mesonet",
        "event_narrative": "NDAWN mesonet 10SW Neudorf."
      },
      "geometry": {
        "type": "Point",
        "coordinates": [
          -99.37,
          46.5
        ]
      }
    },
    {
      "type": "Feature",
      "id": "iem-lsr-BIS-107",
      "properties": {
        "report_id": "iem-lsr-BIS-107",
        "report_type": "RAIN",
        "event_category": "other",
        "valid_utc": "202609290219",
        "standard_time_display": "2026-09-28 20:19 CST",
        "wfo": "BIS",
        "county_or_zone": "LaMoure",
        "city": "1 S Jud",
        "state": "ND",
        "magnitude": 2.26,
        "magnitude_units": null,
        "source": "Mesonet",
        "event_narrative": "NDAWN mesonet 1S Jud."
      },
      "geometry": {
        "type": "Point",
        "coordinates": [
          -98.89,
          46.52
        ]
      }
    },
    {
      "type": "Feature",
      "id": "iem-lsr-BIS-108",
      "properties": {
        "report_id": "iem-lsr-BIS-108",
        "report_type": "RAIN",
        "event_category": "other",
        "valid_utc": "202609290220",
        "standard_time_display": "2026-09-28 20:20 CST",
        "wfo": "BIS",
        "county_or_zone": "LaMoure",
        "city": "2 S Marion",
        "state": "ND",
        "magnitude": 2.05,
        "magnitude_units": null,
        "source": "Mesonet",
        "event_narrative": "NDAWN mesonet 2S Marion."
      },
      "geometry": {
        "type": "Point",
        "coordinates": [
          -98.33,
          46.56
        ]
      }
    },
    {
      "type": "Feature",
      "id": "iem-lsr-BIS-109",
      "properties": {
        "report_id": "iem-lsr-BIS-109",
        "report_type": "RAIN",
        "event_category": "other",
        "valid_utc": "202609290221",
        "standard_time_display": "2026-09-28 20:21 CST",
        "wfo": "BIS",
        "county_or_zone": "Stutsman",
        "city": "2 E Ypsilanti",
        "state": "ND",
        "magnitude": 1.69,
        "magnitude_units": null,
        "source": "Mesonet",
        "event_narrative": "NDAWN mesonet 2E Ypsilanti."
      },
      "geometry": {
        "type": "Point",
        "coordinates": [
          -98.52,
          46.78
        ]
      }
    },
    {
      "type": "Feature",
      "id": "iem-lsr-BIS-110",
      "properties": {
        "report_id": "iem-lsr-BIS-110",
        "report_type": "RAIN",
        "event_category": "other",
        "valid_utc": "202609290225",
        "standard_time_display": "2026-09-28 19:25 MST",
        "wfo": "BIS",
        "county_or_zone": "Dunn",
        "city": "Killdeer",
        "state": "ND",
        "magnitude": 1.25,
        "magnitude_units": null,
        "source": "CO-OP Observer",
        "event_narrative": "Still raining."
      },
      "geometry": {
        "type": "Point",
        "coordinates": [
          -102.76,
          47.37
        ]
      }
    },
    {
      "type": "Feature",
      "id": "iem-lsr-BIS-111",
      "properties": {
        "report_id": "iem-lsr-BIS-111",
        "report_type": "HAIL",
        "event_category": "hail",
        "valid_utc": "202609290735",
        "standard_time_display": "2026-09-29 01:35 CST",
        "wfo": "BIS",
        "county_or_zone": "Burleigh",
        "city": "3 SSE Bismarck",
        "state": "ND",
        "magnitude": 0.25,
        "magnitude_units": null,
        "source": "Official NWS Obs",
        "event_narrative": "Brief periods of small hail with heavy rain for about 10 minutes."
      },
      "geometry": {
        "type": "Point",
        "coordinates": [
          -100.76,
          46.77
        ]
      }
    },
    {
      "type": "Feature",
      "id": "iem-lsr-BIS-112",
      "properties": {
        "report_id": "iem-lsr-BIS-112",
        "report_type": "RAIN",
        "event_category": "other",
        "valid_utc": "202609291140",
        "standard_time_display": "2026-09-29 05:40 CST",
        "wfo": "BIS",
        "county_or_zone": "Wells",
        "city": "1 ENE Harvey",
        "state": "ND",
        "magnitude": 3.1,
        "magnitude_units": null,
        "source": "Trained Spotter",
        "event_narrative": "Two day rain total at the south edge of Harvey."
      },
      "geometry": {
        "type": "Point",
        "coordinates": [
          -99.92,
          47.77
        ]
      }
    },
    {
      "type": "Feature",
      "id": "iem-lsr-BIS-113",
      "properties": {
        "report_id": "iem-lsr-BIS-113",
        "report_type": "RAIN",
        "event_category": "other",
        "valid_utc": "202609291200",
        "standard_time_display": "2026-09-29 06:00 CST",
        "wfo": "BIS",
        "county_or_zone": "Sheridan",
        "city": "5 E Sheyenne Lake",
        "state": "ND",
        "magnitude": 3.25,
        "magnitude_units": null,
        "source": "Broadcast Media",
        "event_narrative": "Storm total rain."
      },
      "geometry": {
        "type": "Point",
        "coordinates": [
          -100.09,
          47.68
        ]
      }
    },
    {
      "type": "Feature",
      "id": "iem-lsr-BIS-114",
      "properties": {
        "report_id": "iem-lsr-BIS-114",
        "report_type": "RAIN",
        "event_category": "other",
        "valid_utc": "202609291235",
        "standard_time_display": "2026-09-29 06:35 CST",
        "wfo": "BIS",
        "county_or_zone": "McLean",
        "city": "5 SE Turtle Lake",
        "state": "ND",
        "magnitude": 1.09,
        "magnitude_units": null,
        "source": "Trained Spotter",
        "event_narrative": "24 hour rain total_ with 2.18 inches over the last 48 hours."
      },
      "geometry": {
        "type": "Point",
        "coordinates": [
          -100.81,
          47.48
        ]
      }
    },
    {
      "type": "Feature",
      "id": "iem-lsr-BIS-115",
      "properties": {
        "report_id": "iem-lsr-BIS-115",
        "report_type": "RAIN",
        "event_category": "other",
        "valid_utc": "202609291240",
        "standard_time_display": "2026-09-29 06:40 CST",
        "wfo": "BIS",
        "county_or_zone": "McLean",
        "city": "5 NNW Emmet",
        "state": "ND",
        "magnitude": 1.97,
        "magnitude_units": null,
        "source": "Mesonet",
        "event_narrative": "NDAWN Station Garrison 13NW. 24 hour rain total."
      },
      "geometry": {
        "type": "Point",
        "coordinates": [
          -101.68,
          47.71
        ]
      }
    },
    {
      "type": "Feature",
      "id": "iem-lsr-BIS-116",
      "properties": {
        "report_id": "iem-lsr-BIS-116",
        "report_type": "RAIN",
        "event_category": "other",
        "valid_utc": "202609291240",
        "standard_time_display": "2026-09-29 05:40 MST",
        "wfo": "BIS",
        "county_or_zone": "McKenzie",
        "city": "5 NNW Charbonneau",
        "state": "ND",
        "magnitude": 2.31,
        "magnitude_units": null,
        "source": "Mesonet",
        "event_narrative": "NDAWN Station Charbonneau 5NW. 48 hour rain total."
      },
      "geometry": {
        "type": "Point",
        "coordinates": [
          -103.79,
          47.92
        ]
      }
    },
    {
      "type": "Feature",
      "id": "iem-lsr-BIS-117",
      "properties": {
        "report_id": "iem-lsr-BIS-117",
        "report_type": "RAIN",
        "event_category": "other",
        "valid_utc": "202609291250",
        "standard_time_display": "2026-09-29 06:50 CST",
        "wfo": "BIS",
        "county_or_zone": "Emmons",
        "city": "9 S Kintyre",
        "state": "ND",
        "magnitude": 1.87,
        "magnitude_units": null,
        "source": "Trained Spotter",
        "event_narrative": "24 hour rain total."
      },
      "geometry": {
        "type": "Point",
        "coordinates": [
          -99.95,
          46.42
        ]
      }
    },
    {
      "type": "Feature",
      "id": "iem-lsr-BIS-118",
      "properties": {
        "report_id": "iem-lsr-BIS-118",
        "report_type": "RAIN",
        "event_category": "other",
        "valid_utc": "202609291250",
        "standard_time_display": "2026-09-29 06:50 CST",
        "wfo": "BIS",
        "county_or_zone": "Stutsman",
        "city": "1 WSW Spiritwood Lake",
        "state": "ND",
        "magnitude": 6.0,
        "magnitude_units": null,
        "source": "Public",
        "event_narrative": "Public reports at least 6 inches of rainfall overfilling a rain gauge. Gauge had been been emptied yesterday."
      },
      "geometry": {
        "type": "Point",
        "coordinates": [
          -98.59,
          47.07
        ]
      }
    },
    {
      "type": "Feature",
      "id": "iem-lsr-BIS-119",
      "properties": {
        "report_id": "iem-lsr-BIS-119",
        "report_type": "RAIN",
        "event_category": "other",
        "valid_utc": "202609291255",
        "standard_time_display": "2026-09-29 06:55 CST",
        "wfo": "BIS",
        "county_or_zone": "McIntosh",
        "city": "6 ESE Green Lake",
        "state": "ND",
        "magnitude": 1.7,
        "magnitude_units": null,
        "source": "Trained Spotter",
        "event_narrative": "24 hour rain total."
      },
      "geometry": {
        "type": "Point",
        "coordinates": [
          -99.35,
          46.18
        ]
      }
    },
    {
      "type": "Feature",
      "id": "iem-lsr-BIS-120",
      "properties": {
        "report_id": "iem-lsr-BIS-120",
        "report_type": "RAIN",
        "event_category": "other",
        "valid_utc": "202609291300",
        "standard_time_display": "2026-09-29 07:00 CST",
        "wfo": "BIS",
        "county_or_zone": "Foster",
        "city": "4 N Carrington",
        "state": "ND",
        "magnitude": 2.17,
        "magnitude_units": null,
        "source": "Mesonet",
        "event_narrative": "NDAWN Station Carrington 4N. 32 hour rain total."
      },
      "geometry": {
        "type": "Point",
        "coordinates": [
          -99.13,
          47.51
        ]
      }
    },
    {
      "type": "Feature",
      "id": "iem-lsr-BIS-121",
      "properties": {
        "report_id": "iem-lsr-BIS-121",
        "report_type": "RAIN",
        "event_category": "other",
        "valid_utc": "202609291300",
        "standard_time_display": "2026-09-29 07:00 CST",
        "wfo": "BIS",
        "county_or_zone": "LaMoure",
        "city": "1 SSE Jud",
        "state": "ND",
        "magnitude": 2.52,
        "magnitude_units": null,
        "source": "Mesonet",
        "event_narrative": "NDAWN Station Jud 1S. 32 hour rain total."
      },
      "geometry": {
        "type": "Point",
        "coordinates": [
          -98.89,
          46.52
        ]
      }
    },
    {
      "type": "Feature",
      "id": "iem-lsr-BIS-122",
      "properties": {
        "report_id": "iem-lsr-BIS-122",
        "report_type": "RAIN",
        "event_category": "other",
        "valid_utc": "202609291300",
        "standard_time_display": "2026-09-29 07:00 CST",
        "wfo": "BIS",
        "county_or_zone": "Wells",
        "city": "3 SSE Harvey",
        "state": "ND",
        "magnitude": 2.69,
        "magnitude_units": null,
        "source": "Mesonet",
        "event_narrative": "NDAWN Station Harvey 3S. 32 hour rain total."
      },
      "geometry": {
        "type": "Point",
        "coordinates": [
          -99.92,
          47.73
        ]
      }
    },
    {
      "type": "Feature",
      "id": "iem-lsr-BIS-123",
      "properties": {
        "report_id": "iem-lsr-BIS-123",
        "report_type": "RAIN",
        "event_category": "other",
        "valid_utc": "202609291300",
        "standard_time_display": "2026-09-29 07:00 CST",
        "wfo": "BIS",
        "county_or_zone": "Logan",
        "city": "11 S Streeter",
        "state": "ND",
        "magnitude": 3.16,
        "magnitude_units": null,
        "source": "Mesonet",
        "event_narrative": "NDAWN Station Neudorf 10SW. 32 hour rain total."
      },
      "geometry": {
        "type": "Point",
        "coordinates": [
          -99.37,
          46.5
        ]
      }
    },
    {
      "type": "Feature",
      "id": "iem-lsr-BIS-124",
      "properties": {
        "report_id": "iem-lsr-BIS-124",
        "report_type": "RAIN",
        "event_category": "other",
        "valid_utc": "202609291300",
        "standard_time_display": "2026-09-29 07:00 CST",
        "wfo": "BIS",
        "county_or_zone": "Stutsman",
        "city": "2 ENE Woodworth",
        "state": "ND",
        "magnitude": 3.42,
        "magnitude_units": null,
        "source": "Mesonet",
        "event_narrative": "NDAWN Station Woodworth 2NE. 32 hour rain total."
      },
      "geometry": {
        "type": "Point",
        "coordinates": [
          -99.27,
          47.15
        ]
      }
    },
    {
      "type": "Feature",
      "id": "iem-lsr-BIS-125",
      "properties": {
        "report_id": "iem-lsr-BIS-125",
        "report_type": "RAIN",
        "event_category": "other",
        "valid_utc": "202609291300",
        "standard_time_display": "2026-09-29 07:00 CST",
        "wfo": "BIS",
        "county_or_zone": "Stutsman",
        "city": "2 ESE Ypsilanti",
        "state": "ND",
        "magnitude": 3.55,
        "magnitude_units": null,
        "source": "Mesonet",
        "event_narrative": "NDAWN Station Ypsilanti 2E. 32 hour rain total."
      },
      "geometry": {
        "type": "Point",
        "coordinates": [
          -98.52,
          46.78
        ]
      }
    },
    {
      "type": "Feature",
      "id": "iem-lsr-BIS-126",
      "properties": {
        "report_id": "iem-lsr-BIS-126",
        "report_type": "RAIN",
        "event_category": "other",
        "valid_utc": "202609291300",
        "standard_time_display": "2026-09-29 07:00 CST",
        "wfo": "BIS",
        "county_or_zone": "Stutsman",
        "city": "5 W Courtenay",
        "state": "ND",
        "magnitude": 5.9,
        "magnitude_units": null,
        "source": "Mesonet",
        "event_narrative": "NDAWN Station Courtenay 5W. 32 hour rain total."
      },
      "geometry": {
        "type": "Point",
        "coordinates": [
          -98.68,
          47.22
        ]
      }
    },
    {
      "type": "Feature",
      "id": "iem-lsr-BIS-127",
      "properties": {
        "report_id": "iem-lsr-BIS-127",
        "report_type": "RAIN",
        "event_category": "other",
        "valid_utc": "202609291330",
        "standard_time_display": "2026-09-29 07:30 CST",
        "wfo": "BIS",
        "county_or_zone": "Wells",
        "city": "5 SW Harvey",
        "state": "ND",
        "magnitude": 3.7,
        "magnitude_units": null,
        "source": "Broadcast Media",
        "event_narrative": "Relayed via broadcast media."
      },
      "geometry": {
        "type": "Point",
        "coordinates": [
          -100.02,
          47.71
        ]
      }
    },
    {
      "type": "Feature",
      "id": "iem-lsr-BIS-128",
      "properties": {
        "report_id": "iem-lsr-BIS-128",
        "report_type": "RAIN",
        "event_category": "other",
        "valid_utc": "202609291330",
        "standard_time_display": "2026-09-29 07:30 CST",
        "wfo": "BIS",
        "county_or_zone": "Wells",
        "city": "7 S Harvey",
        "state": "ND",
        "magnitude": 5.0,
        "magnitude_units": null,
        "source": "Public",
        "event_narrative": "Relayed via broadcast media."
      },
      "geometry": {
        "type": "Point",
        "coordinates": [
          -99.94,
          47.67
        ]
      }
    },
    {
      "type": "Feature",
      "id": "iem-lsr-BIS-129",
      "properties": {
        "report_id": "iem-lsr-BIS-129",
        "report_type": "RAIN",
        "event_category": "other",
        "valid_utc": "202609291415",
        "standard_time_display": "2026-09-29 08:15 CST",
        "wfo": "BIS",
        "county_or_zone": "Stutsman",
        "city": "Jamestown",
        "state": "ND",
        "magnitude": 3.75,
        "magnitude_units": null,
        "source": "Public",
        "event_narrative": "Photo relayed via social media. 24 hour rain total."
      },
      "geometry": {
        "type": "Point",
        "coordinates": [
          -98.71,
          46.91
        ]
      }
    },
    {
      "type": "Feature",
      "id": "iem-lsr-BIS-130",
      "properties": {
        "report_id": "iem-lsr-BIS-130",
        "report_type": "RAIN",
        "event_category": "other",
        "valid_utc": "202609291420",
        "standard_time_display": "2026-09-29 08:20 CST",
        "wfo": "BIS",
        "county_or_zone": "Sheridan",
        "city": "5 SE Sheyenne Lake",
        "state": "ND",
        "magnitude": 4.7,
        "magnitude_units": null,
        "source": "Public",
        "event_narrative": "Rain since Sunday morning. Relayed via social media."
      },
      "geometry": {
        "type": "Point",
        "coordinates": [
          -100.12,
          47.65
        ]
      }
    },
    {
      "type": "Feature",
      "id": "iem-lsr-BIS-131",
      "properties": {
        "report_id": "iem-lsr-BIS-131",
        "report_type": "RAIN",
        "event_category": "other",
        "valid_utc": "202609291425",
        "standard_time_display": "2026-09-29 08:25 CST",
        "wfo": "BIS",
        "county_or_zone": "Burleigh",
        "city": "4 WSW Lincoln",
        "state": "ND",
        "magnitude": 1.0,
        "magnitude_units": null,
        "source": "Public",
        "event_narrative": "Relayed via broadcast media."
      },
      "geometry": {
        "type": "Point",
        "coordinates": [
          -100.78,
          46.75
        ]
      }
    },
    {
      "type": "Feature",
      "id": "iem-lsr-BIS-132",
      "properties": {
        "report_id": "iem-lsr-BIS-132",
        "report_type": "RAIN",
        "event_category": "other",
        "valid_utc": "202609291425",
        "standard_time_display": "2026-09-29 08:25 CST",
        "wfo": "BIS",
        "county_or_zone": "Stutsman",
        "city": "9 ESE Woodworth",
        "state": "ND",
        "magnitude": 2.0,
        "magnitude_units": null,
        "source": "Public",
        "event_narrative": "Relayed via social media."
      },
      "geometry": {
        "type": "Point",
        "coordinates": [
          -99.12,
          47.11
        ]
      }
    },
    {
      "type": "Feature",
      "id": "iem-lsr-BIS-133",
      "properties": {
        "report_id": "iem-lsr-BIS-133",
        "report_type": "RAIN",
        "event_category": "other",
        "valid_utc": "202609291425",
        "standard_time_display": "2026-09-29 08:25 CST",
        "wfo": "BIS",
        "county_or_zone": "Stutsman",
        "city": "Courtenay",
        "state": "ND",
        "magnitude": 8.66,
        "magnitude_units": null,
        "source": "Public",
        "event_narrative": "48 hour rain total. Relayed via social media."
      },
      "geometry": {
        "type": "Point",
        "coordinates": [
          -98.57,
          47.22
        ]
      }
    },
    {
      "type": "Feature",
      "id": "iem-lsr-BIS-134",
      "properties": {
        "report_id": "iem-lsr-BIS-134",
        "report_type": "RAIN",
        "event_category": "other",
        "valid_utc": "202609291428",
        "standard_time_display": "2026-09-29 08:28 CST",
        "wfo": "BIS",
        "county_or_zone": "McLean",
        "city": "5 N Mercer",
        "state": "ND",
        "magnitude": 2.7,
        "magnitude_units": null,
        "source": "Public",
        "event_narrative": "2 day total. 1.80 inches Sunday night (09/27)_ 0.90 Monday night (09/28). Relayed on social media."
      },
      "geometry": {
        "type": "Point",
        "coordinates": [
          -100.71,
          47.56
        ]
      }
    },
    {
      "type": "Feature",
      "id": "iem-lsr-BIS-135",
      "properties": {
        "report_id": "iem-lsr-BIS-135",
        "report_type": "RAIN",
        "event_category": "other",
        "valid_utc": "202609291428",
        "standard_time_display": "2026-09-29 08:28 CST",
        "wfo": "BIS",
        "county_or_zone": "Stutsman",
        "city": "Kensal",
        "state": "ND",
        "magnitude": 4.1,
        "magnitude_units": null,
        "source": "Public",
        "event_narrative": "Relayed via social media."
      },
      "geometry": {
        "type": "Point",
        "coordinates": [
          -98.73,
          47.3
        ]
      }
    },
    {
      "type": "Feature",
      "id": "iem-lsr-BIS-136",
      "properties": {
        "report_id": "iem-lsr-BIS-136",
        "report_type": "RAIN",
        "event_category": "other",
        "valid_utc": "202609291435",
        "standard_time_display": "2026-09-29 08:35 CST",
        "wfo": "BIS",
        "county_or_zone": "Stutsman",
        "city": "1 SE Jamestown",
        "state": "ND",
        "magnitude": 3.1,
        "magnitude_units": null,
        "source": "Public",
        "event_narrative": "2 day rain total. Relayed via broadcast media."
      },
      "geometry": {
        "type": "Point",
        "coordinates": [
          -98.69,
          46.9
        ]
      }
    },
    {
      "type": "Feature",
      "id": "iem-lsr-BIS-137",
      "properties": {
        "report_id": "iem-lsr-BIS-137",
        "report_type": "RAIN",
        "event_category": "other",
        "valid_utc": "202609291455",
        "standard_time_display": "2026-09-29 08:55 CST",
        "wfo": "BIS",
        "county_or_zone": "McLean",
        "city": "5 NE Turtle Lake",
        "state": "ND",
        "magnitude": 1.75,
        "magnitude_units": null,
        "source": "Public",
        "event_narrative": "Rain since Sunday (09/27) morning. Relayed via social media."
      },
      "geometry": {
        "type": "Point",
        "coordinates": [
          -100.81,
          47.57
        ]
      }
    },
    {
      "type": "Feature",
      "id": "iem-lsr-BIS-138",
      "properties": {
        "report_id": "iem-lsr-BIS-138",
        "report_type": "RAIN",
        "event_category": "other",
        "valid_utc": "202609291510",
        "standard_time_display": "2026-09-29 09:10 CST",
        "wfo": "BIS",
        "county_or_zone": "Kidder",
        "city": "Steele",
        "state": "ND",
        "magnitude": 2.0,
        "magnitude_units": null,
        "source": "Public",
        "event_narrative": "Relayed via social media."
      },
      "geometry": {
        "type": "Point",
        "coordinates": [
          -99.91,
          46.85
        ]
      }
    }
  ]
}