{
  "type": "FeatureCollection",
  "metadata": {
    "schema_version": "0.2.4",
    "year": 2026,
    "month": 9,
    "wfo": "EKA",
    "start_utc": "2026-09-01T00:00:00Z",
    "end_utc": "2026-10-01T00:00:00Z",
    "generated_utc": "2026-09-06T12:53:09Z",
    "mode": "storm_data_prep",
    "public_release_status": "public-source-derived",
    "time_note": "Storm Data entry times should be reviewed in local Standard Time (ST), not daylight time. Candidate reports include standard_time_display.",
    "tornado_track_policy": "Tornado tracks must come from DAT. NCEI begin/end coordinates are not used as a tornado track substitute.",
    "source": "https://mesonet.agron.iastate.edu/cgi-bin/request/gis/lsr.py?wfo=EKA&sts=2026-09-01T00%3A00%3A00Z&ets=2026-10-01T00%3A00%3A00Z&fmt=csv"
  },
  "features": [
    {
      "type": "Feature",
      "id": "iem-lsr-EKA-1",
      "properties": {
        "report_id": "iem-lsr-EKA-1",
        "report_type": "NON-TSTM WND DMG",
        "event_category": "thunderstorm_wind",
        "valid_utc": "202609021851",
        "standard_time_display": "2026-09-02 10:51 PST",
        "wfo": "EKA",
        "county_or_zone": "Del Norte",
        "city": "4 SE Crescent City",
        "state": "CA",
        "magnitude": null,
        "magnitude_units": null,
        "source": "Law Enforcement",
        "event_narrative": "Large tree trunk in road."
      },
      "geometry": {
        "type": "Point",
        "coordinates": [
          -124.14,
          41.72
        ]
      }
    },
    {
      "type": "Feature",
      "id": "iem-lsr-EKA-2",
      "properties": {
        "report_id": "iem-lsr-EKA-2",
        "report_type": "LANDSLIDE",
        "event_category": "other",
        "valid_utc": "202609022110",
        "standard_time_display": "2026-09-02 13:10 PST",
        "wfo": "EKA",
        "county_or_zone": "Del Norte",
        "city": "6 SW Gasquet",
        "state": "CA",
        "magnitude": null,
        "magnitude_units": null,
        "source": "Law Enforcement",
        "event_narrative": "Rocks in roadway."
      },
      "geometry": {
        "type": "Point",
        "coordinates": [
          -124.06,
          41.79
        ]
      }
    }
  ]
}