{
  "type": "FeatureCollection",
  "metadata": {
    "schema_version": "0.2.4",
    "year": 2026,
    "month": 6,
    "wfo": "GJT",
    "start_utc": "2026-06-01T00:00:00Z",
    "end_utc": "2026-07-01T00:00:00Z",
    "generated_utc": "2026-06-07T11:16:39Z",
    "mode": "storm_data_prep",
    "public_release_status": "public-source-derived",
    "time_note": "Storm Data entry times should be reviewed in local Standard Time (ST), not daylight time. Candidate reports include standard_time_display.",
    "tornado_track_policy": "Tornado tracks must come from DAT. NCEI begin/end coordinates are not used as a tornado track substitute.",
    "source": "https://mesonet.agron.iastate.edu/cgi-bin/request/gis/lsr.py?wfo=GJT&sts=2026-06-01T00%3A00%3A00Z&ets=2026-07-01T00%3A00%3A00Z&fmt=csv"
  },
  "features": [
    {
      "type": "Feature",
      "id": "iem-lsr-GJT-1",
      "properties": {
        "report_id": "iem-lsr-GJT-1",
        "report_type": "NON-TSTM WND GST",
        "event_category": "thunderstorm_wind",
        "valid_utc": "202606052129",
        "standard_time_display": "2026-06-05 14:29 MST",
        "wfo": "GJT",
        "county_or_zone": "La Plata",
        "city": "3 WSW Oxford",
        "state": "CO",
        "magnitude": 55.0,
        "magnitude_units": null,
        "source": "ASOS",
        "event_narrative": "ASOS station KDRO Durango La Plata Cnty Airport."
      },
      "geometry": {
        "type": "Point",
        "coordinates": [
          -107.77,
          37.15
        ]
      }
    },
    {
      "type": "Feature",
      "id": "iem-lsr-GJT-2",
      "properties": {
        "report_id": "iem-lsr-GJT-2",
        "report_type": "NON-TSTM WND GST",
        "event_category": "thunderstorm_wind",
        "valid_utc": "202606062246",
        "standard_time_display": "2026-06-06 15:46 MST",
        "wfo": "GJT",
        "county_or_zone": "Moffat",
        "city": "2 SW Great Divide",
        "state": "CO",
        "magnitude": 45.0,
        "magnitude_units": null,
        "source": "Mesonet",
        "event_narrative": "Mesonet station GDRC2 Great Divide 2SW."
      },
      "geometry": {
        "type": "Point",
        "coordinates": [
          -107.85,
          40.76
        ]
      }
    },
    {
      "type": "Feature",
      "id": "iem-lsr-GJT-3",
      "properties": {
        "report_id": "iem-lsr-GJT-3",
        "report_type": "NON-TSTM WND GST",
        "event_category": "thunderstorm_wind",
        "valid_utc": "202606062248",
        "standard_time_display": "2026-06-06 15:48 MST",
        "wfo": "GJT",
        "county_or_zone": "Garfield",
        "city": "1 W Douglas Pass",
        "state": "CO",
        "magnitude": 56.0,
        "magnitude_units": null,
        "source": "Mesonet",
        "event_narrative": "Mesonet station CO098 139s034 Douglas Pass."
      },
      "geometry": {
        "type": "Point",
        "coordinates": [
          -108.82,
          39.6
        ]
      }
    },
    {
      "type": "Feature",
      "id": "iem-lsr-GJT-4",
      "properties": {
        "report_id": "iem-lsr-GJT-4",
        "report_type": "NON-TSTM WND GST",
        "event_category": "thunderstorm_wind",
        "valid_utc": "202606062256",
        "standard_time_display": "2026-06-06 15:56 MST",
        "wfo": "GJT",
        "county_or_zone": "Eagle",
        "city": "2 ESE Gypsum",
        "state": "CO",
        "magnitude": 46.0,
        "magnitude_units": null,
        "source": "AWOS",
        "event_narrative": "AWOS station KEGE Eagle County Rgnl Airport."
      },
      "geometry": {
        "type": "Point",
        "coordinates": [
          -106.92,
          39.63
        ]
      }
    }
  ]
}