{
  "type": "FeatureCollection",
  "metadata": {
    "schema_version": "0.2.0",
    "year": 2026,
    "month": 4,
    "wfo": "TWC",
    "start_utc": "2026-04-01T00:00:00Z",
    "end_utc": "2026-05-01T00:00:00Z",
    "generated_utc": "2026-05-27T21:21:57Z",
    "mode": "storm_data_prep",
    "public_release_status": "public-source-derived",
    "source": "https://mesonet.agron.iastate.edu/cgi-bin/request/gis/lsr.py?wfo=TWC&sts=2026-04-01T00%3A00%3A00Z&ets=2026-05-01T00%3A00%3A00Z&fmt=csv"
  },
  "features": [
    {
      "type": "Feature",
      "id": "iem-lsr-TWC-1",
      "properties": {
        "report_id": "iem-lsr-TWC-1",
        "report_type": "NON-TSTM WND GST",
        "event_category": "thunderstorm_wind",
        "valid_utc": "202604130814",
        "county_or_zone": "Cochise",
        "city": "Huachuca City",
        "state": "AZ",
        "magnitude": 62.0,
        "magnitude_units": null,
        "source": "ASOS",
        "event_narrative": "Pioneer Airfield."
      },
      "geometry": {
        "type": "Point",
        "coordinates": [
          -110.34,
          31.63
        ]
      }
    },
    {
      "type": "Feature",
      "id": "iem-lsr-TWC-2",
      "properties": {
        "report_id": "iem-lsr-TWC-2",
        "report_type": "NON-TSTM WND GST",
        "event_category": "thunderstorm_wind",
        "valid_utc": "202604130815",
        "county_or_zone": "Santa Cruz",
        "city": "Patagonia",
        "state": "AZ",
        "magnitude": 70.0,
        "magnitude_units": null,
        "source": "Mesonet",
        "event_narrative": "CWOP site."
      },
      "geometry": {
        "type": "Point",
        "coordinates": [
          -110.75,
          31.54
        ]
      }
    }
  ]
}