{
  "type": "FeatureCollection",
  "metadata": {
    "schema_version": "0.2.4",
    "year": 2026,
    "month": 7,
    "wfo": "DDC",
    "start_utc": "2026-07-01T00:00:00Z",
    "end_utc": "2026-08-01T00:00:00Z",
    "generated_utc": "2026-07-01T12:16:55Z",
    "mode": "storm_data_prep",
    "public_release_status": "public-source-derived",
    "time_note": "Storm Data entry times should be reviewed in local Standard Time (ST), not daylight time. Candidate reports include standard_time_display.",
    "tornado_track_policy": "Tornado tracks must come from DAT. NCEI begin/end coordinates are not used as a tornado track substitute.",
    "source": "https://mesonet.agron.iastate.edu/cgi-bin/request/gis/lsr.py?wfo=DDC&sts=2026-07-01T00%3A00%3A00Z&ets=2026-08-01T00%3A00%3A00Z&fmt=csv"
  },
  "features": [
    {
      "type": "Feature",
      "id": "iem-lsr-DDC-1",
      "properties": {
        "report_id": "iem-lsr-DDC-1",
        "report_type": "TSTM WND GST",
        "event_category": "thunderstorm_wind",
        "valid_utc": "202607010213",
        "standard_time_display": "2026-06-30 20:13 CST",
        "wfo": "DDC",
        "county_or_zone": "Rush",
        "city": "1 ESE Hargrave",
        "state": "KS",
        "magnitude": 73.0,
        "magnitude_units": null,
        "source": "Mesonet",
        "event_narrative": null
      },
      "geometry": {
        "type": "Point",
        "coordinates": [
          -99.43,
          38.55
        ]
      }
    },
    {
      "type": "Feature",
      "id": "iem-lsr-DDC-2",
      "properties": {
        "report_id": "iem-lsr-DDC-2",
        "report_type": "TSTM WND GST",
        "event_category": "thunderstorm_wind",
        "valid_utc": "202607010217",
        "standard_time_display": "2026-06-30 20:17 CST",
        "wfo": "DDC",
        "county_or_zone": "Rush",
        "city": "1 N Liebenthal",
        "state": "KS",
        "magnitude": 66.0,
        "magnitude_units": null,
        "source": "Public",
        "event_narrative": null
      },
      "geometry": {
        "type": "Point",
        "coordinates": [
          -99.32,
          38.67
        ]
      }
    }
  ]
}