{
  "type": "FeatureCollection",
  "metadata": {
    "schema_version": "0.2.4",
    "year": 2026,
    "month": 7,
    "wfo": "LWX",
    "start_utc": "2026-07-01T00:00:00Z",
    "end_utc": "2026-08-01T00:00:00Z",
    "generated_utc": "2026-07-05T11:13:03Z",
    "mode": "storm_data_prep",
    "public_release_status": "public-source-derived",
    "time_note": "Storm Data entry times should be reviewed in local Standard Time (ST), not daylight time. Candidate reports include standard_time_display.",
    "tornado_track_policy": "Tornado tracks must come from DAT. NCEI begin/end coordinates are not used as a tornado track substitute.",
    "source": "https://mesonet.agron.iastate.edu/cgi-bin/request/gis/lsr.py?wfo=LWX&sts=2026-07-01T00%3A00%3A00Z&ets=2026-08-01T00%3A00%3A00Z&fmt=csv"
  },
  "features": [
    {
      "type": "Feature",
      "id": "iem-lsr-LWX-1",
      "properties": {
        "report_id": "iem-lsr-LWX-1",
        "report_type": "TSTM WND DMG",
        "event_category": "thunderstorm_wind",
        "valid_utc": "202607041845",
        "standard_time_display": "2026-07-04 13:45 EST",
        "wfo": "LWX",
        "county_or_zone": "Rockingham",
        "city": "3 SE Broadway",
        "state": "VA",
        "magnitude": null,
        "magnitude_units": null,
        "source": "911 Call Center",
        "event_narrative": "Several trees and wires blew down near Broadway. A large tree blew down in the 12000 block of Daphna Road. A couple of large trees blew down on US-11 Lee Highway/North Valley Pike near Lacey Spring R"
      },
      "geometry": {
        "type": "Point",
        "coordinates": [
          -78.76,
          38.57
        ]
      }
    },
    {
      "type": "Feature",
      "id": "iem-lsr-LWX-2",
      "properties": {
        "report_id": "iem-lsr-LWX-2",
        "report_type": "TSTM WND DMG",
        "event_category": "thunderstorm_wind",
        "valid_utc": "202607041855",
        "standard_time_display": "2026-07-04 13:55 EST",
        "wfo": "LWX",
        "county_or_zone": "Augusta",
        "city": "3 W Waynesboro",
        "state": "VA",
        "magnitude": null,
        "magnitude_units": null,
        "source": "Broadcast Media",
        "event_narrative": "A tree blew down in the 300 block of Hickory Hill Road."
      },
      "geometry": {
        "type": "Point",
        "coordinates": [
          -78.96,
          38.07
        ]
      }
    },
    {
      "type": "Feature",
      "id": "iem-lsr-LWX-3",
      "properties": {
        "report_id": "iem-lsr-LWX-3",
        "report_type": "TSTM WND DMG",
        "event_category": "thunderstorm_wind",
        "valid_utc": "202607041908",
        "standard_time_display": "2026-07-04 14:08 EST",
        "wfo": "LWX",
        "county_or_zone": "Pendleton",
        "city": "2 WSW Ruddle",
        "state": "WV",
        "magnitude": null,
        "magnitude_units": null,
        "source": "911 Call Center",
        "event_narrative": "Large tree limbs blew down along US-220 Petersburg Pike near Franklin."
      },
      "geometry": {
        "type": "Point",
        "coordinates": [
          -79.34,
          38.71
        ]
      }
    },
    {
      "type": "Feature",
      "id": "iem-lsr-LWX-4",
      "properties": {
        "report_id": "iem-lsr-LWX-4",
        "report_type": "TSTM WND DMG",
        "event_category": "thunderstorm_wind",
        "valid_utc": "202607041915",
        "standard_time_display": "2026-07-04 14:15 EST",
        "wfo": "LWX",
        "county_or_zone": "Rockingham",
        "city": "2 NNE Grottoes",
        "state": "VA",
        "magnitude": null,
        "magnitude_units": null,
        "source": "Broadcast Media",
        "event_narrative": "Trees and wires blew down in the 6800 block of New Haven Road."
      },
      "geometry": {
        "type": "Point",
        "coordinates": [
          -78.81,
          38.3
        ]
      }
    },
    {
      "type": "Feature",
      "id": "iem-lsr-LWX-5",
      "properties": {
        "report_id": "iem-lsr-LWX-5",
        "report_type": "TSTM WND DMG",
        "event_category": "thunderstorm_wind",
        "valid_utc": "202607041925",
        "standard_time_display": "2026-07-04 14:25 EST",
        "wfo": "LWX",
        "county_or_zone": "Rockingham",
        "city": "2 ENE Rocky Bar",
        "state": "VA",
        "magnitude": null,
        "magnitude_units": null,
        "source": "Broadcast Media",
        "event_narrative": "Trees and wires blew down in the 8600 block of US-340 East Side Highway_ and in the 5100 block of Berrytown Road."
      },
      "geometry": {
        "type": "Point",
        "coordinates": [
          -78.68,
          38.35
        ]
      }
    },
    {
      "type": "Feature",
      "id": "iem-lsr-LWX-6",
      "properties": {
        "report_id": "iem-lsr-LWX-6",
        "report_type": "TSTM WND DMG",
        "event_category": "thunderstorm_wind",
        "valid_utc": "202607041930",
        "standard_time_display": "2026-07-04 14:30 EST",
        "wfo": "LWX",
        "county_or_zone": "Greene",
        "city": "2 S Lydia",
        "state": "VA",
        "magnitude": null,
        "magnitude_units": null,
        "source": "911 Call Center",
        "event_narrative": "Several large tree limbs blew down along VA-810 Dyke Road."
      },
      "geometry": {
        "type": "Point",
        "coordinates": [
          -78.48,
          38.3
        ]
      }
    },
    {
      "type": "Feature",
      "id": "iem-lsr-LWX-7",
      "properties": {
        "report_id": "iem-lsr-LWX-7",
        "report_type": "TSTM WND DMG",
        "event_category": "thunderstorm_wind",
        "valid_utc": "202607041938",
        "standard_time_display": "2026-07-04 14:38 EST",
        "wfo": "LWX",
        "county_or_zone": "Madison",
        "city": "2 SSE Madison",
        "state": "VA",
        "magnitude": null,
        "magnitude_units": null,
        "source": "911 Call Center",
        "event_narrative": "Numerous trees were down near Madison."
      },
      "geometry": {
        "type": "Point",
        "coordinates": [
          -78.24,
          38.35
        ]
      }
    },
    {
      "type": "Feature",
      "id": "iem-lsr-LWX-8",
      "properties": {
        "report_id": "iem-lsr-LWX-8",
        "report_type": "TSTM WND DMG",
        "event_category": "thunderstorm_wind",
        "valid_utc": "202607041958",
        "standard_time_display": "2026-07-04 14:58 EST",
        "wfo": "LWX",
        "county_or_zone": "Culpeper",
        "city": "3 W Winston",
        "state": "VA",
        "magnitude": null,
        "magnitude_units": null,
        "source": "911 Call Center",
        "event_narrative": "Reports of multiple trees down in southwest Culpeper County."
      },
      "geometry": {
        "type": "Point",
        "coordinates": [
          -78.06,
          38.41
        ]
      }
    },
    {
      "type": "Feature",
      "id": "iem-lsr-LWX-9",
      "properties": {
        "report_id": "iem-lsr-LWX-9",
        "report_type": "HAIL",
        "event_category": "hail",
        "valid_utc": "202607042010",
        "standard_time_display": "2026-07-04 15:10 EST",
        "wfo": "LWX",
        "county_or_zone": "Albemarle",
        "city": "2 ENE Hollymead",
        "state": "VA",
        "magnitude": 1.0,
        "magnitude_units": null,
        "source": "Public",
        "event_narrative": "Quarter sized hail."
      },
      "geometry": {
        "type": "Point",
        "coordinates": [
          -78.4,
          38.14
        ]
      }
    },
    {
      "type": "Feature",
      "id": "iem-lsr-LWX-10",
      "properties": {
        "report_id": "iem-lsr-LWX-10",
        "report_type": "TSTM WND DMG",
        "event_category": "thunderstorm_wind",
        "valid_utc": "202607042010",
        "standard_time_display": "2026-07-04 15:10 EST",
        "wfo": "LWX",
        "county_or_zone": "Page",
        "city": "Stanley",
        "state": "VA",
        "magnitude": null,
        "magnitude_units": null,
        "source": "911 Call Center",
        "event_narrative": "Large tree limbs fell onto power lines in the 200 block of Honeyville Avenue."
      },
      "geometry": {
        "type": "Point",
        "coordinates": [
          -78.51,
          38.57
        ]
      }
    },
    {
      "type": "Feature",
      "id": "iem-lsr-LWX-11",
      "properties": {
        "report_id": "iem-lsr-LWX-11",
        "report_type": "TSTM WND DMG",
        "event_category": "thunderstorm_wind",
        "valid_utc": "202607042015",
        "standard_time_display": "2026-07-04 15:15 EST",
        "wfo": "LWX",
        "county_or_zone": "Albemarle",
        "city": "2 SE Hollymead",
        "state": "VA",
        "magnitude": null,
        "magnitude_units": null,
        "source": "911 Call Center",
        "event_narrative": "Numerous trees and wires blew down near and north of Charlottesville."
      },
      "geometry": {
        "type": "Point",
        "coordinates": [
          -78.42,
          38.1
        ]
      }
    },
    {
      "type": "Feature",
      "id": "iem-lsr-LWX-12",
      "properties": {
        "report_id": "iem-lsr-LWX-12",
        "report_type": "TSTM WND DMG",
        "event_category": "thunderstorm_wind",
        "valid_utc": "202607042015",
        "standard_time_display": "2026-07-04 15:15 EST",
        "wfo": "LWX",
        "county_or_zone": "Albemarle",
        "city": "2 S Keswick",
        "state": "VA",
        "magnitude": null,
        "magnitude_units": null,
        "source": "911 Call Center",
        "event_narrative": "Dozens of trees and wires down widespread across eastern Albemarle County. 37 percent of the City of Charlottesville is without power."
      },
      "geometry": {
        "type": "Point",
        "coordinates": [
          -78.36,
          37.99
        ]
      }
    },
    {
      "type": "Feature",
      "id": "iem-lsr-LWX-13",
      "properties": {
        "report_id": "iem-lsr-LWX-13",
        "report_type": "TSTM WND DMG",
        "event_category": "thunderstorm_wind",
        "valid_utc": "202607042018",
        "standard_time_display": "2026-07-04 15:18 EST",
        "wfo": "LWX",
        "county_or_zone": "Grant",
        "city": "3 SSE Lahmansville",
        "state": "WV",
        "magnitude": null,
        "magnitude_units": null,
        "source": "911 Call Center",
        "event_narrative": "Trees were down along Morgantown Road."
      },
      "geometry": {
        "type": "Point",
        "coordinates": [
          -79.06,
          39.09
        ]
      }
    },
    {
      "type": "Feature",
      "id": "iem-lsr-LWX-14",
      "properties": {
        "report_id": "iem-lsr-LWX-14",
        "report_type": "TSTM WND DMG",
        "event_category": "thunderstorm_wind",
        "valid_utc": "202607042024",
        "standard_time_display": "2026-07-04 15:24 EST",
        "wfo": "LWX",
        "county_or_zone": "Hardy",
        "city": "2 NNE Moorefield",
        "state": "WV",
        "magnitude": null,
        "magnitude_units": null,
        "source": "911 Call Center",
        "event_narrative": "Tree was down along Cunningham Lane."
      },
      "geometry": {
        "type": "Point",
        "coordinates": [
          -78.96,
          39.1
        ]
      }
    },
    {
      "type": "Feature",
      "id": "iem-lsr-LWX-15",
      "properties": {
        "report_id": "iem-lsr-LWX-15",
        "report_type": "TSTM WND DMG",
        "event_category": "thunderstorm_wind",
        "valid_utc": "202607042045",
        "standard_time_display": "2026-07-04 15:45 EST",
        "wfo": "LWX",
        "county_or_zone": "Augusta",
        "city": "Christian",
        "state": "VA",
        "magnitude": null,
        "magnitude_units": null,
        "source": "Trained Spotter",
        "event_narrative": "Several trees blew down in Buffalo Gap."
      },
      "geometry": {
        "type": "Point",
        "coordinates": [
          -79.23,
          38.19
        ]
      }
    },
    {
      "type": "Feature",
      "id": "iem-lsr-LWX-16",
      "properties": {
        "report_id": "iem-lsr-LWX-16",
        "report_type": "TSTM WND DMG",
        "event_category": "thunderstorm_wind",
        "valid_utc": "202607042057",
        "standard_time_display": "2026-07-04 15:57 EST",
        "wfo": "LWX",
        "county_or_zone": "Nelson",
        "city": "3 ESE Wintergreen",
        "state": "VA",
        "magnitude": null,
        "magnitude_units": null,
        "source": "911 Call Center",
        "event_narrative": "Numerous trees blew down across Nelson County."
      },
      "geometry": {
        "type": "Point",
        "coordinates": [
          -78.86,
          37.87
        ]
      }
    },
    {
      "type": "Feature",
      "id": "iem-lsr-LWX-17",
      "properties": {
        "report_id": "iem-lsr-LWX-17",
        "report_type": "TSTM WND DMG",
        "event_category": "thunderstorm_wind",
        "valid_utc": "202607042105",
        "standard_time_display": "2026-07-04 16:05 EST",
        "wfo": "LWX",
        "county_or_zone": "Hampshire",
        "city": "4 S Frenchburg",
        "state": "WV",
        "magnitude": null,
        "magnitude_units": null,
        "source": "Dept of Highways",
        "event_narrative": "Trees blew down in the 1200 block of CR-7/5 Mack Road."
      },
      "geometry": {
        "type": "Point",
        "coordinates": [
          -78.65,
          39.25
        ]
      }
    },
    {
      "type": "Feature",
      "id": "iem-lsr-LWX-18",
      "properties": {
        "report_id": "iem-lsr-LWX-18",
        "report_type": "TSTM WND DMG",
        "event_category": "thunderstorm_wind",
        "valid_utc": "202607042110",
        "standard_time_display": "2026-07-04 16:10 EST",
        "wfo": "LWX",
        "county_or_zone": "Hampshire",
        "city": "3 S Frenchburg",
        "state": "WV",
        "magnitude": null,
        "magnitude_units": null,
        "source": "Dept of Highways",
        "event_narrative": "Trees blew down in the 1800 block of CR-7 Ford Hill Road."
      },
      "geometry": {
        "type": "Point",
        "coordinates": [
          -78.65,
          39.27
        ]
      }
    },
    {
      "type": "Feature",
      "id": "iem-lsr-LWX-19",
      "properties": {
        "report_id": "iem-lsr-LWX-19",
        "report_type": "TSTM WND DMG",
        "event_category": "thunderstorm_wind",
        "valid_utc": "202607042110",
        "standard_time_display": "2026-07-04 16:10 EST",
        "wfo": "LWX",
        "county_or_zone": "Hampshire",
        "city": "6 SSW Romney",
        "state": "WV",
        "magnitude": null,
        "magnitude_units": null,
        "source": "Dept of Highways",
        "event_narrative": "Trees blew down on CR-8 South Branch River Road."
      },
      "geometry": {
        "type": "Point",
        "coordinates": [
          -78.81,
          39.27
        ]
      }
    },
    {
      "type": "Feature",
      "id": "iem-lsr-LWX-20",
      "properties": {
        "report_id": "iem-lsr-LWX-20",
        "report_type": "TSTM WND DMG",
        "event_category": "thunderstorm_wind",
        "valid_utc": "202607042115",
        "standard_time_display": "2026-07-04 16:15 EST",
        "wfo": "LWX",
        "county_or_zone": "Augusta",
        "city": "1 ENE Churchville",
        "state": "VA",
        "magnitude": null,
        "magnitude_units": null,
        "source": "911 Call Center",
        "event_narrative": "Dozens of trees down across several locations in the county."
      },
      "geometry": {
        "type": "Point",
        "coordinates": [
          -79.15,
          38.23
        ]
      }
    },
    {
      "type": "Feature",
      "id": "iem-lsr-LWX-21",
      "properties": {
        "report_id": "iem-lsr-LWX-21",
        "report_type": "TSTM WND DMG",
        "event_category": "thunderstorm_wind",
        "valid_utc": "202607042123",
        "standard_time_display": "2026-07-04 16:23 EST",
        "wfo": "LWX",
        "county_or_zone": "Augusta",
        "city": "2 NW Churchville",
        "state": "VA",
        "magnitude": null,
        "magnitude_units": null,
        "source": "911 Call Center",
        "event_narrative": "Multiple reports of trees down in western Augusta County. Several roads closed."
      },
      "geometry": {
        "type": "Point",
        "coordinates": [
          -79.19,
          38.25
        ]
      }
    },
    {
      "type": "Feature",
      "id": "iem-lsr-LWX-22",
      "properties": {
        "report_id": "iem-lsr-LWX-22",
        "report_type": "TSTM WND DMG",
        "event_category": "thunderstorm_wind",
        "valid_utc": "202607042130",
        "standard_time_display": "2026-07-04 16:30 EST",
        "wfo": "LWX",
        "county_or_zone": "City of Fredericks",
        "city": "1 ENE Fredericksburg",
        "state": "VA",
        "magnitude": null,
        "magnitude_units": null,
        "source": "Emergency Mngr",
        "event_narrative": "A tree was down along Prince Edward Street and Amelia Street."
      },
      "geometry": {
        "type": "Point",
        "coordinates": [
          -77.46,
          38.3
        ]
      }
    },
    {
      "type": "Feature",
      "id": "iem-lsr-LWX-23",
      "properties": {
        "report_id": "iem-lsr-LWX-23",
        "report_type": "TSTM WND DMG",
        "event_category": "thunderstorm_wind",
        "valid_utc": "202607042135",
        "standard_time_display": "2026-07-04 16:35 EST",
        "wfo": "LWX",
        "county_or_zone": "Stafford",
        "city": "2 N Falmouth",
        "state": "VA",
        "magnitude": null,
        "magnitude_units": null,
        "source": "Dept of Highways",
        "event_narrative": "Trees blew down on I-95 at mile marker 142."
      },
      "geometry": {
        "type": "Point",
        "coordinates": [
          -77.47,
          38.37
        ]
      }
    },
    {
      "type": "Feature",
      "id": "iem-lsr-LWX-24",
      "properties": {
        "report_id": "iem-lsr-LWX-24",
        "report_type": "TSTM WND DMG",
        "event_category": "thunderstorm_wind",
        "valid_utc": "202607042136",
        "standard_time_display": "2026-07-04 16:36 EST",
        "wfo": "LWX",
        "county_or_zone": "Jefferson",
        "city": "Rippon",
        "state": "WV",
        "magnitude": null,
        "magnitude_units": null,
        "source": "911 Call Center",
        "event_narrative": "Trees were down across the area."
      },
      "geometry": {
        "type": "Point",
        "coordinates": [
          -77.9,
          39.22
        ]
      }
    },
    {
      "type": "Feature",
      "id": "iem-lsr-LWX-25",
      "properties": {
        "report_id": "iem-lsr-LWX-25",
        "report_type": "TSTM WND DMG",
        "event_category": "thunderstorm_wind",
        "valid_utc": "202607042137",
        "standard_time_display": "2026-07-04 16:37 EST",
        "wfo": "LWX",
        "county_or_zone": "Nelson",
        "city": "3 ESE Wintergreen",
        "state": "VA",
        "magnitude": null,
        "magnitude_units": null,
        "source": "911 Call Center",
        "event_narrative": "Numerous trees blew down across Nelson County."
      },
      "geometry": {
        "type": "Point",
        "coordinates": [
          -78.86,
          37.87
        ]
      }
    },
    {
      "type": "Feature",
      "id": "iem-lsr-LWX-26",
      "properties": {
        "report_id": "iem-lsr-LWX-26",
        "report_type": "TSTM WND DMG",
        "event_category": "thunderstorm_wind",
        "valid_utc": "202607042139",
        "standard_time_display": "2026-07-04 16:39 EST",
        "wfo": "LWX",
        "county_or_zone": "Frederick",
        "city": "1 E Arnoldtown",
        "state": "MD",
        "magnitude": null,
        "magnitude_units": null,
        "source": "Dept of Highways",
        "event_narrative": "Trees blew down near the intersection of MD-17 Burkittsville Road and MD-383 Broad Run Road/Schneider Drive."
      },
      "geometry": {
        "type": "Point",
        "coordinates": [
          -77.59,
          39.41
        ]
      }
    },
    {
      "type": "Feature",
      "id": "iem-lsr-LWX-27",
      "properties": {
        "report_id": "iem-lsr-LWX-27",
        "report_type": "TSTM WND DMG",
        "event_category": "thunderstorm_wind",
        "valid_utc": "202607042140",
        "standard_time_display": "2026-07-04 16:40 EST",
        "wfo": "LWX",
        "county_or_zone": "Jefferson",
        "city": "Charles Town",
        "state": "WV",
        "magnitude": null,
        "magnitude_units": null,
        "source": "911 Call Center",
        "event_narrative": "Multiple reports of trees down across Jefferson County. Several towns with damage."
      },
      "geometry": {
        "type": "Point",
        "coordinates": [
          -77.86,
          39.29
        ]
      }
    },
    {
      "type": "Feature",
      "id": "iem-lsr-LWX-28",
      "properties": {
        "report_id": "iem-lsr-LWX-28",
        "report_type": "TSTM WND DMG",
        "event_category": "thunderstorm_wind",
        "valid_utc": "202607042145",
        "standard_time_display": "2026-07-04 16:45 EST",
        "wfo": "LWX",
        "county_or_zone": "Frederick",
        "city": "1 SSW Middletown",
        "state": "MD",
        "magnitude": null,
        "magnitude_units": null,
        "source": "Dept of Highways",
        "event_narrative": "Trees blew down on MD-17 South Church Street/Burkittsville Road near Maerk Road."
      },
      "geometry": {
        "type": "Point",
        "coordinates": [
          -77.55,
          39.43
        ]
      }
    },
    {
      "type": "Feature",
      "id": "iem-lsr-LWX-29",
      "properties": {
        "report_id": "iem-lsr-LWX-29",
        "report_type": "TSTM WND DMG",
        "event_category": "thunderstorm_wind",
        "valid_utc": "202607042145",
        "standard_time_display": "2026-07-04 16:45 EST",
        "wfo": "LWX",
        "county_or_zone": "Albemarle",
        "city": "Charlottesville",
        "state": "VA",
        "magnitude": null,
        "magnitude_units": null,
        "source": "911 Call Center",
        "event_narrative": "Numerous trees were down around Charlottesville and Albemarle County. The hardest hit areas were across Charlottesville as well as the eastern part of the county. There were about five reports of tre"
      },
      "geometry": {
        "type": "Point",
        "coordinates": [
          -78.49,
          38.04
        ]
      }
    },
    {
      "type": "Feature",
      "id": "iem-lsr-LWX-30",
      "properties": {
        "report_id": "iem-lsr-LWX-30",
        "report_type": "TSTM WND DMG",
        "event_category": "thunderstorm_wind",
        "valid_utc": "202607042148",
        "standard_time_display": "2026-07-04 16:48 EST",
        "wfo": "LWX",
        "county_or_zone": "Frederick",
        "city": "Frederick",
        "state": "MD",
        "magnitude": null,
        "magnitude_units": null,
        "source": "911 Call Center",
        "event_narrative": "Numerous trees down in Middletown. A tree fell onto a house as well."
      },
      "geometry": {
        "type": "Point",
        "coordinates": [
          -77.42,
          39.43
        ]
      }
    },
    {
      "type": "Feature",
      "id": "iem-lsr-LWX-31",
      "properties": {
        "report_id": "iem-lsr-LWX-31",
        "report_type": "HAIL",
        "event_category": "hail",
        "valid_utc": "202607042150",
        "standard_time_display": "2026-07-04 16:50 EST",
        "wfo": "LWX",
        "county_or_zone": "Spotsylvania",
        "city": "3 NW Glenora",
        "state": "VA",
        "magnitude": 1.0,
        "magnitude_units": null,
        "source": "Trained Spotter",
        "event_narrative": "Quarter size hail was reported in Lake Anna State Park."
      },
      "geometry": {
        "type": "Point",
        "coordinates": [
          -77.83,
          38.12
        ]
      }
    },
    {
      "type": "Feature",
      "id": "iem-lsr-LWX-32",
      "properties": {
        "report_id": "iem-lsr-LWX-32",
        "report_type": "MARINE TSTM WIND",
        "event_category": "marine",
        "valid_utc": "202607042150",
        "standard_time_display": "2026-07-04 16:50 EST",
        "wfo": "LWX",
        "county_or_zone": "Prince William",
        "city": "Quantico Marine Corp",
        "state": "VA",
        "magnitude": 55.0,
        "magnitude_units": null,
        "source": "AWOS",
        "event_narrative": "A wind gust of 48 knots (55 MPH) was measured by the AWOS at Quantico Marine Base (KNYG) adjacent to the tidal Potomac River."
      },
      "geometry": {
        "type": "Point",
        "coordinates": [
          -77.3,
          38.51
        ]
      }
    },
    {
      "type": "Feature",
      "id": "iem-lsr-LWX-33",
      "properties": {
        "report_id": "iem-lsr-LWX-33",
        "report_type": "TSTM WND DMG",
        "event_category": "thunderstorm_wind",
        "valid_utc": "202607042152",
        "standard_time_display": "2026-07-04 16:52 EST",
        "wfo": "LWX",
        "county_or_zone": "Frederick",
        "city": "1 WNW Middletown",
        "state": "MD",
        "magnitude": null,
        "magnitude_units": null,
        "source": "Dept of Highways",
        "event_narrative": "Numerous trees blew down on Alternate US-40 Old National Pike near Marker Road."
      },
      "geometry": {
        "type": "Point",
        "coordinates": [
          -77.56,
          39.45
        ]
      }
    },
    {
      "type": "Feature",
      "id": "iem-lsr-LWX-34",
      "properties": {
        "report_id": "iem-lsr-LWX-34",
        "report_type": "TSTM WND DMG",
        "event_category": "thunderstorm_wind",
        "valid_utc": "202607042153",
        "standard_time_display": "2026-07-04 16:53 EST",
        "wfo": "LWX",
        "county_or_zone": "Loudoun",
        "city": "1 S Lovettsville",
        "state": "VA",
        "magnitude": null,
        "magnitude_units": null,
        "source": "Dept of Highways",
        "event_narrative": "Trees blew down on eastbound VA-676 in the vicinity of VA-678 Lutheran Church Road."
      },
      "geometry": {
        "type": "Point",
        "coordinates": [
          -77.64,
          39.26
        ]
      }
    },
    {
      "type": "Feature",
      "id": "iem-lsr-LWX-35",
      "properties": {
        "report_id": "iem-lsr-LWX-35",
        "report_type": "TSTM WND DMG",
        "event_category": "thunderstorm_wind",
        "valid_utc": "202607042154",
        "standard_time_display": "2026-07-04 16:54 EST",
        "wfo": "LWX",
        "county_or_zone": "Jefferson",
        "city": "Charles Town",
        "state": "WV",
        "magnitude": null,
        "magnitude_units": null,
        "source": "911 Call Center",
        "event_narrative": "Trees were down in Charles Town. About 35 to 50 trees were down across all of Jefferson County as well."
      },
      "geometry": {
        "type": "Point",
        "coordinates": [
          -77.86,
          39.29
        ]
      }
    },
    {
      "type": "Feature",
      "id": "iem-lsr-LWX-36",
      "properties": {
        "report_id": "iem-lsr-LWX-36",
        "report_type": "TSTM WND DMG",
        "event_category": "thunderstorm_wind",
        "valid_utc": "202607042154",
        "standard_time_display": "2026-07-04 16:54 EST",
        "wfo": "LWX",
        "county_or_zone": "Rockingham",
        "city": "Harrisonburg",
        "state": "VA",
        "magnitude": null,
        "magnitude_units": null,
        "source": "911 Call Center",
        "event_narrative": "About 45 to 50 trees were down across Harrisonburg."
      },
      "geometry": {
        "type": "Point",
        "coordinates": [
          -78.87,
          38.44
        ]
      }
    },
    {
      "type": "Feature",
      "id": "iem-lsr-LWX-37",
      "properties": {
        "report_id": "iem-lsr-LWX-37",
        "report_type": "TSTM WND GST",
        "event_category": "thunderstorm_wind",
        "valid_utc": "202607042155",
        "standard_time_display": "2026-07-04 16:55 EST",
        "wfo": "LWX",
        "county_or_zone": "Rockingham",
        "city": "1 S Broadway",
        "state": "VA",
        "magnitude": 63.0,
        "magnitude_units": null,
        "source": "Mesonet",
        "event_narrative": "A wind gust of 55 knots (63 MPH) was measured by a CWOP station in Broadway (GW5695)."
      },
      "geometry": {
        "type": "Point",
        "coordinates": [
          -78.8,
          38.6
        ]
      }
    },
    {
      "type": "Feature",
      "id": "iem-lsr-LWX-38",
      "properties": {
        "report_id": "iem-lsr-LWX-38",
        "report_type": "TSTM WND DMG",
        "event_category": "thunderstorm_wind",
        "valid_utc": "202607042158",
        "standard_time_display": "2026-07-04 16:58 EST",
        "wfo": "LWX",
        "county_or_zone": "Frederick",
        "city": "2 SSE Myersville",
        "state": "MD",
        "magnitude": null,
        "magnitude_units": null,
        "source": "Dept of Highways",
        "event_narrative": "Trees blew down on MD-17 Myersville Road south of Dawn Court."
      },
      "geometry": {
        "type": "Point",
        "coordinates": [
          -77.56,
          39.48
        ]
      }
    },
    {
      "type": "Feature",
      "id": "iem-lsr-LWX-39",
      "properties": {
        "report_id": "iem-lsr-LWX-39",
        "report_type": "TSTM WND DMG",
        "event_category": "thunderstorm_wind",
        "valid_utc": "202607042158",
        "standard_time_display": "2026-07-04 16:58 EST",
        "wfo": "LWX",
        "county_or_zone": "Washington",
        "city": "2 W Fairplay",
        "state": "MD",
        "magnitude": null,
        "magnitude_units": null,
        "source": "Dept of Highways",
        "event_narrative": "Trees blew down on MD-63 Spielman Road at Bakersville Road."
      },
      "geometry": {
        "type": "Point",
        "coordinates": [
          -77.78,
          39.54
        ]
      }
    },
    {
      "type": "Feature",
      "id": "iem-lsr-LWX-40",
      "properties": {
        "report_id": "iem-lsr-LWX-40",
        "report_type": "TSTM WND DMG",
        "event_category": "thunderstorm_wind",
        "valid_utc": "202607042159",
        "standard_time_display": "2026-07-04 16:59 EST",
        "wfo": "LWX",
        "county_or_zone": "Frederick",
        "city": "1 S Myersville",
        "state": "MD",
        "magnitude": null,
        "magnitude_units": null,
        "source": "Dept of Highways",
        "event_narrative": "Trees blew down on I-70 Dwight D. Eisenhower Highway prior to mile marker 43.0."
      },
      "geometry": {
        "type": "Point",
        "coordinates": [
          -77.56,
          39.49
        ]
      }
    },
    {
      "type": "Feature",
      "id": "iem-lsr-LWX-41",
      "properties": {
        "report_id": "iem-lsr-LWX-41",
        "report_type": "TSTM WND DMG",
        "event_category": "thunderstorm_wind",
        "valid_utc": "202607042203",
        "standard_time_display": "2026-07-04 17:03 EST",
        "wfo": "LWX",
        "county_or_zone": "Charles",
        "city": "3 NW Nanjemoy",
        "state": "MD",
        "magnitude": null,
        "magnitude_units": null,
        "source": "Dept of Highways",
        "event_narrative": "Numerous trees blew down on MD-224 Riverside Road and Sandy Point Road/Point Sandy Place."
      },
      "geometry": {
        "type": "Point",
        "coordinates": [
          -77.26,
          38.49
        ]
      }
    },
    {
      "type": "Feature",
      "id": "iem-lsr-LWX-42",
      "properties": {
        "report_id": "iem-lsr-LWX-42",
        "report_type": "MARINE TSTM WIND",
        "event_category": "marine",
        "valid_utc": "202607042206",
        "standard_time_display": "2026-07-04 17:06 EST",
        "wfo": "LWX",
        "county_or_zone": "ANZ536",
        "city": "2 E Woodbridge",
        "state": "VA",
        "magnitude": 45.0,
        "magnitude_units": null,
        "source": "Mesonet",
        "event_narrative": "Wind gusts of up to 45 knots (52 MPH) were measured by the Occoquan River WeatherFlow sensor (XOCC) between 6:06 and 6:41 PM."
      },
      "geometry": {
        "type": "Point",
        "coordinates": [
          -77.22,
          38.64
        ]
      }
    },
    {
      "type": "Feature",
      "id": "iem-lsr-LWX-43",
      "properties": {
        "report_id": "iem-lsr-LWX-43",
        "report_type": "TSTM WND GST",
        "event_category": "thunderstorm_wind",
        "valid_utc": "202607042206",
        "standard_time_display": "2026-07-04 17:06 EST",
        "wfo": "LWX",
        "county_or_zone": "Prince William",
        "city": "Quantico Marine Corp",
        "state": "VA",
        "magnitude": 61.0,
        "magnitude_units": null,
        "source": "AWOS",
        "event_narrative": "A wind gust of 53 knots (61 MPH) was measured by the AWOS at Quantico Marine Base (KNYG)."
      },
      "geometry": {
        "type": "Point",
        "coordinates": [
          -77.3,
          38.51
        ]
      }
    },
    {
      "type": "Feature",
      "id": "iem-lsr-LWX-44",
      "properties": {
        "report_id": "iem-lsr-LWX-44",
        "report_type": "TSTM WND DMG",
        "event_category": "thunderstorm_wind",
        "valid_utc": "202607042207",
        "standard_time_display": "2026-07-04 17:07 EST",
        "wfo": "LWX",
        "county_or_zone": "Fairfax",
        "city": "3 NNW Potomac Heights",
        "state": "VA",
        "magnitude": null,
        "magnitude_units": null,
        "source": "Dept of Highways",
        "event_narrative": "Trees blew down on eastbound VA-600 Gunston Road in the vicinity of Delphinium Trail."
      },
      "geometry": {
        "type": "Point",
        "coordinates": [
          -77.15,
          38.65
        ]
      }
    },
    {
      "type": "Feature",
      "id": "iem-lsr-LWX-45",
      "properties": {
        "report_id": "iem-lsr-LWX-45",
        "report_type": "TSTM WND DMG",
        "event_category": "thunderstorm_wind",
        "valid_utc": "202607042208",
        "standard_time_display": "2026-07-04 17:08 EST",
        "wfo": "LWX",
        "county_or_zone": "Frederick",
        "city": "Myersville",
        "state": "MD",
        "magnitude": null,
        "magnitude_units": null,
        "source": "Dept of Highways",
        "event_narrative": "Trees blew down along US-40 Baltimore National Pike near MD-17 Wolfsville Road."
      },
      "geometry": {
        "type": "Point",
        "coordinates": [
          -77.56,
          39.51
        ]
      }
    },
    {
      "type": "Feature",
      "id": "iem-lsr-LWX-46",
      "properties": {
        "report_id": "iem-lsr-LWX-46",
        "report_type": "TSTM WND DMG",
        "event_category": "thunderstorm_wind",
        "valid_utc": "202607042220",
        "standard_time_display": "2026-07-04 17:20 EST",
        "wfo": "LWX",
        "county_or_zone": "Frederick",
        "city": "1 ESE Wolfsville",
        "state": "MD",
        "magnitude": null,
        "magnitude_units": null,
        "source": "Dept of Highways",
        "event_narrative": "Trees blew down on MD-17 Wolfsville Road at Spruce Run Road."
      },
      "geometry": {
        "type": "Point",
        "coordinates": [
          -77.53,
          39.57
        ]
      }
    },
    {
      "type": "Feature",
      "id": "iem-lsr-LWX-47",
      "properties": {
        "report_id": "iem-lsr-LWX-47",
        "report_type": "MARINE TSTM WIND",
        "event_category": "marine",
        "valid_utc": "202607042223",
        "standard_time_display": "2026-07-04 17:23 EST",
        "wfo": "LWX",
        "county_or_zone": "Charles",
        "city": "2 WSW Tompkinsville",
        "state": "MD",
        "magnitude": 75.0,
        "magnitude_units": null,
        "source": "Mesonet",
        "event_narrative": "Wind gusts of up to 65 knots (75 MPH) were measured by the Cuckold Creek WeatherFlow sensor (XCCK) between 6:23 and 6:33 PM."
      },
      "geometry": {
        "type": "Point",
        "coordinates": [
          -76.93,
          38.31
        ]
      }
    },
    {
      "type": "Feature",
      "id": "iem-lsr-LWX-48",
      "properties": {
        "report_id": "iem-lsr-LWX-48",
        "report_type": "MARINE TSTM WIND",
        "event_category": "marine",
        "valid_utc": "202607042224",
        "standard_time_display": "2026-07-04 17:24 EST",
        "wfo": "LWX",
        "county_or_zone": "ANZ536",
        "city": "3 ESE Dahlgren",
        "state": "VA",
        "magnitude": 40.0,
        "magnitude_units": null,
        "source": "Mesonet",
        "event_narrative": "Wind gusts of up to 40 knots (46 MPH) were measured by the Pylons Dahlgren WeatherFlow sensor (XPYL)."
      },
      "geometry": {
        "type": "Point",
        "coordinates": [
          -77.0,
          38.31
        ]
      }
    },
    {
      "type": "Feature",
      "id": "iem-lsr-LWX-49",
      "properties": {
        "report_id": "iem-lsr-LWX-49",
        "report_type": "TSTM WND DMG",
        "event_category": "thunderstorm_wind",
        "valid_utc": "202607042227",
        "standard_time_display": "2026-07-04 17:27 EST",
        "wfo": "LWX",
        "county_or_zone": "Frederick",
        "city": "4 NNW Utica",
        "state": "MD",
        "magnitude": null,
        "magnitude_units": null,
        "source": "Dept of Highways",
        "event_narrative": "Numerous trees blew down on soutbound US-15 between Catoctin Furnace Road and the entrance to Cunningham Falls State Park."
      },
      "geometry": {
        "type": "Point",
        "coordinates": [
          -77.43,
          39.57
        ]
      }
    },
    {
      "type": "Feature",
      "id": "iem-lsr-LWX-50",
      "properties": {
        "report_id": "iem-lsr-LWX-50",
        "report_type": "MARINE TSTM WIND",
        "event_category": "marine",
        "valid_utc": "202607042228",
        "standard_time_display": "2026-07-04 17:28 EST",
        "wfo": "LWX",
        "county_or_zone": "ANZ536",
        "city": "3 ENE Dahlgren",
        "state": "VA",
        "magnitude": 51.0,
        "magnitude_units": null,
        "source": "Mesonet",
        "event_narrative": "Wind gusts of up to 44 knots (51 MPH) were measured by the Potomac Light WeatherFlow sensor (XP33) between 6:28 and 6:33 PM."
      },
      "geometry": {
        "type": "Point",
        "coordinates": [
          -76.99,
          38.34
        ]
      }
    },
    {
      "type": "Feature",
      "id": "iem-lsr-LWX-51",
      "properties": {
        "report_id": "iem-lsr-LWX-51",
        "report_type": "TSTM WND DMG",
        "event_category": "thunderstorm_wind",
        "valid_utc": "202607042230",
        "standard_time_display": "2026-07-04 17:30 EST",
        "wfo": "LWX",
        "county_or_zone": "Frederick",
        "city": "3 W Thurmont",
        "state": "MD",
        "magnitude": null,
        "magnitude_units": null,
        "source": "Dept of Highways",
        "event_narrative": "Trees blew down on Catoctin Hollow Road."
      },
      "geometry": {
        "type": "Point",
        "coordinates": [
          -77.47,
          39.62
        ]
      }
    },
    {
      "type": "Feature",
      "id": "iem-lsr-LWX-52",
      "properties": {
        "report_id": "iem-lsr-LWX-52",
        "report_type": "MARINE TSTM WIND",
        "event_category": "marine",
        "valid_utc": "202607042232",
        "standard_time_display": "2026-07-04 17:32 EST",
        "wfo": "LWX",
        "county_or_zone": "Arlington",
        "city": "Reagan National Arpt",
        "state": "VA",
        "magnitude": 49.0,
        "magnitude_units": null,
        "source": "ASOS",
        "event_narrative": "A wind gust of 43 knots (49 MPH) was measured by the ASOS at Ronald Reagan Washington National Airport (KDCA) adjacent to the tidal Potomac River."
      },
      "geometry": {
        "type": "Point",
        "coordinates": [
          -77.03,
          38.85
        ]
      }
    },
    {
      "type": "Feature",
      "id": "iem-lsr-LWX-53",
      "properties": {
        "report_id": "iem-lsr-LWX-53",
        "report_type": "TSTM WND DMG",
        "event_category": "thunderstorm_wind",
        "valid_utc": "202607042233",
        "standard_time_display": "2026-07-04 17:33 EST",
        "wfo": "LWX",
        "county_or_zone": "Frederick",
        "city": "Frederick",
        "state": "MD",
        "magnitude": null,
        "magnitude_units": null,
        "source": "911 Call Center",
        "event_narrative": "Numerous trees down around Thurmont."
      },
      "geometry": {
        "type": "Point",
        "coordinates": [
          -77.42,
          39.43
        ]
      }
    },
    {
      "type": "Feature",
      "id": "iem-lsr-LWX-54",
      "properties": {
        "report_id": "iem-lsr-LWX-54",
        "report_type": "MARINE TSTM WIND",
        "event_category": "marine",
        "valid_utc": "202607042236",
        "standard_time_display": "2026-07-04 17:36 EST",
        "wfo": "LWX",
        "county_or_zone": "District of Columb",
        "city": "1 S The Mall",
        "state": "DC",
        "magnitude": 39.0,
        "magnitude_units": null,
        "source": "Mesonet",
        "event_narrative": "A wind gust of 34 knots (39 MPH) was measured by the Washington Channel NOS sensor (WASD2)."
      },
      "geometry": {
        "type": "Point",
        "coordinates": [
          -77.02,
          38.87
        ]
      }
    },
    {
      "type": "Feature",
      "id": "iem-lsr-LWX-55",
      "properties": {
        "report_id": "iem-lsr-LWX-55",
        "report_type": "TSTM WND DMG",
        "event_category": "thunderstorm_wind",
        "valid_utc": "202607042245",
        "standard_time_display": "2026-07-04 17:45 EST",
        "wfo": "LWX",
        "county_or_zone": "Howard",
        "city": "1 NE Roxbury Mills",
        "state": "MD",
        "magnitude": null,
        "magnitude_units": null,
        "source": "Dept of Highways",
        "event_narrative": "Numerous trees blew down on MD-97 Roxbury Mills Road at Roxbury Road."
      },
      "geometry": {
        "type": "Point",
        "coordinates": [
          -77.04,
          39.27
        ]
      }
    },
    {
      "type": "Feature",
      "id": "iem-lsr-LWX-56",
      "properties": {
        "report_id": "iem-lsr-LWX-56",
        "report_type": "TSTM WND DMG",
        "event_category": "thunderstorm_wind",
        "valid_utc": "202607042250",
        "standard_time_display": "2026-07-04 17:50 EST",
        "wfo": "LWX",
        "county_or_zone": "Carroll",
        "city": "Taneytown",
        "state": "MD",
        "magnitude": null,
        "magnitude_units": null,
        "source": "Trained Spotter",
        "event_narrative": "Over a dozen trees down near Taneytown. Numerous wires and telephone poles down as well."
      },
      "geometry": {
        "type": "Point",
        "coordinates": [
          -77.17,
          39.66
        ]
      }
    },
    {
      "type": "Feature",
      "id": "iem-lsr-LWX-57",
      "properties": {
        "report_id": "iem-lsr-LWX-57",
        "report_type": "TSTM WND DMG",
        "event_category": "thunderstorm_wind",
        "valid_utc": "202607042255",
        "standard_time_display": "2026-07-04 17:55 EST",
        "wfo": "LWX",
        "county_or_zone": "Howard",
        "city": "1 SSE Sykesville",
        "state": "MD",
        "magnitude": null,
        "magnitude_units": null,
        "source": "Dept of Highways",
        "event_narrative": "Trees blew down on MD-32 at Deer Hill Road."
      },
      "geometry": {
        "type": "Point",
        "coordinates": [
          -76.97,
          39.35
        ]
      }
    },
    {
      "type": "Feature",
      "id": "iem-lsr-LWX-58",
      "properties": {
        "report_id": "iem-lsr-LWX-58",
        "report_type": "TSTM WND DMG",
        "event_category": "thunderstorm_wind",
        "valid_utc": "202607042255",
        "standard_time_display": "2026-07-04 17:55 EST",
        "wfo": "LWX",
        "county_or_zone": "Howard",
        "city": "2 SSE Sykesville",
        "state": "MD",
        "magnitude": null,
        "magnitude_units": null,
        "source": "Dept of Highways",
        "event_narrative": "Trees blew down on MD-32 Sykesville Road near Day Road."
      },
      "geometry": {
        "type": "Point",
        "coordinates": [
          -76.96,
          39.35
        ]
      }
    },
    {
      "type": "Feature",
      "id": "iem-lsr-LWX-59",
      "properties": {
        "report_id": "iem-lsr-LWX-59",
        "report_type": "HAIL",
        "event_category": "hail",
        "valid_utc": "202607042300",
        "standard_time_display": "2026-07-04 18:00 EST",
        "wfo": "LWX",
        "county_or_zone": "Anne Arundel",
        "city": "1 N South Gate",
        "state": "MD",
        "magnitude": 0.75,
        "magnitude_units": null,
        "source": "Amateur Radio",
        "event_narrative": null
      },
      "geometry": {
        "type": "Point",
        "coordinates": [
          -76.63,
          39.15
        ]
      }
    },
    {
      "type": "Feature",
      "id": "iem-lsr-LWX-60",
      "properties": {
        "report_id": "iem-lsr-LWX-60",
        "report_type": "TSTM WND DMG",
        "event_category": "thunderstorm_wind",
        "valid_utc": "202607042300",
        "standard_time_display": "2026-07-04 18:00 EST",
        "wfo": "LWX",
        "county_or_zone": "Prince Georges",
        "city": "1 NNE Glenarden",
        "state": "MD",
        "magnitude": null,
        "magnitude_units": null,
        "source": "Dept of Highways",
        "event_narrative": "Trees blew down on US-50 John Hanson Highway at I-95/I-495 Capital Beltway."
      },
      "geometry": {
        "type": "Point",
        "coordinates": [
          -76.86,
          38.95
        ]
      }
    },
    {
      "type": "Feature",
      "id": "iem-lsr-LWX-61",
      "properties": {
        "report_id": "iem-lsr-LWX-61",
        "report_type": "TSTM WND DMG",
        "event_category": "thunderstorm_wind",
        "valid_utc": "202607042300",
        "standard_time_display": "2026-07-04 18:00 EST",
        "wfo": "LWX",
        "county_or_zone": "Prince Georges",
        "city": "2 ENE New Carrollton",
        "state": "MD",
        "magnitude": null,
        "magnitude_units": null,
        "source": "Dept of Highways",
        "event_narrative": "Trees blew down on MD-564 Lanham Severn Road at 98th Avenue."
      },
      "geometry": {
        "type": "Point",
        "coordinates": [
          -76.84,
          38.98
        ]
      }
    },
    {
      "type": "Feature",
      "id": "iem-lsr-LWX-62",
      "properties": {
        "report_id": "iem-lsr-LWX-62",
        "report_type": "TSTM WND DMG",
        "event_category": "thunderstorm_wind",
        "valid_utc": "202607042303",
        "standard_time_display": "2026-07-04 18:03 EST",
        "wfo": "LWX",
        "county_or_zone": "Anne Arundel",
        "city": "1 NE Severn",
        "state": "MD",
        "magnitude": null,
        "magnitude_units": null,
        "source": "Dept of Highways",
        "event_narrative": "Numerous trees blew down on MD-170 at Minnetonka Road."
      },
      "geometry": {
        "type": "Point",
        "coordinates": [
          -76.68,
          39.14
        ]
      }
    },
    {
      "type": "Feature",
      "id": "iem-lsr-LWX-63",
      "properties": {
        "report_id": "iem-lsr-LWX-63",
        "report_type": "TSTM WND DMG",
        "event_category": "thunderstorm_wind",
        "valid_utc": "202607042303",
        "standard_time_display": "2026-07-04 18:03 EST",
        "wfo": "LWX",
        "county_or_zone": "Anne Arundel",
        "city": "Severn",
        "state": "MD",
        "magnitude": null,
        "magnitude_units": null,
        "source": "Dept of Highways",
        "event_narrative": "Trees blew down on MD-170 Telegraph Road at MD-174 Reece Road/Donaldson Avenue."
      },
      "geometry": {
        "type": "Point",
        "coordinates": [
          -76.69,
          39.14
        ]
      }
    },
    {
      "type": "Feature",
      "id": "iem-lsr-LWX-64",
      "properties": {
        "report_id": "iem-lsr-LWX-64",
        "report_type": "TSTM WND DMG",
        "event_category": "thunderstorm_wind",
        "valid_utc": "202607042306",
        "standard_time_display": "2026-07-04 18:06 EST",
        "wfo": "LWX",
        "county_or_zone": "Howard",
        "city": "2 NW Historic Ellicott",
        "state": "MD",
        "magnitude": null,
        "magnitude_units": null,
        "source": "Dept of Highways",
        "event_narrative": "Trees blew down on I-70 Baltimore National Pike at Exit 87B/US-29 Columbia Pike."
      },
      "geometry": {
        "type": "Point",
        "coordinates": [
          -76.82,
          39.3
        ]
      }
    },
    {
      "type": "Feature",
      "id": "iem-lsr-LWX-65",
      "properties": {
        "report_id": "iem-lsr-LWX-65",
        "report_type": "TSTM WND GST",
        "event_category": "thunderstorm_wind",
        "valid_utc": "202607042309",
        "standard_time_display": "2026-07-04 18:09 EST",
        "wfo": "LWX",
        "county_or_zone": "Anne Arundel",
        "city": "BWI Marshall Airport",
        "state": "MD",
        "magnitude": 58.0,
        "magnitude_units": null,
        "source": "ASOS",
        "event_narrative": "A wind gust of 50 knots (58 MPH) was measured by the ASOS at Baltimore-Washington Thurgood Marshall International Airport (KBWI)."
      },
      "geometry": {
        "type": "Point",
        "coordinates": [
          -76.68,
          39.17
        ]
      }
    },
    {
      "type": "Feature",
      "id": "iem-lsr-LWX-66",
      "properties": {
        "report_id": "iem-lsr-LWX-66",
        "report_type": "TSTM WND DMG",
        "event_category": "thunderstorm_wind",
        "valid_utc": "202607042309",
        "standard_time_display": "2026-07-04 18:09 EST",
        "wfo": "LWX",
        "county_or_zone": "Anne Arundel",
        "city": "1 ESE Baltmore-Washingt",
        "state": "MD",
        "magnitude": null,
        "magnitude_units": null,
        "source": "Dept of Highways",
        "event_narrative": "Trees blew down on I-97 at Exit 15A/MD-176 Dorsey Road."
      },
      "geometry": {
        "type": "Point",
        "coordinates": [
          -76.64,
          39.17
        ]
      }
    },
    {
      "type": "Feature",
      "id": "iem-lsr-LWX-67",
      "properties": {
        "report_id": "iem-lsr-LWX-67",
        "report_type": "TSTM WND DMG",
        "event_category": "thunderstorm_wind",
        "valid_utc": "202607042310",
        "standard_time_display": "2026-07-04 18:10 EST",
        "wfo": "LWX",
        "county_or_zone": "Anne Arundel",
        "city": "2 NW Severn",
        "state": "MD",
        "magnitude": null,
        "magnitude_units": null,
        "source": "Dept of Highways",
        "event_narrative": "Trees blew down on westbound MD-713 Arundel Mills Boulevard at MD-100."
      },
      "geometry": {
        "type": "Point",
        "coordinates": [
          -76.72,
          39.16
        ]
      }
    },
    {
      "type": "Feature",
      "id": "iem-lsr-LWX-68",
      "properties": {
        "report_id": "iem-lsr-LWX-68",
        "report_type": "TSTM WND DMG",
        "event_category": "thunderstorm_wind",
        "valid_utc": "202607042312",
        "standard_time_display": "2026-07-04 18:12 EST",
        "wfo": "LWX",
        "county_or_zone": "St. Marys",
        "city": "2 ENE Mechanicsville",
        "state": "MD",
        "magnitude": null,
        "magnitude_units": null,
        "source": "911 Call Center",
        "event_narrative": "Numerous trees were down across the county. The northern part of the county was hardest hit."
      },
      "geometry": {
        "type": "Point",
        "coordinates": [
          -76.69,
          38.44
        ]
      }
    },
    {
      "type": "Feature",
      "id": "iem-lsr-LWX-69",
      "properties": {
        "report_id": "iem-lsr-LWX-69",
        "report_type": "TSTM WND DMG",
        "event_category": "thunderstorm_wind",
        "valid_utc": "202607042312",
        "standard_time_display": "2026-07-04 18:12 EST",
        "wfo": "LWX",
        "county_or_zone": "Carroll",
        "city": "Eldersburg",
        "state": "MD",
        "magnitude": null,
        "magnitude_units": null,
        "source": "Emergency Mngr",
        "event_narrative": "A tree fell onto a house in Eldersburg."
      },
      "geometry": {
        "type": "Point",
        "coordinates": [
          -76.94,
          39.41
        ]
      }
    },
    {
      "type": "Feature",
      "id": "iem-lsr-LWX-70",
      "properties": {
        "report_id": "iem-lsr-LWX-70",
        "report_type": "TSTM WND DMG",
        "event_category": "thunderstorm_wind",
        "valid_utc": "202607042313",
        "standard_time_display": "2026-07-04 18:13 EST",
        "wfo": "LWX",
        "county_or_zone": "Calvert",
        "city": "2 S Prince Frederick",
        "state": "MD",
        "magnitude": null,
        "magnitude_units": null,
        "source": "Trained Spotter",
        "event_narrative": "Spotter reports several trees down at home location. Siding ripped off a house."
      },
      "geometry": {
        "type": "Point",
        "coordinates": [
          -76.59,
          38.52
        ]
      }
    },
    {
      "type": "Feature",
      "id": "iem-lsr-LWX-71",
      "properties": {
        "report_id": "iem-lsr-LWX-71",
        "report_type": "TSTM WND DMG",
        "event_category": "thunderstorm_wind",
        "valid_utc": "202607042315",
        "standard_time_display": "2026-07-04 18:15 EST",
        "wfo": "LWX",
        "county_or_zone": "Anne Arundel",
        "city": "1 NNE Benfield",
        "state": "MD",
        "magnitude": null,
        "magnitude_units": null,
        "source": "Trained Spotter",
        "event_narrative": "Tree down."
      },
      "geometry": {
        "type": "Point",
        "coordinates": [
          -76.61,
          39.11
        ]
      }
    },
    {
      "type": "Feature",
      "id": "iem-lsr-LWX-72",
      "properties": {
        "report_id": "iem-lsr-LWX-72",
        "report_type": "TSTM WND DMG",
        "event_category": "thunderstorm_wind",
        "valid_utc": "202607042315",
        "standard_time_display": "2026-07-04 18:15 EST",
        "wfo": "LWX",
        "county_or_zone": "Calvert",
        "city": "Prince Frederick",
        "state": "MD",
        "magnitude": null,
        "magnitude_units": null,
        "source": "Social Media",
        "event_narrative": "Numerous large tree limbs down in Prince Frederick."
      },
      "geometry": {
        "type": "Point",
        "coordinates": [
          -76.59,
          38.55
        ]
      }
    },
    {
      "type": "Feature",
      "id": "iem-lsr-LWX-73",
      "properties": {
        "report_id": "iem-lsr-LWX-73",
        "report_type": "TSTM WND DMG",
        "event_category": "thunderstorm_wind",
        "valid_utc": "202607042318",
        "standard_time_display": "2026-07-04 18:18 EST",
        "wfo": "LWX",
        "county_or_zone": "Baltimore",
        "city": "Reisterstown",
        "state": "MD",
        "magnitude": null,
        "magnitude_units": null,
        "source": "Amateur Radio",
        "event_narrative": "Tree fell onto a house in Reisterstown."
      },
      "geometry": {
        "type": "Point",
        "coordinates": [
          -76.81,
          39.46
        ]
      }
    },
    {
      "type": "Feature",
      "id": "iem-lsr-LWX-74",
      "properties": {
        "report_id": "iem-lsr-LWX-74",
        "report_type": "TSTM WND DMG",
        "event_category": "thunderstorm_wind",
        "valid_utc": "202607042319",
        "standard_time_display": "2026-07-04 18:19 EST",
        "wfo": "LWX",
        "county_or_zone": "Carroll",
        "city": "Taneytown",
        "state": "MD",
        "magnitude": null,
        "magnitude_units": null,
        "source": "Trained Spotter",
        "event_narrative": "At least 4 trees down in Taneytown."
      },
      "geometry": {
        "type": "Point",
        "coordinates": [
          -77.17,
          39.66
        ]
      }
    },
    {
      "type": "Feature",
      "id": "iem-lsr-LWX-75",
      "properties": {
        "report_id": "iem-lsr-LWX-75",
        "report_type": "TSTM WND DMG",
        "event_category": "thunderstorm_wind",
        "valid_utc": "202607042331",
        "standard_time_display": "2026-07-04 18:31 EST",
        "wfo": "LWX",
        "county_or_zone": "Baltimore",
        "city": "1 SSE Timonium",
        "state": "MD",
        "magnitude": null,
        "magnitude_units": null,
        "source": "Trained Spotter",
        "event_narrative": "Two trees down."
      },
      "geometry": {
        "type": "Point",
        "coordinates": [
          -76.61,
          39.42
        ]
      }
    },
    {
      "type": "Feature",
      "id": "iem-lsr-LWX-76",
      "properties": {
        "report_id": "iem-lsr-LWX-76",
        "report_type": "TSTM WND DMG",
        "event_category": "thunderstorm_wind",
        "valid_utc": "202607042335",
        "standard_time_display": "2026-07-04 18:35 EST",
        "wfo": "LWX",
        "county_or_zone": "Baltimore",
        "city": "Owings Mills",
        "state": "MD",
        "magnitude": null,
        "magnitude_units": null,
        "source": "Trained Spotter",
        "event_narrative": "At least three threes on vehicles and over a dozen others down at Soldiers Delight Natural Environmental Area and McKeldin Area of Patapsco Valley State Park."
      },
      "geometry": {
        "type": "Point",
        "coordinates": [
          -76.79,
          39.41
        ]
      }
    },
    {
      "type": "Feature",
      "id": "iem-lsr-LWX-77",
      "properties": {
        "report_id": "iem-lsr-LWX-77",
        "report_type": "TSTM WND DMG",
        "event_category": "thunderstorm_wind",
        "valid_utc": "202607042336",
        "standard_time_display": "2026-07-04 18:36 EST",
        "wfo": "LWX",
        "county_or_zone": "Baltimore",
        "city": "1 W Timonium",
        "state": "MD",
        "magnitude": null,
        "magnitude_units": null,
        "source": "Dept of Highways",
        "event_narrative": "Trees blew down on I-83 at Exit 16A/Timonium Road (North)."
      },
      "geometry": {
        "type": "Point",
        "coordinates": [
          -76.63,
          39.44
        ]
      }
    },
    {
      "type": "Feature",
      "id": "iem-lsr-LWX-78",
      "properties": {
        "report_id": "iem-lsr-LWX-78",
        "report_type": "TSTM WND DMG",
        "event_category": "thunderstorm_wind",
        "valid_utc": "202607042340",
        "standard_time_display": "2026-07-04 18:40 EST",
        "wfo": "LWX",
        "county_or_zone": "Baltimore",
        "city": "3 SSE Bentley Springs",
        "state": "MD",
        "magnitude": null,
        "magnitude_units": null,
        "source": "Trained Spotter",
        "event_narrative": "Trees down in White Hall."
      },
      "geometry": {
        "type": "Point",
        "coordinates": [
          -76.64,
          39.63
        ]
      }
    },
    {
      "type": "Feature",
      "id": "iem-lsr-LWX-79",
      "properties": {
        "report_id": "iem-lsr-LWX-79",
        "report_type": "TSTM WND DMG",
        "event_category": "thunderstorm_wind",
        "valid_utc": "202607042345",
        "standard_time_display": "2026-07-04 18:45 EST",
        "wfo": "LWX",
        "county_or_zone": "Carroll",
        "city": "Westminster",
        "state": "MD",
        "magnitude": null,
        "magnitude_units": null,
        "source": "Emergency Mngr",
        "event_narrative": "Several trees down in Taneytown."
      },
      "geometry": {
        "type": "Point",
        "coordinates": [
          -77.01,
          39.58
        ]
      }
    },
    {
      "type": "Feature",
      "id": "iem-lsr-LWX-80",
      "properties": {
        "report_id": "iem-lsr-LWX-80",
        "report_type": "TSTM WND DMG",
        "event_category": "thunderstorm_wind",
        "valid_utc": "202607050021",
        "standard_time_display": "2026-07-04 19:21 EST",
        "wfo": "LWX",
        "county_or_zone": "Harford",
        "city": "Havre De Grace",
        "state": "MD",
        "magnitude": null,
        "magnitude_units": null,
        "source": "911 Call Center",
        "event_narrative": "Three trees into houses in Havre De Grace."
      },
      "geometry": {
        "type": "Point",
        "coordinates": [
          -76.1,
          39.55
        ]
      }
    }
  ]
}