{
  "type": "FeatureCollection",
  "metadata": {
    "schema_version": "0.2.4",
    "year": 2026,
    "month": 5,
    "wfo": "JAN",
    "start_utc": "2026-05-01T00:00:00Z",
    "end_utc": "2026-06-01T00:00:00Z",
    "generated_utc": "2026-06-20T11:27:38Z",
    "mode": "storm_data_prep",
    "public_release_status": "public-source-derived",
    "time_note": "Storm Data entry times should be reviewed in local Standard Time (ST), not daylight time. Candidate reports include standard_time_display.",
    "tornado_track_policy": "Tornado tracks must come from DAT. NCEI begin/end coordinates are not used as a tornado track substitute.",
    "source": "https://mesonet.agron.iastate.edu/cgi-bin/request/gis/lsr.py?wfo=JAN&sts=2026-05-01T00%3A00%3A00Z&ets=2026-06-01T00%3A00%3A00Z&fmt=csv"
  },
  "features": [
    {
      "type": "Feature",
      "id": "iem-lsr-JAN-1",
      "properties": {
        "report_id": "iem-lsr-JAN-1",
        "report_type": "HAIL",
        "event_category": "hail",
        "valid_utc": "202605062200",
        "standard_time_display": "2026-05-06 16:00 CST",
        "wfo": "JAN",
        "county_or_zone": "Franklin",
        "city": "McCall Creek",
        "state": "MS",
        "magnitude": 1.25,
        "magnitude_units": null,
        "source": "Public",
        "event_narrative": "This was reported by a nearby convenience store_ and video was taken of the hail as well."
      },
      "geometry": {
        "type": "Point",
        "coordinates": [
          -90.7,
          31.51
        ]
      }
    },
    {
      "type": "Feature",
      "id": "iem-lsr-JAN-2",
      "properties": {
        "report_id": "iem-lsr-JAN-2",
        "report_type": "TSTM WND DMG",
        "event_category": "thunderstorm_wind",
        "valid_utc": "202605062202",
        "standard_time_display": "2026-05-06 16:02 CST",
        "wfo": "JAN",
        "county_or_zone": "Madison",
        "city": "3 NW Forest Grove",
        "state": "MS",
        "magnitude": null,
        "magnitude_units": null,
        "source": "Utility Company",
        "event_narrative": "Trees down on lines in E Madison."
      },
      "geometry": {
        "type": "Point",
        "coordinates": [
          -89.75,
          32.76
        ]
      }
    },
    {
      "type": "Feature",
      "id": "iem-lsr-JAN-3",
      "properties": {
        "report_id": "iem-lsr-JAN-3",
        "report_type": "HAIL",
        "event_category": "hail",
        "valid_utc": "202605062239",
        "standard_time_display": "2026-05-06 16:39 CST",
        "wfo": "JAN",
        "county_or_zone": "Neshoba",
        "city": "3 ESE Hope",
        "state": "MS",
        "magnitude": 1.75,
        "magnitude_units": null,
        "source": "Emergency Mngr",
        "event_narrative": "Emergency manager reported golf ball size hail at Hwy 21 S and Hwy 488."
      },
      "geometry": {
        "type": "Point",
        "coordinates": [
          -89.19,
          32.73
        ]
      }
    },
    {
      "type": "Feature",
      "id": "iem-lsr-JAN-4",
      "properties": {
        "report_id": "iem-lsr-JAN-4",
        "report_type": "TSTM WND DMG",
        "event_category": "thunderstorm_wind",
        "valid_utc": "202605062240",
        "standard_time_display": "2026-05-06 16:40 CST",
        "wfo": "JAN",
        "county_or_zone": "Neshoba",
        "city": "2 WNW Deemer",
        "state": "MS",
        "magnitude": null,
        "magnitude_units": null,
        "source": "Public",
        "event_narrative": "Numerous trees were snapped and uprooted and blocking roads in the Williamsville community. This damage report and related photos were relayed through social media."
      },
      "geometry": {
        "type": "Point",
        "coordinates": [
          -89.14,
          32.76
        ]
      }
    },
    {
      "type": "Feature",
      "id": "iem-lsr-JAN-5",
      "properties": {
        "report_id": "iem-lsr-JAN-5",
        "report_type": "TSTM WND DMG",
        "event_category": "thunderstorm_wind",
        "valid_utc": "202605062245",
        "standard_time_display": "2026-05-06 16:45 CST",
        "wfo": "JAN",
        "county_or_zone": "Neshoba",
        "city": "2 NE Golden Grove",
        "state": "MS",
        "magnitude": null,
        "magnitude_units": null,
        "source": "Storm Chaser",
        "event_narrative": "Pictures of damage to steel awning on County Road 505 were relayed."
      },
      "geometry": {
        "type": "Point",
        "coordinates": [
          -89.06,
          32.65
        ]
      }
    },
    {
      "type": "Feature",
      "id": "iem-lsr-JAN-6",
      "properties": {
        "report_id": "iem-lsr-JAN-6",
        "report_type": "TSTM WND DMG",
        "event_category": "thunderstorm_wind",
        "valid_utc": "202605062245",
        "standard_time_display": "2026-05-06 16:45 CST",
        "wfo": "JAN",
        "county_or_zone": "Neshoba",
        "city": "3 NE Tucker",
        "state": "MS",
        "magnitude": null,
        "magnitude_units": null,
        "source": "Public",
        "event_narrative": "Several trees were snapped and uprooted in the Bloomo community. This was relayed through social media."
      },
      "geometry": {
        "type": "Point",
        "coordinates": [
          -89.02,
          32.73
        ]
      }
    },
    {
      "type": "Feature",
      "id": "iem-lsr-JAN-7",
      "properties": {
        "report_id": "iem-lsr-JAN-7",
        "report_type": "HAIL",
        "event_category": "hail",
        "valid_utc": "202605062251",
        "standard_time_display": "2026-05-06 16:51 CST",
        "wfo": "JAN",
        "county_or_zone": "Neshoba",
        "city": "1 ENE Tucker",
        "state": "MS",
        "magnitude": 2.75,
        "magnitude_units": null,
        "source": "Emergency Mngr",
        "event_narrative": "Emergency manager reported golf to baseball size hail near Rd 452."
      },
      "geometry": {
        "type": "Point",
        "coordinates": [
          -89.03,
          32.72
        ]
      }
    },
    {
      "type": "Feature",
      "id": "iem-lsr-JAN-8",
      "properties": {
        "report_id": "iem-lsr-JAN-8",
        "report_type": "TSTM WND DMG",
        "event_category": "thunderstorm_wind",
        "valid_utc": "202605062251",
        "standard_time_display": "2026-05-06 16:51 CST",
        "wfo": "JAN",
        "county_or_zone": "Leake",
        "city": "2 SW Redwater",
        "state": "MS",
        "magnitude": null,
        "magnitude_units": null,
        "source": "Emergency Mngr",
        "event_narrative": "Emergency manager reported trees down on HWY 25 and pea size hail."
      },
      "geometry": {
        "type": "Point",
        "coordinates": [
          -89.57,
          32.76
        ]
      }
    },
    {
      "type": "Feature",
      "id": "iem-lsr-JAN-9",
      "properties": {
        "report_id": "iem-lsr-JAN-9",
        "report_type": "HAIL",
        "event_category": "hail",
        "valid_utc": "202605062300",
        "standard_time_display": "2026-05-06 17:00 CST",
        "wfo": "JAN",
        "county_or_zone": "Kemper",
        "city": "1 ESE Cleveland",
        "state": "MS",
        "magnitude": 2.75,
        "magnitude_units": null,
        "source": "Public",
        "event_narrative": "2 to 2.75 hail at Hwy 16 and 493. Trees also down in the area."
      },
      "geometry": {
        "type": "Point",
        "coordinates": [
          -88.82,
          32.75
        ]
      }
    },
    {
      "type": "Feature",
      "id": "iem-lsr-JAN-10",
      "properties": {
        "report_id": "iem-lsr-JAN-10",
        "report_type": "HAIL",
        "event_category": "hail",
        "valid_utc": "202605062310",
        "standard_time_display": "2026-05-06 17:10 CST",
        "wfo": "JAN",
        "county_or_zone": "Kemper",
        "city": "1 SSE De Kalb",
        "state": "MS",
        "magnitude": 1.75,
        "magnitude_units": null,
        "source": "Public",
        "event_narrative": null
      },
      "geometry": {
        "type": "Point",
        "coordinates": [
          -88.65,
          32.76
        ]
      }
    },
    {
      "type": "Feature",
      "id": "iem-lsr-JAN-11",
      "properties": {
        "report_id": "iem-lsr-JAN-11",
        "report_type": "TSTM WND DMG",
        "event_category": "thunderstorm_wind",
        "valid_utc": "202605062310",
        "standard_time_display": "2026-05-06 17:10 CST",
        "wfo": "JAN",
        "county_or_zone": "Kemper",
        "city": "Moscow",
        "state": "MS",
        "magnitude": null,
        "magnitude_units": null,
        "source": "Public",
        "event_narrative": "Numerous trees were snapped and uprooted and blocking roads. This damage report and related photos were relayed through social media."
      },
      "geometry": {
        "type": "Point",
        "coordinates": [
          -88.8,
          32.71
        ]
      }
    },
    {
      "type": "Feature",
      "id": "iem-lsr-JAN-12",
      "properties": {
        "report_id": "iem-lsr-JAN-12",
        "report_type": "TSTM WND DMG",
        "event_category": "thunderstorm_wind",
        "valid_utc": "202605062323",
        "standard_time_display": "2026-05-06 17:23 CST",
        "wfo": "JAN",
        "county_or_zone": "Lawrence",
        "city": "Monticello",
        "state": "MS",
        "magnitude": null,
        "magnitude_units": null,
        "source": "Law Enforcement",
        "event_narrative": "Law enforcement reported multiple trees down across Lawrence county."
      },
      "geometry": {
        "type": "Point",
        "coordinates": [
          -90.11,
          31.55
        ]
      }
    },
    {
      "type": "Feature",
      "id": "iem-lsr-JAN-13",
      "properties": {
        "report_id": "iem-lsr-JAN-13",
        "report_type": "HAIL",
        "event_category": "hail",
        "valid_utc": "202605062340",
        "standard_time_display": "2026-05-06 17:40 CST",
        "wfo": "JAN",
        "county_or_zone": "Jefferson Davis",
        "city": "3 WSW Clem",
        "state": "MS",
        "magnitude": 2.0,
        "magnitude_units": null,
        "source": "Public",
        "event_narrative": "SM picture of at least 2.0 in hail."
      },
      "geometry": {
        "type": "Point",
        "coordinates": [
          -89.83,
          31.7
        ]
      }
    },
    {
      "type": "Feature",
      "id": "iem-lsr-JAN-14",
      "properties": {
        "report_id": "iem-lsr-JAN-14",
        "report_type": "TORNADO",
        "event_category": "tornado",
        "valid_utc": "202605062341",
        "standard_time_display": "2026-05-06 17:41 CST",
        "wfo": "JAN",
        "county_or_zone": "Adams",
        "city": "5 ESE Kingston",
        "state": "MS",
        "magnitude": null,
        "magnitude_units": null,
        "source": "Official NWS Obs",
        "event_narrative": "Confirmed tornado - a TDS was observed on the 88D radar network."
      },
      "geometry": {
        "type": "Point",
        "coordinates": [
          -91.21,
          31.37
        ]
      }
    },
    {
      "type": "Feature",
      "id": "iem-lsr-JAN-15",
      "properties": {
        "report_id": "iem-lsr-JAN-15",
        "report_type": "HAIL",
        "event_category": "hail",
        "valid_utc": "202605062345",
        "standard_time_display": "2026-05-06 17:45 CST",
        "wfo": "JAN",
        "county_or_zone": "Jefferson Davis",
        "city": "2 N Clem",
        "state": "MS",
        "magnitude": 1.75,
        "magnitude_units": null,
        "source": "Broadcast Media",
        "event_narrative": null
      },
      "geometry": {
        "type": "Point",
        "coordinates": [
          -89.79,
          31.73
        ]
      }
    },
    {
      "type": "Feature",
      "id": "iem-lsr-JAN-16",
      "properties": {
        "report_id": "iem-lsr-JAN-16",
        "report_type": "TORNADO",
        "event_category": "tornado",
        "valid_utc": "202605062349",
        "standard_time_display": "2026-05-06 17:49 CST",
        "wfo": "JAN",
        "county_or_zone": "Adams",
        "city": "4 WSW Garden City",
        "state": "MS",
        "magnitude": null,
        "magnitude_units": null,
        "source": "NWS Storm Survey",
        "event_narrative": "*** 1 INJ *** This EF3 tornado began in northern Wilkinson County_ crossing into far southeastern Adams County_ then tracking across portions of south and central Franklin County before lifting south"
      },
      "geometry": {
        "type": "Point",
        "coordinates": [
          -91.19,
          31.35
        ]
      }
    },
    {
      "type": "Feature",
      "id": "iem-lsr-JAN-17",
      "properties": {
        "report_id": "iem-lsr-JAN-17",
        "report_type": "TORNADO",
        "event_category": "tornado",
        "valid_utc": "202605062351",
        "standard_time_display": "2026-05-06 17:51 CST",
        "wfo": "JAN",
        "county_or_zone": "Lamar",
        "city": "2 N Baxterville",
        "state": "MS",
        "magnitude": null,
        "magnitude_units": null,
        "source": "NWS Storm Survey",
        "event_narrative": "*** 4 INJ *** This tornado began near or just west of the intersections of Tatum Salt Dome Road and R Thompson Road where it produced damage to trees crossing Tatum Salt Dome Road with a narrow swath"
      },
      "geometry": {
        "type": "Point",
        "coordinates": [
          -89.59,
          31.12
        ]
      }
    },
    {
      "type": "Feature",
      "id": "iem-lsr-JAN-18",
      "properties": {
        "report_id": "iem-lsr-JAN-18",
        "report_type": "TORNADO",
        "event_category": "tornado",
        "valid_utc": "202605062355",
        "standard_time_display": "2026-05-06 17:55 CST",
        "wfo": "JAN",
        "county_or_zone": "Franklin",
        "city": "1 NE Garden City",
        "state": "MS",
        "magnitude": null,
        "magnitude_units": null,
        "source": "Official NWS Obs",
        "event_narrative": "Confirmed tornado - a TDS was observed on the 88D radar network."
      },
      "geometry": {
        "type": "Point",
        "coordinates": [
          -91.12,
          31.37
        ]
      }
    },
    {
      "type": "Feature",
      "id": "iem-lsr-JAN-19",
      "properties": {
        "report_id": "iem-lsr-JAN-19",
        "report_type": "TORNADO",
        "event_category": "tornado",
        "valid_utc": "202605070002",
        "standard_time_display": "2026-05-06 18:02 CST",
        "wfo": "JAN",
        "county_or_zone": "Franklin",
        "city": "4 WNW Bunkley",
        "state": "MS",
        "magnitude": null,
        "magnitude_units": null,
        "source": "Official NWS Obs",
        "event_narrative": "Confirmed tornado - a TDS was observed on the 88D radar network."
      },
      "geometry": {
        "type": "Point",
        "coordinates": [
          -91.05,
          31.38
        ]
      }
    },
    {
      "type": "Feature",
      "id": "iem-lsr-JAN-20",
      "properties": {
        "report_id": "iem-lsr-JAN-20",
        "report_type": "TORNADO",
        "event_category": "tornado",
        "valid_utc": "202605070007",
        "standard_time_display": "2026-05-06 18:07 CST",
        "wfo": "JAN",
        "county_or_zone": "Lamar",
        "city": "2 N Purvis",
        "state": "MS",
        "magnitude": null,
        "magnitude_units": null,
        "source": "Storm Chaser",
        "event_narrative": "Corrects time of previous tornado report from 2 N Purvis and updated damage info. Major damage occurred to buildings along MS Highway 589 and Old Highway 11. An office building was damaged. Multiple"
      },
      "geometry": {
        "type": "Point",
        "coordinates": [
          -89.41,
          31.17
        ]
      }
    },
    {
      "type": "Feature",
      "id": "iem-lsr-JAN-21",
      "properties": {
        "report_id": "iem-lsr-JAN-21",
        "report_type": "TORNADO",
        "event_category": "tornado",
        "valid_utc": "202605070010",
        "standard_time_display": "2026-05-06 18:10 CST",
        "wfo": "JAN",
        "county_or_zone": "Franklin",
        "city": "3 ENE Bunkley",
        "state": "MS",
        "magnitude": null,
        "magnitude_units": null,
        "source": "Public",
        "event_narrative": "Confirmed tornado - a TDS was observed on the 88D radar network."
      },
      "geometry": {
        "type": "Point",
        "coordinates": [
          -90.94,
          31.38
        ]
      }
    },
    {
      "type": "Feature",
      "id": "iem-lsr-JAN-22",
      "properties": {
        "report_id": "iem-lsr-JAN-22",
        "report_type": "TORNADO",
        "event_category": "tornado",
        "valid_utc": "202605070012",
        "standard_time_display": "2026-05-06 18:12 CST",
        "wfo": "JAN",
        "county_or_zone": "Franklin",
        "city": "5 ENE Bunkley",
        "state": "MS",
        "magnitude": null,
        "magnitude_units": null,
        "source": "Official NWS Obs",
        "event_narrative": "Confirmed tornado - a TDS was observed on the 88D radar network."
      },
      "geometry": {
        "type": "Point",
        "coordinates": [
          -90.91,
          31.39
        ]
      }
    },
    {
      "type": "Feature",
      "id": "iem-lsr-JAN-23",
      "properties": {
        "report_id": "iem-lsr-JAN-23",
        "report_type": "TORNADO",
        "event_category": "tornado",
        "valid_utc": "202605070025",
        "standard_time_display": "2026-05-06 18:25 CST",
        "wfo": "JAN",
        "county_or_zone": "Forrest",
        "city": "3 ESE Dixie",
        "state": "MS",
        "magnitude": null,
        "magnitude_units": null,
        "source": "Emergency Mngr",
        "event_narrative": "Trees down on Patrick Rd."
      },
      "geometry": {
        "type": "Point",
        "coordinates": [
          -89.26,
          31.19
        ]
      }
    },
    {
      "type": "Feature",
      "id": "iem-lsr-JAN-24",
      "properties": {
        "report_id": "iem-lsr-JAN-24",
        "report_type": "TORNADO",
        "event_category": "tornado",
        "valid_utc": "202605070026",
        "standard_time_display": "2026-05-06 18:26 CST",
        "wfo": "JAN",
        "county_or_zone": "Lamar",
        "city": "2 N Purvis",
        "state": "MS",
        "magnitude": null,
        "magnitude_units": null,
        "source": "Emergency Mngr",
        "event_narrative": "Emergency manager reported damage to office building."
      },
      "geometry": {
        "type": "Point",
        "coordinates": [
          -89.41,
          31.17
        ]
      }
    },
    {
      "type": "Feature",
      "id": "iem-lsr-JAN-25",
      "properties": {
        "report_id": "iem-lsr-JAN-25",
        "report_type": "TORNADO",
        "event_category": "tornado",
        "valid_utc": "202605070032",
        "standard_time_display": "2026-05-06 18:32 CST",
        "wfo": "JAN",
        "county_or_zone": "Franklin",
        "city": "4 S McCall Creek",
        "state": "MS",
        "magnitude": null,
        "magnitude_units": null,
        "source": "NWS Storm Survey",
        "event_narrative": "This EF3 tornado began in eastern Franklin Co south of McCall Creek and tracked generally eastward into Lincoln Co_ passing near the West Lincoln community_ between Brookhaven and Bogue Chitto_ then"
      },
      "geometry": {
        "type": "Point",
        "coordinates": [
          -90.71,
          31.45
        ]
      }
    },
    {
      "type": "Feature",
      "id": "iem-lsr-JAN-26",
      "properties": {
        "report_id": "iem-lsr-JAN-26",
        "report_type": "TORNADO",
        "event_category": "tornado",
        "valid_utc": "202605070037",
        "standard_time_display": "2026-05-06 18:37 CST",
        "wfo": "JAN",
        "county_or_zone": "Lincoln",
        "city": "3 SW West Lincoln",
        "state": "MS",
        "magnitude": null,
        "magnitude_units": null,
        "source": "Official NWS Obs",
        "event_narrative": "Confirmed tornado - a TDS was observed on the 88D radar network."
      },
      "geometry": {
        "type": "Point",
        "coordinates": [
          -90.61,
          31.47
        ]
      }
    },
    {
      "type": "Feature",
      "id": "iem-lsr-JAN-27",
      "properties": {
        "report_id": "iem-lsr-JAN-27",
        "report_type": "TORNADO",
        "event_category": "tornado",
        "valid_utc": "202605070049",
        "standard_time_display": "2026-05-06 18:49 CST",
        "wfo": "JAN",
        "county_or_zone": "Lincoln",
        "city": "4 E West Lincoln",
        "state": "MS",
        "magnitude": null,
        "magnitude_units": null,
        "source": "Official NWS Obs",
        "event_narrative": "Confirmed tornado - a TDS was observed on the 88D radar network."
      },
      "geometry": {
        "type": "Point",
        "coordinates": [
          -90.5,
          31.48
        ]
      }
    },
    {
      "type": "Feature",
      "id": "iem-lsr-JAN-28",
      "properties": {
        "report_id": "iem-lsr-JAN-28",
        "report_type": "TORNADO",
        "event_category": "tornado",
        "valid_utc": "202605070057",
        "standard_time_display": "2026-05-06 18:57 CST",
        "wfo": "JAN",
        "county_or_zone": "Lincoln",
        "city": "3 WNW Enterprise",
        "state": "MS",
        "magnitude": null,
        "magnitude_units": null,
        "source": "Official NWS Obs",
        "event_narrative": "Confirmed tornado - a TDS was observed on the 88D radar network."
      },
      "geometry": {
        "type": "Point",
        "coordinates": [
          -90.43,
          31.5
        ]
      }
    },
    {
      "type": "Feature",
      "id": "iem-lsr-JAN-29",
      "properties": {
        "report_id": "iem-lsr-JAN-29",
        "report_type": "TORNADO",
        "event_category": "tornado",
        "valid_utc": "202605070103",
        "standard_time_display": "2026-05-06 19:03 CST",
        "wfo": "JAN",
        "county_or_zone": "Lincoln",
        "city": "2 NE Enterprise",
        "state": "MS",
        "magnitude": null,
        "magnitude_units": null,
        "source": "Official NWS Obs",
        "event_narrative": "Confirmed tornado - a TDS was observed on the 88D radar network."
      },
      "geometry": {
        "type": "Point",
        "coordinates": [
          -90.36,
          31.5
        ]
      }
    },
    {
      "type": "Feature",
      "id": "iem-lsr-JAN-30",
      "properties": {
        "report_id": "iem-lsr-JAN-30",
        "report_type": "TORNADO",
        "event_category": "tornado",
        "valid_utc": "202605070114",
        "standard_time_display": "2026-05-06 19:14 CST",
        "wfo": "JAN",
        "county_or_zone": "Lincoln",
        "city": "1 N Harmony",
        "state": "MS",
        "magnitude": null,
        "magnitude_units": null,
        "source": "Official NWS Obs",
        "event_narrative": "Confirmed tornado - a TDS was observed on the 88D radar network."
      },
      "geometry": {
        "type": "Point",
        "coordinates": [
          -90.27,
          31.54
        ]
      }
    },
    {
      "type": "Feature",
      "id": "iem-lsr-JAN-31",
      "properties": {
        "report_id": "iem-lsr-JAN-31",
        "report_type": "TORNADO",
        "event_category": "tornado",
        "valid_utc": "202605070126",
        "standard_time_display": "2026-05-06 19:26 CST",
        "wfo": "JAN",
        "county_or_zone": "Lawrence",
        "city": "3 W Monticello",
        "state": "MS",
        "magnitude": null,
        "magnitude_units": null,
        "source": "Official NWS Obs",
        "event_narrative": "Confirmed tornado - a TDS was observed on the 88D radar network."
      },
      "geometry": {
        "type": "Point",
        "coordinates": [
          -90.17,
          31.54
        ]
      }
    },
    {
      "type": "Feature",
      "id": "iem-lsr-JAN-32",
      "properties": {
        "report_id": "iem-lsr-JAN-32",
        "report_type": "TORNADO",
        "event_category": "tornado",
        "valid_utc": "202605070154",
        "standard_time_display": "2026-05-06 19:54 CST",
        "wfo": "JAN",
        "county_or_zone": "Jefferson Davis",
        "city": "2 SSW Prentiss",
        "state": "MS",
        "magnitude": null,
        "magnitude_units": null,
        "source": "NWS Storm Survey",
        "event_narrative": "This EF0 tornado began on the south side of Prentiss near MS Hwy 13_ tracking across Old Highway 13_ Tom Bullock Rd_ and MS Hwy 42. A storm chaser observed turbulent debris and power flashes. As it a"
      },
      "geometry": {
        "type": "Point",
        "coordinates": [
          -89.89,
          31.58
        ]
      }
    },
    {
      "type": "Feature",
      "id": "iem-lsr-JAN-33",
      "properties": {
        "report_id": "iem-lsr-JAN-33",
        "report_type": "TORNADO",
        "event_category": "tornado",
        "valid_utc": "202605070158",
        "standard_time_display": "2026-05-06 19:58 CST",
        "wfo": "JAN",
        "county_or_zone": "Jefferson Davis",
        "city": "2 SSE Prentiss",
        "state": "MS",
        "magnitude": null,
        "magnitude_units": null,
        "source": "Storm Chaser",
        "event_narrative": "Storm chaser reported power flashes and flying debris at MS Hwy 42 near Fate Ward Rd."
      },
      "geometry": {
        "type": "Point",
        "coordinates": [
          -89.85,
          31.57
        ]
      }
    },
    {
      "type": "Feature",
      "id": "iem-lsr-JAN-34",
      "properties": {
        "report_id": "iem-lsr-JAN-34",
        "report_type": "TSTM WND DMG",
        "event_category": "thunderstorm_wind",
        "valid_utc": "202605070210",
        "standard_time_display": "2026-05-06 20:10 CST",
        "wfo": "JAN",
        "county_or_zone": "Covington",
        "city": "3 N Collins",
        "state": "MS",
        "magnitude": null,
        "magnitude_units": null,
        "source": "Emergency Mngr",
        "event_narrative": "A concentrated area of tree and power line damage occurred along Salem Church Road."
      },
      "geometry": {
        "type": "Point",
        "coordinates": [
          -89.56,
          31.68
        ]
      }
    },
    {
      "type": "Feature",
      "id": "iem-lsr-JAN-35",
      "properties": {
        "report_id": "iem-lsr-JAN-35",
        "report_type": "TORNADO",
        "event_category": "tornado",
        "valid_utc": "202605070210",
        "standard_time_display": "2026-05-06 20:10 CST",
        "wfo": "JAN",
        "county_or_zone": "Covington",
        "city": "3 SE Lone Star",
        "state": "MS",
        "magnitude": null,
        "magnitude_units": null,
        "source": "NWS Storm Survey",
        "event_narrative": "This EF1 tornado began east of Blackjack New Chapel Rd and tracked across Wilson Rd near Burkhalter Rd_ lifting shortly thereafter. Along the path_ several large hardwoods were uprooted and part of t"
      },
      "geometry": {
        "type": "Point",
        "coordinates": [
          -89.71,
          31.6
        ]
      }
    },
    {
      "type": "Feature",
      "id": "iem-lsr-JAN-36",
      "properties": {
        "report_id": "iem-lsr-JAN-36",
        "report_type": "TSTM WND DMG",
        "event_category": "thunderstorm_wind",
        "valid_utc": "202605070215",
        "standard_time_display": "2026-05-06 20:15 CST",
        "wfo": "JAN",
        "county_or_zone": "Covington",
        "city": "3 SE Lone Star",
        "state": "MS",
        "magnitude": null,
        "magnitude_units": null,
        "source": "Emergency Mngr",
        "event_narrative": "A concentrated area of tree and power line damage occurred along Wilson Road. One tree fell onto a home."
      },
      "geometry": {
        "type": "Point",
        "coordinates": [
          -89.69,
          31.61
        ]
      }
    },
    {
      "type": "Feature",
      "id": "iem-lsr-JAN-37",
      "properties": {
        "report_id": "iem-lsr-JAN-37",
        "report_type": "FLASH FLOOD",
        "event_category": "flooding",
        "valid_utc": "202605070250",
        "standard_time_display": "2026-05-06 20:50 CST",
        "wfo": "JAN",
        "county_or_zone": "Jefferson Davis",
        "city": "1 ESE Prentiss",
        "state": "MS",
        "magnitude": null,
        "magnitude_units": null,
        "source": "Emergency Mngr",
        "event_narrative": "Flash flooding caused a washout of a portion of J E Johnson Avenue inside the Prentiss city limits."
      },
      "geometry": {
        "type": "Point",
        "coordinates": [
          -89.86,
          31.59
        ]
      }
    },
    {
      "type": "Feature",
      "id": "iem-lsr-JAN-38",
      "properties": {
        "report_id": "iem-lsr-JAN-38",
        "report_type": "FLASH FLOOD",
        "event_category": "flooding",
        "valid_utc": "202605070250",
        "standard_time_display": "2026-05-06 20:50 CST",
        "wfo": "JAN",
        "county_or_zone": "Jefferson Davis",
        "city": "4 W Lone Star",
        "state": "MS",
        "magnitude": null,
        "magnitude_units": null,
        "source": "Emergency Mngr",
        "event_narrative": "Flash flooding of a total of 4 homes in the county_ with one home located near Highway 84 E on Cedar Grove Rd."
      },
      "geometry": {
        "type": "Point",
        "coordinates": [
          -89.81,
          31.64
        ]
      }
    },
    {
      "type": "Feature",
      "id": "iem-lsr-JAN-39",
      "properties": {
        "report_id": "iem-lsr-JAN-39",
        "report_type": "FLASH FLOOD",
        "event_category": "flooding",
        "valid_utc": "202605070250",
        "standard_time_display": "2026-05-06 20:50 CST",
        "wfo": "JAN",
        "county_or_zone": "Jefferson Davis",
        "city": "Lucas",
        "state": "MS",
        "magnitude": null,
        "magnitude_units": null,
        "source": "Emergency Mngr",
        "event_narrative": "Flash flooding led to water rescues of six people on Lucas Warner Rd and Highway 84 W."
      },
      "geometry": {
        "type": "Point",
        "coordinates": [
          -89.96,
          31.59
        ]
      }
    },
    {
      "type": "Feature",
      "id": "iem-lsr-JAN-40",
      "properties": {
        "report_id": "iem-lsr-JAN-40",
        "report_type": "TSTM WND DMG",
        "event_category": "thunderstorm_wind",
        "valid_utc": "202605070254",
        "standard_time_display": "2026-05-06 20:54 CST",
        "wfo": "JAN",
        "county_or_zone": "Jones",
        "city": "3 SW Calhoun",
        "state": "MS",
        "magnitude": null,
        "magnitude_units": null,
        "source": "Emergency Mngr",
        "event_narrative": "A few sporadic trees down across the county."
      },
      "geometry": {
        "type": "Point",
        "coordinates": [
          -89.24,
          31.66
        ]
      }
    },
    {
      "type": "Feature",
      "id": "iem-lsr-JAN-41",
      "properties": {
        "report_id": "iem-lsr-JAN-41",
        "report_type": "FLASH FLOOD",
        "event_category": "flooding",
        "valid_utc": "202605070300",
        "standard_time_display": "2026-05-06 21:00 CST",
        "wfo": "JAN",
        "county_or_zone": "Jefferson Davis",
        "city": "1 WSW Lone Star",
        "state": "MS",
        "magnitude": null,
        "magnitude_units": null,
        "source": "Emergency Mngr",
        "event_narrative": "Flash flooding of a total of 4 homes in the county_ with one home located on Ponderosa Rd."
      },
      "geometry": {
        "type": "Point",
        "coordinates": [
          -89.76,
          31.63
        ]
      }
    },
    {
      "type": "Feature",
      "id": "iem-lsr-JAN-42",
      "properties": {
        "report_id": "iem-lsr-JAN-42",
        "report_type": "FLASH FLOOD",
        "event_category": "flooding",
        "valid_utc": "202605070315",
        "standard_time_display": "2026-05-06 21:15 CST",
        "wfo": "JAN",
        "county_or_zone": "Lincoln",
        "city": "4 SSW West Lincoln",
        "state": "MS",
        "magnitude": null,
        "magnitude_units": null,
        "source": "NWS Storm Survey",
        "event_narrative": "A large section of Rowan road was under water and parts were washed out."
      },
      "geometry": {
        "type": "Point",
        "coordinates": [
          -90.6,
          31.45
        ]
      }
    },
    {
      "type": "Feature",
      "id": "iem-lsr-JAN-43",
      "properties": {
        "report_id": "iem-lsr-JAN-43",
        "report_type": "TSTM WND DMG",
        "event_category": "thunderstorm_wind",
        "valid_utc": "202605070333",
        "standard_time_display": "2026-05-06 21:33 CST",
        "wfo": "JAN",
        "county_or_zone": "Lincoln",
        "city": "Ruth",
        "state": "MS",
        "magnitude": null,
        "magnitude_units": null,
        "source": "Emergency Mngr",
        "event_narrative": "Trees were downed near Ruth."
      },
      "geometry": {
        "type": "Point",
        "coordinates": [
          -90.32,
          31.38
        ]
      }
    },
    {
      "type": "Feature",
      "id": "iem-lsr-JAN-44",
      "properties": {
        "report_id": "iem-lsr-JAN-44",
        "report_type": "TSTM WND DMG",
        "event_category": "thunderstorm_wind",
        "valid_utc": "202605070339",
        "standard_time_display": "2026-05-06 21:39 CST",
        "wfo": "JAN",
        "county_or_zone": "Lawrence",
        "city": "2 WNW Jayess",
        "state": "MS",
        "magnitude": null,
        "magnitude_units": null,
        "source": "Emergency Mngr",
        "event_narrative": "Trees were downed along Holmesville Rd."
      },
      "geometry": {
        "type": "Point",
        "coordinates": [
          -90.24,
          31.38
        ]
      }
    },
    {
      "type": "Feature",
      "id": "iem-lsr-JAN-45",
      "properties": {
        "report_id": "iem-lsr-JAN-45",
        "report_type": "FLASH FLOOD",
        "event_category": "flooding",
        "valid_utc": "202605070350",
        "standard_time_display": "2026-05-06 21:50 CST",
        "wfo": "JAN",
        "county_or_zone": "Jones",
        "city": "3 NE Hebron",
        "state": "MS",
        "magnitude": null,
        "magnitude_units": null,
        "source": "Emergency Mngr",
        "event_narrative": "Flash flooding caused a washout of a culvert on Mt Williams Rd southwest of Soso."
      },
      "geometry": {
        "type": "Point",
        "coordinates": [
          -89.34,
          31.73
        ]
      }
    },
    {
      "type": "Feature",
      "id": "iem-lsr-JAN-46",
      "properties": {
        "report_id": "iem-lsr-JAN-46",
        "report_type": "FLASH FLOOD",
        "event_category": "flooding",
        "valid_utc": "202605070355",
        "standard_time_display": "2026-05-06 21:55 CST",
        "wfo": "JAN",
        "county_or_zone": "Covington",
        "city": "2 NNW Collins",
        "state": "MS",
        "magnitude": null,
        "magnitude_units": null,
        "source": "Emergency Mngr",
        "event_narrative": "A vehicle was swept off the road on Ora Street. Emergency personnel rescued the occupant from the vehicle."
      },
      "geometry": {
        "type": "Point",
        "coordinates": [
          -89.56,
          31.66
        ]
      }
    },
    {
      "type": "Feature",
      "id": "iem-lsr-JAN-47",
      "properties": {
        "report_id": "iem-lsr-JAN-47",
        "report_type": "FLASH FLOOD",
        "event_category": "flooding",
        "valid_utc": "202605070355",
        "standard_time_display": "2026-05-06 21:55 CST",
        "wfo": "JAN",
        "county_or_zone": "Covington",
        "city": "2 N Rock Hill",
        "state": "MS",
        "magnitude": null,
        "magnitude_units": null,
        "source": "Storm Chaser",
        "event_narrative": "South bound lanes of US 49 were flooded near Mount Olive."
      },
      "geometry": {
        "type": "Point",
        "coordinates": [
          -89.64,
          31.73
        ]
      }
    },
    {
      "type": "Feature",
      "id": "iem-lsr-JAN-48",
      "properties": {
        "report_id": "iem-lsr-JAN-48",
        "report_type": "FLASH FLOOD",
        "event_category": "flooding",
        "valid_utc": "202605070400",
        "standard_time_display": "2026-05-06 22:00 CST",
        "wfo": "JAN",
        "county_or_zone": "Jones",
        "city": "1 E Laurel",
        "state": "MS",
        "magnitude": null,
        "magnitude_units": null,
        "source": "Public",
        "event_narrative": "Flash flooding caused minor street flooding inside the Laurel city limits."
      },
      "geometry": {
        "type": "Point",
        "coordinates": [
          -89.13,
          31.69
        ]
      }
    },
    {
      "type": "Feature",
      "id": "iem-lsr-JAN-49",
      "properties": {
        "report_id": "iem-lsr-JAN-49",
        "report_type": "TORNADO",
        "event_category": "tornado",
        "valid_utc": "202605070406",
        "standard_time_display": "2026-05-06 22:06 CST",
        "wfo": "JAN",
        "county_or_zone": "Marion",
        "city": "7 NNW Kokomo",
        "state": "MS",
        "magnitude": null,
        "magnitude_units": null,
        "source": "NWS Storm Survey",
        "event_narrative": "This EF1 tornado moved into Marion County from northeastern Walthall County near the Darbun community_ crossing Reid Rd_ Bracey Rd_ and Rowley Rd before lifting near Circle Bar Road. Along the path_"
      },
      "geometry": {
        "type": "Point",
        "coordinates": [
          -90.04,
          31.29
        ]
      }
    },
    {
      "type": "Feature",
      "id": "iem-lsr-JAN-50",
      "properties": {
        "report_id": "iem-lsr-JAN-50",
        "report_type": "TSTM WND DMG",
        "event_category": "thunderstorm_wind",
        "valid_utc": "202605070423",
        "standard_time_display": "2026-05-06 22:23 CST",
        "wfo": "JAN",
        "county_or_zone": "Marion",
        "city": "1 E Columbia",
        "state": "MS",
        "magnitude": null,
        "magnitude_units": null,
        "source": "Emergency Mngr",
        "event_narrative": "Marion County EMA reports that trees were down and a house destroyed on Ridgewood Drive."
      },
      "geometry": {
        "type": "Point",
        "coordinates": [
          -89.81,
          31.26
        ]
      }
    },
    {
      "type": "Feature",
      "id": "iem-lsr-JAN-51",
      "properties": {
        "report_id": "iem-lsr-JAN-51",
        "report_type": "TSTM WND DMG",
        "event_category": "thunderstorm_wind",
        "valid_utc": "202605070905",
        "standard_time_display": "2026-05-07 03:05 CST",
        "wfo": "JAN",
        "county_or_zone": "Jones",
        "city": "5 WSW Ovett",
        "state": "MS",
        "magnitude": null,
        "magnitude_units": null,
        "source": "Emergency Mngr",
        "event_narrative": "A few sporadic trees down across the county."
      },
      "geometry": {
        "type": "Point",
        "coordinates": [
          -89.1,
          31.45
        ]
      }
    },
    {
      "type": "Feature",
      "id": "iem-lsr-JAN-52",
      "properties": {
        "report_id": "iem-lsr-JAN-52",
        "report_type": "FLOOD",
        "event_category": "flooding",
        "valid_utc": "202605081911",
        "standard_time_display": "2026-05-08 13:11 CST",
        "wfo": "JAN",
        "county_or_zone": "Lincoln",
        "city": "4 WNW Enterprise",
        "state": "MS",
        "magnitude": null,
        "magnitude_units": null,
        "source": "NWS Employee",
        "event_narrative": "Water was covering a section of Hog Chain Dr."
      },
      "geometry": {
        "type": "Point",
        "coordinates": [
          -90.44,
          31.49
        ]
      }
    },
    {
      "type": "Feature",
      "id": "iem-lsr-JAN-53",
      "properties": {
        "report_id": "iem-lsr-JAN-53",
        "report_type": "HAIL",
        "event_category": "hail",
        "valid_utc": "202605090513",
        "standard_time_display": "2026-05-08 23:13 CST",
        "wfo": "JAN",
        "county_or_zone": "Morehouse",
        "city": "5 ESE Beekman",
        "state": "LA",
        "magnitude": 0.75,
        "magnitude_units": null,
        "source": "Storm Chaser",
        "event_narrative": "Hail up to the size of pennies fell. Report relayed via Spotter Network."
      },
      "geometry": {
        "type": "Point",
        "coordinates": [
          -91.8,
          32.9
        ]
      }
    },
    {
      "type": "Feature",
      "id": "iem-lsr-JAN-54",
      "properties": {
        "report_id": "iem-lsr-JAN-54",
        "report_type": "HAIL",
        "event_category": "hail",
        "valid_utc": "202605102209",
        "standard_time_display": "2026-05-10 16:09 CST",
        "wfo": "JAN",
        "county_or_zone": "Attala",
        "city": "2 NW Mccool",
        "state": "MS",
        "magnitude": 1.75,
        "magnitude_units": null,
        "source": "Public",
        "event_narrative": "Relayed through social media."
      },
      "geometry": {
        "type": "Point",
        "coordinates": [
          -89.37,
          33.22
        ]
      }
    },
    {
      "type": "Feature",
      "id": "iem-lsr-JAN-55",
      "properties": {
        "report_id": "iem-lsr-JAN-55",
        "report_type": "HAIL",
        "event_category": "hail",
        "valid_utc": "202605102217",
        "standard_time_display": "2026-05-10 16:17 CST",
        "wfo": "JAN",
        "county_or_zone": "Attala",
        "city": "1 NE Mccool",
        "state": "MS",
        "magnitude": 1.75,
        "magnitude_units": null,
        "source": "Public",
        "event_narrative": "Relayed via social media."
      },
      "geometry": {
        "type": "Point",
        "coordinates": [
          -89.33,
          33.21
        ]
      }
    },
    {
      "type": "Feature",
      "id": "iem-lsr-JAN-56",
      "properties": {
        "report_id": "iem-lsr-JAN-56",
        "report_type": "TSTM WND DMG",
        "event_category": "thunderstorm_wind",
        "valid_utc": "202605110025",
        "standard_time_display": "2026-05-10 18:25 CST",
        "wfo": "JAN",
        "county_or_zone": "Lauderdale",
        "city": "Meehan",
        "state": "MS",
        "magnitude": null,
        "magnitude_units": null,
        "source": "Public",
        "event_narrative": "Trees were blown down on Highway 80."
      },
      "geometry": {
        "type": "Point",
        "coordinates": [
          -88.87,
          32.33
        ]
      }
    },
    {
      "type": "Feature",
      "id": "iem-lsr-JAN-57",
      "properties": {
        "report_id": "iem-lsr-JAN-57",
        "report_type": "HAIL",
        "event_category": "hail",
        "valid_utc": "202605110100",
        "standard_time_display": "2026-05-10 19:00 CST",
        "wfo": "JAN",
        "county_or_zone": "Clarke",
        "city": "1 SSE Basic City",
        "state": "MS",
        "magnitude": 1.0,
        "magnitude_units": null,
        "source": "Public",
        "event_narrative": "Video showed hail falling in the Enterprise area."
      },
      "geometry": {
        "type": "Point",
        "coordinates": [
          -88.76,
          32.2
        ]
      }
    },
    {
      "type": "Feature",
      "id": "iem-lsr-JAN-58",
      "properties": {
        "report_id": "iem-lsr-JAN-58",
        "report_type": "TSTM WND DMG",
        "event_category": "thunderstorm_wind",
        "valid_utc": "202605110112",
        "standard_time_display": "2026-05-10 19:12 CST",
        "wfo": "JAN",
        "county_or_zone": "Clarke",
        "city": "6 ESE Basic City",
        "state": "MS",
        "magnitude": null,
        "magnitude_units": null,
        "source": "Public",
        "event_narrative": "Trees were blown down on Highway 149."
      },
      "geometry": {
        "type": "Point",
        "coordinates": [
          -88.68,
          32.18
        ]
      }
    },
    {
      "type": "Feature",
      "id": "iem-lsr-JAN-59",
      "properties": {
        "report_id": "iem-lsr-JAN-59",
        "report_type": "HAIL",
        "event_category": "hail",
        "valid_utc": "202605110120",
        "standard_time_display": "2026-05-10 19:20 CST",
        "wfo": "JAN",
        "county_or_zone": "Clarke",
        "city": "8 ESE Basic City",
        "state": "MS",
        "magnitude": 1.0,
        "magnitude_units": null,
        "source": "Public",
        "event_narrative": "Relayed via social media."
      },
      "geometry": {
        "type": "Point",
        "coordinates": [
          -88.65,
          32.16
        ]
      }
    },
    {
      "type": "Feature",
      "id": "iem-lsr-JAN-60",
      "properties": {
        "report_id": "iem-lsr-JAN-60",
        "report_type": "TSTM WND DMG",
        "event_category": "thunderstorm_wind",
        "valid_utc": "202605172302",
        "standard_time_display": "2026-05-17 17:02 CST",
        "wfo": "JAN",
        "county_or_zone": "Hinds",
        "city": "4 W Terry",
        "state": "MS",
        "magnitude": null,
        "magnitude_units": null,
        "source": "Emergency Mngr",
        "event_narrative": "Corrects time and source of previous tstm wnd dmg report from 4 W Terry. Trees and power lines were blown down in 5 or 6 locations near Midway Road between Tank Road and Owens Road."
      },
      "geometry": {
        "type": "Point",
        "coordinates": [
          -90.37,
          32.11
        ]
      }
    },
    {
      "type": "Feature",
      "id": "iem-lsr-JAN-61",
      "properties": {
        "report_id": "iem-lsr-JAN-61",
        "report_type": "TSTM WND GST",
        "event_category": "thunderstorm_wind",
        "valid_utc": "202605172308",
        "standard_time_display": "2026-05-17 17:08 CST",
        "wfo": "JAN",
        "county_or_zone": "Hinds",
        "city": "5 NNW Terry",
        "state": "MS",
        "magnitude": 64.0,
        "magnitude_units": null,
        "source": "Trained Spotter",
        "event_narrative": "A 64 mph wind gust was measured with a handheld anemometer along W Flowers Rd."
      },
      "geometry": {
        "type": "Point",
        "coordinates": [
          -90.34,
          32.16
        ]
      }
    },
    {
      "type": "Feature",
      "id": "iem-lsr-JAN-62",
      "properties": {
        "report_id": "iem-lsr-JAN-62",
        "report_type": "HAIL",
        "event_category": "hail",
        "valid_utc": "202605172315",
        "standard_time_display": "2026-05-17 17:15 CST",
        "wfo": "JAN",
        "county_or_zone": "Hinds",
        "city": "5 NNW Terry",
        "state": "MS",
        "magnitude": 1.0,
        "magnitude_units": null,
        "source": "Trained Spotter",
        "event_narrative": "Reported along W Flowers Rd."
      },
      "geometry": {
        "type": "Point",
        "coordinates": [
          -90.34,
          32.16
        ]
      }
    },
    {
      "type": "Feature",
      "id": "iem-lsr-JAN-63",
      "properties": {
        "report_id": "iem-lsr-JAN-63",
        "report_type": "TSTM WND DMG",
        "event_category": "thunderstorm_wind",
        "valid_utc": "202605172330",
        "standard_time_display": "2026-05-17 17:30 CST",
        "wfo": "JAN",
        "county_or_zone": "Hinds",
        "city": "4 WNW Forest Hill",
        "state": "MS",
        "magnitude": null,
        "magnitude_units": null,
        "source": "Emergency Mngr",
        "event_narrative": "A few trees and power lines were blown down along Springridge Road between Raymond Road and the southern city limits for Clinton."
      },
      "geometry": {
        "type": "Point",
        "coordinates": [
          -90.34,
          32.28
        ]
      }
    },
    {
      "type": "Feature",
      "id": "iem-lsr-JAN-64",
      "properties": {
        "report_id": "iem-lsr-JAN-64",
        "report_type": "TSTM WND DMG",
        "event_category": "thunderstorm_wind",
        "valid_utc": "202605172335",
        "standard_time_display": "2026-05-17 17:35 CST",
        "wfo": "JAN",
        "county_or_zone": "Hinds",
        "city": "5 NNW Learned",
        "state": "MS",
        "magnitude": null,
        "magnitude_units": null,
        "source": "Emergency Mngr",
        "event_narrative": "A tree was blown down along Belknap Road."
      },
      "geometry": {
        "type": "Point",
        "coordinates": [
          -90.57,
          32.26
        ]
      }
    },
    {
      "type": "Feature",
      "id": "iem-lsr-JAN-65",
      "properties": {
        "report_id": "iem-lsr-JAN-65",
        "report_type": "HAIL",
        "event_category": "hail",
        "valid_utc": "202605172339",
        "standard_time_display": "2026-05-17 17:39 CST",
        "wfo": "JAN",
        "county_or_zone": "Hinds",
        "city": "2 E Forest Hill",
        "state": "MS",
        "magnitude": 1.0,
        "magnitude_units": null,
        "source": "Broadcast Media",
        "event_narrative": "Reported along Lakewood Dr."
      },
      "geometry": {
        "type": "Point",
        "coordinates": [
          -90.25,
          32.26
        ]
      }
    },
    {
      "type": "Feature",
      "id": "iem-lsr-JAN-66",
      "properties": {
        "report_id": "iem-lsr-JAN-66",
        "report_type": "TSTM WND DMG",
        "event_category": "thunderstorm_wind",
        "valid_utc": "202605172352",
        "standard_time_display": "2026-05-17 17:52 CST",
        "wfo": "JAN",
        "county_or_zone": "Copiah",
        "city": "4 NNW Crystal Springs",
        "state": "MS",
        "magnitude": null,
        "magnitude_units": null,
        "source": "Emergency Mngr",
        "event_narrative": "Tree limbs were blown down across Mitchell Road."
      },
      "geometry": {
        "type": "Point",
        "coordinates": [
          -90.39,
          32.04
        ]
      }
    },
    {
      "type": "Feature",
      "id": "iem-lsr-JAN-67",
      "properties": {
        "report_id": "iem-lsr-JAN-67",
        "report_type": "TSTM WND GST",
        "event_category": "thunderstorm_wind",
        "valid_utc": "202605172353",
        "standard_time_display": "2026-05-17 17:53 CST",
        "wfo": "JAN",
        "county_or_zone": "Hinds",
        "city": "Hawkins Field",
        "state": "MS",
        "magnitude": 55.0,
        "magnitude_units": null,
        "source": "ASOS",
        "event_narrative": null
      },
      "geometry": {
        "type": "Point",
        "coordinates": [
          -90.22,
          32.34
        ]
      }
    },
    {
      "type": "Feature",
      "id": "iem-lsr-JAN-68",
      "properties": {
        "report_id": "iem-lsr-JAN-68",
        "report_type": "TSTM WND GST",
        "event_category": "thunderstorm_wind",
        "valid_utc": "202605172354",
        "standard_time_display": "2026-05-17 17:54 CST",
        "wfo": "JAN",
        "county_or_zone": "Hinds",
        "city": "Hawkins Field",
        "state": "MS",
        "magnitude": 56.0,
        "magnitude_units": null,
        "source": "ASOS",
        "event_narrative": null
      },
      "geometry": {
        "type": "Point",
        "coordinates": [
          -90.22,
          32.34
        ]
      }
    },
    {
      "type": "Feature",
      "id": "iem-lsr-JAN-69",
      "properties": {
        "report_id": "iem-lsr-JAN-69",
        "report_type": "TSTM WND DMG",
        "event_category": "thunderstorm_wind",
        "valid_utc": "202605180042",
        "standard_time_display": "2026-05-17 18:42 CST",
        "wfo": "JAN",
        "county_or_zone": "Hinds",
        "city": "4 W Terry",
        "state": "MS",
        "magnitude": null,
        "magnitude_units": null,
        "source": "Public",
        "event_narrative": "Trees and power lines were blown down in 5 or 6 locations near Midway Road between Tank Road and Owens Road."
      },
      "geometry": {
        "type": "Point",
        "coordinates": [
          -90.37,
          32.11
        ]
      }
    },
    {
      "type": "Feature",
      "id": "iem-lsr-JAN-70",
      "properties": {
        "report_id": "iem-lsr-JAN-70",
        "report_type": "FLASH FLOOD",
        "event_category": "flooding",
        "valid_utc": "202605211500",
        "standard_time_display": "2026-05-21 09:00 CST",
        "wfo": "JAN",
        "county_or_zone": "Jones",
        "city": "6 S Hebron",
        "state": "MS",
        "magnitude": null,
        "magnitude_units": null,
        "source": "Emergency Mngr",
        "event_narrative": "Jones County EMA personnel encountered swift moving water crossing Maybelle Road."
      },
      "geometry": {
        "type": "Point",
        "coordinates": [
          -89.37,
          31.62
        ]
      }
    },
    {
      "type": "Feature",
      "id": "iem-lsr-JAN-71",
      "properties": {
        "report_id": "iem-lsr-JAN-71",
        "report_type": "TSTM WND DMG",
        "event_category": "thunderstorm_wind",
        "valid_utc": "202605220840",
        "standard_time_display": "2026-05-22 02:40 CST",
        "wfo": "JAN",
        "county_or_zone": "Claiborne",
        "city": "2 SSW Reganton",
        "state": "MS",
        "magnitude": null,
        "magnitude_units": null,
        "source": "Broadcast Media",
        "event_narrative": "*** 1 INJ *** Tree fell on a car along the Natchez Trace around mile marker 58. Inj person was airlifted. Est winds at this location and time appear be 40 mph or less."
      },
      "geometry": {
        "type": "Point",
        "coordinates": [
          -90.76,
          32.12
        ]
      }
    },
    {
      "type": "Feature",
      "id": "iem-lsr-JAN-72",
      "properties": {
        "report_id": "iem-lsr-JAN-72",
        "report_type": "TORNADO",
        "event_category": "tornado",
        "valid_utc": "202605220938",
        "standard_time_display": "2026-05-22 03:38 CST",
        "wfo": "JAN",
        "county_or_zone": "Hinds",
        "city": "5 SSE Raymond",
        "state": "MS",
        "magnitude": null,
        "magnitude_units": null,
        "source": "Storm Chaser",
        "event_narrative": "A thin funnel touched down about 1 quarter mile south of Seven Springs Road just east of Midway Road. Tree damage observed. TDS also noted on radar after this."
      },
      "geometry": {
        "type": "Point",
        "coordinates": [
          -90.38,
          32.2
        ]
      }
    },
    {
      "type": "Feature",
      "id": "iem-lsr-JAN-73",
      "properties": {
        "report_id": "iem-lsr-JAN-73",
        "report_type": "TSTM WND DMG",
        "event_category": "thunderstorm_wind",
        "valid_utc": "202605222127",
        "standard_time_display": "2026-05-22 15:27 CST",
        "wfo": "JAN",
        "county_or_zone": "Jones",
        "city": "6 W Ovett",
        "state": "MS",
        "magnitude": null,
        "magnitude_units": null,
        "source": "Law Enforcement",
        "event_narrative": "Law enforcement reported multiple trees down across portions of southern Jones County."
      },
      "geometry": {
        "type": "Point",
        "coordinates": [
          -89.13,
          31.48
        ]
      }
    },
    {
      "type": "Feature",
      "id": "iem-lsr-JAN-74",
      "properties": {
        "report_id": "iem-lsr-JAN-74",
        "report_type": "FLASH FLOOD",
        "event_category": "flooding",
        "valid_utc": "202605222155",
        "standard_time_display": "2026-05-22 15:55 CST",
        "wfo": "JAN",
        "county_or_zone": "Forrest",
        "city": "1 SW Petal",
        "state": "MS",
        "magnitude": null,
        "magnitude_units": null,
        "source": "Emergency Mngr",
        "event_narrative": "Reports of minor flooding in Petal."
      },
      "geometry": {
        "type": "Point",
        "coordinates": [
          -89.26,
          31.34
        ]
      }
    },
    {
      "type": "Feature",
      "id": "iem-lsr-JAN-75",
      "properties": {
        "report_id": "iem-lsr-JAN-75",
        "report_type": "FLASH FLOOD",
        "event_category": "flooding",
        "valid_utc": "202605222200",
        "standard_time_display": "2026-05-22 16:00 CST",
        "wfo": "JAN",
        "county_or_zone": "Forrest",
        "city": "1 NE Hattiesburg",
        "state": "MS",
        "magnitude": null,
        "magnitude_units": null,
        "source": "Broadcast Media",
        "event_narrative": "Multiple reports of water over roadways in Hattiesburg."
      },
      "geometry": {
        "type": "Point",
        "coordinates": [
          -89.29,
          31.33
        ]
      }
    },
    {
      "type": "Feature",
      "id": "iem-lsr-JAN-76",
      "properties": {
        "report_id": "iem-lsr-JAN-76",
        "report_type": "TSTM WND DMG",
        "event_category": "thunderstorm_wind",
        "valid_utc": "202605222256",
        "standard_time_display": "2026-05-22 16:56 CST",
        "wfo": "JAN",
        "county_or_zone": "Covington",
        "city": "1 WNW Mount Olive",
        "state": "MS",
        "magnitude": null,
        "magnitude_units": null,
        "source": "Law Enforcement",
        "event_narrative": "Tree downed on Jaynesville Rd at Hwy 49."
      },
      "geometry": {
        "type": "Point",
        "coordinates": [
          -89.68,
          31.77
        ]
      }
    },
    {
      "type": "Feature",
      "id": "iem-lsr-JAN-77",
      "properties": {
        "report_id": "iem-lsr-JAN-77",
        "report_type": "TSTM WND DMG",
        "event_category": "thunderstorm_wind",
        "valid_utc": "202605222256",
        "standard_time_display": "2026-05-22 16:56 CST",
        "wfo": "JAN",
        "county_or_zone": "Covington",
        "city": "2 W Mount Olive",
        "state": "MS",
        "magnitude": null,
        "magnitude_units": null,
        "source": "Law Enforcement",
        "event_narrative": "Tree downed on Jaynesville Rd and Johnson Stewart Rd."
      },
      "geometry": {
        "type": "Point",
        "coordinates": [
          -89.69,
          31.76
        ]
      }
    },
    {
      "type": "Feature",
      "id": "iem-lsr-JAN-78",
      "properties": {
        "report_id": "iem-lsr-JAN-78",
        "report_type": "TSTM WND DMG",
        "event_category": "thunderstorm_wind",
        "valid_utc": "202605222353",
        "standard_time_display": "2026-05-22 17:53 CST",
        "wfo": "JAN",
        "county_or_zone": "Morehouse",
        "city": "4 N Oak Ridge",
        "state": "LA",
        "magnitude": null,
        "magnitude_units": null,
        "source": "Utility Company",
        "event_narrative": "A few power lines down with many power outages."
      },
      "geometry": {
        "type": "Point",
        "coordinates": [
          -91.77,
          32.68
        ]
      }
    },
    {
      "type": "Feature",
      "id": "iem-lsr-JAN-79",
      "properties": {
        "report_id": "iem-lsr-JAN-79",
        "report_type": "TSTM WND DMG",
        "event_category": "thunderstorm_wind",
        "valid_utc": "202605230018",
        "standard_time_display": "2026-05-22 18:18 CST",
        "wfo": "JAN",
        "county_or_zone": "West Carroll",
        "city": "Epps",
        "state": "LA",
        "magnitude": null,
        "magnitude_units": null,
        "source": "Utility Company",
        "event_narrative": "A few power lines down with many power outages."
      },
      "geometry": {
        "type": "Point",
        "coordinates": [
          -91.48,
          32.61
        ]
      }
    },
    {
      "type": "Feature",
      "id": "iem-lsr-JAN-80",
      "properties": {
        "report_id": "iem-lsr-JAN-80",
        "report_type": "TSTM WND DMG",
        "event_category": "thunderstorm_wind",
        "valid_utc": "202605230030",
        "standard_time_display": "2026-05-22 18:30 CST",
        "wfo": "JAN",
        "county_or_zone": "East Carroll",
        "city": "6 SW Lake Providence",
        "state": "LA",
        "magnitude": null,
        "magnitude_units": null,
        "source": "Utility Company",
        "event_narrative": "A few power lines down with many power outages."
      },
      "geometry": {
        "type": "Point",
        "coordinates": [
          -91.27,
          32.76
        ]
      }
    },
    {
      "type": "Feature",
      "id": "iem-lsr-JAN-81",
      "properties": {
        "report_id": "iem-lsr-JAN-81",
        "report_type": "TSTM WND DMG",
        "event_category": "thunderstorm_wind",
        "valid_utc": "202605230045",
        "standard_time_display": "2026-05-22 18:45 CST",
        "wfo": "JAN",
        "county_or_zone": "East Carroll",
        "city": "4 N Sondheimer",
        "state": "LA",
        "magnitude": null,
        "magnitude_units": null,
        "source": "Utility Company",
        "event_narrative": "A few power lines down with many power outages."
      },
      "geometry": {
        "type": "Point",
        "coordinates": [
          -91.18,
          32.61
        ]
      }
    },
    {
      "type": "Feature",
      "id": "iem-lsr-JAN-82",
      "properties": {
        "report_id": "iem-lsr-JAN-82",
        "report_type": "TSTM WND DMG",
        "event_category": "thunderstorm_wind",
        "valid_utc": "202605230108",
        "standard_time_display": "2026-05-22 19:08 CST",
        "wfo": "JAN",
        "county_or_zone": "Sharkey",
        "city": "Onward",
        "state": "MS",
        "magnitude": null,
        "magnitude_units": null,
        "source": "Utility Company",
        "event_narrative": "A power line down."
      },
      "geometry": {
        "type": "Point",
        "coordinates": [
          -90.94,
          32.73
        ]
      }
    },
    {
      "type": "Feature",
      "id": "iem-lsr-JAN-83",
      "properties": {
        "report_id": "iem-lsr-JAN-83",
        "report_type": "TSTM WND DMG",
        "event_category": "thunderstorm_wind",
        "valid_utc": "202605230205",
        "standard_time_display": "2026-05-22 20:05 CST",
        "wfo": "JAN",
        "county_or_zone": "Madison",
        "city": "6 WSW Kearney Park",
        "state": "MS",
        "magnitude": null,
        "magnitude_units": null,
        "source": "Utility Company",
        "event_narrative": "A few power lines down."
      },
      "geometry": {
        "type": "Point",
        "coordinates": [
          -90.42,
          32.55
        ]
      }
    },
    {
      "type": "Feature",
      "id": "iem-lsr-JAN-84",
      "properties": {
        "report_id": "iem-lsr-JAN-84",
        "report_type": "FLASH FLOOD",
        "event_category": "flooding",
        "valid_utc": "202605230300",
        "standard_time_display": "2026-05-22 21:00 CST",
        "wfo": "JAN",
        "county_or_zone": "Richland",
        "city": "Delhi",
        "state": "LA",
        "magnitude": null,
        "magnitude_units": null,
        "source": "Law Enforcement",
        "event_narrative": "Report of street flooding in Delhi."
      },
      "geometry": {
        "type": "Point",
        "coordinates": [
          -91.49,
          32.46
        ]
      }
    },
    {
      "type": "Feature",
      "id": "iem-lsr-JAN-85",
      "properties": {
        "report_id": "iem-lsr-JAN-85",
        "report_type": "FLASH FLOOD",
        "event_category": "flooding",
        "valid_utc": "202605230715",
        "standard_time_display": "2026-05-23 01:15 CST",
        "wfo": "JAN",
        "county_or_zone": "Morehouse",
        "city": "Bastrop",
        "state": "LA",
        "magnitude": null,
        "magnitude_units": null,
        "source": "911 Call Center",
        "event_narrative": "A few roads in the Bastrop city limits were flooded over."
      },
      "geometry": {
        "type": "Point",
        "coordinates": [
          -91.91,
          32.77
        ]
      }
    },
    {
      "type": "Feature",
      "id": "iem-lsr-JAN-86",
      "properties": {
        "report_id": "iem-lsr-JAN-86",
        "report_type": "FLASH FLOOD",
        "event_category": "flooding",
        "valid_utc": "202605230845",
        "standard_time_display": "2026-05-23 02:45 CST",
        "wfo": "JAN",
        "county_or_zone": "Morehouse",
        "city": "Mer Rouge",
        "state": "LA",
        "magnitude": null,
        "magnitude_units": null,
        "source": "911 Call Center",
        "event_narrative": "A few roads around Mer Rouge were flooded over."
      },
      "geometry": {
        "type": "Point",
        "coordinates": [
          -91.79,
          32.78
        ]
      }
    },
    {
      "type": "Feature",
      "id": "iem-lsr-JAN-87",
      "properties": {
        "report_id": "iem-lsr-JAN-87",
        "report_type": "TSTM WND GST",
        "event_category": "thunderstorm_wind",
        "valid_utc": "202605231655",
        "standard_time_display": "2026-05-23 10:55 CST",
        "wfo": "JAN",
        "county_or_zone": "Catahoula",
        "city": "3 SSW Jonesville",
        "state": "LA",
        "magnitude": 75.0,
        "magnitude_units": null,
        "source": "Mesonet",
        "event_narrative": "Peak gust of 74.5 mph at the Jonesville LA State mesonet site."
      },
      "geometry": {
        "type": "Point",
        "coordinates": [
          -91.86,
          31.59
        ]
      }
    },
    {
      "type": "Feature",
      "id": "iem-lsr-JAN-88",
      "properties": {
        "report_id": "iem-lsr-JAN-88",
        "report_type": "TSTM WND DMG",
        "event_category": "thunderstorm_wind",
        "valid_utc": "202605231656",
        "standard_time_display": "2026-05-23 10:56 CST",
        "wfo": "JAN",
        "county_or_zone": "Catahoula",
        "city": "2 WSW Wallace Ridge",
        "state": "LA",
        "magnitude": null,
        "magnitude_units": null,
        "source": "Utility Company",
        "event_narrative": "A tree was downed on LA Hwy 3101."
      },
      "geometry": {
        "type": "Point",
        "coordinates": [
          -91.86,
          31.65
        ]
      }
    },
    {
      "type": "Feature",
      "id": "iem-lsr-JAN-89",
      "properties": {
        "report_id": "iem-lsr-JAN-89",
        "report_type": "TSTM WND DMG",
        "event_category": "thunderstorm_wind",
        "valid_utc": "202605231658",
        "standard_time_display": "2026-05-23 10:58 CST",
        "wfo": "JAN",
        "county_or_zone": "Catahoula",
        "city": "1 ENE Jonesville",
        "state": "LA",
        "magnitude": null,
        "magnitude_units": null,
        "source": "Local Official",
        "event_narrative": "A tree and utility pole were downed in Jonesville."
      },
      "geometry": {
        "type": "Point",
        "coordinates": [
          -91.82,
          31.63
        ]
      }
    },
    {
      "type": "Feature",
      "id": "iem-lsr-JAN-90",
      "properties": {
        "report_id": "iem-lsr-JAN-90",
        "report_type": "TSTM WND DMG",
        "event_category": "thunderstorm_wind",
        "valid_utc": "202605231658",
        "standard_time_display": "2026-05-23 10:58 CST",
        "wfo": "JAN",
        "county_or_zone": "Concordia",
        "city": "2 NNW Monterey",
        "state": "LA",
        "magnitude": null,
        "magnitude_units": null,
        "source": "Utility Company",
        "event_narrative": "A tree was downed across LA Hwy 565."
      },
      "geometry": {
        "type": "Point",
        "coordinates": [
          -91.73,
          31.47
        ]
      }
    },
    {
      "type": "Feature",
      "id": "iem-lsr-JAN-91",
      "properties": {
        "report_id": "iem-lsr-JAN-91",
        "report_type": "TSTM WND DMG",
        "event_category": "thunderstorm_wind",
        "valid_utc": "202605231727",
        "standard_time_display": "2026-05-23 11:27 CST",
        "wfo": "JAN",
        "county_or_zone": "Adams",
        "city": "1 NE Natchez",
        "state": "MS",
        "magnitude": null,
        "magnitude_units": null,
        "source": "Newspaper",
        "event_narrative": "A tree fell on a house along Devereaux Dr. Multiple trees were downed around Natchez."
      },
      "geometry": {
        "type": "Point",
        "coordinates": [
          -91.37,
          31.56
        ]
      }
    },
    {
      "type": "Feature",
      "id": "iem-lsr-JAN-92",
      "properties": {
        "report_id": "iem-lsr-JAN-92",
        "report_type": "TSTM WND DMG",
        "event_category": "thunderstorm_wind",
        "valid_utc": "202605231730",
        "standard_time_display": "2026-05-23 11:30 CST",
        "wfo": "JAN",
        "county_or_zone": "Adams",
        "city": "Morgantown",
        "state": "MS",
        "magnitude": null,
        "magnitude_units": null,
        "source": "Newspaper",
        "event_narrative": "Utility poles were downed in the Morgantown area."
      },
      "geometry": {
        "type": "Point",
        "coordinates": [
          -91.35,
          31.57
        ]
      }
    },
    {
      "type": "Feature",
      "id": "iem-lsr-JAN-93",
      "properties": {
        "report_id": "iem-lsr-JAN-93",
        "report_type": "TSTM WND DMG",
        "event_category": "thunderstorm_wind",
        "valid_utc": "202605231735",
        "standard_time_display": "2026-05-23 11:35 CST",
        "wfo": "JAN",
        "county_or_zone": "Tensas",
        "city": "Waterproof",
        "state": "LA",
        "magnitude": null,
        "magnitude_units": null,
        "source": "Law Enforcement",
        "event_narrative": "Trees were downed on LA Hwy 568 and on D St in Waterproof."
      },
      "geometry": {
        "type": "Point",
        "coordinates": [
          -91.38,
          31.81
        ]
      }
    },
    {
      "type": "Feature",
      "id": "iem-lsr-JAN-94",
      "properties": {
        "report_id": "iem-lsr-JAN-94",
        "report_type": "TSTM WND DMG",
        "event_category": "thunderstorm_wind",
        "valid_utc": "202605231738",
        "standard_time_display": "2026-05-23 11:38 CST",
        "wfo": "JAN",
        "county_or_zone": "Tensas",
        "city": "5 NNW Waterproof",
        "state": "LA",
        "magnitude": null,
        "magnitude_units": null,
        "source": "Law Enforcement",
        "event_narrative": "Trees were downed across LA Hwy 3009."
      },
      "geometry": {
        "type": "Point",
        "coordinates": [
          -91.41,
          31.88
        ]
      }
    },
    {
      "type": "Feature",
      "id": "iem-lsr-JAN-95",
      "properties": {
        "report_id": "iem-lsr-JAN-95",
        "report_type": "TSTM WND DMG",
        "event_category": "thunderstorm_wind",
        "valid_utc": "202605231757",
        "standard_time_display": "2026-05-23 11:57 CST",
        "wfo": "JAN",
        "county_or_zone": "Tensas",
        "city": "6 SSE Newellton",
        "state": "LA",
        "magnitude": null,
        "magnitude_units": null,
        "source": "Law Enforcement",
        "event_narrative": "Trees were downed on LA Hwy 604."
      },
      "geometry": {
        "type": "Point",
        "coordinates": [
          -91.19,
          32.0
        ]
      }
    },
    {
      "type": "Feature",
      "id": "iem-lsr-JAN-96",
      "properties": {
        "report_id": "iem-lsr-JAN-96",
        "report_type": "TSTM WND DMG",
        "event_category": "thunderstorm_wind",
        "valid_utc": "202605231800",
        "standard_time_display": "2026-05-23 12:00 CST",
        "wfo": "JAN",
        "county_or_zone": "Tensas",
        "city": "Newellton",
        "state": "LA",
        "magnitude": null,
        "magnitude_units": null,
        "source": "Law Enforcement",
        "event_narrative": "Trees and utility lines were downed on Lombardo St."
      },
      "geometry": {
        "type": "Point",
        "coordinates": [
          -91.24,
          32.07
        ]
      }
    },
    {
      "type": "Feature",
      "id": "iem-lsr-JAN-97",
      "properties": {
        "report_id": "iem-lsr-JAN-97",
        "report_type": "TSTM WND DMG",
        "event_category": "thunderstorm_wind",
        "valid_utc": "202605231802",
        "standard_time_display": "2026-05-23 12:02 CST",
        "wfo": "JAN",
        "county_or_zone": "Franklin",
        "city": "1 S Meadville",
        "state": "MS",
        "magnitude": null,
        "magnitude_units": null,
        "source": "Trained Spotter",
        "event_narrative": "Lines blown down on Meadville Gloster Rd near the water tower."
      },
      "geometry": {
        "type": "Point",
        "coordinates": [
          -90.89,
          31.45
        ]
      }
    },
    {
      "type": "Feature",
      "id": "iem-lsr-JAN-98",
      "properties": {
        "report_id": "iem-lsr-JAN-98",
        "report_type": "TSTM WND DMG",
        "event_category": "thunderstorm_wind",
        "valid_utc": "202605231817",
        "standard_time_display": "2026-05-23 12:17 CST",
        "wfo": "JAN",
        "county_or_zone": "Jefferson",
        "city": "Union Church",
        "state": "MS",
        "magnitude": null,
        "magnitude_units": null,
        "source": "Emergency Mngr",
        "event_narrative": "Multiple trees down on ms 550 in union church."
      },
      "geometry": {
        "type": "Point",
        "coordinates": [
          -90.79,
          31.68
        ]
      }
    },
    {
      "type": "Feature",
      "id": "iem-lsr-JAN-99",
      "properties": {
        "report_id": "iem-lsr-JAN-99",
        "report_type": "TSTM WND DMG",
        "event_category": "thunderstorm_wind",
        "valid_utc": "202605231823",
        "standard_time_display": "2026-05-23 12:23 CST",
        "wfo": "JAN",
        "county_or_zone": "Copiah",
        "city": "1 E Crystal Springs",
        "state": "MS",
        "magnitude": null,
        "magnitude_units": null,
        "source": "Emergency Mngr",
        "event_narrative": "Trees down across Lee Ave in crystal springs. Multiple trees down across county."
      },
      "geometry": {
        "type": "Point",
        "coordinates": [
          -90.34,
          31.99
        ]
      }
    },
    {
      "type": "Feature",
      "id": "iem-lsr-JAN-100",
      "properties": {
        "report_id": "iem-lsr-JAN-100",
        "report_type": "TSTM WND DMG",
        "event_category": "thunderstorm_wind",
        "valid_utc": "202605231858",
        "standard_time_display": "2026-05-23 12:58 CST",
        "wfo": "JAN",
        "county_or_zone": "Warren",
        "city": "Beechwood",
        "state": "MS",
        "magnitude": null,
        "magnitude_units": null,
        "source": "Emergency Mngr",
        "event_narrative": "Entire road blocked by a large tree. Multiple large trees down across the entire county."
      },
      "geometry": {
        "type": "Point",
        "coordinates": [
          -90.81,
          32.33
        ]
      }
    },
    {
      "type": "Feature",
      "id": "iem-lsr-JAN-101",
      "properties": {
        "report_id": "iem-lsr-JAN-101",
        "report_type": "TSTM WND DMG",
        "event_category": "thunderstorm_wind",
        "valid_utc": "202605231900",
        "standard_time_display": "2026-05-23 13:00 CST",
        "wfo": "JAN",
        "county_or_zone": "Warren",
        "city": "4 SSW Vicksburg",
        "state": "MS",
        "magnitude": null,
        "magnitude_units": null,
        "source": "Emergency Mngr",
        "event_narrative": "Multiple trees down across the road."
      },
      "geometry": {
        "type": "Point",
        "coordinates": [
          -90.91,
          32.31
        ]
      }
    },
    {
      "type": "Feature",
      "id": "iem-lsr-JAN-102",
      "properties": {
        "report_id": "iem-lsr-JAN-102",
        "report_type": "TSTM WND DMG",
        "event_category": "thunderstorm_wind",
        "valid_utc": "202605231906",
        "standard_time_display": "2026-05-23 13:06 CST",
        "wfo": "JAN",
        "county_or_zone": "Copiah",
        "city": "1 E Crystal Springs",
        "state": "MS",
        "magnitude": null,
        "magnitude_units": null,
        "source": "Emergency Mngr",
        "event_narrative": "Corrects previous tstm wnd dmg report from 1 E Crystal Springs. Trees down across Lee Ave in crystal springs. Multiple trees down across county."
      },
      "geometry": {
        "type": "Point",
        "coordinates": [
          -90.34,
          31.99
        ]
      }
    },
    {
      "type": "Feature",
      "id": "iem-lsr-JAN-103",
      "properties": {
        "report_id": "iem-lsr-JAN-103",
        "report_type": "TSTM WND DMG",
        "event_category": "thunderstorm_wind",
        "valid_utc": "202605231910",
        "standard_time_display": "2026-05-23 13:10 CST",
        "wfo": "JAN",
        "county_or_zone": "Copiah",
        "city": "1 WSW Gallman",
        "state": "MS",
        "magnitude": null,
        "magnitude_units": null,
        "source": "Law Enforcement",
        "event_narrative": "Multiple old/dead trees down across hazelhurst_ particularly on w gallman."
      },
      "geometry": {
        "type": "Point",
        "coordinates": [
          -90.41,
          31.93
        ]
      }
    },
    {
      "type": "Feature",
      "id": "iem-lsr-JAN-104",
      "properties": {
        "report_id": "iem-lsr-JAN-104",
        "report_type": "TSTM WND DMG",
        "event_category": "thunderstorm_wind",
        "valid_utc": "202605231913",
        "standard_time_display": "2026-05-23 13:13 CST",
        "wfo": "JAN",
        "county_or_zone": "Hinds",
        "city": "1 SSW Forest Hill",
        "state": "MS",
        "magnitude": null,
        "magnitude_units": null,
        "source": "Broadcast Media",
        "event_narrative": "A tree was downed across Raymond Rd near Will-O-Wood Blvd."
      },
      "geometry": {
        "type": "Point",
        "coordinates": [
          -90.29,
          32.26
        ]
      }
    },
    {
      "type": "Feature",
      "id": "iem-lsr-JAN-105",
      "properties": {
        "report_id": "iem-lsr-JAN-105",
        "report_type": "TSTM WND DMG",
        "event_category": "thunderstorm_wind",
        "valid_utc": "202605231917",
        "standard_time_display": "2026-05-23 13:17 CST",
        "wfo": "JAN",
        "county_or_zone": "Hinds",
        "city": "3 SW Jackson",
        "state": "MS",
        "magnitude": null,
        "magnitude_units": null,
        "source": "Broadcast Media",
        "event_narrative": "Trees and powerlines were downed on Coronet Place."
      },
      "geometry": {
        "type": "Point",
        "coordinates": [
          -90.22,
          32.27
        ]
      }
    },
    {
      "type": "Feature",
      "id": "iem-lsr-JAN-106",
      "properties": {
        "report_id": "iem-lsr-JAN-106",
        "report_type": "TSTM WND DMG",
        "event_category": "thunderstorm_wind",
        "valid_utc": "202605231926",
        "standard_time_display": "2026-05-23 13:26 CST",
        "wfo": "JAN",
        "county_or_zone": "Madison",
        "city": "3 E Ridgeland",
        "state": "MS",
        "magnitude": null,
        "magnitude_units": null,
        "source": "Broadcast Media",
        "event_narrative": "Utility pole and lines downed across Post Rd near Overlook Pointe."
      },
      "geometry": {
        "type": "Point",
        "coordinates": [
          -90.08,
          32.43
        ]
      }
    },
    {
      "type": "Feature",
      "id": "iem-lsr-JAN-107",
      "properties": {
        "report_id": "iem-lsr-JAN-107",
        "report_type": "TSTM WND DMG",
        "event_category": "thunderstorm_wind",
        "valid_utc": "202605231949",
        "standard_time_display": "2026-05-23 13:49 CST",
        "wfo": "JAN",
        "county_or_zone": "Madison",
        "city": "1 WSW Ratliff Ferry",
        "state": "MS",
        "magnitude": null,
        "magnitude_units": null,
        "source": "Broadcast Media",
        "event_narrative": "A tree fell across the Natchez Trace Parkway near mile marker 123."
      },
      "geometry": {
        "type": "Point",
        "coordinates": [
          -89.86,
          32.59
        ]
      }
    },
    {
      "type": "Feature",
      "id": "iem-lsr-JAN-108",
      "properties": {
        "report_id": "iem-lsr-JAN-108",
        "report_type": "FLASH FLOOD",
        "event_category": "flooding",
        "valid_utc": "202605232000",
        "standard_time_display": "2026-05-23 14:00 CST",
        "wfo": "JAN",
        "county_or_zone": "Ashley",
        "city": "Mist",
        "state": "AR",
        "magnitude": null,
        "magnitude_units": null,
        "source": "Emergency Mngr",
        "event_narrative": "Ashley County EM reports flooding on Hwy 82 near the intersection with County Road 120 in the community of Mist."
      },
      "geometry": {
        "type": "Point",
        "coordinates": [
          -91.69,
          33.27
        ]
      }
    },
    {
      "type": "Feature",
      "id": "iem-lsr-JAN-109",
      "properties": {
        "report_id": "iem-lsr-JAN-109",
        "report_type": "TSTM WND DMG",
        "event_category": "thunderstorm_wind",
        "valid_utc": "202605232008",
        "standard_time_display": "2026-05-23 14:08 CST",
        "wfo": "JAN",
        "county_or_zone": "Yazoo",
        "city": "1 WSW Pickens",
        "state": "MS",
        "magnitude": null,
        "magnitude_units": null,
        "source": "Dept of Highways",
        "event_narrative": "Tree downed on MS Hwy 432 near Vaughan Rd."
      },
      "geometry": {
        "type": "Point",
        "coordinates": [
          -89.98,
          32.88
        ]
      }
    },
    {
      "type": "Feature",
      "id": "iem-lsr-JAN-110",
      "properties": {
        "report_id": "iem-lsr-JAN-110",
        "report_type": "FLASH FLOOD",
        "event_category": "flooding",
        "valid_utc": "202605252030",
        "standard_time_display": "2026-05-25 14:30 CST",
        "wfo": "JAN",
        "county_or_zone": "Forrest",
        "city": "1 ENE Petal",
        "state": "MS",
        "magnitude": null,
        "magnitude_units": null,
        "source": "Emergency Mngr",
        "event_narrative": "*** 1 FATAL *** A vehicle was swept into a creek near the Walmart at Byrd Parkway and Evelyn Gandy Parkway. The driver was unable to exit the vehicle and drowned. 1 fatality_ female_ age unknown."
      },
      "geometry": {
        "type": "Point",
        "coordinates": [
          -89.23,
          31.35
        ]
      }
    },
    {
      "type": "Feature",
      "id": "iem-lsr-JAN-111",
      "properties": {
        "report_id": "iem-lsr-JAN-111",
        "report_type": "FLASH FLOOD",
        "event_category": "flooding",
        "valid_utc": "202605252040",
        "standard_time_display": "2026-05-25 14:40 CST",
        "wfo": "JAN",
        "county_or_zone": "Forrest",
        "city": "5 SE Petal",
        "state": "MS",
        "magnitude": null,
        "magnitude_units": null,
        "source": "Broadcast Media",
        "event_narrative": "The 200 block of McGilvary Road was flooded over."
      },
      "geometry": {
        "type": "Point",
        "coordinates": [
          -89.18,
          31.29
        ]
      }
    },
    {
      "type": "Feature",
      "id": "iem-lsr-JAN-112",
      "properties": {
        "report_id": "iem-lsr-JAN-112",
        "report_type": "HAIL",
        "event_category": "hail",
        "valid_utc": "202605261932",
        "standard_time_display": "2026-05-26 13:32 CST",
        "wfo": "JAN",
        "county_or_zone": "Jones",
        "city": "3 SSE Calhoun",
        "state": "MS",
        "magnitude": 0.75,
        "magnitude_units": null,
        "source": "Public",
        "event_narrative": "Dime to penny sized hail."
      },
      "geometry": {
        "type": "Point",
        "coordinates": [
          -89.19,
          31.66
        ]
      }
    },
    {
      "type": "Feature",
      "id": "iem-lsr-JAN-113",
      "properties": {
        "report_id": "iem-lsr-JAN-113",
        "report_type": "FLASH FLOOD",
        "event_category": "flooding",
        "valid_utc": "202605281740",
        "standard_time_display": "2026-05-28 11:40 CST",
        "wfo": "JAN",
        "county_or_zone": "Franklin",
        "city": "1 NNW Winnsboro",
        "state": "LA",
        "magnitude": null,
        "magnitude_units": null,
        "source": "Local Official",
        "event_narrative": "Several roads were flooded in Winnsboro_ including Fair Ave_ Power St_ Kinloch St_ and Lowry St."
      },
      "geometry": {
        "type": "Point",
        "coordinates": [
          -91.72,
          32.17
        ]
      }
    }
  ]
}