{
  "type": "FeatureCollection",
  "metadata": {
    "schema_version": "0.2.4",
    "year": 2026,
    "month": 8,
    "wfo": "HFO",
    "start_utc": "2026-08-01T00:00:00Z",
    "end_utc": "2026-09-01T00:00:00Z",
    "generated_utc": "2026-09-03T13:35:09Z",
    "mode": "storm_data_prep",
    "public_release_status": "public-source-derived",
    "time_note": "Storm Data entry times should be reviewed in local Standard Time (ST), not daylight time. Candidate reports include standard_time_display.",
    "tornado_track_policy": "Tornado tracks must come from DAT. NCEI begin/end coordinates are not used as a tornado track substitute.",
    "source": "https://mesonet.agron.iastate.edu/cgi-bin/request/gis/lsr.py?wfo=HFO&sts=2026-08-01T00%3A00%3A00Z&ets=2026-09-01T00%3A00%3A00Z&fmt=csv"
  },
  "features": [
    {
      "type": "Feature",
      "id": "iem-lsr-HFO-1",
      "properties": {
        "report_id": "iem-lsr-HFO-1",
        "report_type": "TROPICAL CYCLONE",
        "event_category": "other",
        "valid_utc": "202608150706",
        "standard_time_display": "2026-08-14 21:06 HST",
        "wfo": "HFO",
        "county_or_zone": "Hawaii",
        "city": "4 NNE Mountain View",
        "state": "HI",
        "magnitude": null,
        "magnitude_units": null,
        "source": "Emergency Mngr",
        "event_narrative": "Tree fell on house."
      },
      "geometry": {
        "type": "Point",
        "coordinates": [
          -155.12,
          19.57
        ]
      }
    },
    {
      "type": "Feature",
      "id": "iem-lsr-HFO-2",
      "properties": {
        "report_id": "iem-lsr-HFO-2",
        "report_type": "NON-TSTM WND GST",
        "event_category": "thunderstorm_wind",
        "valid_utc": "202608151350",
        "standard_time_display": "2026-08-15 03:50 HST",
        "wfo": "HFO",
        "county_or_zone": "Maui",
        "city": "1 NW Ukumehame Beach Pa",
        "state": "HI",
        "magnitude": 65.0,
        "magnitude_units": null,
        "source": "Mesonet",
        "event_narrative": "Mesonet station 030HE Meco Ukumehame Gulch."
      },
      "geometry": {
        "type": "Point",
        "coordinates": [
          -156.59,
          20.81
        ]
      }
    },
    {
      "type": "Feature",
      "id": "iem-lsr-HFO-3",
      "properties": {
        "report_id": "iem-lsr-HFO-3",
        "report_type": "NON-TSTM WND GST",
        "event_category": "thunderstorm_wind",
        "valid_utc": "202608151710",
        "standard_time_display": "2026-08-15 07:10 HST",
        "wfo": "HFO",
        "county_or_zone": "Maui",
        "city": "6 N Kaupo",
        "state": "HI",
        "magnitude": 65.0,
        "magnitude_units": null,
        "source": "Mesonet",
        "event_narrative": "Mesonet station 043HI Pohaku Palaha."
      },
      "geometry": {
        "type": "Point",
        "coordinates": [
          -156.14,
          20.73
        ]
      }
    },
    {
      "type": "Feature",
      "id": "iem-lsr-HFO-4",
      "properties": {
        "report_id": "iem-lsr-HFO-4",
        "report_type": "NON-TSTM WND GST",
        "event_category": "thunderstorm_wind",
        "valid_utc": "202608151710",
        "standard_time_display": "2026-08-15 07:10 HST",
        "wfo": "HFO",
        "county_or_zone": "Hawaii",
        "city": "5 ENE Kawaihae",
        "state": "HI",
        "magnitude": 69.0,
        "magnitude_units": null,
        "source": "Mesonet",
        "event_narrative": "Mesonet station 062HI Puuloa."
      },
      "geometry": {
        "type": "Point",
        "coordinates": [
          -155.75,
          20.06
        ]
      }
    },
    {
      "type": "Feature",
      "id": "iem-lsr-HFO-5",
      "properties": {
        "report_id": "iem-lsr-HFO-5",
        "report_type": "NON-TSTM WND GST",
        "event_category": "thunderstorm_wind",
        "valid_utc": "202608151720",
        "standard_time_display": "2026-08-15 07:20 HST",
        "wfo": "HFO",
        "county_or_zone": "Hawaii",
        "city": "5 ENE Kawaihae",
        "state": "HI",
        "magnitude": 65.0,
        "magnitude_units": null,
        "source": "Mesonet",
        "event_narrative": "Mesonet station 056HE Helco Kohala Mountain Rd."
      },
      "geometry": {
        "type": "Point",
        "coordinates": [
          -155.76,
          20.08
        ]
      }
    },
    {
      "type": "Feature",
      "id": "iem-lsr-HFO-6",
      "properties": {
        "report_id": "iem-lsr-HFO-6",
        "report_type": "NON-TSTM WND GST",
        "event_category": "thunderstorm_wind",
        "valid_utc": "202608151730",
        "standard_time_display": "2026-08-15 07:30 HST",
        "wfo": "HFO",
        "county_or_zone": "Maui",
        "city": "2 WNW Maalaea",
        "state": "HI",
        "magnitude": 68.0,
        "magnitude_units": null,
        "source": "Mesonet",
        "event_narrative": "Mesonet station 001HE Meco Kealaloloa Ridge."
      },
      "geometry": {
        "type": "Point",
        "coordinates": [
          -156.54,
          20.8
        ]
      }
    },
    {
      "type": "Feature",
      "id": "iem-lsr-HFO-7",
      "properties": {
        "report_id": "iem-lsr-HFO-7",
        "report_type": "NON-TSTM WND GST",
        "event_category": "thunderstorm_wind",
        "valid_utc": "202608151735",
        "standard_time_display": "2026-08-15 07:35 HST",
        "wfo": "HFO",
        "county_or_zone": "Hawaii",
        "city": "3 N Kawaihae",
        "state": "HI",
        "magnitude": 64.0,
        "magnitude_units": null,
        "source": "Mesonet",
        "event_narrative": "Mesonet station KHRH1 Kohala Ranch."
      },
      "geometry": {
        "type": "Point",
        "coordinates": [
          -155.83,
          20.09
        ]
      }
    },
    {
      "type": "Feature",
      "id": "iem-lsr-HFO-8",
      "properties": {
        "report_id": "iem-lsr-HFO-8",
        "report_type": "NON-TSTM WND GST",
        "event_category": "thunderstorm_wind",
        "valid_utc": "202608151740",
        "standard_time_display": "2026-08-15 07:40 HST",
        "wfo": "HFO",
        "county_or_zone": "Hawaii",
        "city": "5 W Kamuela",
        "state": "HI",
        "magnitude": 64.0,
        "magnitude_units": null,
        "source": "Mesonet",
        "event_narrative": "Mesonet station 036HE Helco Kawaihae Rd."
      },
      "geometry": {
        "type": "Point",
        "coordinates": [
          -155.71,
          20.03
        ]
      }
    },
    {
      "type": "Feature",
      "id": "iem-lsr-HFO-9",
      "properties": {
        "report_id": "iem-lsr-HFO-9",
        "report_type": "NON-TSTM WND GST",
        "event_category": "thunderstorm_wind",
        "valid_utc": "202608151740",
        "standard_time_display": "2026-08-15 07:40 HST",
        "wfo": "HFO",
        "county_or_zone": "Hawaii",
        "city": "6 ESE Kawaihae",
        "state": "HI",
        "magnitude": 70.0,
        "magnitude_units": null,
        "source": "Mesonet",
        "event_narrative": "Mesonet station 114HE Hawaii 202602."
      },
      "geometry": {
        "type": "Point",
        "coordinates": [
          -155.75,
          20.02
        ]
      }
    },
    {
      "type": "Feature",
      "id": "iem-lsr-HFO-10",
      "properties": {
        "report_id": "iem-lsr-HFO-10",
        "report_type": "NON-TSTM WND GST",
        "event_category": "thunderstorm_wind",
        "valid_utc": "202608151747",
        "standard_time_display": "2026-08-15 07:47 HST",
        "wfo": "HFO",
        "county_or_zone": "Maui",
        "city": "1 NNE Olowalu",
        "state": "HI",
        "magnitude": 74.0,
        "magnitude_units": null,
        "source": "Mesonet",
        "event_narrative": "Mesonet station TT908 Olowalu 1."
      },
      "geometry": {
        "type": "Point",
        "coordinates": [
          -156.62,
          20.83
        ]
      }
    },
    {
      "type": "Feature",
      "id": "iem-lsr-HFO-11",
      "properties": {
        "report_id": "iem-lsr-HFO-11",
        "report_type": "NON-TSTM WND GST",
        "event_category": "thunderstorm_wind",
        "valid_utc": "202608151800",
        "standard_time_display": "2026-08-15 08:00 HST",
        "wfo": "HFO",
        "county_or_zone": "Hawaii",
        "city": "7 NNE Mauna Kea Summit",
        "state": "HI",
        "magnitude": 61.0,
        "magnitude_units": null,
        "source": "Mesonet",
        "event_narrative": "Mesonet station PMLH1 Puu Mali."
      },
      "geometry": {
        "type": "Point",
        "coordinates": [
          -155.42,
          19.92
        ]
      }
    },
    {
      "type": "Feature",
      "id": "iem-lsr-HFO-12",
      "properties": {
        "report_id": "iem-lsr-HFO-12",
        "report_type": "TROPICAL CYCLONE",
        "event_category": "other",
        "valid_utc": "202608151800",
        "standard_time_display": "2026-08-15 08:00 HST",
        "wfo": "HFO",
        "county_or_zone": "Hawaii",
        "city": "3 S Hawi",
        "state": "HI",
        "magnitude": null,
        "magnitude_units": null,
        "source": "Emergency Mngr",
        "event_narrative": "Hwy 250 (Kohala Mountain Road) is closed due to numerous downed trees."
      },
      "geometry": {
        "type": "Point",
        "coordinates": [
          -155.84,
          20.2
        ]
      }
    },
    {
      "type": "Feature",
      "id": "iem-lsr-HFO-13",
      "properties": {
        "report_id": "iem-lsr-HFO-13",
        "report_type": "NON-TSTM WND GST",
        "event_category": "thunderstorm_wind",
        "valid_utc": "202608151815",
        "standard_time_display": "2026-08-15 08:15 HST",
        "wfo": "HFO",
        "county_or_zone": "Hawaii",
        "city": "5 ENE Kawaihae",
        "state": "HI",
        "magnitude": 64.0,
        "magnitude_units": null,
        "source": "Mesonet",
        "event_narrative": "Mesonet station 062HI Puuloa."
      },
      "geometry": {
        "type": "Point",
        "coordinates": [
          -155.75,
          20.06
        ]
      }
    },
    {
      "type": "Feature",
      "id": "iem-lsr-HFO-14",
      "properties": {
        "report_id": "iem-lsr-HFO-14",
        "report_type": "NON-TSTM WND GST",
        "event_category": "thunderstorm_wind",
        "valid_utc": "202608151820",
        "standard_time_display": "2026-08-15 08:20 HST",
        "wfo": "HFO",
        "county_or_zone": "Hawaii",
        "city": "6 ESE Kawaihae",
        "state": "HI",
        "magnitude": 72.0,
        "magnitude_units": null,
        "source": "Mesonet",
        "event_narrative": "Mesonet station 114HE Hawaii 202602."
      },
      "geometry": {
        "type": "Point",
        "coordinates": [
          -155.75,
          20.02
        ]
      }
    },
    {
      "type": "Feature",
      "id": "iem-lsr-HFO-15",
      "properties": {
        "report_id": "iem-lsr-HFO-15",
        "report_type": "NON-TSTM WND GST",
        "event_category": "thunderstorm_wind",
        "valid_utc": "202608151820",
        "standard_time_display": "2026-08-15 08:20 HST",
        "wfo": "HFO",
        "county_or_zone": "Maui",
        "city": "2 WNW Maalaea",
        "state": "HI",
        "magnitude": 75.0,
        "magnitude_units": null,
        "source": "Mesonet",
        "event_narrative": "Mesonet station 001HE Meco Kealaloloa Ridge."
      },
      "geometry": {
        "type": "Point",
        "coordinates": [
          -156.54,
          20.8
        ]
      }
    },
    {
      "type": "Feature",
      "id": "iem-lsr-HFO-16",
      "properties": {
        "report_id": "iem-lsr-HFO-16",
        "report_type": "NON-TSTM WND GST",
        "event_category": "thunderstorm_wind",
        "valid_utc": "202608151824",
        "standard_time_display": "2026-08-15 08:24 HST",
        "wfo": "HFO",
        "county_or_zone": "Maui",
        "city": "17 WNW Kaunakakai",
        "state": "HI",
        "magnitude": 60.0,
        "magnitude_units": null,
        "source": "Mesonet",
        "event_narrative": "Mesonet station TT917 Ilio 1."
      },
      "geometry": {
        "type": "Point",
        "coordinates": [
          -157.25,
          21.22
        ]
      }
    },
    {
      "type": "Feature",
      "id": "iem-lsr-HFO-17",
      "properties": {
        "report_id": "iem-lsr-HFO-17",
        "report_type": "NON-TSTM WND GST",
        "event_category": "thunderstorm_wind",
        "valid_utc": "202608151825",
        "standard_time_display": "2026-08-15 08:25 HST",
        "wfo": "HFO",
        "county_or_zone": "Maui",
        "city": "7 ESE Kaunakakai",
        "state": "HI",
        "magnitude": 63.0,
        "magnitude_units": null,
        "source": "Mesonet",
        "event_narrative": "Mesonet station TT918 Mokolelau 1."
      },
      "geometry": {
        "type": "Point",
        "coordinates": [
          -156.92,
          21.07
        ]
      }
    },
    {
      "type": "Feature",
      "id": "iem-lsr-HFO-18",
      "properties": {
        "report_id": "iem-lsr-HFO-18",
        "report_type": "NON-TSTM WND GST",
        "event_category": "thunderstorm_wind",
        "valid_utc": "202608151830",
        "standard_time_display": "2026-08-15 08:30 HST",
        "wfo": "HFO",
        "county_or_zone": "Maui",
        "city": "1 NW Ukumehame Beach Pa",
        "state": "HI",
        "magnitude": 63.0,
        "magnitude_units": null,
        "source": "Mesonet",
        "event_narrative": "Mesonet station 030HE Meco Ukumehame Gulch."
      },
      "geometry": {
        "type": "Point",
        "coordinates": [
          -156.59,
          20.81
        ]
      }
    },
    {
      "type": "Feature",
      "id": "iem-lsr-HFO-19",
      "properties": {
        "report_id": "iem-lsr-HFO-19",
        "report_type": "NON-TSTM WND GST",
        "event_category": "thunderstorm_wind",
        "valid_utc": "202608151830",
        "standard_time_display": "2026-08-15 08:30 HST",
        "wfo": "HFO",
        "county_or_zone": "Hawaii",
        "city": "5 ENE Kawaihae",
        "state": "HI",
        "magnitude": 66.0,
        "magnitude_units": null,
        "source": "Mesonet",
        "event_narrative": "Mesonet station 056HE Helco Kohala Mountain Rd."
      },
      "geometry": {
        "type": "Point",
        "coordinates": [
          -155.76,
          20.08
        ]
      }
    },
    {
      "type": "Feature",
      "id": "iem-lsr-HFO-20",
      "properties": {
        "report_id": "iem-lsr-HFO-20",
        "report_type": "NON-TSTM WND GST",
        "event_category": "thunderstorm_wind",
        "valid_utc": "202608151835",
        "standard_time_display": "2026-08-15 08:35 HST",
        "wfo": "HFO",
        "county_or_zone": "Maui",
        "city": "5 SE Kula",
        "state": "HI",
        "magnitude": 68.0,
        "magnitude_units": null,
        "source": "Mesonet",
        "event_narrative": "Mesonet station DVI08828 Kula."
      },
      "geometry": {
        "type": "Point",
        "coordinates": [
          -156.27,
          20.7
        ]
      }
    },
    {
      "type": "Feature",
      "id": "iem-lsr-HFO-21",
      "properties": {
        "report_id": "iem-lsr-HFO-21",
        "report_type": "NON-TSTM WND GST",
        "event_category": "thunderstorm_wind",
        "valid_utc": "202608151930",
        "standard_time_display": "2026-08-15 09:30 HST",
        "wfo": "HFO",
        "county_or_zone": "Maui",
        "city": "1 NW Ukumehame Beach Pa",
        "state": "HI",
        "magnitude": 71.0,
        "magnitude_units": null,
        "source": "Mesonet",
        "event_narrative": "Mesonet station 030HE Meco Ukumehame Gulch."
      },
      "geometry": {
        "type": "Point",
        "coordinates": [
          -156.59,
          20.81
        ]
      }
    },
    {
      "type": "Feature",
      "id": "iem-lsr-HFO-22",
      "properties": {
        "report_id": "iem-lsr-HFO-22",
        "report_type": "NON-TSTM WND GST",
        "event_category": "thunderstorm_wind",
        "valid_utc": "202608151947",
        "standard_time_display": "2026-08-15 09:47 HST",
        "wfo": "HFO",
        "county_or_zone": "Maui",
        "city": "2 WNW Maalaea",
        "state": "HI",
        "magnitude": 71.0,
        "magnitude_units": null,
        "source": "Mesonet",
        "event_narrative": "Mesonet station TT907 Hanaula 1."
      },
      "geometry": {
        "type": "Point",
        "coordinates": [
          -156.54,
          20.81
        ]
      }
    },
    {
      "type": "Feature",
      "id": "iem-lsr-HFO-23",
      "properties": {
        "report_id": "iem-lsr-HFO-23",
        "report_type": "NON-TSTM WND GST",
        "event_category": "thunderstorm_wind",
        "valid_utc": "202608151950",
        "standard_time_display": "2026-08-15 09:50 HST",
        "wfo": "HFO",
        "county_or_zone": "Hawaii",
        "city": "6 ESE Kawaihae",
        "state": "HI",
        "magnitude": 78.0,
        "magnitude_units": null,
        "source": "Mesonet",
        "event_narrative": "Mesonet station 114HE Hawaii 202602."
      },
      "geometry": {
        "type": "Point",
        "coordinates": [
          -155.75,
          20.02
        ]
      }
    },
    {
      "type": "Feature",
      "id": "iem-lsr-HFO-24",
      "properties": {
        "report_id": "iem-lsr-HFO-24",
        "report_type": "TROPICAL CYCLONE",
        "event_category": "other",
        "valid_utc": "202608151953",
        "standard_time_display": "2026-08-15 09:53 HST",
        "wfo": "HFO",
        "county_or_zone": "Hawaii",
        "city": "2 SSE Mahukona",
        "state": "HI",
        "magnitude": null,
        "magnitude_units": null,
        "source": "Emergency Mngr",
        "event_narrative": "Akoni Pule Highway closed in both directions due to downed tree blocking both lanes."
      },
      "geometry": {
        "type": "Point",
        "coordinates": [
          -155.89,
          20.16
        ]
      }
    },
    {
      "type": "Feature",
      "id": "iem-lsr-HFO-25",
      "properties": {
        "report_id": "iem-lsr-HFO-25",
        "report_type": "NON-TSTM WND GST",
        "event_category": "thunderstorm_wind",
        "valid_utc": "202608152000",
        "standard_time_display": "2026-08-15 10:00 HST",
        "wfo": "HFO",
        "county_or_zone": "Hawaii",
        "city": "5 ENE Kawaihae",
        "state": "HI",
        "magnitude": 73.0,
        "magnitude_units": null,
        "source": "Mesonet",
        "event_narrative": "Mesonet station 062HI Puuloa."
      },
      "geometry": {
        "type": "Point",
        "coordinates": [
          -155.75,
          20.06
        ]
      }
    },
    {
      "type": "Feature",
      "id": "iem-lsr-HFO-26",
      "properties": {
        "report_id": "iem-lsr-HFO-26",
        "report_type": "NON-TSTM WND GST",
        "event_category": "thunderstorm_wind",
        "valid_utc": "202608152020",
        "standard_time_display": "2026-08-15 10:20 HST",
        "wfo": "HFO",
        "county_or_zone": "Hawaii",
        "city": "5 W Kamuela",
        "state": "HI",
        "magnitude": 71.0,
        "magnitude_units": null,
        "source": "Mesonet",
        "event_narrative": "Mesonet station 036HE Helco Kawaihae Rd."
      },
      "geometry": {
        "type": "Point",
        "coordinates": [
          -155.71,
          20.03
        ]
      }
    },
    {
      "type": "Feature",
      "id": "iem-lsr-HFO-27",
      "properties": {
        "report_id": "iem-lsr-HFO-27",
        "report_type": "TROPICAL CYCLONE",
        "event_category": "other",
        "valid_utc": "202608152020",
        "standard_time_display": "2026-08-15 10:20 HST",
        "wfo": "HFO",
        "county_or_zone": "Maui",
        "city": "1 ESE Pukalani",
        "state": "HI",
        "magnitude": null,
        "magnitude_units": null,
        "source": "Broadcast Media",
        "event_narrative": "KHON reports two lanes blocked at MM2 along Haleakala Hwy Rte. 377 mauka of King Kekaulike High School after a tree fell on a car. Time is estimated."
      },
      "geometry": {
        "type": "Point",
        "coordinates": [
          -156.32,
          20.83
        ]
      }
    },
    {
      "type": "Feature",
      "id": "iem-lsr-HFO-28",
      "properties": {
        "report_id": "iem-lsr-HFO-28",
        "report_type": "LANDSLIDE",
        "event_category": "other",
        "valid_utc": "202608152020",
        "standard_time_display": "2026-08-15 10:20 HST",
        "wfo": "HFO",
        "county_or_zone": "Hawaii",
        "city": "2 SE Ookala",
        "state": "HI",
        "magnitude": null,
        "magnitude_units": null,
        "source": "Broadcast Media",
        "event_narrative": "KHON reports landslide is blocking one lane at mile markers 28 and 29 on Hawaii Belt Road Rte. 19. Both lanes at mile markers 26 and 27 are blocked due to large rocks. Time is estimated."
      },
      "geometry": {
        "type": "Point",
        "coordinates": [
          -155.26,
          20.0
        ]
      }
    },
    {
      "type": "Feature",
      "id": "iem-lsr-HFO-29",
      "properties": {
        "report_id": "iem-lsr-HFO-29",
        "report_type": "NON-TSTM WND GST",
        "event_category": "thunderstorm_wind",
        "valid_utc": "202608152025",
        "standard_time_display": "2026-08-15 10:25 HST",
        "wfo": "HFO",
        "county_or_zone": "Hawaii",
        "city": "3 SSE Puuanahulu",
        "state": "HI",
        "magnitude": 70.0,
        "magnitude_units": null,
        "source": "Mesonet",
        "event_narrative": "Mesonet station 034HI Kaiaulu Puu Waawaa."
      },
      "geometry": {
        "type": "Point",
        "coordinates": [
          -155.83,
          19.77
        ]
      }
    },
    {
      "type": "Feature",
      "id": "iem-lsr-HFO-30",
      "properties": {
        "report_id": "iem-lsr-HFO-30",
        "report_type": "FLASH FLOOD",
        "event_category": "flooding",
        "valid_utc": "202608152036",
        "standard_time_display": "2026-08-15 10:36 HST",
        "wfo": "HFO",
        "county_or_zone": "Hawaii",
        "city": "4 SW Hawaiian Paradise",
        "state": "HI",
        "magnitude": null,
        "magnitude_units": null,
        "source": "Emergency Mngr",
        "event_narrative": "39th Ave closed in both directions due to flooding water crossing the road."
      },
      "geometry": {
        "type": "Point",
        "coordinates": [
          -155.02,
          19.56
        ]
      }
    },
    {
      "type": "Feature",
      "id": "iem-lsr-HFO-31",
      "properties": {
        "report_id": "iem-lsr-HFO-31",
        "report_type": "FLASH FLOOD",
        "event_category": "flooding",
        "valid_utc": "202608152037",
        "standard_time_display": "2026-08-15 10:37 HST",
        "wfo": "HFO",
        "county_or_zone": "Hawaii",
        "city": "4 SW Hawaiian Paradise",
        "state": "HI",
        "magnitude": null,
        "magnitude_units": null,
        "source": "Emergency Mngr",
        "event_narrative": "40th Ave closed due to flooding water crossing the road."
      },
      "geometry": {
        "type": "Point",
        "coordinates": [
          -155.02,
          19.55
        ]
      }
    },
    {
      "type": "Feature",
      "id": "iem-lsr-HFO-32",
      "properties": {
        "report_id": "iem-lsr-HFO-32",
        "report_type": "NON-TSTM WND GST",
        "event_category": "thunderstorm_wind",
        "valid_utc": "202608152045",
        "standard_time_display": "2026-08-15 10:45 HST",
        "wfo": "HFO",
        "county_or_zone": "Hawaii",
        "city": "7 NNE Holualoa",
        "state": "HI",
        "magnitude": 78.0,
        "magnitude_units": null,
        "source": "Mesonet",
        "event_narrative": "Mesonet station GW1708 KONA."
      },
      "geometry": {
        "type": "Point",
        "coordinates": [
          -155.91,
          19.72
        ]
      }
    },
    {
      "type": "Feature",
      "id": "iem-lsr-HFO-33",
      "properties": {
        "report_id": "iem-lsr-HFO-33",
        "report_type": "NON-TSTM WND GST",
        "event_category": "thunderstorm_wind",
        "valid_utc": "202608152120",
        "standard_time_display": "2026-08-15 11:20 HST",
        "wfo": "HFO",
        "county_or_zone": "Hawaii",
        "city": "5 ENE Kawaihae",
        "state": "HI",
        "magnitude": 81.0,
        "magnitude_units": null,
        "source": "Mesonet",
        "event_narrative": "Mesonet station 056HE Helco Kohala Mountain Rd."
      },
      "geometry": {
        "type": "Point",
        "coordinates": [
          -155.76,
          20.08
        ]
      }
    },
    {
      "type": "Feature",
      "id": "iem-lsr-HFO-34",
      "properties": {
        "report_id": "iem-lsr-HFO-34",
        "report_type": "FLASH FLOOD",
        "event_category": "flooding",
        "valid_utc": "202608152126",
        "standard_time_display": "2026-08-15 11:26 HST",
        "wfo": "HFO",
        "county_or_zone": "Hawaii",
        "city": "4 NE Mountain View",
        "state": "HI",
        "magnitude": null,
        "magnitude_units": null,
        "source": "Emergency Mngr",
        "event_narrative": "North Kulani Road closed due to flooding water crossing the road."
      },
      "geometry": {
        "type": "Point",
        "coordinates": [
          -155.1,
          19.56
        ]
      }
    },
    {
      "type": "Feature",
      "id": "iem-lsr-HFO-35",
      "properties": {
        "report_id": "iem-lsr-HFO-35",
        "report_type": "TROPICAL CYCLONE",
        "event_category": "other",
        "valid_utc": "202608152130",
        "standard_time_display": "2026-08-15 11:30 HST",
        "wfo": "HFO",
        "county_or_zone": "Honolulu",
        "city": "Waialae",
        "state": "HI",
        "magnitude": null,
        "magnitude_units": null,
        "source": "Emergency Mngr",
        "event_narrative": "Several reports of roof damage across Honolulu (Punchbowl_ Aiea_ Kapahulu_ Aina Haina_ Kaimuki_ Kalihi_ Makiki). Events occurred generally between 11am and noon."
      },
      "geometry": {
        "type": "Point",
        "coordinates": [
          -157.8,
          21.28
        ]
      }
    },
    {
      "type": "Feature",
      "id": "iem-lsr-HFO-36",
      "properties": {
        "report_id": "iem-lsr-HFO-36",
        "report_type": "NON-TSTM WND GST",
        "event_category": "thunderstorm_wind",
        "valid_utc": "202608152131",
        "standard_time_display": "2026-08-15 11:31 HST",
        "wfo": "HFO",
        "county_or_zone": "Hawaii",
        "city": "Mauna Kea Summit",
        "state": "HI",
        "magnitude": 127.0,
        "magnitude_units": null,
        "source": "Mesonet",
        "event_narrative": "CFHT/GEM sensor on Maunakea Summit."
      },
      "geometry": {
        "type": "Point",
        "coordinates": [
          -155.47,
          19.81
        ]
      }
    },
    {
      "type": "Feature",
      "id": "iem-lsr-HFO-37",
      "properties": {
        "report_id": "iem-lsr-HFO-37",
        "report_type": "LANDSLIDE",
        "event_category": "other",
        "valid_utc": "202608152131",
        "standard_time_display": "2026-08-15 11:31 HST",
        "wfo": "HFO",
        "county_or_zone": "Hawaii",
        "city": "1 SSW Kawa Flats",
        "state": "HI",
        "magnitude": null,
        "magnitude_units": null,
        "source": "Public",
        "event_narrative": "Mamalahoa Highway Route 11 is closed in both directions between mile marker 62 and 67 due to large rocks on the roadway."
      },
      "geometry": {
        "type": "Point",
        "coordinates": [
          -155.54,
          19.11
        ]
      }
    },
    {
      "type": "Feature",
      "id": "iem-lsr-HFO-38",
      "properties": {
        "report_id": "iem-lsr-HFO-38",
        "report_type": "NON-TSTM WND GST",
        "event_category": "thunderstorm_wind",
        "valid_utc": "202608152135",
        "standard_time_display": "2026-08-15 11:35 HST",
        "wfo": "HFO",
        "county_or_zone": "Maui",
        "city": "5 SE Kula",
        "state": "HI",
        "magnitude": 81.0,
        "magnitude_units": null,
        "source": "Mesonet",
        "event_narrative": "Mesonet station DVI08828 Kula."
      },
      "geometry": {
        "type": "Point",
        "coordinates": [
          -156.27,
          20.7
        ]
      }
    },
    {
      "type": "Feature",
      "id": "iem-lsr-HFO-39",
      "properties": {
        "report_id": "iem-lsr-HFO-39",
        "report_type": "FLASH FLOOD",
        "event_category": "flooding",
        "valid_utc": "202608152142",
        "standard_time_display": "2026-08-15 11:42 HST",
        "wfo": "HFO",
        "county_or_zone": "Hawaii",
        "city": "3 W Naalehu",
        "state": "HI",
        "magnitude": null,
        "magnitude_units": null,
        "source": "Emergency Mngr",
        "event_narrative": "Hao Springs Road closed in both directions due to water crossing roadway."
      },
      "geometry": {
        "type": "Point",
        "coordinates": [
          -155.62,
          19.07
        ]
      }
    },
    {
      "type": "Feature",
      "id": "iem-lsr-HFO-40",
      "properties": {
        "report_id": "iem-lsr-HFO-40",
        "report_type": "TROPICAL CYCLONE",
        "event_category": "other",
        "valid_utc": "202608152144",
        "standard_time_display": "2026-08-15 11:44 HST",
        "wfo": "HFO",
        "county_or_zone": "Hawaii",
        "city": "2 ENE Hawaiian Beaches",
        "state": "HI",
        "magnitude": null,
        "magnitude_units": null,
        "source": "Emergency Mngr",
        "event_narrative": "Government Beach Road closed in both directions due to downed trees."
      },
      "geometry": {
        "type": "Point",
        "coordinates": [
          -154.88,
          19.56
        ]
      }
    },
    {
      "type": "Feature",
      "id": "iem-lsr-HFO-41",
      "properties": {
        "report_id": "iem-lsr-HFO-41",
        "report_type": "FLASH FLOOD",
        "event_category": "flooding",
        "valid_utc": "202608152205",
        "standard_time_display": "2026-08-15 12:05 HST",
        "wfo": "HFO",
        "county_or_zone": "Maui",
        "city": "2 ESE Makawao",
        "state": "HI",
        "magnitude": null,
        "magnitude_units": null,
        "source": "Emergency Mngr",
        "event_narrative": "Piiholo Road closed from 798 Piiholo Road to Waiahiwi."
      },
      "geometry": {
        "type": "Point",
        "coordinates": [
          -156.29,
          20.84
        ]
      }
    },
    {
      "type": "Feature",
      "id": "iem-lsr-HFO-42",
      "properties": {
        "report_id": "iem-lsr-HFO-42",
        "report_type": "FLASH FLOOD",
        "event_category": "flooding",
        "valid_utc": "202608152206",
        "standard_time_display": "2026-08-15 12:06 HST",
        "wfo": "HFO",
        "county_or_zone": "Hawaii",
        "city": "2 ESE Hilo",
        "state": "HI",
        "magnitude": null,
        "magnitude_units": null,
        "source": "Emergency Mngr",
        "event_narrative": "E Kawailani St closed due to water crossing the roadway."
      },
      "geometry": {
        "type": "Point",
        "coordinates": [
          -155.06,
          19.69
        ]
      }
    },
    {
      "type": "Feature",
      "id": "iem-lsr-HFO-43",
      "properties": {
        "report_id": "iem-lsr-HFO-43",
        "report_type": "NON-TSTM WND GST",
        "event_category": "thunderstorm_wind",
        "valid_utc": "202608152214",
        "standard_time_display": "2026-08-15 12:14 HST",
        "wfo": "HFO",
        "county_or_zone": "Hawaii",
        "city": "Mauna Kea Summit",
        "state": "HI",
        "magnitude": 140.0,
        "magnitude_units": null,
        "source": "Public",
        "event_narrative": "CFHT/GEM station on Maunakea Summit."
      },
      "geometry": {
        "type": "Point",
        "coordinates": [
          -155.47,
          19.81
        ]
      }
    },
    {
      "type": "Feature",
      "id": "iem-lsr-HFO-44",
      "properties": {
        "report_id": "iem-lsr-HFO-44",
        "report_type": "NON-TSTM WND GST",
        "event_category": "thunderstorm_wind",
        "valid_utc": "202608152215",
        "standard_time_display": "2026-08-15 12:15 HST",
        "wfo": "HFO",
        "county_or_zone": "Maui",
        "city": "5 SE Kula",
        "state": "HI",
        "magnitude": 88.0,
        "magnitude_units": null,
        "source": "Mesonet",
        "event_narrative": "Mesonet station DVI08828 Kula."
      },
      "geometry": {
        "type": "Point",
        "coordinates": [
          -156.27,
          20.7
        ]
      }
    },
    {
      "type": "Feature",
      "id": "iem-lsr-HFO-45",
      "properties": {
        "report_id": "iem-lsr-HFO-45",
        "report_type": "TROPICAL CYCLONE",
        "event_category": "other",
        "valid_utc": "202608152217",
        "standard_time_display": "2026-08-15 12:17 HST",
        "wfo": "HFO",
        "county_or_zone": "Hawaii",
        "city": "3 NE Kamuela",
        "state": "HI",
        "magnitude": null,
        "magnitude_units": null,
        "source": "Emergency Mngr",
        "event_narrative": "Mud Lane closed in both directions due to downed trees."
      },
      "geometry": {
        "type": "Point",
        "coordinates": [
          -155.6,
          20.04
        ]
      }
    },
    {
      "type": "Feature",
      "id": "iem-lsr-HFO-46",
      "properties": {
        "report_id": "iem-lsr-HFO-46",
        "report_type": "NON-TSTM WND GST",
        "event_category": "thunderstorm_wind",
        "valid_utc": "202608152225",
        "standard_time_display": "2026-08-15 12:25 HST",
        "wfo": "HFO",
        "county_or_zone": "Maui",
        "city": "7 ESE Kaunakakai",
        "state": "HI",
        "magnitude": 77.0,
        "magnitude_units": null,
        "source": "Mesonet",
        "event_narrative": "Mesonet station TT918 Mokolelau 1."
      },
      "geometry": {
        "type": "Point",
        "coordinates": [
          -156.92,
          21.07
        ]
      }
    },
    {
      "type": "Feature",
      "id": "iem-lsr-HFO-47",
      "properties": {
        "report_id": "iem-lsr-HFO-47",
        "report_type": "TROPICAL CYCLONE",
        "event_category": "other",
        "valid_utc": "202608152239",
        "standard_time_display": "2026-08-15 12:39 HST",
        "wfo": "HFO",
        "county_or_zone": "Hawaii",
        "city": "1 SSE Hawi",
        "state": "HI",
        "magnitude": null,
        "magnitude_units": null,
        "source": "Emergency Mngr",
        "event_narrative": "Kaauhuhu Road closed in both directions due to downed trees and power lines."
      },
      "geometry": {
        "type": "Point",
        "coordinates": [
          -155.83,
          20.22
        ]
      }
    },
    {
      "type": "Feature",
      "id": "iem-lsr-HFO-48",
      "properties": {
        "report_id": "iem-lsr-HFO-48",
        "report_type": "NON-TSTM WND GST",
        "event_category": "thunderstorm_wind",
        "valid_utc": "202608152240",
        "standard_time_display": "2026-08-15 12:40 HST",
        "wfo": "HFO",
        "county_or_zone": "Hawaii",
        "city": "6 ESE Kawaihae",
        "state": "HI",
        "magnitude": 78.0,
        "magnitude_units": null,
        "source": "Mesonet",
        "event_narrative": "Mesonet station 114HE Hawaii 202602."
      },
      "geometry": {
        "type": "Point",
        "coordinates": [
          -155.75,
          20.02
        ]
      }
    },
    {
      "type": "Feature",
      "id": "iem-lsr-HFO-49",
      "properties": {
        "report_id": "iem-lsr-HFO-49",
        "report_type": "TROPICAL CYCLONE",
        "event_category": "other",
        "valid_utc": "202608152247",
        "standard_time_display": "2026-08-15 12:47 HST",
        "wfo": "HFO",
        "county_or_zone": "Hawaii",
        "city": "1 SE Paauilo",
        "state": "HI",
        "magnitude": null,
        "magnitude_units": null,
        "source": "Emergency Mngr",
        "event_narrative": "Mamalahoa Highway closed in both directions due to powerlines down on roadway."
      },
      "geometry": {
        "type": "Point",
        "coordinates": [
          -155.37,
          20.04
        ]
      }
    },
    {
      "type": "Feature",
      "id": "iem-lsr-HFO-50",
      "properties": {
        "report_id": "iem-lsr-HFO-50",
        "report_type": "NON-TSTM WND GST",
        "event_category": "thunderstorm_wind",
        "valid_utc": "202608152248",
        "standard_time_display": "2026-08-15 12:48 HST",
        "wfo": "HFO",
        "county_or_zone": "Maui",
        "city": "1 E Lahaina",
        "state": "HI",
        "magnitude": 77.0,
        "magnitude_units": null,
        "source": "Mesonet",
        "event_narrative": "Mesonet station TT912 Lahainaluna 1."
      },
      "geometry": {
        "type": "Point",
        "coordinates": [
          -156.65,
          20.89
        ]
      }
    },
    {
      "type": "Feature",
      "id": "iem-lsr-HFO-51",
      "properties": {
        "report_id": "iem-lsr-HFO-51",
        "report_type": "TROPICAL CYCLONE",
        "event_category": "other",
        "valid_utc": "202608152255",
        "standard_time_display": "2026-08-15 12:55 HST",
        "wfo": "HFO",
        "county_or_zone": "Hawaii",
        "city": "6 W Naalehu",
        "state": "HI",
        "magnitude": null,
        "magnitude_units": null,
        "source": "Emergency Mngr",
        "event_narrative": "Mamalahoa Highway closed in both directions due to downed tree at mile marker 70."
      },
      "geometry": {
        "type": "Point",
        "coordinates": [
          -155.67,
          19.06
        ]
      }
    },
    {
      "type": "Feature",
      "id": "iem-lsr-HFO-52",
      "properties": {
        "report_id": "iem-lsr-HFO-52",
        "report_type": "TROPICAL CYCLONE",
        "event_category": "other",
        "valid_utc": "202608152256",
        "standard_time_display": "2026-08-15 12:56 HST",
        "wfo": "HFO",
        "county_or_zone": "Hawaii",
        "city": "4 ESE Hawaiian Ocean Vi",
        "state": "HI",
        "magnitude": null,
        "magnitude_units": null,
        "source": "Emergency Mngr",
        "event_narrative": "Mamalahoa Highway closed at mile marker 73-74 due to a downed telephone pole."
      },
      "geometry": {
        "type": "Point",
        "coordinates": [
          -155.72,
          19.07
        ]
      }
    },
    {
      "type": "Feature",
      "id": "iem-lsr-HFO-53",
      "properties": {
        "report_id": "iem-lsr-HFO-53",
        "report_type": "TROPICAL CYCLONE",
        "event_category": "other",
        "valid_utc": "202608152356",
        "standard_time_display": "2026-08-15 13:56 HST",
        "wfo": "HFO",
        "county_or_zone": "Hawaii",
        "city": "4 S Kapoho",
        "state": "HI",
        "magnitude": null,
        "magnitude_units": null,
        "source": "Emergency Mngr",
        "event_narrative": "Tree down blocking both lanes of Kalapana Kapoho Beach Road."
      },
      "geometry": {
        "type": "Point",
        "coordinates": [
          -154.85,
          19.45
        ]
      }
    },
    {
      "type": "Feature",
      "id": "iem-lsr-HFO-54",
      "properties": {
        "report_id": "iem-lsr-HFO-54",
        "report_type": "TROPICAL CYCLONE",
        "event_category": "other",
        "valid_utc": "202608160000",
        "standard_time_display": "2026-08-15 14:00 HST",
        "wfo": "HFO",
        "county_or_zone": "Hawaii",
        "city": "3 NE Mountain View",
        "state": "HI",
        "magnitude": null,
        "magnitude_units": null,
        "source": "Emergency Mngr",
        "event_narrative": "Volcano Road closed in both directions due to downed trees blocking both lanes."
      },
      "geometry": {
        "type": "Point",
        "coordinates": [
          -155.11,
          19.55
        ]
      }
    },
    {
      "type": "Feature",
      "id": "iem-lsr-HFO-55",
      "properties": {
        "report_id": "iem-lsr-HFO-55",
        "report_type": "NON-TSTM WND GST",
        "event_category": "thunderstorm_wind",
        "valid_utc": "202608160025",
        "standard_time_display": "2026-08-15 14:25 HST",
        "wfo": "HFO",
        "county_or_zone": "Maui",
        "city": "7 ESE Kaunakakai",
        "state": "HI",
        "magnitude": 82.0,
        "magnitude_units": null,
        "source": "Mesonet",
        "event_narrative": "Mesonet station TT918 Mokolelau 1."
      },
      "geometry": {
        "type": "Point",
        "coordinates": [
          -156.92,
          21.07
        ]
      }
    },
    {
      "type": "Feature",
      "id": "iem-lsr-HFO-56",
      "properties": {
        "report_id": "iem-lsr-HFO-56",
        "report_type": "FLASH FLOOD",
        "event_category": "flooding",
        "valid_utc": "202608160120",
        "standard_time_display": "2026-08-15 15:20 HST",
        "wfo": "HFO",
        "county_or_zone": "Hawaii",
        "city": "1 SE Mountain View",
        "state": "HI",
        "magnitude": null,
        "magnitude_units": null,
        "source": "Emergency Mngr",
        "event_narrative": "Mauna Loa Drive closed in both directions due to water crossing the roadway."
      },
      "geometry": {
        "type": "Point",
        "coordinates": [
          -155.14,
          19.51
        ]
      }
    },
    {
      "type": "Feature",
      "id": "iem-lsr-HFO-57",
      "properties": {
        "report_id": "iem-lsr-HFO-57",
        "report_type": "TROPICAL CYCLONE",
        "event_category": "other",
        "valid_utc": "202608160125",
        "standard_time_display": "2026-08-15 15:25 HST",
        "wfo": "HFO",
        "county_or_zone": "Hawaii",
        "city": "4 ESE Hilo",
        "state": "HI",
        "magnitude": null,
        "magnitude_units": null,
        "source": "Emergency Mngr",
        "event_narrative": "Elama Road closed in both directions due to downed trees."
      },
      "geometry": {
        "type": "Point",
        "coordinates": [
          -155.04,
          19.67
        ]
      }
    },
    {
      "type": "Feature",
      "id": "iem-lsr-HFO-58",
      "properties": {
        "report_id": "iem-lsr-HFO-58",
        "report_type": "NON-TSTM WND GST",
        "event_category": "thunderstorm_wind",
        "valid_utc": "202608160136",
        "standard_time_display": "2026-08-15 15:36 HST",
        "wfo": "HFO",
        "county_or_zone": "Honolulu",
        "city": "5 N Waimalu",
        "state": "HI",
        "magnitude": 74.0,
        "magnitude_units": null,
        "source": "Mesonet",
        "event_narrative": "Mesonet station OFRH1 Oahu Forest NWR (USFWS)."
      },
      "geometry": {
        "type": "Point",
        "coordinates": [
          -157.94,
          21.48
        ]
      }
    },
    {
      "type": "Feature",
      "id": "iem-lsr-HFO-59",
      "properties": {
        "report_id": "iem-lsr-HFO-59",
        "report_type": "NON-TSTM WND GST",
        "event_category": "thunderstorm_wind",
        "valid_utc": "202608160141",
        "standard_time_display": "2026-08-15 15:41 HST",
        "wfo": "HFO",
        "county_or_zone": "PHZ118",
        "city": "6 WSW Ulupalakua",
        "state": "HI",
        "magnitude": 83.0,
        "magnitude_units": null,
        "source": "Mesonet",
        "event_narrative": "Mesonet station XMOL Molokini Light."
      },
      "geometry": {
        "type": "Point",
        "coordinates": [
          -156.5,
          20.63
        ]
      }
    },
    {
      "type": "Feature",
      "id": "iem-lsr-HFO-60",
      "properties": {
        "report_id": "iem-lsr-HFO-60",
        "report_type": "FLASH FLOOD",
        "event_category": "flooding",
        "valid_utc": "202608160149",
        "standard_time_display": "2026-08-15 15:49 HST",
        "wfo": "HFO",
        "county_or_zone": "Hawaii",
        "city": "2 WSW Naalehu",
        "state": "HI",
        "magnitude": null,
        "magnitude_units": null,
        "source": "Emergency Mngr",
        "event_narrative": "Highway 11 closed in both directions between mile marker 65 and 66 due to flooding and hazardous conditions."
      },
      "geometry": {
        "type": "Point",
        "coordinates": [
          -155.6,
          19.06
        ]
      }
    },
    {
      "type": "Feature",
      "id": "iem-lsr-HFO-61",
      "properties": {
        "report_id": "iem-lsr-HFO-61",
        "report_type": "NON-TSTM WND GST",
        "event_category": "thunderstorm_wind",
        "valid_utc": "202608160150",
        "standard_time_display": "2026-08-15 15:50 HST",
        "wfo": "HFO",
        "county_or_zone": "Hawaii",
        "city": "2 NNW Kawaihae",
        "state": "HI",
        "magnitude": 83.0,
        "magnitude_units": null,
        "source": "Mesonet",
        "event_narrative": "Mesonet station 013HE Helco Ala Kahua Dr."
      },
      "geometry": {
        "type": "Point",
        "coordinates": [
          -155.84,
          20.08
        ]
      }
    },
    {
      "type": "Feature",
      "id": "iem-lsr-HFO-62",
      "properties": {
        "report_id": "iem-lsr-HFO-62",
        "report_type": "NON-TSTM WND GST",
        "event_category": "thunderstorm_wind",
        "valid_utc": "202608160152",
        "standard_time_display": "2026-08-15 15:52 HST",
        "wfo": "HFO",
        "county_or_zone": "Honolulu",
        "city": "2 NNW Aina Haina",
        "state": "HI",
        "magnitude": 69.0,
        "magnitude_units": null,
        "source": "Mesonet",
        "event_narrative": "Mesonet station TS605 Wiliwilinui."
      },
      "geometry": {
        "type": "Point",
        "coordinates": [
          -157.76,
          21.31
        ]
      }
    },
    {
      "type": "Feature",
      "id": "iem-lsr-HFO-63",
      "properties": {
        "report_id": "iem-lsr-HFO-63",
        "report_type": "FLASH FLOOD",
        "event_category": "flooding",
        "valid_utc": "202608160745",
        "standard_time_display": "2026-08-15 21:45 HST",
        "wfo": "HFO",
        "county_or_zone": "Hawaii",
        "city": "1 SSW Naalehu",
        "state": "HI",
        "magnitude": null,
        "magnitude_units": null,
        "source": "Law Enforcement",
        "event_narrative": "Corrects previous flash flood report from 1 SSW Naalehu. Law enforcement reported two homes swept away by flooding in Naalehu. UPDATED: One house was moved into nearby vegetation and its occupant res"
      },
      "geometry": {
        "type": "Point",
        "coordinates": [
          -155.58,
          19.06
        ]
      }
    },
    {
      "type": "Feature",
      "id": "iem-lsr-HFO-64",
      "properties": {
        "report_id": "iem-lsr-HFO-64",
        "report_type": "FLASH FLOOD",
        "event_category": "flooding",
        "valid_utc": "202608160745",
        "standard_time_display": "2026-08-15 21:45 HST",
        "wfo": "HFO",
        "county_or_zone": "Hawaii",
        "city": "1 SSW Naalehu",
        "state": "HI",
        "magnitude": null,
        "magnitude_units": null,
        "source": "Law Enforcement",
        "event_narrative": "Law enforcement reported two homes swept away by flooding in Naalehu."
      },
      "geometry": {
        "type": "Point",
        "coordinates": [
          -155.58,
          19.06
        ]
      }
    },
    {
      "type": "Feature",
      "id": "iem-lsr-HFO-65",
      "properties": {
        "report_id": "iem-lsr-HFO-65",
        "report_type": "TROPICAL CYCLONE",
        "event_category": "other",
        "valid_utc": "202608160800",
        "standard_time_display": "2026-08-15 22:00 HST",
        "wfo": "HFO",
        "county_or_zone": "Maui",
        "city": "5 E Kula",
        "state": "HI",
        "magnitude": null,
        "magnitude_units": null,
        "source": "Park/Forest Srvc",
        "event_narrative": "Multiple trees are down blocking the only access road to the park. Staff inside the park are trapped_ but are safe and have adequate resources. wind speed readings by Law Enforcement Rangers using ha"
      },
      "geometry": {
        "type": "Point",
        "coordinates": [
          -156.25,
          20.76
        ]
      }
    },
    {
      "type": "Feature",
      "id": "iem-lsr-HFO-66",
      "properties": {
        "report_id": "iem-lsr-HFO-66",
        "report_type": "FLASH FLOOD",
        "event_category": "flooding",
        "valid_utc": "202608161515",
        "standard_time_display": "2026-08-16 05:15 HST",
        "wfo": "HFO",
        "county_or_zone": "Honolulu",
        "city": "1 NW Moilili",
        "state": "HI",
        "magnitude": null,
        "magnitude_units": null,
        "source": "Dept of Highways",
        "event_narrative": "H1 closed at Punahou due to flooding. Road was reopened as of 7 am HST."
      },
      "geometry": {
        "type": "Point",
        "coordinates": [
          -157.83,
          21.3
        ]
      }
    },
    {
      "type": "Feature",
      "id": "iem-lsr-HFO-67",
      "properties": {
        "report_id": "iem-lsr-HFO-67",
        "report_type": "TROPICAL CYCLONE",
        "event_category": "other",
        "valid_utc": "202608161715",
        "standard_time_display": "2026-08-16 07:15 HST",
        "wfo": "HFO",
        "county_or_zone": "Honolulu",
        "city": "1 ESE Ahuimanu",
        "state": "HI",
        "magnitude": null,
        "magnitude_units": null,
        "source": "Dept of Highways",
        "event_narrative": "Department of Transportation reported Kahekili Highway closed in both directions at Hui Iwa Street due to a downed tree."
      },
      "geometry": {
        "type": "Point",
        "coordinates": [
          -157.83,
          21.44
        ]
      }
    },
    {
      "type": "Feature",
      "id": "iem-lsr-HFO-68",
      "properties": {
        "report_id": "iem-lsr-HFO-68",
        "report_type": "FLASH FLOOD",
        "event_category": "flooding",
        "valid_utc": "202608161730",
        "standard_time_display": "2026-08-16 07:30 HST",
        "wfo": "HFO",
        "county_or_zone": "Maui",
        "city": "2 NNW Kihei",
        "state": "HI",
        "magnitude": null,
        "magnitude_units": null,
        "source": "Dept of Highways",
        "event_narrative": "Maui Department of Transportation reported North Kihei Road closed at South Kihei Road due to flooding."
      },
      "geometry": {
        "type": "Point",
        "coordinates": [
          -156.46,
          20.78
        ]
      }
    },
    {
      "type": "Feature",
      "id": "iem-lsr-HFO-69",
      "properties": {
        "report_id": "iem-lsr-HFO-69",
        "report_type": "FLASH FLOOD",
        "event_category": "flooding",
        "valid_utc": "202608162350",
        "standard_time_display": "2026-08-16 13:50 HST",
        "wfo": "HFO",
        "county_or_zone": "Maui",
        "city": "1 ENE Kipahulu",
        "state": "HI",
        "magnitude": null,
        "magnitude_units": null,
        "source": "Park/Forest Srvc",
        "event_narrative": "Haleakala NP rangers were not able to get between Kipahulu and Hana on the Hana Highway because of water over the road blocking the way."
      },
      "geometry": {
        "type": "Point",
        "coordinates": [
          -156.04,
          20.66
        ]
      }
    },
    {
      "type": "Feature",
      "id": "iem-lsr-HFO-70",
      "properties": {
        "report_id": "iem-lsr-HFO-70",
        "report_type": "FLASH FLOOD",
        "event_category": "flooding",
        "valid_utc": "202608170016",
        "standard_time_display": "2026-08-16 14:16 HST",
        "wfo": "HFO",
        "county_or_zone": "Kauai",
        "city": "Haena",
        "state": "HI",
        "magnitude": null,
        "magnitude_units": null,
        "source": "Emergency Mngr",
        "event_narrative": "Kuhio Highway is flooded and impassable at Haena Beach Park due to Manoa Stream flowing over the road."
      },
      "geometry": {
        "type": "Point",
        "coordinates": [
          -159.57,
          22.22
        ]
      }
    },
    {
      "type": "Feature",
      "id": "iem-lsr-HFO-71",
      "properties": {
        "report_id": "iem-lsr-HFO-71",
        "report_type": "FLASH FLOOD",
        "event_category": "flooding",
        "valid_utc": "202608170030",
        "standard_time_display": "2026-08-16 14:30 HST",
        "wfo": "HFO",
        "county_or_zone": "Kauai",
        "city": "Wainiha",
        "state": "HI",
        "magnitude": null,
        "magnitude_units": null,
        "source": "Emergency Mngr",
        "event_narrative": "Flooding closed the roadway near the intersection of Wainiha Powerhouse Road and Kuhio Highway."
      },
      "geometry": {
        "type": "Point",
        "coordinates": [
          -159.54,
          22.21
        ]
      }
    },
    {
      "type": "Feature",
      "id": "iem-lsr-HFO-72",
      "properties": {
        "report_id": "iem-lsr-HFO-72",
        "report_type": "TROPICAL CYCLONE",
        "event_category": "other",
        "valid_utc": "202608170040",
        "standard_time_display": "2026-08-16 14:40 HST",
        "wfo": "HFO",
        "county_or_zone": "Hawaii",
        "city": "Mauna Kea Summit",
        "state": "HI",
        "magnitude": null,
        "magnitude_units": null,
        "source": "Local Official",
        "event_narrative": "Several trees down above Mana Rd blocking the road. Trees have since been cleared. The summit remains without power. A large landslide is blocking all access to the summit."
      },
      "geometry": {
        "type": "Point",
        "coordinates": [
          -155.47,
          19.82
        ]
      }
    },
    {
      "type": "Feature",
      "id": "iem-lsr-HFO-73",
      "properties": {
        "report_id": "iem-lsr-HFO-73",
        "report_type": "TROPICAL CYCLONE",
        "event_category": "other",
        "valid_utc": "202608170047",
        "standard_time_display": "2026-08-16 14:47 HST",
        "wfo": "HFO",
        "county_or_zone": "Honolulu",
        "city": "1 ENE Kalihi",
        "state": "HI",
        "magnitude": null,
        "magnitude_units": null,
        "source": "Public",
        "event_narrative": "Large tree fell on home on Houghtailing St across from Damien Memorial School."
      },
      "geometry": {
        "type": "Point",
        "coordinates": [
          -157.87,
          21.33
        ]
      }
    }
  ]
}