{
  "type": "FeatureCollection",
  "metadata": {
    "schema_version": "0.2.4",
    "year": 2026,
    "month": 4,
    "wfo": "GGW",
    "start_utc": "2026-04-01T00:00:00Z",
    "end_utc": "2026-05-01T00:00:00Z",
    "generated_utc": "2026-06-10T12:39:31Z",
    "mode": "storm_data_prep",
    "public_release_status": "public-source-derived",
    "time_note": "Storm Data entry times should be reviewed in local Standard Time (ST), not daylight time. Candidate reports include standard_time_display.",
    "tornado_track_policy": "Tornado tracks must come from DAT. NCEI begin/end coordinates are not used as a tornado track substitute.",
    "source": "https://mesonet.agron.iastate.edu/cgi-bin/request/gis/lsr.py?wfo=GGW&sts=2026-04-01T00%3A00%3A00Z&ets=2026-05-01T00%3A00%3A00Z&fmt=csv"
  },
  "features": [
    {
      "type": "Feature",
      "id": "iem-lsr-GGW-1",
      "properties": {
        "report_id": "iem-lsr-GGW-1",
        "report_type": "NON-TSTM WND GST",
        "event_category": "thunderstorm_wind",
        "valid_utc": "202604072245",
        "standard_time_display": "2026-04-07 15:45 MST",
        "wfo": "GGW",
        "county_or_zone": "Phillips",
        "city": "10 ESE Zortman",
        "state": "MT",
        "magnitude": 63.0,
        "magnitude_units": null,
        "source": "Mesonet",
        "event_narrative": "BLM Zortman E_ MT (MT-MESO - GGW)."
      },
      "geometry": {
        "type": "Point",
        "coordinates": [
          -108.32,
          47.89
        ]
      }
    },
    {
      "type": "Feature",
      "id": "iem-lsr-GGW-2",
      "properties": {
        "report_id": "iem-lsr-GGW-2",
        "report_type": "NON-TSTM WND GST",
        "event_category": "thunderstorm_wind",
        "valid_utc": "202604072245",
        "standard_time_display": "2026-04-07 15:45 MST",
        "wfo": "GGW",
        "county_or_zone": "Phillips",
        "city": "10 ESE Zortman",
        "state": "MT",
        "magnitude": 63.0,
        "magnitude_units": null,
        "source": "Mesonet",
        "event_narrative": "Mesonet station MTM38 Blm Zortman E."
      },
      "geometry": {
        "type": "Point",
        "coordinates": [
          -108.32,
          47.89
        ]
      }
    },
    {
      "type": "Feature",
      "id": "iem-lsr-GGW-3",
      "properties": {
        "report_id": "iem-lsr-GGW-3",
        "report_type": "NON-TSTM WND GST",
        "event_category": "thunderstorm_wind",
        "valid_utc": "202604072300",
        "standard_time_display": "2026-04-07 16:00 MST",
        "wfo": "GGW",
        "county_or_zone": "Petroleum",
        "city": "1 NNW Winnett",
        "state": "MT",
        "magnitude": 59.0,
        "magnitude_units": null,
        "source": "Mesonet",
        "event_narrative": "Mesonet station MTWIN Winnett Mt-200 Mp 136.0."
      },
      "geometry": {
        "type": "Point",
        "coordinates": [
          -108.36,
          47.01
        ]
      }
    },
    {
      "type": "Feature",
      "id": "iem-lsr-GGW-4",
      "properties": {
        "report_id": "iem-lsr-GGW-4",
        "report_type": "NON-TSTM WND GST",
        "event_category": "thunderstorm_wind",
        "valid_utc": "202604072315",
        "standard_time_display": "2026-04-07 16:15 MST",
        "wfo": "GGW",
        "county_or_zone": "Phillips",
        "city": "11 ENE Zortman",
        "state": "MT",
        "magnitude": 63.0,
        "magnitude_units": null,
        "source": "Mesonet",
        "event_narrative": "52 mph sustained_ Mesonet station MTMAL 11.3 SW Phillips (MT DOT)."
      },
      "geometry": {
        "type": "Point",
        "coordinates": [
          -108.31,
          47.96
        ]
      }
    },
    {
      "type": "Feature",
      "id": "iem-lsr-GGW-5",
      "properties": {
        "report_id": "iem-lsr-GGW-5",
        "report_type": "NON-TSTM WND GST",
        "event_category": "thunderstorm_wind",
        "valid_utc": "202604072317",
        "standard_time_display": "2026-04-07 16:17 MST",
        "wfo": "GGW",
        "county_or_zone": "Valley",
        "city": "2 NNE Glasgow",
        "state": "MT",
        "magnitude": 62.0,
        "magnitude_units": null,
        "source": "ASOS",
        "event_narrative": "ASOS station KGGW Glasgow Airport (ASOS)."
      },
      "geometry": {
        "type": "Point",
        "coordinates": [
          -106.62,
          48.22
        ]
      }
    },
    {
      "type": "Feature",
      "id": "iem-lsr-GGW-6",
      "properties": {
        "report_id": "iem-lsr-GGW-6",
        "report_type": "NON-TSTM WND GST",
        "event_category": "thunderstorm_wind",
        "valid_utc": "202604072330",
        "standard_time_display": "2026-04-07 16:30 MST",
        "wfo": "GGW",
        "county_or_zone": "Phillips",
        "city": "11 ENE Zortman",
        "state": "MT",
        "magnitude": 65.0,
        "magnitude_units": null,
        "source": "Mesonet",
        "event_narrative": "Malta South US-191 MP 122.5_ MT (MT DOT - GGW)."
      },
      "geometry": {
        "type": "Point",
        "coordinates": [
          -108.31,
          47.96
        ]
      }
    },
    {
      "type": "Feature",
      "id": "iem-lsr-GGW-7",
      "properties": {
        "report_id": "iem-lsr-GGW-7",
        "report_type": "NON-TSTM WND GST",
        "event_category": "thunderstorm_wind",
        "valid_utc": "202604072335",
        "standard_time_display": "2026-04-07 16:35 MST",
        "wfo": "GGW",
        "county_or_zone": "Phillips",
        "city": "9 E Zortman",
        "state": "MT",
        "magnitude": 59.0,
        "magnitude_units": null,
        "source": "Mesonet",
        "event_narrative": "Mesonet station MTRM8 (Matador Ranch)."
      },
      "geometry": {
        "type": "Point",
        "coordinates": [
          -108.34,
          47.93
        ]
      }
    },
    {
      "type": "Feature",
      "id": "iem-lsr-GGW-8",
      "properties": {
        "report_id": "iem-lsr-GGW-8",
        "report_type": "NON-TSTM WND GST",
        "event_category": "thunderstorm_wind",
        "valid_utc": "202604072340",
        "standard_time_display": "2026-04-07 16:40 MST",
        "wfo": "GGW",
        "county_or_zone": "Petroleum",
        "city": "7 SE Tiegen",
        "state": "MT",
        "magnitude": 58.0,
        "magnitude_units": null,
        "source": "Mesonet",
        "event_narrative": "Mesonet station WIEM8 (Winnett SW)."
      },
      "geometry": {
        "type": "Point",
        "coordinates": [
          -108.5,
          46.97
        ]
      }
    },
    {
      "type": "Feature",
      "id": "iem-lsr-GGW-9",
      "properties": {
        "report_id": "iem-lsr-GGW-9",
        "report_type": "NON-TSTM WND GST",
        "event_category": "thunderstorm_wind",
        "valid_utc": "202604072344",
        "standard_time_display": "2026-04-07 16:44 MST",
        "wfo": "GGW",
        "county_or_zone": "Valley",
        "city": "14 NNW Hell Creek Rec A",
        "state": "MT",
        "magnitude": 60.0,
        "magnitude_units": null,
        "source": "Mesonet",
        "event_narrative": "Mesonet station KIGM8 King Coulee."
      },
      "geometry": {
        "type": "Point",
        "coordinates": [
          -107.02,
          47.8
        ]
      }
    },
    {
      "type": "Feature",
      "id": "iem-lsr-GGW-10",
      "properties": {
        "report_id": "iem-lsr-GGW-10",
        "report_type": "NON-TSTM WND GST",
        "event_category": "thunderstorm_wind",
        "valid_utc": "202604080000",
        "standard_time_display": "2026-04-07 17:00 MST",
        "wfo": "GGW",
        "county_or_zone": "Petroleum",
        "city": "15 S Mosby",
        "state": "MT",
        "magnitude": 58.0,
        "magnitude_units": null,
        "source": "Mesonet",
        "event_narrative": "Mesonet station MOYM8 (Mosby S)."
      },
      "geometry": {
        "type": "Point",
        "coordinates": [
          -107.92,
          46.78
        ]
      }
    },
    {
      "type": "Feature",
      "id": "iem-lsr-GGW-11",
      "properties": {
        "report_id": "iem-lsr-GGW-11",
        "report_type": "NON-TSTM WND GST",
        "event_category": "thunderstorm_wind",
        "valid_utc": "202604080005",
        "standard_time_display": "2026-04-07 17:05 MST",
        "wfo": "GGW",
        "county_or_zone": "Phillips",
        "city": "9 E Zortman",
        "state": "MT",
        "magnitude": 62.0,
        "magnitude_units": null,
        "source": "Mesonet",
        "event_narrative": "Matador Ranch_ MT (UMRB-UMT - GGW)."
      },
      "geometry": {
        "type": "Point",
        "coordinates": [
          -108.34,
          47.93
        ]
      }
    },
    {
      "type": "Feature",
      "id": "iem-lsr-GGW-12",
      "properties": {
        "report_id": "iem-lsr-GGW-12",
        "report_type": "NON-TSTM WND GST",
        "event_category": "thunderstorm_wind",
        "valid_utc": "202604080014",
        "standard_time_display": "2026-04-07 17:14 MST",
        "wfo": "GGW",
        "county_or_zone": "Garfield",
        "city": "2 WNW Jordan",
        "state": "MT",
        "magnitude": 59.0,
        "magnitude_units": null,
        "source": "ASOS",
        "event_narrative": "ASOS station KJDN Jordan."
      },
      "geometry": {
        "type": "Point",
        "coordinates": [
          -106.95,
          47.33
        ]
      }
    },
    {
      "type": "Feature",
      "id": "iem-lsr-GGW-13",
      "properties": {
        "report_id": "iem-lsr-GGW-13",
        "report_type": "NON-TSTM WND GST",
        "event_category": "thunderstorm_wind",
        "valid_utc": "202604080015",
        "standard_time_display": "2026-04-07 17:15 MST",
        "wfo": "GGW",
        "county_or_zone": "McCone",
        "city": "13 NNE Nelson Creek Rec",
        "state": "MT",
        "magnitude": 62.0,
        "magnitude_units": null,
        "source": "Mesonet",
        "event_narrative": "Fort Peck S surface observation station."
      },
      "geometry": {
        "type": "Point",
        "coordinates": [
          -106.15,
          47.74
        ]
      }
    },
    {
      "type": "Feature",
      "id": "iem-lsr-GGW-14",
      "properties": {
        "report_id": "iem-lsr-GGW-14",
        "report_type": "NON-TSTM WND GST",
        "event_category": "thunderstorm_wind",
        "valid_utc": "202604080015",
        "standard_time_display": "2026-04-07 17:15 MST",
        "wfo": "GGW",
        "county_or_zone": "McCone",
        "city": "13 NNE Nelson Creek Rec",
        "state": "MT",
        "magnitude": 62.0,
        "magnitude_units": null,
        "source": "Mesonet",
        "event_narrative": "Mesonet station MTM87 Fort Peck S."
      },
      "geometry": {
        "type": "Point",
        "coordinates": [
          -106.15,
          47.74
        ]
      }
    },
    {
      "type": "Feature",
      "id": "iem-lsr-GGW-15",
      "properties": {
        "report_id": "iem-lsr-GGW-15",
        "report_type": "NON-TSTM WND GST",
        "event_category": "thunderstorm_wind",
        "valid_utc": "202604080015",
        "standard_time_display": "2026-04-07 17:15 MST",
        "wfo": "GGW",
        "county_or_zone": "McCone",
        "city": "14 NNE Weldon",
        "state": "MT",
        "magnitude": 69.0,
        "magnitude_units": null,
        "source": "Mesonet",
        "event_narrative": "Mesonet station VDWM8 (Vida W)."
      },
      "geometry": {
        "type": "Point",
        "coordinates": [
          -105.79,
          47.8
        ]
      }
    },
    {
      "type": "Feature",
      "id": "iem-lsr-GGW-16",
      "properties": {
        "report_id": "iem-lsr-GGW-16",
        "report_type": "NON-TSTM WND GST",
        "event_category": "thunderstorm_wind",
        "valid_utc": "202604080015",
        "standard_time_display": "2026-04-07 17:15 MST",
        "wfo": "GGW",
        "county_or_zone": "McCone",
        "city": "14 NNE Weldon",
        "state": "MT",
        "magnitude": 69.0,
        "magnitude_units": null,
        "source": "Mesonet",
        "event_narrative": "Vida W surface observation station."
      },
      "geometry": {
        "type": "Point",
        "coordinates": [
          -105.79,
          47.8
        ]
      }
    },
    {
      "type": "Feature",
      "id": "iem-lsr-GGW-17",
      "properties": {
        "report_id": "iem-lsr-GGW-17",
        "report_type": "NON-TSTM WND GST",
        "event_category": "thunderstorm_wind",
        "valid_utc": "202604080018",
        "standard_time_display": "2026-04-07 17:18 MST",
        "wfo": "GGW",
        "county_or_zone": "Roosevelt",
        "city": "3 ENE Wolf Point",
        "state": "MT",
        "magnitude": 58.0,
        "magnitude_units": null,
        "source": "ASOS",
        "event_narrative": "ASOS station KOLF Wolf Point Airport."
      },
      "geometry": {
        "type": "Point",
        "coordinates": [
          -105.58,
          48.1
        ]
      }
    },
    {
      "type": "Feature",
      "id": "iem-lsr-GGW-18",
      "properties": {
        "report_id": "iem-lsr-GGW-18",
        "report_type": "NON-TSTM WND GST",
        "event_category": "thunderstorm_wind",
        "valid_utc": "202604080029",
        "standard_time_display": "2026-04-07 17:29 MST",
        "wfo": "GGW",
        "county_or_zone": "Roosevelt",
        "city": "3 E Wolf Point",
        "state": "MT",
        "magnitude": 62.0,
        "magnitude_units": null,
        "source": "ASOS",
        "event_narrative": "RMK AO2 PK WND 32054/0029."
      },
      "geometry": {
        "type": "Point",
        "coordinates": [
          -105.58,
          48.09
        ]
      }
    },
    {
      "type": "Feature",
      "id": "iem-lsr-GGW-19",
      "properties": {
        "report_id": "iem-lsr-GGW-19",
        "report_type": "NON-TSTM WND GST",
        "event_category": "thunderstorm_wind",
        "valid_utc": "202604080115",
        "standard_time_display": "2026-04-07 18:15 MST",
        "wfo": "GGW",
        "county_or_zone": "Richland",
        "city": "2 E Enid",
        "state": "MT",
        "magnitude": 61.0,
        "magnitude_units": null,
        "source": "Mesonet",
        "event_narrative": "Lambert MT DOT surface observation station."
      },
      "geometry": {
        "type": "Point",
        "coordinates": [
          -104.73,
          47.7
        ]
      }
    },
    {
      "type": "Feature",
      "id": "iem-lsr-GGW-20",
      "properties": {
        "report_id": "iem-lsr-GGW-20",
        "report_type": "NON-TSTM WND GST",
        "event_category": "thunderstorm_wind",
        "valid_utc": "202604080115",
        "standard_time_display": "2026-04-07 18:15 MST",
        "wfo": "GGW",
        "county_or_zone": "Richland",
        "city": "2 E Enid",
        "state": "MT",
        "magnitude": 61.0,
        "magnitude_units": null,
        "source": "Mesonet",
        "event_narrative": "Mesonet station MTLBT Lambert Mt-200 Mp 45.0."
      },
      "geometry": {
        "type": "Point",
        "coordinates": [
          -104.73,
          47.7
        ]
      }
    },
    {
      "type": "Feature",
      "id": "iem-lsr-GGW-21",
      "properties": {
        "report_id": "iem-lsr-GGW-21",
        "report_type": "NON-TSTM WND GST",
        "event_category": "thunderstorm_wind",
        "valid_utc": "202604080116",
        "standard_time_display": "2026-04-07 18:16 MST",
        "wfo": "GGW",
        "county_or_zone": "Dawson",
        "city": "2 W Bloomfield",
        "state": "MT",
        "magnitude": 62.0,
        "magnitude_units": null,
        "source": "Mesonet",
        "event_narrative": "Station GW0525 Bloomfield."
      },
      "geometry": {
        "type": "Point",
        "coordinates": [
          -104.96,
          47.42
        ]
      }
    },
    {
      "type": "Feature",
      "id": "iem-lsr-GGW-22",
      "properties": {
        "report_id": "iem-lsr-GGW-22",
        "report_type": "NON-TSTM WND GST",
        "event_category": "thunderstorm_wind",
        "valid_utc": "202604080135",
        "standard_time_display": "2026-04-07 18:35 MST",
        "wfo": "GGW",
        "county_or_zone": "Richland",
        "city": "6 NW Sidney",
        "state": "MT",
        "magnitude": 58.0,
        "magnitude_units": null,
        "source": "Mesonet",
        "event_narrative": "Sidney_ MT (UMRB-UMT - GGW)."
      },
      "geometry": {
        "type": "Point",
        "coordinates": [
          -104.25,
          47.78
        ]
      }
    },
    {
      "type": "Feature",
      "id": "iem-lsr-GGW-23",
      "properties": {
        "report_id": "iem-lsr-GGW-23",
        "report_type": "NON-TSTM WND GST",
        "event_category": "thunderstorm_wind",
        "valid_utc": "202604080140",
        "standard_time_display": "2026-04-07 18:40 MST",
        "wfo": "GGW",
        "county_or_zone": "Richland",
        "city": "3 W Crane",
        "state": "MT",
        "magnitude": 63.0,
        "magnitude_units": null,
        "source": "Mesonet",
        "event_narrative": "Crane W_ MT (UMRB-UMT - GGW)."
      },
      "geometry": {
        "type": "Point",
        "coordinates": [
          -104.32,
          47.57
        ]
      }
    },
    {
      "type": "Feature",
      "id": "iem-lsr-GGW-24",
      "properties": {
        "report_id": "iem-lsr-GGW-24",
        "report_type": "NON-TSTM WND GST",
        "event_category": "thunderstorm_wind",
        "valid_utc": "202604080200",
        "standard_time_display": "2026-04-07 19:00 MST",
        "wfo": "GGW",
        "county_or_zone": "Dawson",
        "city": "5 E Hoyt",
        "state": "MT",
        "magnitude": 59.0,
        "magnitude_units": null,
        "source": "Mesonet",
        "event_narrative": "BLM Glendive_ MT (MT-MESO - GGW)."
      },
      "geometry": {
        "type": "Point",
        "coordinates": [
          -104.75,
          46.92
        ]
      }
    },
    {
      "type": "Feature",
      "id": "iem-lsr-GGW-25",
      "properties": {
        "report_id": "iem-lsr-GGW-25",
        "report_type": "NON-TSTM WND GST",
        "event_category": "thunderstorm_wind",
        "valid_utc": "202604080230",
        "standard_time_display": "2026-04-07 19:30 MST",
        "wfo": "GGW",
        "county_or_zone": "Dawson",
        "city": "4 NE Hodges",
        "state": "MT",
        "magnitude": 57.0,
        "magnitude_units": null,
        "source": "Mesonet",
        "event_narrative": "Beaver Hill I-94 MP 234.8_ MT (MT DOT - GGW)."
      },
      "geometry": {
        "type": "Point",
        "coordinates": [
          -104.33,
          47.02
        ]
      }
    },
    {
      "type": "Feature",
      "id": "iem-lsr-GGW-26",
      "properties": {
        "report_id": "iem-lsr-GGW-26",
        "report_type": "NON-TSTM WND GST",
        "event_category": "thunderstorm_wind",
        "valid_utc": "202604080256",
        "standard_time_display": "2026-04-07 19:56 MST",
        "wfo": "GGW",
        "county_or_zone": "Richland",
        "city": "2 WSW Sidney",
        "state": "MT",
        "magnitude": 52.0,
        "magnitude_units": null,
        "source": "AWOS",
        "event_narrative": "AWOS station KSDY Sidney Airport."
      },
      "geometry": {
        "type": "Point",
        "coordinates": [
          -104.2,
          47.7
        ]
      }
    },
    {
      "type": "Feature",
      "id": "iem-lsr-GGW-27",
      "properties": {
        "report_id": "iem-lsr-GGW-27",
        "report_type": "NON-TSTM WND GST",
        "event_category": "thunderstorm_wind",
        "valid_utc": "202604080330",
        "standard_time_display": "2026-04-07 20:30 MST",
        "wfo": "GGW",
        "county_or_zone": "Richland",
        "city": "2 SW Savage",
        "state": "MT",
        "magnitude": 60.0,
        "magnitude_units": null,
        "source": "Mesonet",
        "event_narrative": "Mesonet station MTSVG Savage Mt-16 Mp 29.5."
      },
      "geometry": {
        "type": "Point",
        "coordinates": [
          -104.37,
          47.43
        ]
      }
    },
    {
      "type": "Feature",
      "id": "iem-lsr-GGW-28",
      "properties": {
        "report_id": "iem-lsr-GGW-28",
        "report_type": "NON-TSTM WND GST",
        "event_category": "thunderstorm_wind",
        "valid_utc": "202604080330",
        "standard_time_display": "2026-04-07 20:30 MST",
        "wfo": "GGW",
        "county_or_zone": "Richland",
        "city": "2 SW Savage",
        "state": "MT",
        "magnitude": 60.0,
        "magnitude_units": null,
        "source": "Mesonet",
        "event_narrative": "Savage MT-16 MP 29.5_ MT (MT DOT - GGW)."
      },
      "geometry": {
        "type": "Point",
        "coordinates": [
          -104.37,
          47.43
        ]
      }
    },
    {
      "type": "Feature",
      "id": "iem-lsr-GGW-29",
      "properties": {
        "report_id": "iem-lsr-GGW-29",
        "report_type": "NON-TSTM WND GST",
        "event_category": "thunderstorm_wind",
        "valid_utc": "202604081126",
        "standard_time_display": "2026-04-08 04:26 MST",
        "wfo": "GGW",
        "county_or_zone": "Valley",
        "city": "1 NE Glasgow",
        "state": "MT",
        "magnitude": 58.0,
        "magnitude_units": null,
        "source": "Mesonet",
        "event_narrative": "Glasgow Airport."
      },
      "geometry": {
        "type": "Point",
        "coordinates": [
          -106.62,
          48.21
        ]
      }
    },
    {
      "type": "Feature",
      "id": "iem-lsr-GGW-30",
      "properties": {
        "report_id": "iem-lsr-GGW-30",
        "report_type": "NON-TSTM WND GST",
        "event_category": "thunderstorm_wind",
        "valid_utc": "202604081215",
        "standard_time_display": "2026-04-08 05:15 MST",
        "wfo": "GGW",
        "county_or_zone": "McCone",
        "city": "14 NNE Weldon",
        "state": "MT",
        "magnitude": 59.0,
        "magnitude_units": null,
        "source": "Mesonet",
        "event_narrative": "Vida W surface observation station."
      },
      "geometry": {
        "type": "Point",
        "coordinates": [
          -105.79,
          47.8
        ]
      }
    },
    {
      "type": "Feature",
      "id": "iem-lsr-GGW-31",
      "properties": {
        "report_id": "iem-lsr-GGW-31",
        "report_type": "NON-TSTM WND GST",
        "event_category": "thunderstorm_wind",
        "valid_utc": "202604081245",
        "standard_time_display": "2026-04-08 05:45 MST",
        "wfo": "GGW",
        "county_or_zone": "McCone",
        "city": "13 NNE Nelson Creek Rec",
        "state": "MT",
        "magnitude": 61.0,
        "magnitude_units": null,
        "source": "Mesonet",
        "event_narrative": "Fort Peck South surface observation station."
      },
      "geometry": {
        "type": "Point",
        "coordinates": [
          -106.15,
          47.74
        ]
      }
    },
    {
      "type": "Feature",
      "id": "iem-lsr-GGW-32",
      "properties": {
        "report_id": "iem-lsr-GGW-32",
        "report_type": "NON-TSTM WND GST",
        "event_category": "thunderstorm_wind",
        "valid_utc": "202604081350",
        "standard_time_display": "2026-04-08 06:50 MST",
        "wfo": "GGW",
        "county_or_zone": "McCone",
        "city": "2 E Fort Peck",
        "state": "MT",
        "magnitude": 62.0,
        "magnitude_units": null,
        "source": "Mesonet",
        "event_narrative": "Fort Peck Dam observation station."
      },
      "geometry": {
        "type": "Point",
        "coordinates": [
          -106.4,
          48.01
        ]
      }
    },
    {
      "type": "Feature",
      "id": "iem-lsr-GGW-33",
      "properties": {
        "report_id": "iem-lsr-GGW-33",
        "report_type": "NON-TSTM WND GST",
        "event_category": "thunderstorm_wind",
        "valid_utc": "202604081400",
        "standard_time_display": "2026-04-08 07:00 MST",
        "wfo": "GGW",
        "county_or_zone": "Garfield",
        "city": "5 W Van Norman",
        "state": "MT",
        "magnitude": 58.0,
        "magnitude_units": null,
        "source": "Public",
        "event_narrative": "Jordan East surface station."
      },
      "geometry": {
        "type": "Point",
        "coordinates": [
          -106.49,
          47.35
        ]
      }
    },
    {
      "type": "Feature",
      "id": "iem-lsr-GGW-34",
      "properties": {
        "report_id": "iem-lsr-GGW-34",
        "report_type": "NON-TSTM WND GST",
        "event_category": "thunderstorm_wind",
        "valid_utc": "202604081430",
        "standard_time_display": "2026-04-08 07:30 MST",
        "wfo": "GGW",
        "county_or_zone": "Prairie",
        "city": "4 NE Terry",
        "state": "MT",
        "magnitude": 61.0,
        "magnitude_units": null,
        "source": "Mesonet",
        "event_narrative": "BLM Terry station."
      },
      "geometry": {
        "type": "Point",
        "coordinates": [
          -105.26,
          46.84
        ]
      }
    },
    {
      "type": "Feature",
      "id": "iem-lsr-GGW-35",
      "properties": {
        "report_id": "iem-lsr-GGW-35",
        "report_type": "NON-TSTM WND GST",
        "event_category": "thunderstorm_wind",
        "valid_utc": "202604081515",
        "standard_time_display": "2026-04-08 08:15 MST",
        "wfo": "GGW",
        "county_or_zone": "Wibaux",
        "city": "7 W Carlyle",
        "state": "MT",
        "magnitude": 62.0,
        "magnitude_units": null,
        "source": "Mesonet",
        "event_narrative": "Ash Creek MT DOT surface station."
      },
      "geometry": {
        "type": "Point",
        "coordinates": [
          -104.23,
          46.65
        ]
      }
    },
    {
      "type": "Feature",
      "id": "iem-lsr-GGW-36",
      "properties": {
        "report_id": "iem-lsr-GGW-36",
        "report_type": "NON-TSTM WND GST",
        "event_category": "thunderstorm_wind",
        "valid_utc": "202604081530",
        "standard_time_display": "2026-04-08 08:30 MST",
        "wfo": "GGW",
        "county_or_zone": "Dawson",
        "city": "5 E Hoyt",
        "state": "MT",
        "magnitude": 66.0,
        "magnitude_units": null,
        "source": "Mesonet",
        "event_narrative": "BLM Glendive surface station."
      },
      "geometry": {
        "type": "Point",
        "coordinates": [
          -104.75,
          46.92
        ]
      }
    },
    {
      "type": "Feature",
      "id": "iem-lsr-GGW-37",
      "properties": {
        "report_id": "iem-lsr-GGW-37",
        "report_type": "NON-TSTM WND GST",
        "event_category": "thunderstorm_wind",
        "valid_utc": "202604081546",
        "standard_time_display": "2026-04-08 08:46 MST",
        "wfo": "GGW",
        "county_or_zone": "Dawson",
        "city": "2 W Bloomfield",
        "state": "MT",
        "magnitude": 61.0,
        "magnitude_units": null,
        "source": "Mesonet",
        "event_narrative": "GW0525 Bloomfield_ MT surface station."
      },
      "geometry": {
        "type": "Point",
        "coordinates": [
          -104.96,
          47.42
        ]
      }
    },
    {
      "type": "Feature",
      "id": "iem-lsr-GGW-38",
      "properties": {
        "report_id": "iem-lsr-GGW-38",
        "report_type": "NON-TSTM WND GST",
        "event_category": "thunderstorm_wind",
        "valid_utc": "202604081630",
        "standard_time_display": "2026-04-08 09:30 MST",
        "wfo": "GGW",
        "county_or_zone": "Dawson",
        "city": "8 NW Lindsay",
        "state": "MT",
        "magnitude": 59.0,
        "magnitude_units": null,
        "source": "Mesonet",
        "event_narrative": "Lindsay Divide MT DOT station."
      },
      "geometry": {
        "type": "Point",
        "coordinates": [
          -105.29,
          47.28
        ]
      }
    },
    {
      "type": "Feature",
      "id": "iem-lsr-GGW-39",
      "properties": {
        "report_id": "iem-lsr-GGW-39",
        "report_type": "NON-TSTM WND GST",
        "event_category": "thunderstorm_wind",
        "valid_utc": "202604081630",
        "standard_time_display": "2026-04-08 09:30 MST",
        "wfo": "GGW",
        "county_or_zone": "Richland",
        "city": "12 WSW Nohly",
        "state": "MT",
        "magnitude": 61.0,
        "magnitude_units": null,
        "source": "Mesonet",
        "event_narrative": "Sioux Pass MT-16 surface observation station."
      },
      "geometry": {
        "type": "Point",
        "coordinates": [
          -104.33,
          47.92
        ]
      }
    },
    {
      "type": "Feature",
      "id": "iem-lsr-GGW-40",
      "properties": {
        "report_id": "iem-lsr-GGW-40",
        "report_type": "NON-TSTM WND GST",
        "event_category": "thunderstorm_wind",
        "valid_utc": "202604081715",
        "standard_time_display": "2026-04-08 10:15 MST",
        "wfo": "GGW",
        "county_or_zone": "Richland",
        "city": "2 E Enid",
        "state": "MT",
        "magnitude": 60.0,
        "magnitude_units": null,
        "source": "Mesonet",
        "event_narrative": "Lambert MT-DOT surface observation station."
      },
      "geometry": {
        "type": "Point",
        "coordinates": [
          -104.73,
          47.7
        ]
      }
    },
    {
      "type": "Feature",
      "id": "iem-lsr-GGW-41",
      "properties": {
        "report_id": "iem-lsr-GGW-41",
        "report_type": "TSTM WND GST",
        "event_category": "thunderstorm_wind",
        "valid_utc": "202604120015",
        "standard_time_display": "2026-04-11 17:15 MST",
        "wfo": "GGW",
        "county_or_zone": "Petroleum",
        "city": "1 NNW Winnett",
        "state": "MT",
        "magnitude": 64.0,
        "magnitude_units": null,
        "source": "Mesonet",
        "event_narrative": "Winnett MT DOT surface station."
      },
      "geometry": {
        "type": "Point",
        "coordinates": [
          -108.36,
          47.01
        ]
      }
    },
    {
      "type": "Feature",
      "id": "iem-lsr-GGW-42",
      "properties": {
        "report_id": "iem-lsr-GGW-42",
        "report_type": "TSTM WND GST",
        "event_category": "thunderstorm_wind",
        "valid_utc": "202604120030",
        "standard_time_display": "2026-04-11 17:30 MST",
        "wfo": "GGW",
        "county_or_zone": "Phillips",
        "city": "11 ENE Zortman",
        "state": "MT",
        "magnitude": 60.0,
        "magnitude_units": null,
        "source": "Mesonet",
        "event_narrative": "Malta South MT DOT station."
      },
      "geometry": {
        "type": "Point",
        "coordinates": [
          -108.31,
          47.96
        ]
      }
    },
    {
      "type": "Feature",
      "id": "iem-lsr-GGW-43",
      "properties": {
        "report_id": "iem-lsr-GGW-43",
        "report_type": "TSTM WND GST",
        "event_category": "thunderstorm_wind",
        "valid_utc": "202604120030",
        "standard_time_display": "2026-04-11 17:30 MST",
        "wfo": "GGW",
        "county_or_zone": "Phillips",
        "city": "11 ENE Zortman",
        "state": "MT",
        "magnitude": 60.0,
        "magnitude_units": null,
        "source": "Mesonet",
        "event_narrative": "Mesonet station MTMAL 11.3 SW Phillips (MT DOT)."
      },
      "geometry": {
        "type": "Point",
        "coordinates": [
          -108.31,
          47.96
        ]
      }
    },
    {
      "type": "Feature",
      "id": "iem-lsr-GGW-44",
      "properties": {
        "report_id": "iem-lsr-GGW-44",
        "report_type": "TSTM WND GST",
        "event_category": "thunderstorm_wind",
        "valid_utc": "202604120041",
        "standard_time_display": "2026-04-11 17:41 MST",
        "wfo": "GGW",
        "county_or_zone": "Petroleum",
        "city": "16 N Winnett",
        "state": "MT",
        "magnitude": 54.0,
        "magnitude_units": null,
        "source": "Mesonet",
        "event_narrative": "Dry Blood Creek station."
      },
      "geometry": {
        "type": "Point",
        "coordinates": [
          -108.36,
          47.24
        ]
      }
    },
    {
      "type": "Feature",
      "id": "iem-lsr-GGW-45",
      "properties": {
        "report_id": "iem-lsr-GGW-45",
        "report_type": "TSTM WND GST",
        "event_category": "thunderstorm_wind",
        "valid_utc": "202604120115",
        "standard_time_display": "2026-04-11 18:15 MST",
        "wfo": "GGW",
        "county_or_zone": "Phillips",
        "city": "2 WNW Malta",
        "state": "MT",
        "magnitude": 53.0,
        "magnitude_units": null,
        "source": "Mesonet",
        "event_narrative": "Malta Airport station."
      },
      "geometry": {
        "type": "Point",
        "coordinates": [
          -107.92,
          48.37
        ]
      }
    },
    {
      "type": "Feature",
      "id": "iem-lsr-GGW-46",
      "properties": {
        "report_id": "iem-lsr-GGW-46",
        "report_type": "TSTM WND GST",
        "event_category": "thunderstorm_wind",
        "valid_utc": "202604120115",
        "standard_time_display": "2026-04-11 18:15 MST",
        "wfo": "GGW",
        "county_or_zone": "Phillips",
        "city": "4 ESE Wagner",
        "state": "MT",
        "magnitude": 54.0,
        "magnitude_units": null,
        "source": "Mesonet",
        "event_narrative": "Malta W MDA station."
      },
      "geometry": {
        "type": "Point",
        "coordinates": [
          -108.0,
          48.35
        ]
      }
    },
    {
      "type": "Feature",
      "id": "iem-lsr-GGW-47",
      "properties": {
        "report_id": "iem-lsr-GGW-47",
        "report_type": "TSTM WND GST",
        "event_category": "thunderstorm_wind",
        "valid_utc": "202604120140",
        "standard_time_display": "2026-04-11 18:40 MST",
        "wfo": "GGW",
        "county_or_zone": "Garfield",
        "city": "2 WNW Jordan",
        "state": "MT",
        "magnitude": 62.0,
        "magnitude_units": null,
        "source": "Mesonet",
        "event_narrative": "Jordan Airport station."
      },
      "geometry": {
        "type": "Point",
        "coordinates": [
          -106.95,
          47.33
        ]
      }
    },
    {
      "type": "Feature",
      "id": "iem-lsr-GGW-48",
      "properties": {
        "report_id": "iem-lsr-GGW-48",
        "report_type": "TSTM WND GST",
        "event_category": "thunderstorm_wind",
        "valid_utc": "202604120144",
        "standard_time_display": "2026-04-11 18:44 MST",
        "wfo": "GGW",
        "county_or_zone": "Valley",
        "city": "14 NNW Hell Creek Rec A",
        "state": "MT",
        "magnitude": 54.0,
        "magnitude_units": null,
        "source": "Mesonet",
        "event_narrative": "King Coulee station."
      },
      "geometry": {
        "type": "Point",
        "coordinates": [
          -107.02,
          47.8
        ]
      }
    },
    {
      "type": "Feature",
      "id": "iem-lsr-GGW-49",
      "properties": {
        "report_id": "iem-lsr-GGW-49",
        "report_type": "TSTM WND GST",
        "event_category": "thunderstorm_wind",
        "valid_utc": "202604120200",
        "standard_time_display": "2026-04-11 19:00 MST",
        "wfo": "GGW",
        "county_or_zone": "Valley",
        "city": "11 SSW The Bentonite Pl",
        "state": "MT",
        "magnitude": 55.0,
        "magnitude_units": null,
        "source": "Mesonet",
        "event_narrative": "Triple Crossing Agrimet station."
      },
      "geometry": {
        "type": "Point",
        "coordinates": [
          -107.11,
          47.99
        ]
      }
    },
    {
      "type": "Feature",
      "id": "iem-lsr-GGW-50",
      "properties": {
        "report_id": "iem-lsr-GGW-50",
        "report_type": "TSTM WND GST",
        "event_category": "thunderstorm_wind",
        "valid_utc": "202604120242",
        "standard_time_display": "2026-04-11 19:42 MST",
        "wfo": "GGW",
        "county_or_zone": "Valley",
        "city": "1 NE Glasgow",
        "state": "MT",
        "magnitude": 60.0,
        "magnitude_units": null,
        "source": "Mesonet",
        "event_narrative": "Glasgow ASOS."
      },
      "geometry": {
        "type": "Point",
        "coordinates": [
          -106.62,
          48.21
        ]
      }
    },
    {
      "type": "Feature",
      "id": "iem-lsr-GGW-51",
      "properties": {
        "report_id": "iem-lsr-GGW-51",
        "report_type": "TSTM WND GST",
        "event_category": "thunderstorm_wind",
        "valid_utc": "202604120246",
        "standard_time_display": "2026-04-11 19:46 MST",
        "wfo": "GGW",
        "county_or_zone": "Valley",
        "city": "4 SSE Whatley",
        "state": "MT",
        "magnitude": 62.0,
        "magnitude_units": null,
        "source": "Trained Spotter",
        "event_narrative": "Personal weather station peak gust."
      },
      "geometry": {
        "type": "Point",
        "coordinates": [
          -106.48,
          48.09
        ]
      }
    },
    {
      "type": "Feature",
      "id": "iem-lsr-GGW-52",
      "properties": {
        "report_id": "iem-lsr-GGW-52",
        "report_type": "TSTM WND GST",
        "event_category": "thunderstorm_wind",
        "valid_utc": "202604120250",
        "standard_time_display": "2026-04-11 19:50 MST",
        "wfo": "GGW",
        "county_or_zone": "McCone",
        "city": "2 E Fort Peck",
        "state": "MT",
        "magnitude": 59.0,
        "magnitude_units": null,
        "source": "Mesonet",
        "event_narrative": "Mesonet station GGWFP 2.4 E Fort Peck (GGWWFO)."
      },
      "geometry": {
        "type": "Point",
        "coordinates": [
          -106.4,
          48.01
        ]
      }
    },
    {
      "type": "Feature",
      "id": "iem-lsr-GGW-53",
      "properties": {
        "report_id": "iem-lsr-GGW-53",
        "report_type": "NON-TSTM WND GST",
        "event_category": "thunderstorm_wind",
        "valid_utc": "202604120250",
        "standard_time_display": "2026-04-11 19:50 MST",
        "wfo": "GGW",
        "county_or_zone": "McCone",
        "city": "2 E Fort Peck",
        "state": "MT",
        "magnitude": 59.0,
        "magnitude_units": null,
        "source": "Mesonet",
        "event_narrative": "Mesonet station GGWFP 2.4 E Fort Peck (GGWWFO)."
      },
      "geometry": {
        "type": "Point",
        "coordinates": [
          -106.4,
          48.01
        ]
      }
    },
    {
      "type": "Feature",
      "id": "iem-lsr-GGW-54",
      "properties": {
        "report_id": "iem-lsr-GGW-54",
        "report_type": "TSTM WND GST",
        "event_category": "thunderstorm_wind",
        "valid_utc": "202604120300",
        "standard_time_display": "2026-04-11 20:00 MST",
        "wfo": "GGW",
        "county_or_zone": "Valley",
        "city": "2 NW Saint Marie",
        "state": "MT",
        "magnitude": 54.0,
        "magnitude_units": null,
        "source": "Mesonet",
        "event_narrative": "Mesonet station MTSTM St. Marie Mt-24 Mp 18.0."
      },
      "geometry": {
        "type": "Point",
        "coordinates": [
          -106.56,
          48.42
        ]
      }
    },
    {
      "type": "Feature",
      "id": "iem-lsr-GGW-55",
      "properties": {
        "report_id": "iem-lsr-GGW-55",
        "report_type": "NON-TSTM WND GST",
        "event_category": "thunderstorm_wind",
        "valid_utc": "202604120300",
        "standard_time_display": "2026-04-11 20:00 MST",
        "wfo": "GGW",
        "county_or_zone": "Valley",
        "city": "2 NW Saint Marie",
        "state": "MT",
        "magnitude": 54.0,
        "magnitude_units": null,
        "source": "Mesonet",
        "event_narrative": "Mesonet station MTSTM St. Marie Mt-24 Mp 18.0."
      },
      "geometry": {
        "type": "Point",
        "coordinates": [
          -106.56,
          48.42
        ]
      }
    },
    {
      "type": "Feature",
      "id": "iem-lsr-GGW-56",
      "properties": {
        "report_id": "iem-lsr-GGW-56",
        "report_type": "TSTM WND GST",
        "event_category": "thunderstorm_wind",
        "valid_utc": "202604222150",
        "standard_time_display": "2026-04-22 14:50 MST",
        "wfo": "GGW",
        "county_or_zone": "Petroleum",
        "city": "15 S Mosby",
        "state": "MT",
        "magnitude": 55.0,
        "magnitude_units": null,
        "source": "Mesonet",
        "event_narrative": "Mosby S_ MT (UMT - GGW) Elev: 2805.0 ft; Lat/Lon: 46.78230/-107.92134."
      },
      "geometry": {
        "type": "Point",
        "coordinates": [
          -107.94,
          46.78
        ]
      }
    },
    {
      "type": "Feature",
      "id": "iem-lsr-GGW-57",
      "properties": {
        "report_id": "iem-lsr-GGW-57",
        "report_type": "TSTM WND GST",
        "event_category": "thunderstorm_wind",
        "valid_utc": "202604222210",
        "standard_time_display": "2026-04-22 15:10 MST",
        "wfo": "GGW",
        "county_or_zone": "Garfield",
        "city": "7 WSW Crow Rock",
        "state": "MT",
        "magnitude": 59.0,
        "magnitude_units": null,
        "source": "Mesonet",
        "event_narrative": "Rock Springs N_ MT (UMT - GGW) Elev: 2769.2 ft; Lat/Lon: 46.88529/-106.21369."
      },
      "geometry": {
        "type": "Point",
        "coordinates": [
          -106.21,
          46.89
        ]
      }
    },
    {
      "type": "Feature",
      "id": "iem-lsr-GGW-58",
      "properties": {
        "report_id": "iem-lsr-GGW-58",
        "report_type": "TSTM WND GST",
        "event_category": "thunderstorm_wind",
        "valid_utc": "202604222210",
        "standard_time_display": "2026-04-22 15:10 MST",
        "wfo": "GGW",
        "county_or_zone": "Garfield",
        "city": "7 WSW Crow Rock",
        "state": "MT",
        "magnitude": 59.0,
        "magnitude_units": null,
        "source": "Public",
        "event_narrative": "Rock Springs N_ MT (UMT - GGW) Elev: 2769.2 ft; Lat/Lon: 46.88529/-106.21369."
      },
      "geometry": {
        "type": "Point",
        "coordinates": [
          -106.21,
          46.89
        ]
      }
    },
    {
      "type": "Feature",
      "id": "iem-lsr-GGW-59",
      "properties": {
        "report_id": "iem-lsr-GGW-59",
        "report_type": "NON-TSTM WND GST",
        "event_category": "thunderstorm_wind",
        "valid_utc": "202604222243",
        "standard_time_display": "2026-04-22 15:43 MST",
        "wfo": "GGW",
        "county_or_zone": "Garfield",
        "city": "2 WNW Jordan",
        "state": "MT",
        "magnitude": 60.0,
        "magnitude_units": null,
        "source": "ASOS",
        "event_narrative": "ASOS station KJDN Jordan."
      },
      "geometry": {
        "type": "Point",
        "coordinates": [
          -106.95,
          47.33
        ]
      }
    },
    {
      "type": "Feature",
      "id": "iem-lsr-GGW-60",
      "properties": {
        "report_id": "iem-lsr-GGW-60",
        "report_type": "TSTM WND GST",
        "event_category": "thunderstorm_wind",
        "valid_utc": "202604222254",
        "standard_time_display": "2026-04-22 15:54 MST",
        "wfo": "GGW",
        "county_or_zone": "Garfield",
        "city": "2 WNW Jordan",
        "state": "MT",
        "magnitude": 64.0,
        "magnitude_units": null,
        "source": "ASOS",
        "event_narrative": "ASOS station KJDN Jordan."
      },
      "geometry": {
        "type": "Point",
        "coordinates": [
          -106.95,
          47.33
        ]
      }
    },
    {
      "type": "Feature",
      "id": "iem-lsr-GGW-61",
      "properties": {
        "report_id": "iem-lsr-GGW-61",
        "report_type": "TSTM WND GST",
        "event_category": "thunderstorm_wind",
        "valid_utc": "202604222335",
        "standard_time_display": "2026-04-22 16:35 MST",
        "wfo": "GGW",
        "county_or_zone": "Garfield",
        "city": "10 SSW Cohagen",
        "state": "MT",
        "magnitude": 55.0,
        "magnitude_units": null,
        "source": "Mesonet",
        "event_narrative": "Montana Mesonet station HAGM8 (Cohange S)."
      },
      "geometry": {
        "type": "Point",
        "coordinates": [
          -106.68,
          46.91
        ]
      }
    },
    {
      "type": "Feature",
      "id": "iem-lsr-GGW-62",
      "properties": {
        "report_id": "iem-lsr-GGW-62",
        "report_type": "NON-TSTM WND GST",
        "event_category": "thunderstorm_wind",
        "valid_utc": "202604230000",
        "standard_time_display": "2026-04-22 17:00 MST",
        "wfo": "GGW",
        "county_or_zone": "Dawson",
        "city": "5 ESE Hoyt",
        "state": "MT",
        "magnitude": 56.0,
        "magnitude_units": null,
        "source": "Mesonet",
        "event_narrative": "Mesonet station MTM28 5.2 E Hoyt (MT-MESO)."
      },
      "geometry": {
        "type": "Point",
        "coordinates": [
          -104.75,
          46.91
        ]
      }
    },
    {
      "type": "Feature",
      "id": "iem-lsr-GGW-63",
      "properties": {
        "report_id": "iem-lsr-GGW-63",
        "report_type": "TSTM WND GST",
        "event_category": "thunderstorm_wind",
        "valid_utc": "202604230000",
        "standard_time_display": "2026-04-22 17:00 MST",
        "wfo": "GGW",
        "county_or_zone": "McCone",
        "city": "13 E Haxby",
        "state": "MT",
        "magnitude": 66.0,
        "magnitude_units": null,
        "source": "Mesonet",
        "event_narrative": "Montana Mesonet station MTM87 (Fort Peck S)."
      },
      "geometry": {
        "type": "Point",
        "coordinates": [
          -106.15,
          47.74
        ]
      }
    },
    {
      "type": "Feature",
      "id": "iem-lsr-GGW-64",
      "properties": {
        "report_id": "iem-lsr-GGW-64",
        "report_type": "TSTM WND GST",
        "event_category": "thunderstorm_wind",
        "valid_utc": "202604230015",
        "standard_time_display": "2026-04-22 17:15 MST",
        "wfo": "GGW",
        "county_or_zone": "McCone",
        "city": "14 W Vida",
        "state": "MT",
        "magnitude": 58.0,
        "magnitude_units": null,
        "source": "Mesonet",
        "event_narrative": "Montana Mesonet station VDWM8 (Vida W)."
      },
      "geometry": {
        "type": "Point",
        "coordinates": [
          -105.79,
          47.8
        ]
      }
    },
    {
      "type": "Feature",
      "id": "iem-lsr-GGW-65",
      "properties": {
        "report_id": "iem-lsr-GGW-65",
        "report_type": "TSTM WND GST",
        "event_category": "thunderstorm_wind",
        "valid_utc": "202604230030",
        "standard_time_display": "2026-04-22 17:30 MST",
        "wfo": "GGW",
        "county_or_zone": "McCone",
        "city": "9 NE Vida",
        "state": "MT",
        "magnitude": 57.0,
        "magnitude_units": null,
        "source": "Mesonet",
        "event_narrative": "Montana Mesonet station VDNM8 (Vida NE)."
      },
      "geometry": {
        "type": "Point",
        "coordinates": [
          -105.35,
          47.92
        ]
      }
    },
    {
      "type": "Feature",
      "id": "iem-lsr-GGW-66",
      "properties": {
        "report_id": "iem-lsr-GGW-66",
        "report_type": "NON-TSTM WND GST",
        "event_category": "thunderstorm_wind",
        "valid_utc": "202604230030",
        "standard_time_display": "2026-04-22 17:30 MST",
        "wfo": "GGW",
        "county_or_zone": "Wibaux",
        "city": "7 W Carlyle",
        "state": "MT",
        "magnitude": 62.0,
        "magnitude_units": null,
        "source": "Mesonet",
        "event_narrative": "Mesonet station MTASH Ash Creek Mt-7 Mp 55.2."
      },
      "geometry": {
        "type": "Point",
        "coordinates": [
          -104.23,
          46.65
        ]
      }
    },
    {
      "type": "Feature",
      "id": "iem-lsr-GGW-67",
      "properties": {
        "report_id": "iem-lsr-GGW-67",
        "report_type": "TSTM WND GST",
        "event_category": "thunderstorm_wind",
        "valid_utc": "202604230035",
        "standard_time_display": "2026-04-22 17:35 MST",
        "wfo": "GGW",
        "county_or_zone": "McCone",
        "city": "9 NE Vida",
        "state": "MT",
        "magnitude": 60.0,
        "magnitude_units": null,
        "source": "Mesonet",
        "event_narrative": "Corrects previous tstm wnd gst report from 9 NE Vida. Montana Mesonet station VDNM8 (Vida NE)."
      },
      "geometry": {
        "type": "Point",
        "coordinates": [
          -105.35,
          47.92
        ]
      }
    },
    {
      "type": "Feature",
      "id": "iem-lsr-GGW-68",
      "properties": {
        "report_id": "iem-lsr-GGW-68",
        "report_type": "TSTM WND GST",
        "event_category": "thunderstorm_wind",
        "valid_utc": "202604230045",
        "standard_time_display": "2026-04-22 17:45 MST",
        "wfo": "GGW",
        "county_or_zone": "Richland",
        "city": "2 E Enid",
        "state": "MT",
        "magnitude": 58.0,
        "magnitude_units": null,
        "source": "Mesonet",
        "event_narrative": "Mesonet station MTLBT Lambert Mt-200 Mp 45.0."
      },
      "geometry": {
        "type": "Point",
        "coordinates": [
          -104.73,
          47.7
        ]
      }
    },
    {
      "type": "Feature",
      "id": "iem-lsr-GGW-69",
      "properties": {
        "report_id": "iem-lsr-GGW-69",
        "report_type": "TSTM WND GST",
        "event_category": "thunderstorm_wind",
        "valid_utc": "202604230048",
        "standard_time_display": "2026-04-22 17:48 MST",
        "wfo": "GGW",
        "county_or_zone": "McCone",
        "city": "2 E Fort Peck",
        "state": "MT",
        "magnitude": 66.0,
        "magnitude_units": null,
        "source": "Mesonet",
        "event_narrative": "Mesonet station GGWFP 2.4 E Fort Peck (GGWWFO)."
      },
      "geometry": {
        "type": "Point",
        "coordinates": [
          -106.4,
          48.01
        ]
      }
    },
    {
      "type": "Feature",
      "id": "iem-lsr-GGW-70",
      "properties": {
        "report_id": "iem-lsr-GGW-70",
        "report_type": "TSTM WND GST",
        "event_category": "thunderstorm_wind",
        "valid_utc": "202604230050",
        "standard_time_display": "2026-04-22 17:50 MST",
        "wfo": "GGW",
        "county_or_zone": "Richland",
        "city": "4 WNW Midway",
        "state": "MT",
        "magnitude": 60.0,
        "magnitude_units": null,
        "source": "Mesonet",
        "event_narrative": "Mesonet station FW8536 Savage."
      },
      "geometry": {
        "type": "Point",
        "coordinates": [
          -104.39,
          47.53
        ]
      }
    },
    {
      "type": "Feature",
      "id": "iem-lsr-GGW-71",
      "properties": {
        "report_id": "iem-lsr-GGW-71",
        "report_type": "TSTM WND GST",
        "event_category": "thunderstorm_wind",
        "valid_utc": "202604230050",
        "standard_time_display": "2026-04-22 17:50 MST",
        "wfo": "GGW",
        "county_or_zone": "Richland",
        "city": "3 W Crane",
        "state": "MT",
        "magnitude": 61.0,
        "magnitude_units": null,
        "source": "Mesonet",
        "event_narrative": "Montana Mesonet station CRBM8 (Crane W)."
      },
      "geometry": {
        "type": "Point",
        "coordinates": [
          -104.32,
          47.57
        ]
      }
    },
    {
      "type": "Feature",
      "id": "iem-lsr-GGW-72",
      "properties": {
        "report_id": "iem-lsr-GGW-72",
        "report_type": "TSTM WND GST",
        "event_category": "thunderstorm_wind",
        "valid_utc": "202604230055",
        "standard_time_display": "2026-04-22 17:55 MST",
        "wfo": "GGW",
        "county_or_zone": "Roosevelt",
        "city": "5 N Poplar",
        "state": "MT",
        "magnitude": 58.0,
        "magnitude_units": null,
        "source": "Mesonet",
        "event_narrative": "Montana Mesonet Station PARM8 (Poplar N)."
      },
      "geometry": {
        "type": "Point",
        "coordinates": [
          -105.22,
          48.18
        ]
      }
    },
    {
      "type": "Feature",
      "id": "iem-lsr-GGW-73",
      "properties": {
        "report_id": "iem-lsr-GGW-73",
        "report_type": "TSTM WND GST",
        "event_category": "thunderstorm_wind",
        "valid_utc": "202604230100",
        "standard_time_display": "2026-04-22 18:00 MST",
        "wfo": "GGW",
        "county_or_zone": "Richland",
        "city": "12 SSE Sprole",
        "state": "MT",
        "magnitude": 59.0,
        "magnitude_units": null,
        "source": "Mesonet",
        "event_narrative": "Mesonet station FW2498 Badger Creek."
      },
      "geometry": {
        "type": "Point",
        "coordinates": [
          -104.94,
          47.95
        ]
      }
    },
    {
      "type": "Feature",
      "id": "iem-lsr-GGW-74",
      "properties": {
        "report_id": "iem-lsr-GGW-74",
        "report_type": "TSTM WND GST",
        "event_category": "thunderstorm_wind",
        "valid_utc": "202604230115",
        "standard_time_display": "2026-04-22 18:15 MST",
        "wfo": "GGW",
        "county_or_zone": "Richland",
        "city": "2 SW Savage",
        "state": "MT",
        "magnitude": 59.0,
        "magnitude_units": null,
        "source": "Mesonet",
        "event_narrative": "Mesonet station MTSVG Savage Mt-16 Mp 29.5."
      },
      "geometry": {
        "type": "Point",
        "coordinates": [
          -104.37,
          47.43
        ]
      }
    },
    {
      "type": "Feature",
      "id": "iem-lsr-GGW-75",
      "properties": {
        "report_id": "iem-lsr-GGW-75",
        "report_type": "TSTM WND GST",
        "event_category": "thunderstorm_wind",
        "valid_utc": "202604230120",
        "standard_time_display": "2026-04-22 18:20 MST",
        "wfo": "GGW",
        "county_or_zone": "Roosevelt",
        "city": "6 NNW Fort Kipp",
        "state": "MT",
        "magnitude": 62.0,
        "magnitude_units": null,
        "source": "Mesonet",
        "event_narrative": "Montana Mesonet station FTKM8 (Fort Kipp NW)."
      },
      "geometry": {
        "type": "Point",
        "coordinates": [
          -104.77,
          48.22
        ]
      }
    },
    {
      "type": "Feature",
      "id": "iem-lsr-GGW-76",
      "properties": {
        "report_id": "iem-lsr-GGW-76",
        "report_type": "TSTM WND GST",
        "event_category": "thunderstorm_wind",
        "valid_utc": "202604230150",
        "standard_time_display": "2026-04-22 18:50 MST",
        "wfo": "GGW",
        "county_or_zone": "Sheridan",
        "city": "10 W Medicine Lake",
        "state": "MT",
        "magnitude": 64.0,
        "magnitude_units": null,
        "source": "Mesonet",
        "event_narrative": "Montana Mesonet station MEDM8 (Medicine Lake W)."
      },
      "geometry": {
        "type": "Point",
        "coordinates": [
          -104.73,
          48.52
        ]
      }
    },
    {
      "type": "Feature",
      "id": "iem-lsr-GGW-77",
      "properties": {
        "report_id": "iem-lsr-GGW-77",
        "report_type": "TSTM WND GST",
        "event_category": "thunderstorm_wind",
        "valid_utc": "202604230158",
        "standard_time_display": "2026-04-22 18:58 MST",
        "wfo": "GGW",
        "county_or_zone": "Sheridan",
        "city": "2 SE Medicine Lake",
        "state": "MT",
        "magnitude": 64.0,
        "magnitude_units": null,
        "source": "Mesonet",
        "event_narrative": "Mesonet station MLKM8 Medicine Lake 1ESE."
      },
      "geometry": {
        "type": "Point",
        "coordinates": [
          -104.48,
          48.49
        ]
      }
    },
    {
      "type": "Feature",
      "id": "iem-lsr-GGW-78",
      "properties": {
        "report_id": "iem-lsr-GGW-78",
        "report_type": "TSTM WND GST",
        "event_category": "thunderstorm_wind",
        "valid_utc": "202604230210",
        "standard_time_display": "2026-04-22 19:10 MST",
        "wfo": "GGW",
        "county_or_zone": "Sheridan",
        "city": "10 W Medicine Lake",
        "state": "MT",
        "magnitude": 71.0,
        "magnitude_units": null,
        "source": "Mesonet",
        "event_narrative": "54G71 Medicine Lake W_ MT (UMT - GGW)."
      },
      "geometry": {
        "type": "Point",
        "coordinates": [
          -104.73,
          48.52
        ]
      }
    },
    {
      "type": "Feature",
      "id": "iem-lsr-GGW-79",
      "properties": {
        "report_id": "iem-lsr-GGW-79",
        "report_type": "TSTM WND GST",
        "event_category": "thunderstorm_wind",
        "valid_utc": "202604230220",
        "standard_time_display": "2026-04-22 19:20 MST",
        "wfo": "GGW",
        "county_or_zone": "Roosevelt",
        "city": "4 NNE Bredette",
        "state": "MT",
        "magnitude": 64.0,
        "magnitude_units": null,
        "source": "Mesonet",
        "event_narrative": "Bredette NE_ MT (UMT - GGW)."
      },
      "geometry": {
        "type": "Point",
        "coordinates": [
          -105.26,
          48.55
        ]
      }
    },
    {
      "type": "Feature",
      "id": "iem-lsr-GGW-80",
      "properties": {
        "report_id": "iem-lsr-GGW-80",
        "report_type": "TSTM WND GST",
        "event_category": "thunderstorm_wind",
        "valid_utc": "202604230230",
        "standard_time_display": "2026-04-22 19:30 MST",
        "wfo": "GGW",
        "county_or_zone": "Sheridan",
        "city": "6 S Comertown",
        "state": "MT",
        "magnitude": 58.0,
        "magnitude_units": null,
        "source": "Mesonet",
        "event_narrative": "Comertown Turn-Off MT-5 MP 13.4."
      },
      "geometry": {
        "type": "Point",
        "coordinates": [
          -104.25,
          48.81
        ]
      }
    },
    {
      "type": "Feature",
      "id": "iem-lsr-GGW-81",
      "properties": {
        "report_id": "iem-lsr-GGW-81",
        "report_type": "TSTM WND GST",
        "event_category": "thunderstorm_wind",
        "valid_utc": "202604230230",
        "standard_time_display": "2026-04-22 19:30 MST",
        "wfo": "GGW",
        "county_or_zone": "Daniels",
        "city": "1 N Navajo",
        "state": "MT",
        "magnitude": 60.0,
        "magnitude_units": null,
        "source": "Mesonet",
        "event_narrative": "Navajo MT-5 16.7."
      },
      "geometry": {
        "type": "Point",
        "coordinates": [
          -105.06,
          48.81
        ]
      }
    },
    {
      "type": "Feature",
      "id": "iem-lsr-GGW-82",
      "properties": {
        "report_id": "iem-lsr-GGW-82",
        "report_type": "TSTM WND GST",
        "event_category": "thunderstorm_wind",
        "valid_utc": "202604230235",
        "standard_time_display": "2026-04-22 19:35 MST",
        "wfo": "GGW",
        "county_or_zone": "Sheridan",
        "city": "2 ENE Plentywood",
        "state": "MT",
        "magnitude": 71.0,
        "magnitude_units": null,
        "source": "Mesonet",
        "event_narrative": "Sher-Wood Airport_ MT."
      },
      "geometry": {
        "type": "Point",
        "coordinates": [
          -104.52,
          48.79
        ]
      }
    },
    {
      "type": "Feature",
      "id": "iem-lsr-GGW-83",
      "properties": {
        "report_id": "iem-lsr-GGW-83",
        "report_type": "TSTM WND GST",
        "event_category": "thunderstorm_wind",
        "valid_utc": "202604230258",
        "standard_time_display": "2026-04-22 19:58 MST",
        "wfo": "GGW",
        "county_or_zone": "Sheridan",
        "city": "2 SE Medicine Lake",
        "state": "MT",
        "magnitude": 66.0,
        "magnitude_units": null,
        "source": "Mesonet",
        "event_narrative": "MEDICINE LAKE_ MT."
      },
      "geometry": {
        "type": "Point",
        "coordinates": [
          -104.48,
          48.49
        ]
      }
    },
    {
      "type": "Feature",
      "id": "iem-lsr-GGW-84",
      "properties": {
        "report_id": "iem-lsr-GGW-84",
        "report_type": "TSTM WND GST",
        "event_category": "thunderstorm_wind",
        "valid_utc": "202604230300",
        "standard_time_display": "2026-04-22 20:00 MST",
        "wfo": "GGW",
        "county_or_zone": "Daniels",
        "city": "6 NW Scobey",
        "state": "MT",
        "magnitude": 58.0,
        "magnitude_units": null,
        "source": "Mesonet",
        "event_narrative": "Scobey NW."
      },
      "geometry": {
        "type": "Point",
        "coordinates": [
          -105.5,
          48.86
        ]
      }
    },
    {
      "type": "Feature",
      "id": "iem-lsr-GGW-85",
      "properties": {
        "report_id": "iem-lsr-GGW-85",
        "report_type": "NON-TSTM WND GST",
        "event_category": "thunderstorm_wind",
        "valid_utc": "202604230450",
        "standard_time_display": "2026-04-22 21:50 MST",
        "wfo": "GGW",
        "county_or_zone": "Phillips",
        "city": "1 W Content",
        "state": "MT",
        "magnitude": 72.0,
        "magnitude_units": null,
        "source": "Mesonet",
        "event_narrative": "Content_ MT (UMT - GGW) Elev: 705.0 ft; Lat/Lon: 48.01769/-107.57919."
      },
      "geometry": {
        "type": "Point",
        "coordinates": [
          -107.58,
          48.02
        ]
      }
    },
    {
      "type": "Feature",
      "id": "iem-lsr-GGW-86",
      "properties": {
        "report_id": "iem-lsr-GGW-86",
        "report_type": "NON-TSTM WND GST",
        "event_category": "thunderstorm_wind",
        "valid_utc": "202604230744",
        "standard_time_display": "2026-04-23 00:44 MST",
        "wfo": "GGW",
        "county_or_zone": "Valley",
        "city": "14 NNW Hell Creek Rec A",
        "state": "MT",
        "magnitude": 61.0,
        "magnitude_units": null,
        "source": "Mesonet",
        "event_narrative": "Mesonet station KIGM8 King Coulee."
      },
      "geometry": {
        "type": "Point",
        "coordinates": [
          -107.02,
          47.8
        ]
      }
    },
    {
      "type": "Feature",
      "id": "iem-lsr-GGW-87",
      "properties": {
        "report_id": "iem-lsr-GGW-87",
        "report_type": "NON-TSTM WND GST",
        "event_category": "thunderstorm_wind",
        "valid_utc": "202604230748",
        "standard_time_display": "2026-04-23 00:48 MST",
        "wfo": "GGW",
        "county_or_zone": "McCone",
        "city": "2 E Fort Peck",
        "state": "MT",
        "magnitude": 74.0,
        "magnitude_units": null,
        "source": "Mesonet",
        "event_narrative": "Mesonet station GGWFP 2.4 E Fort Peck (GGWWFO)."
      },
      "geometry": {
        "type": "Point",
        "coordinates": [
          -106.4,
          48.01
        ]
      }
    },
    {
      "type": "Feature",
      "id": "iem-lsr-GGW-88",
      "properties": {
        "report_id": "iem-lsr-GGW-88",
        "report_type": "NON-TSTM WND GST",
        "event_category": "thunderstorm_wind",
        "valid_utc": "202604230832",
        "standard_time_display": "2026-04-23 01:32 MST",
        "wfo": "GGW",
        "county_or_zone": "Phillips",
        "city": "1 ESE Zortman",
        "state": "MT",
        "magnitude": 66.0,
        "magnitude_units": null,
        "source": "Mesonet",
        "event_narrative": "Mesonet station ALDM8 Zortman 1E."
      },
      "geometry": {
        "type": "Point",
        "coordinates": [
          -108.5,
          47.91
        ]
      }
    },
    {
      "type": "Feature",
      "id": "iem-lsr-GGW-89",
      "properties": {
        "report_id": "iem-lsr-GGW-89",
        "report_type": "NON-TSTM WND GST",
        "event_category": "thunderstorm_wind",
        "valid_utc": "202604230845",
        "standard_time_display": "2026-04-23 01:45 MST",
        "wfo": "GGW",
        "county_or_zone": "Phillips",
        "city": "11 ENE Zortman",
        "state": "MT",
        "magnitude": 62.0,
        "magnitude_units": null,
        "source": "Mesonet",
        "event_narrative": "Mesonet station MTMAL 11.3 SW Phillips (MT DOT)."
      },
      "geometry": {
        "type": "Point",
        "coordinates": [
          -108.31,
          47.96
        ]
      }
    },
    {
      "type": "Feature",
      "id": "iem-lsr-GGW-90",
      "properties": {
        "report_id": "iem-lsr-GGW-90",
        "report_type": "NON-TSTM WND GST",
        "event_category": "thunderstorm_wind",
        "valid_utc": "202604231020",
        "standard_time_display": "2026-04-23 03:20 MST",
        "wfo": "GGW",
        "county_or_zone": "Valley",
        "city": "1 NE Saint Marie",
        "state": "MT",
        "magnitude": 68.0,
        "magnitude_units": null,
        "source": "Mesonet",
        "event_narrative": "Mesonet station 07MT 1.0 NE Saint Marie (GGWWFO)."
      },
      "geometry": {
        "type": "Point",
        "coordinates": [
          -106.52,
          48.41
        ]
      }
    },
    {
      "type": "Feature",
      "id": "iem-lsr-GGW-91",
      "properties": {
        "report_id": "iem-lsr-GGW-91",
        "report_type": "NON-TSTM WND GST",
        "event_category": "thunderstorm_wind",
        "valid_utc": "202604231225",
        "standard_time_display": "2026-04-23 05:25 MST",
        "wfo": "GGW",
        "county_or_zone": "Daniels",
        "city": "6 NW Scobey",
        "state": "MT",
        "magnitude": 58.0,
        "magnitude_units": null,
        "source": "Mesonet",
        "event_narrative": "Scobey NW_ MT (UMT - GGW) Elev: 2467.0 ft; Lat/Lon: 48.86020/-105.49718."
      },
      "geometry": {
        "type": "Point",
        "coordinates": [
          -105.5,
          48.86
        ]
      }
    },
    {
      "type": "Feature",
      "id": "iem-lsr-GGW-92",
      "properties": {
        "report_id": "iem-lsr-GGW-92",
        "report_type": "HIGH SUST WINDS",
        "event_category": "other",
        "valid_utc": "202604231248",
        "standard_time_display": "2026-04-23 05:48 MST",
        "wfo": "GGW",
        "county_or_zone": "McCone",
        "city": "2 E Fort Peck",
        "state": "MT",
        "magnitude": 47.0,
        "magnitude_units": null,
        "source": "Mesonet",
        "event_narrative": "FORT PECK DAM_ MT (GGWWFO - GGW) Elev: 2280.0 ft; Lat/Lon: 48.0084/-106.3962 6:48AM - 9:48 AM."
      },
      "geometry": {
        "type": "Point",
        "coordinates": [
          -106.4,
          48.01
        ]
      }
    },
    {
      "type": "Feature",
      "id": "iem-lsr-GGW-93",
      "properties": {
        "report_id": "iem-lsr-GGW-93",
        "report_type": "BLIZZARD",
        "event_category": "winter",
        "valid_utc": "202604231300",
        "standard_time_display": "2026-04-23 06:00 MST",
        "wfo": "GGW",
        "county_or_zone": "Valley",
        "city": "1 NE Glasgow",
        "state": "MT",
        "magnitude": null,
        "magnitude_units": null,
        "source": "Official NWS Obs",
        "event_narrative": "Visibility of 1/4 mile or less in blowing snow. Wind speeds of 35-45 mph. Snowfall of 2.7 in. measured. Wet snow_ compacting and melting."
      },
      "geometry": {
        "type": "Point",
        "coordinates": [
          -106.63,
          48.21
        ]
      }
    },
    {
      "type": "Feature",
      "id": "iem-lsr-GGW-94",
      "properties": {
        "report_id": "iem-lsr-GGW-94",
        "report_type": "HIGH SUST WINDS",
        "event_category": "other",
        "valid_utc": "202604231350",
        "standard_time_display": "2026-04-23 06:50 MST",
        "wfo": "GGW",
        "county_or_zone": "Roosevelt",
        "city": "11 NNE Volt",
        "state": "MT",
        "magnitude": 44.0,
        "magnitude_units": null,
        "source": "Mesonet",
        "event_narrative": "Volt N_ MT (UMT - GGW) Elev: 2392.0 ft; Lat/Lon: 48.54228/-105.66213 7:50 to 12:35 AM."
      },
      "geometry": {
        "type": "Point",
        "coordinates": [
          -105.66,
          48.54
        ]
      }
    },
    {
      "type": "Feature",
      "id": "iem-lsr-GGW-95",
      "properties": {
        "report_id": "iem-lsr-GGW-95",
        "report_type": "NON-TSTM WND GST",
        "event_category": "thunderstorm_wind",
        "valid_utc": "202604231445",
        "standard_time_display": "2026-04-23 07:45 MST",
        "wfo": "GGW",
        "county_or_zone": "Garfield",
        "city": "2 WNW Jordan",
        "state": "MT",
        "magnitude": 64.0,
        "magnitude_units": null,
        "source": "ASOS",
        "event_narrative": "ASOS station KJDN Jordan."
      },
      "geometry": {
        "type": "Point",
        "coordinates": [
          -106.95,
          47.33
        ]
      }
    },
    {
      "type": "Feature",
      "id": "iem-lsr-GGW-96",
      "properties": {
        "report_id": "iem-lsr-GGW-96",
        "report_type": "HIGH SUST WINDS",
        "event_category": "other",
        "valid_utc": "202604231500",
        "standard_time_display": "2026-04-23 08:00 MST",
        "wfo": "GGW",
        "county_or_zone": "Daniels",
        "city": "6 NW Scobey",
        "state": "MT",
        "magnitude": 45.0,
        "magnitude_units": null,
        "source": "Mesonet",
        "event_narrative": "Scobey NW_ MT (UMT - GGW) Elev: 2467.0 ft; Lat/Lon: 48.86020/-105.49718 8:45AM - 10:15 PM."
      },
      "geometry": {
        "type": "Point",
        "coordinates": [
          -105.5,
          48.86
        ]
      }
    },
    {
      "type": "Feature",
      "id": "iem-lsr-GGW-97",
      "properties": {
        "report_id": "iem-lsr-GGW-97",
        "report_type": "BLIZZARD",
        "event_category": "winter",
        "valid_utc": "202604231500",
        "standard_time_display": "2026-04-23 08:00 MST",
        "wfo": "GGW",
        "county_or_zone": "Valley",
        "city": "6 NNE Glasgow",
        "state": "MT",
        "magnitude": null,
        "magnitude_units": null,
        "source": "Dept of Highways",
        "event_narrative": "Montana DOT website reported severe driving conditions on MT-Highway 24 in Valley County between Glasgow and Opheim. Additionally_ at 9:15 AM DOT reported a semi-truck slide resulting in blocked lane"
      },
      "geometry": {
        "type": "Point",
        "coordinates": [
          -106.56,
          48.28
        ]
      }
    },
    {
      "type": "Feature",
      "id": "iem-lsr-GGW-98",
      "properties": {
        "report_id": "iem-lsr-GGW-98",
        "report_type": "HIGH SUST WINDS",
        "event_category": "other",
        "valid_utc": "202604231530",
        "standard_time_display": "2026-04-23 08:30 MST",
        "wfo": "GGW",
        "county_or_zone": "Prairie",
        "city": "13 NNW Mccloud",
        "state": "MT",
        "magnitude": 40.0,
        "magnitude_units": null,
        "source": "Mesonet",
        "event_narrative": "Sheep Mountain S-253 MP 28.0_ MT (MT DOT - GGW) Elev: 3304.0 ft; Lat/Lon: 47.08200/-105.66800 9:30AM - 11:45AM."
      },
      "geometry": {
        "type": "Point",
        "coordinates": [
          -105.66,
          47.08
        ]
      }
    },
    {
      "type": "Feature",
      "id": "iem-lsr-GGW-99",
      "properties": {
        "report_id": "iem-lsr-GGW-99",
        "report_type": "HIGH SUST WINDS",
        "event_category": "other",
        "valid_utc": "202604231545",
        "standard_time_display": "2026-04-23 08:45 MST",
        "wfo": "GGW",
        "county_or_zone": "McCone",
        "city": "14 NNE Weldon",
        "state": "MT",
        "magnitude": 41.0,
        "magnitude_units": null,
        "source": "Mesonet",
        "event_narrative": "Vida W_ MT (UMT - GGW) Elev: 2526.3 ft; Lat/Lon: 47.80094/-105.78957 9:45 - 11:45."
      },
      "geometry": {
        "type": "Point",
        "coordinates": [
          -105.79,
          47.8
        ]
      }
    },
    {
      "type": "Feature",
      "id": "iem-lsr-GGW-100",
      "properties": {
        "report_id": "iem-lsr-GGW-100",
        "report_type": "HIGH SUST WINDS",
        "event_category": "other",
        "valid_utc": "202604231600",
        "standard_time_display": "2026-04-23 09:00 MST",
        "wfo": "GGW",
        "county_or_zone": "Daniels",
        "city": "1 N Navajo",
        "state": "MT",
        "magnitude": 43.0,
        "magnitude_units": null,
        "source": "Mesonet",
        "event_narrative": "Navajo MT-5 16.7_ MT (MT DOT - GGW) Elev: 2569.0 ft; Lat/Lon: 48.81161/-105.06078 10:00 AM - 1:15 PM."
      },
      "geometry": {
        "type": "Point",
        "coordinates": [
          -105.06,
          48.81
        ]
      }
    },
    {
      "type": "Feature",
      "id": "iem-lsr-GGW-101",
      "properties": {
        "report_id": "iem-lsr-GGW-101",
        "report_type": "NON-TSTM WND GST",
        "event_category": "thunderstorm_wind",
        "valid_utc": "202604231613",
        "standard_time_display": "2026-04-23 09:13 MST",
        "wfo": "GGW",
        "county_or_zone": "Roosevelt",
        "city": "3 ENE Wolf Point",
        "state": "MT",
        "magnitude": 58.0,
        "magnitude_units": null,
        "source": "ASOS",
        "event_narrative": "ASOS station KOLF Wolf Point Airport."
      },
      "geometry": {
        "type": "Point",
        "coordinates": [
          -105.58,
          48.1
        ]
      }
    },
    {
      "type": "Feature",
      "id": "iem-lsr-GGW-102",
      "properties": {
        "report_id": "iem-lsr-GGW-102",
        "report_type": "HIGH SUST WINDS",
        "event_category": "other",
        "valid_utc": "202604231615",
        "standard_time_display": "2026-04-23 09:15 MST",
        "wfo": "GGW",
        "county_or_zone": "Sheridan",
        "city": "6 S Comertown",
        "state": "MT",
        "magnitude": 45.0,
        "magnitude_units": null,
        "source": "Mesonet",
        "event_narrative": "Comertown Turn-Off MT-5 MP 13.4_ MT (MT DOT - GGW) Elev: 2359.0 ft; Lat/Lon: 48.81000/-104.25290 10:15AM - 22:30PM."
      },
      "geometry": {
        "type": "Point",
        "coordinates": [
          -104.25,
          48.81
        ]
      }
    },
    {
      "type": "Feature",
      "id": "iem-lsr-GGW-103",
      "properties": {
        "report_id": "iem-lsr-GGW-103",
        "report_type": "HIGH SUST WINDS",
        "event_category": "other",
        "valid_utc": "202604231635",
        "standard_time_display": "2026-04-23 09:35 MST",
        "wfo": "GGW",
        "county_or_zone": "McCone",
        "city": "9 NE Vida",
        "state": "MT",
        "magnitude": 43.0,
        "magnitude_units": null,
        "source": "Mesonet",
        "event_narrative": "Vida NE_ MT (UMT - GGW) Elev: 2224.5 ft; Lat/Lon: 47.92282/-105.34951 10:35 - 12:35."
      },
      "geometry": {
        "type": "Point",
        "coordinates": [
          -105.35,
          47.92
        ]
      }
    },
    {
      "type": "Feature",
      "id": "iem-lsr-GGW-104",
      "properties": {
        "report_id": "iem-lsr-GGW-104",
        "report_type": "BLIZZARD",
        "event_category": "winter",
        "valid_utc": "202604231645",
        "standard_time_display": "2026-04-23 09:45 MST",
        "wfo": "GGW",
        "county_or_zone": "Valley",
        "city": "12 SSW Larslan",
        "state": "MT",
        "magnitude": null,
        "magnitude_units": null,
        "source": "NWS Employee",
        "event_narrative": "While traveling_ an NWS employee experienced white-out blizzard conditions between Nashua and Larslan along state road 438 from 6:30 AM to 8:00 AM. Wind speeds from nearby observations were sustained"
      },
      "geometry": {
        "type": "Point",
        "coordinates": [
          -106.26,
          48.41
        ]
      }
    },
    {
      "type": "Feature",
      "id": "iem-lsr-GGW-105",
      "properties": {
        "report_id": "iem-lsr-GGW-105",
        "report_type": "HIGH SUST WINDS",
        "event_category": "other",
        "valid_utc": "202604231655",
        "standard_time_display": "2026-04-23 09:55 MST",
        "wfo": "GGW",
        "county_or_zone": "Sheridan",
        "city": "2 ENE Plentywood",
        "state": "MT",
        "magnitude": 45.0,
        "magnitude_units": null,
        "source": "Mesonet",
        "event_narrative": "Sher-Wood Airport_ MT (ASOS/AWOS - GGW) Elev: 2264.0 ft; Lat/Lon: 48.78900/-104.52297 10:55AM - 2:55 PM."
      },
      "geometry": {
        "type": "Point",
        "coordinates": [
          -104.52,
          48.78
        ]
      }
    },
    {
      "type": "Feature",
      "id": "iem-lsr-GGW-106",
      "properties": {
        "report_id": "iem-lsr-GGW-106",
        "report_type": "BLIZZARD",
        "event_category": "winter",
        "valid_utc": "202604231700",
        "standard_time_display": "2026-04-23 10:00 MST",
        "wfo": "GGW",
        "county_or_zone": "Valley",
        "city": "5 SSW Opheim",
        "state": "MT",
        "magnitude": null,
        "magnitude_units": null,
        "source": "CO-OP Observer",
        "event_narrative": "Co-op observer reported white-out blizzard conditions from 2:30 AM to 11:00 AM local time. Nearby wind speed observations were sustained at 35-40 mph with gusts consistently at 45 to 50 mph. Snowfall"
      },
      "geometry": {
        "type": "Point",
        "coordinates": [
          -106.43,
          48.79
        ]
      }
    },
    {
      "type": "Feature",
      "id": "iem-lsr-GGW-107",
      "properties": {
        "report_id": "iem-lsr-GGW-107",
        "report_type": "NON-TSTM WND GST",
        "event_category": "thunderstorm_wind",
        "valid_utc": "202604231745",
        "standard_time_display": "2026-04-23 10:45 MST",
        "wfo": "GGW",
        "county_or_zone": "Dawson",
        "city": "5 ESE Hoyt",
        "state": "MT",
        "magnitude": 57.0,
        "magnitude_units": null,
        "source": "Mesonet",
        "event_narrative": "Mesonet station MTM28 5.2 E Hoyt (MT-MESO)."
      },
      "geometry": {
        "type": "Point",
        "coordinates": [
          -104.75,
          46.91
        ]
      }
    },
    {
      "type": "Feature",
      "id": "iem-lsr-GGW-108",
      "properties": {
        "report_id": "iem-lsr-GGW-108",
        "report_type": "BLIZZARD",
        "event_category": "winter",
        "valid_utc": "202604231834",
        "standard_time_display": "2026-04-23 11:34 MST",
        "wfo": "GGW",
        "county_or_zone": "McCone",
        "city": "9 NE Flowing Wells Rest",
        "state": "MT",
        "magnitude": null,
        "magnitude_units": null,
        "source": "Public",
        "event_narrative": "Public report at 20 W Circle of white-out blizzard conditions. Wind speeds sustained at 30 mph_ gusting to 40 mph."
      },
      "geometry": {
        "type": "Point",
        "coordinates": [
          -106.03,
          47.42
        ]
      }
    }
  ]
}