{
  "type": "FeatureCollection",
  "metadata": {
    "schema_version": "0.2.4",
    "year": 2026,
    "month": 5,
    "wfo": "SLC",
    "start_utc": "2026-05-01T00:00:00Z",
    "end_utc": "2026-06-01T00:00:00Z",
    "generated_utc": "2026-06-21T11:55:13Z",
    "mode": "storm_data_prep",
    "public_release_status": "public-source-derived",
    "time_note": "Storm Data entry times should be reviewed in local Standard Time (ST), not daylight time. Candidate reports include standard_time_display.",
    "tornado_track_policy": "Tornado tracks must come from DAT. NCEI begin/end coordinates are not used as a tornado track substitute.",
    "source": "https://mesonet.agron.iastate.edu/cgi-bin/request/gis/lsr.py?wfo=SLC&sts=2026-05-01T00%3A00%3A00Z&ets=2026-06-01T00%3A00%3A00Z&fmt=csv"
  },
  "features": [
    {
      "type": "Feature",
      "id": "iem-lsr-SLC-1",
      "properties": {
        "report_id": "iem-lsr-SLC-1",
        "report_type": "TSTM WND GST",
        "event_category": "thunderstorm_wind",
        "valid_utc": "202605060520",
        "standard_time_display": "2026-05-05 22:20 MST",
        "wfo": "SLC",
        "county_or_zone": "Tooele",
        "city": "Knolls",
        "state": "UT",
        "magnitude": 62.0,
        "magnitude_units": null,
        "source": "Mesonet",
        "event_narrative": "Mesonet station UTKNO I-80 at MP 40 Knolls."
      },
      "geometry": {
        "type": "Point",
        "coordinates": [
          -113.28,
          40.73
        ]
      }
    },
    {
      "type": "Feature",
      "id": "iem-lsr-SLC-2",
      "properties": {
        "report_id": "iem-lsr-SLC-2",
        "report_type": "NON-TSTM WND GST",
        "event_category": "thunderstorm_wind",
        "valid_utc": "202605060850",
        "standard_time_display": "2026-05-06 01:50 MST",
        "wfo": "SLC",
        "county_or_zone": "Davis",
        "city": "1 W Farmington",
        "state": "UT",
        "magnitude": 67.0,
        "magnitude_units": null,
        "source": "Mesonet",
        "event_narrative": "Mesonet station UTPKL US-89 at Park Lane."
      },
      "geometry": {
        "type": "Point",
        "coordinates": [
          -111.9,
          40.99
        ]
      }
    },
    {
      "type": "Feature",
      "id": "iem-lsr-SLC-3",
      "properties": {
        "report_id": "iem-lsr-SLC-3",
        "report_type": "NON-TSTM WND GST",
        "event_category": "thunderstorm_wind",
        "valid_utc": "202605060912",
        "standard_time_display": "2026-05-06 02:12 MST",
        "wfo": "SLC",
        "county_or_zone": "Weber",
        "city": "1 WNW Uintah",
        "state": "UT",
        "magnitude": 64.0,
        "magnitude_units": null,
        "source": "Mesonet",
        "event_narrative": "Mesonet station UP456 1.2 W Uintah."
      },
      "geometry": {
        "type": "Point",
        "coordinates": [
          -111.96,
          41.15
        ]
      }
    },
    {
      "type": "Feature",
      "id": "iem-lsr-SLC-4",
      "properties": {
        "report_id": "iem-lsr-SLC-4",
        "report_type": "NON-TSTM WND GST",
        "event_category": "thunderstorm_wind",
        "valid_utc": "202605131637",
        "standard_time_display": "2026-05-13 09:37 MST",
        "wfo": "SLC",
        "county_or_zone": "Sevier",
        "city": "7 E Glenwood",
        "state": "UT",
        "magnitude": 68.0,
        "magnitude_units": null,
        "source": "Mesonet",
        "event_narrative": "Mesonet station LSCU1 Lost Creek."
      },
      "geometry": {
        "type": "Point",
        "coordinates": [
          -111.87,
          38.78
        ]
      }
    },
    {
      "type": "Feature",
      "id": "iem-lsr-SLC-5",
      "properties": {
        "report_id": "iem-lsr-SLC-5",
        "report_type": "NON-TSTM WND GST",
        "event_category": "thunderstorm_wind",
        "valid_utc": "202605131645",
        "standard_time_display": "2026-05-13 09:45 MST",
        "wfo": "SLC",
        "county_or_zone": "Utah",
        "city": "1 SSE Snowbird",
        "state": "UT",
        "magnitude": 62.0,
        "magnitude_units": null,
        "source": "Mesonet",
        "event_narrative": "Mesonet station HDP Central Wasatch Peaks - West."
      },
      "geometry": {
        "type": "Point",
        "coordinates": [
          -111.64,
          40.56
        ]
      }
    },
    {
      "type": "Feature",
      "id": "iem-lsr-SLC-6",
      "properties": {
        "report_id": "iem-lsr-SLC-6",
        "report_type": "TSTM WND GST",
        "event_category": "thunderstorm_wind",
        "valid_utc": "202605131920",
        "standard_time_display": "2026-05-13 12:20 MST",
        "wfo": "SLC",
        "county_or_zone": "Salt Lake",
        "city": "1 WNW South Salt Lake",
        "state": "UT",
        "magnitude": 59.0,
        "magnitude_units": null,
        "source": "Mesonet",
        "event_narrative": "Mesonet station UT23 I-15/2400 S."
      },
      "geometry": {
        "type": "Point",
        "coordinates": [
          -111.9,
          40.72
        ]
      }
    },
    {
      "type": "Feature",
      "id": "iem-lsr-SLC-7",
      "properties": {
        "report_id": "iem-lsr-SLC-7",
        "report_type": "TSTM WND GST",
        "event_category": "thunderstorm_wind",
        "valid_utc": "202605131935",
        "standard_time_display": "2026-05-13 12:35 MST",
        "wfo": "SLC",
        "county_or_zone": "Salt Lake",
        "city": "South Valley Regional A",
        "state": "UT",
        "magnitude": 59.0,
        "magnitude_units": null,
        "source": "AWOS",
        "event_narrative": "AWOS station KSVR Slc Arpt No. 2."
      },
      "geometry": {
        "type": "Point",
        "coordinates": [
          -111.99,
          40.62
        ]
      }
    },
    {
      "type": "Feature",
      "id": "iem-lsr-SLC-8",
      "properties": {
        "report_id": "iem-lsr-SLC-8",
        "report_type": "TSTM WND GST",
        "event_category": "thunderstorm_wind",
        "valid_utc": "202605131940",
        "standard_time_display": "2026-05-13 12:40 MST",
        "wfo": "SLC",
        "county_or_zone": "Tooele",
        "city": "12 W Knolls",
        "state": "UT",
        "magnitude": 57.0,
        "magnitude_units": null,
        "source": "Mesonet",
        "event_narrative": null
      },
      "geometry": {
        "type": "Point",
        "coordinates": [
          -113.5,
          40.73
        ]
      }
    },
    {
      "type": "Feature",
      "id": "iem-lsr-SLC-9",
      "properties": {
        "report_id": "iem-lsr-SLC-9",
        "report_type": "NON-TSTM WND GST",
        "event_category": "thunderstorm_wind",
        "valid_utc": "202605132000",
        "standard_time_display": "2026-05-13 13:00 MST",
        "wfo": "SLC",
        "county_or_zone": "Iron",
        "city": "3 S Brian Head",
        "state": "UT",
        "magnitude": 58.0,
        "magnitude_units": null,
        "source": "Mesonet",
        "event_narrative": "Mesonet station BHCU1 Brian Head 2S."
      },
      "geometry": {
        "type": "Point",
        "coordinates": [
          -112.84,
          37.66
        ]
      }
    },
    {
      "type": "Feature",
      "id": "iem-lsr-SLC-10",
      "properties": {
        "report_id": "iem-lsr-SLC-10",
        "report_type": "TSTM WND GST",
        "event_category": "thunderstorm_wind",
        "valid_utc": "202605132000",
        "standard_time_display": "2026-05-13 13:00 MST",
        "wfo": "SLC",
        "county_or_zone": "Summit",
        "city": "2 ENE Park City Powderc",
        "state": "UT",
        "magnitude": 59.0,
        "magnitude_units": null,
        "source": "Mesonet",
        "event_narrative": "Mesonet station WDYPK Windy Peak."
      },
      "geometry": {
        "type": "Point",
        "coordinates": [
          -111.02,
          40.84
        ]
      }
    },
    {
      "type": "Feature",
      "id": "iem-lsr-SLC-11",
      "properties": {
        "report_id": "iem-lsr-SLC-11",
        "report_type": "TSTM WND GST",
        "event_category": "thunderstorm_wind",
        "valid_utc": "202605132000",
        "standard_time_display": "2026-05-13 13:00 MST",
        "wfo": "SLC",
        "county_or_zone": "Morgan",
        "city": "4 NE Stoddard",
        "state": "UT",
        "magnitude": 61.0,
        "magnitude_units": null,
        "source": "Mesonet",
        "event_narrative": "Mesonet station PC298 The Head."
      },
      "geometry": {
        "type": "Point",
        "coordinates": [
          -111.64,
          41.11
        ]
      }
    },
    {
      "type": "Feature",
      "id": "iem-lsr-SLC-12",
      "properties": {
        "report_id": "iem-lsr-SLC-12",
        "report_type": "TSTM WND GST",
        "event_category": "thunderstorm_wind",
        "valid_utc": "202605132006",
        "standard_time_display": "2026-05-13 13:06 MST",
        "wfo": "SLC",
        "county_or_zone": "Box Elder",
        "city": "15 SW Lakeside",
        "state": "UT",
        "magnitude": 59.0,
        "magnitude_units": null,
        "source": "AWOS",
        "event_narrative": "AWOS station KU16 14 SW Lakeside."
      },
      "geometry": {
        "type": "Point",
        "coordinates": [
          -113.07,
          41.05
        ]
      }
    },
    {
      "type": "Feature",
      "id": "iem-lsr-SLC-13",
      "properties": {
        "report_id": "iem-lsr-SLC-13",
        "report_type": "NON-TSTM WND GST",
        "event_category": "thunderstorm_wind",
        "valid_utc": "202605132008",
        "standard_time_display": "2026-05-13 13:08 MST",
        "wfo": "SLC",
        "county_or_zone": "Beaver",
        "city": "1 N Milford",
        "state": "UT",
        "magnitude": 58.0,
        "magnitude_units": null,
        "source": "ASOS",
        "event_narrative": "ASOS station KMLF Milford Municipal Airport."
      },
      "geometry": {
        "type": "Point",
        "coordinates": [
          -113.02,
          38.42
        ]
      }
    },
    {
      "type": "Feature",
      "id": "iem-lsr-SLC-14",
      "properties": {
        "report_id": "iem-lsr-SLC-14",
        "report_type": "TSTM WND GST",
        "event_category": "thunderstorm_wind",
        "valid_utc": "202605132010",
        "standard_time_display": "2026-05-13 13:10 MST",
        "wfo": "SLC",
        "county_or_zone": "Tooele",
        "city": "1 W Delle",
        "state": "UT",
        "magnitude": 73.0,
        "magnitude_units": null,
        "source": "Mesonet",
        "event_narrative": "Mesonet station UTWDL I-80 at MP 68 West Delle."
      },
      "geometry": {
        "type": "Point",
        "coordinates": [
          -112.8,
          40.77
        ]
      }
    },
    {
      "type": "Feature",
      "id": "iem-lsr-SLC-15",
      "properties": {
        "report_id": "iem-lsr-SLC-15",
        "report_type": "TSTM WND GST",
        "event_category": "thunderstorm_wind",
        "valid_utc": "202605132020",
        "standard_time_display": "2026-05-13 13:20 MST",
        "wfo": "SLC",
        "county_or_zone": "Uinta",
        "city": "11 NE Almy",
        "state": "WY",
        "magnitude": 65.0,
        "magnitude_units": null,
        "source": "Mesonet",
        "event_narrative": "Mesonet station PC581 Canyon Compression."
      },
      "geometry": {
        "type": "Point",
        "coordinates": [
          -110.88,
          41.46
        ]
      }
    },
    {
      "type": "Feature",
      "id": "iem-lsr-SLC-16",
      "properties": {
        "report_id": "iem-lsr-SLC-16",
        "report_type": "TSTM WND GST",
        "event_category": "thunderstorm_wind",
        "valid_utc": "202605132030",
        "standard_time_display": "2026-05-13 13:30 MST",
        "wfo": "SLC",
        "county_or_zone": "Tooele",
        "city": "1 SE Delle",
        "state": "UT",
        "magnitude": 67.0,
        "magnitude_units": null,
        "source": "Mesonet",
        "event_narrative": "Mesonet station UTEDL I-80 at MP 71 East Delle."
      },
      "geometry": {
        "type": "Point",
        "coordinates": [
          -112.76,
          40.76
        ]
      }
    },
    {
      "type": "Feature",
      "id": "iem-lsr-SLC-17",
      "properties": {
        "report_id": "iem-lsr-SLC-17",
        "report_type": "TSTM WND GST",
        "event_category": "thunderstorm_wind",
        "valid_utc": "202605132035",
        "standard_time_display": "2026-05-13 13:35 MST",
        "wfo": "SLC",
        "county_or_zone": "Box Elder",
        "city": "9 N Lakeside",
        "state": "UT",
        "magnitude": 58.0,
        "magnitude_units": null,
        "source": "Mesonet",
        "event_narrative": "Mesonet station GNI Gunnison Island."
      },
      "geometry": {
        "type": "Point",
        "coordinates": [
          -112.85,
          41.33
        ]
      }
    },
    {
      "type": "Feature",
      "id": "iem-lsr-SLC-18",
      "properties": {
        "report_id": "iem-lsr-SLC-18",
        "report_type": "TSTM WND GST",
        "event_category": "thunderstorm_wind",
        "valid_utc": "202605132040",
        "standard_time_display": "2026-05-13 13:40 MST",
        "wfo": "SLC",
        "county_or_zone": "Uinta",
        "city": "5 ENE Almy",
        "state": "WY",
        "magnitude": 58.0,
        "magnitude_units": null,
        "source": "Mesonet",
        "event_narrative": "Mesonet station PC450 Evanston North."
      },
      "geometry": {
        "type": "Point",
        "coordinates": [
          -110.9,
          41.35
        ]
      }
    },
    {
      "type": "Feature",
      "id": "iem-lsr-SLC-19",
      "properties": {
        "report_id": "iem-lsr-SLC-19",
        "report_type": "TSTM WND GST",
        "event_category": "thunderstorm_wind",
        "valid_utc": "202605132040",
        "standard_time_display": "2026-05-13 13:40 MST",
        "wfo": "SLC",
        "county_or_zone": "Uinta",
        "city": "5 ENE Almy",
        "state": "WY",
        "magnitude": 66.0,
        "magnitude_units": null,
        "source": "Mesonet",
        "event_narrative": "Mesonet station AV868 Medicine Butte Mountain."
      },
      "geometry": {
        "type": "Point",
        "coordinates": [
          -110.91,
          41.35
        ]
      }
    },
    {
      "type": "Feature",
      "id": "iem-lsr-SLC-20",
      "properties": {
        "report_id": "iem-lsr-SLC-20",
        "report_type": "TSTM WND GST",
        "event_category": "thunderstorm_wind",
        "valid_utc": "202605132040",
        "standard_time_display": "2026-05-13 13:40 MST",
        "wfo": "SLC",
        "county_or_zone": "Box Elder",
        "city": "18 ESE Lakeside",
        "state": "UT",
        "magnitude": 70.0,
        "magnitude_units": null,
        "source": "Mesonet",
        "event_narrative": "Mesonet station HATUT Hat Island."
      },
      "geometry": {
        "type": "Point",
        "coordinates": [
          -112.59,
          41.07
        ]
      }
    },
    {
      "type": "Feature",
      "id": "iem-lsr-SLC-21",
      "properties": {
        "report_id": "iem-lsr-SLC-21",
        "report_type": "TSTM WND GST",
        "event_category": "thunderstorm_wind",
        "valid_utc": "202605132042",
        "standard_time_display": "2026-05-13 13:42 MST",
        "wfo": "SLC",
        "county_or_zone": "Box Elder",
        "city": "17 ESE Grouse Cr",
        "state": "UT",
        "magnitude": 61.0,
        "magnitude_units": null,
        "source": "Mesonet",
        "event_narrative": "Mesonet station RSBU1 Rosebud."
      },
      "geometry": {
        "type": "Point",
        "coordinates": [
          -113.59,
          41.61
        ]
      }
    },
    {
      "type": "Feature",
      "id": "iem-lsr-SLC-22",
      "properties": {
        "report_id": "iem-lsr-SLC-22",
        "report_type": "TSTM WND GST",
        "event_category": "thunderstorm_wind",
        "valid_utc": "202605132044",
        "standard_time_display": "2026-05-13 13:44 MST",
        "wfo": "SLC",
        "county_or_zone": "Box Elder",
        "city": "11 E Lakeside",
        "state": "UT",
        "magnitude": 59.0,
        "magnitude_units": null,
        "source": "Mesonet",
        "event_narrative": "Mesonet station UP068 Marsh."
      },
      "geometry": {
        "type": "Point",
        "coordinates": [
          -112.67,
          41.22
        ]
      }
    },
    {
      "type": "Feature",
      "id": "iem-lsr-SLC-23",
      "properties": {
        "report_id": "iem-lsr-SLC-23",
        "report_type": "TSTM WND GST",
        "event_category": "thunderstorm_wind",
        "valid_utc": "202605132045",
        "standard_time_display": "2026-05-13 13:45 MST",
        "wfo": "SLC",
        "county_or_zone": "Summit",
        "city": "2 ENE Park City Powderc",
        "state": "UT",
        "magnitude": 60.0,
        "magnitude_units": null,
        "source": "Mesonet",
        "event_narrative": "Mesonet station WDYPK Windy Peak."
      },
      "geometry": {
        "type": "Point",
        "coordinates": [
          -111.02,
          40.84
        ]
      }
    },
    {
      "type": "Feature",
      "id": "iem-lsr-SLC-24",
      "properties": {
        "report_id": "iem-lsr-SLC-24",
        "report_type": "TSTM WND GST",
        "event_category": "thunderstorm_wind",
        "valid_utc": "202605132050",
        "standard_time_display": "2026-05-13 13:50 MST",
        "wfo": "SLC",
        "county_or_zone": "Utah",
        "city": "2 NNW Saratoga Springs",
        "state": "UT",
        "magnitude": 61.0,
        "magnitude_units": null,
        "source": "Mesonet",
        "event_narrative": "Mesonet station UTPCR Pioneer Crossing."
      },
      "geometry": {
        "type": "Point",
        "coordinates": [
          -111.92,
          40.37
        ]
      }
    },
    {
      "type": "Feature",
      "id": "iem-lsr-SLC-25",
      "properties": {
        "report_id": "iem-lsr-SLC-25",
        "report_type": "TSTM WND GST",
        "event_category": "thunderstorm_wind",
        "valid_utc": "202605132050",
        "standard_time_display": "2026-05-13 13:50 MST",
        "wfo": "SLC",
        "county_or_zone": "Wasatch",
        "city": "2 ESE Sundance",
        "state": "UT",
        "magnitude": 66.0,
        "magnitude_units": null,
        "source": "Mesonet",
        "event_narrative": "Mesonet station CW9635 Salt Lake City."
      },
      "geometry": {
        "type": "Point",
        "coordinates": [
          -111.55,
          40.36
        ]
      }
    },
    {
      "type": "Feature",
      "id": "iem-lsr-SLC-26",
      "properties": {
        "report_id": "iem-lsr-SLC-26",
        "report_type": "TSTM WND GST",
        "event_category": "thunderstorm_wind",
        "valid_utc": "202605132055",
        "standard_time_display": "2026-05-13 13:55 MST",
        "wfo": "SLC",
        "county_or_zone": "Box Elder",
        "city": "9 N Lakeside",
        "state": "UT",
        "magnitude": 66.0,
        "magnitude_units": null,
        "source": "Mesonet",
        "event_narrative": "Mesonet station GNI Gunnison Island."
      },
      "geometry": {
        "type": "Point",
        "coordinates": [
          -112.85,
          41.33
        ]
      }
    },
    {
      "type": "Feature",
      "id": "iem-lsr-SLC-27",
      "properties": {
        "report_id": "iem-lsr-SLC-27",
        "report_type": "TSTM WND GST",
        "event_category": "thunderstorm_wind",
        "valid_utc": "202605132055",
        "standard_time_display": "2026-05-13 13:55 MST",
        "wfo": "SLC",
        "county_or_zone": "Utah",
        "city": "3 ESE Bluffdale",
        "state": "UT",
        "magnitude": 69.0,
        "magnitude_units": null,
        "source": "Mesonet",
        "event_narrative": "Mesonet station FPS Flight Park South."
      },
      "geometry": {
        "type": "Point",
        "coordinates": [
          -111.9,
          40.46
        ]
      }
    },
    {
      "type": "Feature",
      "id": "iem-lsr-SLC-28",
      "properties": {
        "report_id": "iem-lsr-SLC-28",
        "report_type": "TSTM WND GST",
        "event_category": "thunderstorm_wind",
        "valid_utc": "202605132100",
        "standard_time_display": "2026-05-13 14:00 MST",
        "wfo": "SLC",
        "county_or_zone": "Utah",
        "city": "3 SE Bluffdale",
        "state": "UT",
        "magnitude": 60.0,
        "magnitude_units": null,
        "source": "Mesonet",
        "event_narrative": "Mesonet station UTALP Point of the Mountain."
      },
      "geometry": {
        "type": "Point",
        "coordinates": [
          -111.91,
          40.45
        ]
      }
    },
    {
      "type": "Feature",
      "id": "iem-lsr-SLC-29",
      "properties": {
        "report_id": "iem-lsr-SLC-29",
        "report_type": "TSTM WND GST",
        "event_category": "thunderstorm_wind",
        "valid_utc": "202605132100",
        "standard_time_display": "2026-05-13 14:00 MST",
        "wfo": "SLC",
        "county_or_zone": "Juab",
        "city": "4 SSE Tintic Jct",
        "state": "UT",
        "magnitude": 60.0,
        "magnitude_units": null,
        "source": "Mesonet",
        "event_narrative": "Mesonet station FG011 Tintic."
      },
      "geometry": {
        "type": "Point",
        "coordinates": [
          -112.14,
          39.87
        ]
      }
    },
    {
      "type": "Feature",
      "id": "iem-lsr-SLC-30",
      "properties": {
        "report_id": "iem-lsr-SLC-30",
        "report_type": "TSTM WND GST",
        "event_category": "thunderstorm_wind",
        "valid_utc": "202605132100",
        "standard_time_display": "2026-05-13 14:00 MST",
        "wfo": "SLC",
        "county_or_zone": "Salt Lake",
        "city": "1 SW Draper",
        "state": "UT",
        "magnitude": 63.0,
        "magnitude_units": null,
        "source": "Mesonet",
        "event_narrative": "Mesonet station DW9435 Draper."
      },
      "geometry": {
        "type": "Point",
        "coordinates": [
          -111.88,
          40.48
        ]
      }
    },
    {
      "type": "Feature",
      "id": "iem-lsr-SLC-31",
      "properties": {
        "report_id": "iem-lsr-SLC-31",
        "report_type": "TSTM WND GST",
        "event_category": "thunderstorm_wind",
        "valid_utc": "202605132100",
        "standard_time_display": "2026-05-13 14:00 MST",
        "wfo": "SLC",
        "county_or_zone": "Weber",
        "city": "11 W Hooper",
        "state": "UT",
        "magnitude": 70.0,
        "magnitude_units": null,
        "source": "Mesonet",
        "event_narrative": "Mesonet station FREUT Fremont Island - Miller Hill."
      },
      "geometry": {
        "type": "Point",
        "coordinates": [
          -112.33,
          41.15
        ]
      }
    },
    {
      "type": "Feature",
      "id": "iem-lsr-SLC-32",
      "properties": {
        "report_id": "iem-lsr-SLC-32",
        "report_type": "TSTM WND GST",
        "event_category": "thunderstorm_wind",
        "valid_utc": "202605132105",
        "standard_time_display": "2026-05-13 14:05 MST",
        "wfo": "SLC",
        "county_or_zone": "Weber",
        "city": "11 W Hooper",
        "state": "UT",
        "magnitude": 77.0,
        "magnitude_units": null,
        "source": "Mesonet",
        "event_narrative": "Mesonet station FREUT Fremont Island - Miller Hill."
      },
      "geometry": {
        "type": "Point",
        "coordinates": [
          -112.33,
          41.15
        ]
      }
    },
    {
      "type": "Feature",
      "id": "iem-lsr-SLC-33",
      "properties": {
        "report_id": "iem-lsr-SLC-33",
        "report_type": "TSTM WND GST",
        "event_category": "thunderstorm_wind",
        "valid_utc": "202605132110",
        "standard_time_display": "2026-05-13 14:10 MST",
        "wfo": "SLC",
        "county_or_zone": "Sevier",
        "city": "2 SW Glenwood",
        "state": "UT",
        "magnitude": 58.0,
        "magnitude_units": null,
        "source": "Mesonet",
        "event_narrative": "Mesonet station PC482 Bull Claim Hill."
      },
      "geometry": {
        "type": "Point",
        "coordinates": [
          -112.02,
          38.74
        ]
      }
    },
    {
      "type": "Feature",
      "id": "iem-lsr-SLC-34",
      "properties": {
        "report_id": "iem-lsr-SLC-34",
        "report_type": "TSTM WND DMG",
        "event_category": "thunderstorm_wind",
        "valid_utc": "202605132115",
        "standard_time_display": "2026-05-13 14:15 MST",
        "wfo": "SLC",
        "county_or_zone": "Salt Lake",
        "city": "1 WNW Sugarhouse",
        "state": "UT",
        "magnitude": null,
        "magnitude_units": null,
        "source": "Broadcast Media",
        "event_narrative": "Trees and power lines down."
      },
      "geometry": {
        "type": "Point",
        "coordinates": [
          -111.83,
          40.73
        ]
      }
    },
    {
      "type": "Feature",
      "id": "iem-lsr-SLC-35",
      "properties": {
        "report_id": "iem-lsr-SLC-35",
        "report_type": "TSTM WND DMG",
        "event_category": "thunderstorm_wind",
        "valid_utc": "202605132115",
        "standard_time_display": "2026-05-13 14:15 MST",
        "wfo": "SLC",
        "county_or_zone": "Salt Lake",
        "city": "2 SSW Salt Lake City",
        "state": "UT",
        "magnitude": null,
        "magnitude_units": null,
        "source": "Public",
        "event_narrative": "Public photo of large tree split and downed along the 9 Line Trail on 900 S near 300 E."
      },
      "geometry": {
        "type": "Point",
        "coordinates": [
          -111.88,
          40.75
        ]
      }
    },
    {
      "type": "Feature",
      "id": "iem-lsr-SLC-36",
      "properties": {
        "report_id": "iem-lsr-SLC-36",
        "report_type": "TSTM WND GST",
        "event_category": "thunderstorm_wind",
        "valid_utc": "202605132120",
        "standard_time_display": "2026-05-13 14:20 MST",
        "wfo": "SLC",
        "county_or_zone": "Salt Lake",
        "city": "1 NE Holladay",
        "state": "UT",
        "magnitude": 59.0,
        "magnitude_units": null,
        "source": "Mesonet",
        "event_narrative": "Mesonet station UTOLY I-215 at Olympus Cove."
      },
      "geometry": {
        "type": "Point",
        "coordinates": [
          -111.8,
          40.68
        ]
      }
    },
    {
      "type": "Feature",
      "id": "iem-lsr-SLC-37",
      "properties": {
        "report_id": "iem-lsr-SLC-37",
        "report_type": "TSTM WND GST",
        "event_category": "thunderstorm_wind",
        "valid_utc": "202605132120",
        "standard_time_display": "2026-05-13 14:20 MST",
        "wfo": "SLC",
        "county_or_zone": "Tooele",
        "city": "2 NNE Lake Pt",
        "state": "UT",
        "magnitude": 60.0,
        "magnitude_units": null,
        "source": "Mesonet",
        "event_narrative": "Mesonet station PC490 Kennecott Rd Lake Point."
      },
      "geometry": {
        "type": "Point",
        "coordinates": [
          -112.25,
          40.7
        ]
      }
    },
    {
      "type": "Feature",
      "id": "iem-lsr-SLC-38",
      "properties": {
        "report_id": "iem-lsr-SLC-38",
        "report_type": "TSTM WND GST",
        "event_category": "thunderstorm_wind",
        "valid_utc": "202605132120",
        "standard_time_display": "2026-05-13 14:20 MST",
        "wfo": "SLC",
        "county_or_zone": "Salt Lake",
        "city": "2 WSW Big Cottonwood -",
        "state": "UT",
        "magnitude": 60.0,
        "magnitude_units": null,
        "source": "Mesonet",
        "event_narrative": "Mesonet station UTSTR S-Turns - Big Cottonwood Canyon."
      },
      "geometry": {
        "type": "Point",
        "coordinates": [
          -111.72,
          40.63
        ]
      }
    },
    {
      "type": "Feature",
      "id": "iem-lsr-SLC-39",
      "properties": {
        "report_id": "iem-lsr-SLC-39",
        "report_type": "TSTM WND GST",
        "event_category": "thunderstorm_wind",
        "valid_utc": "202605132120",
        "standard_time_display": "2026-05-13 14:20 MST",
        "wfo": "SLC",
        "county_or_zone": "Box Elder",
        "city": "3 SW Curlew Jct",
        "state": "UT",
        "magnitude": 60.0,
        "magnitude_units": null,
        "source": "Mesonet",
        "event_narrative": "Mesonet station UTCUR Curlew Junction."
      },
      "geometry": {
        "type": "Point",
        "coordinates": [
          -113.09,
          41.94
        ]
      }
    },
    {
      "type": "Feature",
      "id": "iem-lsr-SLC-40",
      "properties": {
        "report_id": "iem-lsr-SLC-40",
        "report_type": "NON-TSTM WND GST",
        "event_category": "thunderstorm_wind",
        "valid_utc": "202605132120",
        "standard_time_display": "2026-05-13 14:20 MST",
        "wfo": "SLC",
        "county_or_zone": "Iron",
        "city": "9 SSW Minersville",
        "state": "UT",
        "magnitude": 60.0,
        "magnitude_units": null,
        "source": "Mesonet",
        "event_narrative": "Mesonet station PC472 Dry Willow."
      },
      "geometry": {
        "type": "Point",
        "coordinates": [
          -113.01,
          38.1
        ]
      }
    },
    {
      "type": "Feature",
      "id": "iem-lsr-SLC-41",
      "properties": {
        "report_id": "iem-lsr-SLC-41",
        "report_type": "TSTM WND GST",
        "event_category": "thunderstorm_wind",
        "valid_utc": "202605132120",
        "standard_time_display": "2026-05-13 14:20 MST",
        "wfo": "SLC",
        "county_or_zone": "Emery",
        "city": "2 SW Huntington",
        "state": "UT",
        "magnitude": 61.0,
        "magnitude_units": null,
        "source": "Mesonet",
        "event_narrative": "Mesonet station PC597 Huntington Sw."
      },
      "geometry": {
        "type": "Point",
        "coordinates": [
          -110.98,
          39.31
        ]
      }
    },
    {
      "type": "Feature",
      "id": "iem-lsr-SLC-42",
      "properties": {
        "report_id": "iem-lsr-SLC-42",
        "report_type": "TSTM WND GST",
        "event_category": "thunderstorm_wind",
        "valid_utc": "202605132120",
        "standard_time_display": "2026-05-13 14:20 MST",
        "wfo": "SLC",
        "county_or_zone": "Salt Lake",
        "city": "2 E Sugarhouse",
        "state": "UT",
        "magnitude": 62.0,
        "magnitude_units": null,
        "source": "Mesonet",
        "event_narrative": "Mesonet station UTQRY Parleys Canyon Quarry."
      },
      "geometry": {
        "type": "Point",
        "coordinates": [
          -111.77,
          40.73
        ]
      }
    },
    {
      "type": "Feature",
      "id": "iem-lsr-SLC-43",
      "properties": {
        "report_id": "iem-lsr-SLC-43",
        "report_type": "TSTM WND GST",
        "event_category": "thunderstorm_wind",
        "valid_utc": "202605132120",
        "standard_time_display": "2026-05-13 14:20 MST",
        "wfo": "SLC",
        "county_or_zone": "Salt Lake",
        "city": "Alta - Udot",
        "state": "UT",
        "magnitude": 66.0,
        "magnitude_units": null,
        "source": "Mesonet",
        "event_narrative": "Mesonet station AGD Alta - Guard House."
      },
      "geometry": {
        "type": "Point",
        "coordinates": [
          -111.64,
          40.59
        ]
      }
    },
    {
      "type": "Feature",
      "id": "iem-lsr-SLC-44",
      "properties": {
        "report_id": "iem-lsr-SLC-44",
        "report_type": "TSTM WND DMG",
        "event_category": "thunderstorm_wind",
        "valid_utc": "202605132125",
        "standard_time_display": "2026-05-13 14:25 MST",
        "wfo": "SLC",
        "county_or_zone": "Tooele",
        "city": "8 ESE Delle",
        "state": "UT",
        "magnitude": null,
        "magnitude_units": null,
        "source": "Dept of Highways",
        "event_narrative": "Semi blown over near mile post 77 along I-80."
      },
      "geometry": {
        "type": "Point",
        "coordinates": [
          -112.64,
          40.74
        ]
      }
    },
    {
      "type": "Feature",
      "id": "iem-lsr-SLC-45",
      "properties": {
        "report_id": "iem-lsr-SLC-45",
        "report_type": "TSTM WND GST",
        "event_category": "thunderstorm_wind",
        "valid_utc": "202605132130",
        "standard_time_display": "2026-05-13 14:30 MST",
        "wfo": "SLC",
        "county_or_zone": "Box Elder",
        "city": "7 SE Snowville",
        "state": "UT",
        "magnitude": 58.0,
        "magnitude_units": null,
        "source": "Mesonet",
        "event_narrative": "Mesonet station UTCKH Chaulk Hill."
      },
      "geometry": {
        "type": "Point",
        "coordinates": [
          -112.61,
          41.91
        ]
      }
    },
    {
      "type": "Feature",
      "id": "iem-lsr-SLC-46",
      "properties": {
        "report_id": "iem-lsr-SLC-46",
        "report_type": "TSTM WND GST",
        "event_category": "thunderstorm_wind",
        "valid_utc": "202605132130",
        "standard_time_display": "2026-05-13 14:30 MST",
        "wfo": "SLC",
        "county_or_zone": "Salt Lake",
        "city": "Salt Lake City Weather",
        "state": "UT",
        "magnitude": 58.0,
        "magnitude_units": null,
        "source": "Mesonet",
        "event_narrative": "Mesonet station UT215 I-215 at I-80."
      },
      "geometry": {
        "type": "Point",
        "coordinates": [
          -111.95,
          40.77
        ]
      }
    },
    {
      "type": "Feature",
      "id": "iem-lsr-SLC-47",
      "properties": {
        "report_id": "iem-lsr-SLC-47",
        "report_type": "TSTM WND GST",
        "event_category": "thunderstorm_wind",
        "valid_utc": "202605132130",
        "standard_time_display": "2026-05-13 14:30 MST",
        "wfo": "SLC",
        "county_or_zone": "Piute",
        "city": "2 S Junction",
        "state": "UT",
        "magnitude": 59.0,
        "magnitude_units": null,
        "source": "Mesonet",
        "event_narrative": "Mesonet station PC172 Junction South."
      },
      "geometry": {
        "type": "Point",
        "coordinates": [
          -112.23,
          38.22
        ]
      }
    },
    {
      "type": "Feature",
      "id": "iem-lsr-SLC-48",
      "properties": {
        "report_id": "iem-lsr-SLC-48",
        "report_type": "TSTM WND GST",
        "event_category": "thunderstorm_wind",
        "valid_utc": "202605132130",
        "standard_time_display": "2026-05-13 14:30 MST",
        "wfo": "SLC",
        "county_or_zone": "Box Elder",
        "city": "2 SSE Tremonton",
        "state": "UT",
        "magnitude": 60.0,
        "magnitude_units": null,
        "source": "Mesonet",
        "event_narrative": "Mesonet station UT28 Tremonton."
      },
      "geometry": {
        "type": "Point",
        "coordinates": [
          -112.16,
          41.69
        ]
      }
    },
    {
      "type": "Feature",
      "id": "iem-lsr-SLC-49",
      "properties": {
        "report_id": "iem-lsr-SLC-49",
        "report_type": "TSTM WND GST",
        "event_category": "thunderstorm_wind",
        "valid_utc": "202605132130",
        "standard_time_display": "2026-05-13 14:30 MST",
        "wfo": "SLC",
        "county_or_zone": "Salt Lake",
        "city": "6 NNW Summit Park",
        "state": "UT",
        "magnitude": 61.0,
        "magnitude_units": null,
        "source": "Mesonet",
        "event_narrative": "Mesonet station UTBIG Big Mountain Pass."
      },
      "geometry": {
        "type": "Point",
        "coordinates": [
          -111.65,
          40.83
        ]
      }
    },
    {
      "type": "Feature",
      "id": "iem-lsr-SLC-50",
      "properties": {
        "report_id": "iem-lsr-SLC-50",
        "report_type": "TSTM WND GST",
        "event_category": "thunderstorm_wind",
        "valid_utc": "202605132130",
        "standard_time_display": "2026-05-13 14:30 MST",
        "wfo": "SLC",
        "county_or_zone": "Salt Lake",
        "city": "5 W Summit Park",
        "state": "UT",
        "magnitude": 62.0,
        "magnitude_units": null,
        "source": "Mesonet",
        "event_narrative": "Mesonet station UTECY I-80 At Mp 134 East Canyon."
      },
      "geometry": {
        "type": "Point",
        "coordinates": [
          -111.71,
          40.75
        ]
      }
    },
    {
      "type": "Feature",
      "id": "iem-lsr-SLC-51",
      "properties": {
        "report_id": "iem-lsr-SLC-51",
        "report_type": "TSTM WND GST",
        "event_category": "thunderstorm_wind",
        "valid_utc": "202605132130",
        "standard_time_display": "2026-05-13 14:30 MST",
        "wfo": "SLC",
        "county_or_zone": "Tooele",
        "city": "4 NNE Lake Pt",
        "state": "UT",
        "magnitude": 65.0,
        "magnitude_units": null,
        "source": "Mesonet",
        "event_narrative": "Mesonet station UT201 SR-201 at I-80."
      },
      "geometry": {
        "type": "Point",
        "coordinates": [
          -112.23,
          40.72
        ]
      }
    },
    {
      "type": "Feature",
      "id": "iem-lsr-SLC-52",
      "properties": {
        "report_id": "iem-lsr-SLC-52",
        "report_type": "TSTM WND GST",
        "event_category": "thunderstorm_wind",
        "valid_utc": "202605132130",
        "standard_time_display": "2026-05-13 14:30 MST",
        "wfo": "SLC",
        "county_or_zone": "Box Elder",
        "city": "3 NE Corinne",
        "state": "UT",
        "magnitude": 67.0,
        "magnitude_units": null,
        "source": "Mesonet",
        "event_narrative": "Mesonet station UTNBC I-15 North Brigham City."
      },
      "geometry": {
        "type": "Point",
        "coordinates": [
          -112.07,
          41.58
        ]
      }
    },
    {
      "type": "Feature",
      "id": "iem-lsr-SLC-53",
      "properties": {
        "report_id": "iem-lsr-SLC-53",
        "report_type": "TSTM WND GST",
        "event_category": "thunderstorm_wind",
        "valid_utc": "202605132130",
        "standard_time_display": "2026-05-13 14:30 MST",
        "wfo": "SLC",
        "county_or_zone": "Salt Lake",
        "city": "6 NNW Summit Park",
        "state": "UT",
        "magnitude": 68.0,
        "magnitude_units": null,
        "source": "Mesonet",
        "event_narrative": "Mesonet station PC409 Mws Ut 5 Big Mountain Pass."
      },
      "geometry": {
        "type": "Point",
        "coordinates": [
          -111.65,
          40.83
        ]
      }
    },
    {
      "type": "Feature",
      "id": "iem-lsr-SLC-54",
      "properties": {
        "report_id": "iem-lsr-SLC-54",
        "report_type": "TSTM WND GST",
        "event_category": "thunderstorm_wind",
        "valid_utc": "202605132130",
        "standard_time_display": "2026-05-13 14:30 MST",
        "wfo": "SLC",
        "county_or_zone": "Tooele",
        "city": "8 ESE Delle",
        "state": "UT",
        "magnitude": 69.0,
        "magnitude_units": null,
        "source": "Mesonet",
        "event_narrative": "Mesonet station UT31 I-80 at MP 78."
      },
      "geometry": {
        "type": "Point",
        "coordinates": [
          -112.62,
          40.74
        ]
      }
    },
    {
      "type": "Feature",
      "id": "iem-lsr-SLC-55",
      "properties": {
        "report_id": "iem-lsr-SLC-55",
        "report_type": "TSTM WND GST",
        "event_category": "thunderstorm_wind",
        "valid_utc": "202605132140",
        "standard_time_display": "2026-05-13 14:40 MST",
        "wfo": "SLC",
        "county_or_zone": "Box Elder",
        "city": "3 SW Curlew Jct",
        "state": "UT",
        "magnitude": 60.0,
        "magnitude_units": null,
        "source": "Mesonet",
        "event_narrative": "Mesonet station UTCUR Curlew Junction."
      },
      "geometry": {
        "type": "Point",
        "coordinates": [
          -113.09,
          41.94
        ]
      }
    },
    {
      "type": "Feature",
      "id": "iem-lsr-SLC-56",
      "properties": {
        "report_id": "iem-lsr-SLC-56",
        "report_type": "TSTM WND GST",
        "event_category": "thunderstorm_wind",
        "valid_utc": "202605132140",
        "standard_time_display": "2026-05-13 14:40 MST",
        "wfo": "SLC",
        "county_or_zone": "Summit",
        "city": "3 NNW East Basin",
        "state": "UT",
        "magnitude": 64.0,
        "magnitude_units": null,
        "source": "Mesonet",
        "event_narrative": "Mesonet station UTTOL Tollgate Canyon."
      },
      "geometry": {
        "type": "Point",
        "coordinates": [
          -111.47,
          40.77
        ]
      }
    },
    {
      "type": "Feature",
      "id": "iem-lsr-SLC-57",
      "properties": {
        "report_id": "iem-lsr-SLC-57",
        "report_type": "TSTM WND GST",
        "event_category": "thunderstorm_wind",
        "valid_utc": "202605132140",
        "standard_time_display": "2026-05-13 14:40 MST",
        "wfo": "SLC",
        "county_or_zone": "Cache",
        "city": "2 SW Wellsville",
        "state": "UT",
        "magnitude": 70.0,
        "magnitude_units": null,
        "source": "Mesonet",
        "event_narrative": "Mesonet station PC123 Murray'S Hill."
      },
      "geometry": {
        "type": "Point",
        "coordinates": [
          -111.95,
          41.61
        ]
      }
    },
    {
      "type": "Feature",
      "id": "iem-lsr-SLC-58",
      "properties": {
        "report_id": "iem-lsr-SLC-58",
        "report_type": "TSTM WND GST",
        "event_category": "thunderstorm_wind",
        "valid_utc": "202605132150",
        "standard_time_display": "2026-05-13 14:50 MST",
        "wfo": "SLC",
        "county_or_zone": "Weber",
        "city": "1 NNE Nordic Vly",
        "state": "UT",
        "magnitude": 58.0,
        "magnitude_units": null,
        "source": "Mesonet",
        "event_narrative": "Mesonet station UTPOW Sr-158 At Mp 11.5 Powder Mountai."
      },
      "geometry": {
        "type": "Point",
        "coordinates": [
          -111.78,
          41.38
        ]
      }
    },
    {
      "type": "Feature",
      "id": "iem-lsr-SLC-59",
      "properties": {
        "report_id": "iem-lsr-SLC-59",
        "report_type": "TSTM WND GST",
        "event_category": "thunderstorm_wind",
        "valid_utc": "202605132150",
        "standard_time_display": "2026-05-13 14:50 MST",
        "wfo": "SLC",
        "county_or_zone": "Carbon",
        "city": "1 ENE Clear Creek",
        "state": "UT",
        "magnitude": 59.0,
        "magnitude_units": null,
        "source": "Mesonet",
        "event_narrative": "Mesonet station PC254 The Elbow."
      },
      "geometry": {
        "type": "Point",
        "coordinates": [
          -111.13,
          39.65
        ]
      }
    },
    {
      "type": "Feature",
      "id": "iem-lsr-SLC-60",
      "properties": {
        "report_id": "iem-lsr-SLC-60",
        "report_type": "TSTM WND GST",
        "event_category": "thunderstorm_wind",
        "valid_utc": "202605132150",
        "standard_time_display": "2026-05-13 14:50 MST",
        "wfo": "SLC",
        "county_or_zone": "Box Elder",
        "city": "3 ENE Collinston",
        "state": "UT",
        "magnitude": 60.0,
        "magnitude_units": null,
        "source": "Mesonet",
        "event_narrative": "Mesonet station UT30 SR-30."
      },
      "geometry": {
        "type": "Point",
        "coordinates": [
          -112.02,
          41.78
        ]
      }
    },
    {
      "type": "Feature",
      "id": "iem-lsr-SLC-61",
      "properties": {
        "report_id": "iem-lsr-SLC-61",
        "report_type": "TSTM WND GST",
        "event_category": "thunderstorm_wind",
        "valid_utc": "202605132154",
        "standard_time_display": "2026-05-13 14:54 MST",
        "wfo": "SLC",
        "county_or_zone": "Cache",
        "city": "2 WNW North Logan",
        "state": "UT",
        "magnitude": 75.0,
        "magnitude_units": null,
        "source": "ASOS",
        "event_narrative": "ASOS station KLGU Logan-Cache Airport."
      },
      "geometry": {
        "type": "Point",
        "coordinates": [
          -111.85,
          41.78
        ]
      }
    },
    {
      "type": "Feature",
      "id": "iem-lsr-SLC-62",
      "properties": {
        "report_id": "iem-lsr-SLC-62",
        "report_type": "TSTM WND GST",
        "event_category": "thunderstorm_wind",
        "valid_utc": "202605132200",
        "standard_time_display": "2026-05-13 15:00 MST",
        "wfo": "SLC",
        "county_or_zone": "Summit",
        "city": "8 ENE Trial Lk",
        "state": "UT",
        "magnitude": 58.0,
        "magnitude_units": null,
        "source": "Mesonet",
        "event_narrative": "Mesonet station LOFTY Trial Lake."
      },
      "geometry": {
        "type": "Point",
        "coordinates": [
          -110.89,
          40.73
        ]
      }
    },
    {
      "type": "Feature",
      "id": "iem-lsr-SLC-63",
      "properties": {
        "report_id": "iem-lsr-SLC-63",
        "report_type": "TSTM WND GST",
        "event_category": "thunderstorm_wind",
        "valid_utc": "202605132200",
        "standard_time_display": "2026-05-13 15:00 MST",
        "wfo": "SLC",
        "county_or_zone": "Box Elder",
        "city": "9 SSE Snowville",
        "state": "UT",
        "magnitude": 59.0,
        "magnitude_units": null,
        "source": "Mesonet",
        "event_narrative": "Mesonet station PC358 Hansel Valley."
      },
      "geometry": {
        "type": "Point",
        "coordinates": [
          -112.67,
          41.85
        ]
      }
    },
    {
      "type": "Feature",
      "id": "iem-lsr-SLC-64",
      "properties": {
        "report_id": "iem-lsr-SLC-64",
        "report_type": "TSTM WND GST",
        "event_category": "thunderstorm_wind",
        "valid_utc": "202605132200",
        "standard_time_display": "2026-05-13 15:00 MST",
        "wfo": "SLC",
        "county_or_zone": "Summit",
        "city": "2 ENE Park City Powderc",
        "state": "UT",
        "magnitude": 72.0,
        "magnitude_units": null,
        "source": "Mesonet",
        "event_narrative": "Mesonet station WDYPK Windy Peak."
      },
      "geometry": {
        "type": "Point",
        "coordinates": [
          -111.02,
          40.84
        ]
      }
    },
    {
      "type": "Feature",
      "id": "iem-lsr-SLC-65",
      "properties": {
        "report_id": "iem-lsr-SLC-65",
        "report_type": "TSTM WND GST",
        "event_category": "thunderstorm_wind",
        "valid_utc": "202605132200",
        "standard_time_display": "2026-05-13 15:00 MST",
        "wfo": "SLC",
        "county_or_zone": "Tooele",
        "city": "3 W Stockton",
        "state": "UT",
        "magnitude": 76.0,
        "magnitude_units": null,
        "source": "Mesonet",
        "event_narrative": "Mesonet station SMT South Mountain."
      },
      "geometry": {
        "type": "Point",
        "coordinates": [
          -112.41,
          40.46
        ]
      }
    },
    {
      "type": "Feature",
      "id": "iem-lsr-SLC-66",
      "properties": {
        "report_id": "iem-lsr-SLC-66",
        "report_type": "TSTM WND GST",
        "event_category": "thunderstorm_wind",
        "valid_utc": "202605132200",
        "standard_time_display": "2026-05-13 15:00 MST",
        "wfo": "SLC",
        "county_or_zone": "Cache",
        "city": "5 E Providence",
        "state": "UT",
        "magnitude": 79.0,
        "magnitude_units": null,
        "source": "Mesonet",
        "event_narrative": "Mesonet station LGP Logan Peak."
      },
      "geometry": {
        "type": "Point",
        "coordinates": [
          -111.72,
          41.71
        ]
      }
    },
    {
      "type": "Feature",
      "id": "iem-lsr-SLC-67",
      "properties": {
        "report_id": "iem-lsr-SLC-67",
        "report_type": "TSTM WND GST",
        "event_category": "thunderstorm_wind",
        "valid_utc": "202605132200",
        "standard_time_display": "2026-05-13 15:00 MST",
        "wfo": "SLC",
        "county_or_zone": "Cache",
        "city": "3 NNE Smithfield",
        "state": "UT",
        "magnitude": 93.0,
        "magnitude_units": null,
        "source": "Mesonet",
        "event_narrative": "Mesonet station PC124 Crow Mountain."
      },
      "geometry": {
        "type": "Point",
        "coordinates": [
          -111.81,
          41.87
        ]
      }
    },
    {
      "type": "Feature",
      "id": "iem-lsr-SLC-68",
      "properties": {
        "report_id": "iem-lsr-SLC-68",
        "report_type": "TSTM WND DMG",
        "event_category": "thunderstorm_wind",
        "valid_utc": "202605132200",
        "standard_time_display": "2026-05-13 15:00 MST",
        "wfo": "SLC",
        "county_or_zone": "Cache",
        "city": "1 S Smithfield",
        "state": "UT",
        "magnitude": null,
        "magnitude_units": null,
        "source": "Emergency Mngr",
        "event_narrative": "Swath of tree damage and downed power lines from the Logan Airport to Smithfield."
      },
      "geometry": {
        "type": "Point",
        "coordinates": [
          -111.83,
          41.82
        ]
      }
    },
    {
      "type": "Feature",
      "id": "iem-lsr-SLC-69",
      "properties": {
        "report_id": "iem-lsr-SLC-69",
        "report_type": "TSTM WND DMG",
        "event_category": "thunderstorm_wind",
        "valid_utc": "202605132200",
        "standard_time_display": "2026-05-13 15:00 MST",
        "wfo": "SLC",
        "county_or_zone": "Cache",
        "city": "Richmond",
        "state": "UT",
        "magnitude": null,
        "magnitude_units": null,
        "source": "Emergency Mngr",
        "event_narrative": "Multi-vehicle crash due to strong thunderstorm winds."
      },
      "geometry": {
        "type": "Point",
        "coordinates": [
          -111.81,
          41.92
        ]
      }
    },
    {
      "type": "Feature",
      "id": "iem-lsr-SLC-70",
      "properties": {
        "report_id": "iem-lsr-SLC-70",
        "report_type": "TSTM WND GST",
        "event_category": "thunderstorm_wind",
        "valid_utc": "202605132210",
        "standard_time_display": "2026-05-13 15:10 MST",
        "wfo": "SLC",
        "county_or_zone": "Cache",
        "city": "1 SSW Richmond",
        "state": "UT",
        "magnitude": 58.0,
        "magnitude_units": null,
        "source": "Mesonet",
        "event_narrative": "Mesonet station UTRMD US-91 at MP 39 Richmond."
      },
      "geometry": {
        "type": "Point",
        "coordinates": [
          -111.81,
          41.91
        ]
      }
    },
    {
      "type": "Feature",
      "id": "iem-lsr-SLC-71",
      "properties": {
        "report_id": "iem-lsr-SLC-71",
        "report_type": "TSTM WND GST",
        "event_category": "thunderstorm_wind",
        "valid_utc": "202605132220",
        "standard_time_display": "2026-05-13 15:20 MST",
        "wfo": "SLC",
        "county_or_zone": "Cache",
        "city": "1 NE Logan",
        "state": "UT",
        "magnitude": 58.0,
        "magnitude_units": null,
        "source": "Mesonet",
        "event_narrative": "Mesonet station UTUSU US-89 at USU."
      },
      "geometry": {
        "type": "Point",
        "coordinates": [
          -111.81,
          41.74
        ]
      }
    },
    {
      "type": "Feature",
      "id": "iem-lsr-SLC-72",
      "properties": {
        "report_id": "iem-lsr-SLC-72",
        "report_type": "TSTM WND GST",
        "event_category": "thunderstorm_wind",
        "valid_utc": "202605132220",
        "standard_time_display": "2026-05-13 15:20 MST",
        "wfo": "SLC",
        "county_or_zone": "Sanpete",
        "city": "8 WNW Manti",
        "state": "UT",
        "magnitude": 73.0,
        "magnitude_units": null,
        "source": "Mesonet",
        "event_narrative": "Mesonet station PC295 Gunnison Ridge."
      },
      "geometry": {
        "type": "Point",
        "coordinates": [
          -111.77,
          39.32
        ]
      }
    },
    {
      "type": "Feature",
      "id": "iem-lsr-SLC-73",
      "properties": {
        "report_id": "iem-lsr-SLC-73",
        "report_type": "TSTM WND GST",
        "event_category": "thunderstorm_wind",
        "valid_utc": "202605132226",
        "standard_time_display": "2026-05-13 15:26 MST",
        "wfo": "SLC",
        "county_or_zone": "Rich",
        "city": "1 E Garden City",
        "state": "UT",
        "magnitude": 58.0,
        "magnitude_units": null,
        "source": "Mesonet",
        "event_narrative": "Mesonet station FW8325 Garden City."
      },
      "geometry": {
        "type": "Point",
        "coordinates": [
          -111.39,
          41.94
        ]
      }
    },
    {
      "type": "Feature",
      "id": "iem-lsr-SLC-74",
      "properties": {
        "report_id": "iem-lsr-SLC-74",
        "report_type": "TSTM WND GST",
        "event_category": "thunderstorm_wind",
        "valid_utc": "202605132228",
        "standard_time_display": "2026-05-13 15:28 MST",
        "wfo": "SLC",
        "county_or_zone": "Uinta",
        "city": "3 W Evanston",
        "state": "WY",
        "magnitude": 69.0,
        "magnitude_units": null,
        "source": "ASOS",
        "event_narrative": "ASOS station KEVW Evanston-Uinta Cnty Airport."
      },
      "geometry": {
        "type": "Point",
        "coordinates": [
          -111.03,
          41.27
        ]
      }
    },
    {
      "type": "Feature",
      "id": "iem-lsr-SLC-75",
      "properties": {
        "report_id": "iem-lsr-SLC-75",
        "report_type": "TSTM WND GST",
        "event_category": "thunderstorm_wind",
        "valid_utc": "202605132230",
        "standard_time_display": "2026-05-13 15:30 MST",
        "wfo": "SLC",
        "county_or_zone": "Sanpete",
        "city": "8 WNW Manti",
        "state": "UT",
        "magnitude": 59.0,
        "magnitude_units": null,
        "source": "Mesonet",
        "event_narrative": "Mesonet station PC295 Gunnison Ridge."
      },
      "geometry": {
        "type": "Point",
        "coordinates": [
          -111.77,
          39.32
        ]
      }
    },
    {
      "type": "Feature",
      "id": "iem-lsr-SLC-76",
      "properties": {
        "report_id": "iem-lsr-SLC-76",
        "report_type": "TSTM WND GST",
        "event_category": "thunderstorm_wind",
        "valid_utc": "202605132230",
        "standard_time_display": "2026-05-13 15:30 MST",
        "wfo": "SLC",
        "county_or_zone": "Duchesne",
        "city": "15 NNE Hanna",
        "state": "UT",
        "magnitude": 61.0,
        "magnitude_units": null,
        "source": "Mesonet",
        "event_narrative": "Mesonet station DRRD Dry Ridge."
      },
      "geometry": {
        "type": "Point",
        "coordinates": [
          -110.62,
          40.58
        ]
      }
    },
    {
      "type": "Feature",
      "id": "iem-lsr-SLC-77",
      "properties": {
        "report_id": "iem-lsr-SLC-77",
        "report_type": "TSTM WND GST",
        "event_category": "thunderstorm_wind",
        "valid_utc": "202605132231",
        "standard_time_display": "2026-05-13 15:31 MST",
        "wfo": "SLC",
        "county_or_zone": "Summit",
        "city": "2 SW Castle Rock",
        "state": "UT",
        "magnitude": 59.0,
        "magnitude_units": null,
        "source": "Mesonet",
        "event_narrative": "Mesonet station UR400 2.4 SW Castle Rock."
      },
      "geometry": {
        "type": "Point",
        "coordinates": [
          -111.21,
          41.11
        ]
      }
    },
    {
      "type": "Feature",
      "id": "iem-lsr-SLC-78",
      "properties": {
        "report_id": "iem-lsr-SLC-78",
        "report_type": "TSTM WND GST",
        "event_category": "thunderstorm_wind",
        "valid_utc": "202605132236",
        "standard_time_display": "2026-05-13 15:36 MST",
        "wfo": "SLC",
        "county_or_zone": "Cache",
        "city": "2 SW Paradise",
        "state": "UT",
        "magnitude": 58.0,
        "magnitude_units": null,
        "source": "Mesonet",
        "event_narrative": "Mesonet station UCL02 Paradise."
      },
      "geometry": {
        "type": "Point",
        "coordinates": [
          -111.85,
          41.55
        ]
      }
    },
    {
      "type": "Feature",
      "id": "iem-lsr-SLC-79",
      "properties": {
        "report_id": "iem-lsr-SLC-79",
        "report_type": "TSTM WND GST",
        "event_category": "thunderstorm_wind",
        "valid_utc": "202605132236",
        "standard_time_display": "2026-05-13 15:36 MST",
        "wfo": "SLC",
        "county_or_zone": "Uinta",
        "city": "5 N Altamont",
        "state": "WY",
        "magnitude": 70.0,
        "magnitude_units": null,
        "source": "Mesonet",
        "event_narrative": "Mesonet station KFIR First Divide."
      },
      "geometry": {
        "type": "Point",
        "coordinates": [
          -110.8,
          41.28
        ]
      }
    },
    {
      "type": "Feature",
      "id": "iem-lsr-SLC-80",
      "properties": {
        "report_id": "iem-lsr-SLC-80",
        "report_type": "TSTM WND GST",
        "event_category": "thunderstorm_wind",
        "valid_utc": "202605132236",
        "standard_time_display": "2026-05-13 15:36 MST",
        "wfo": "SLC",
        "county_or_zone": "Uinta",
        "city": "5 ENE Almy",
        "state": "WY",
        "magnitude": 79.0,
        "magnitude_units": null,
        "source": "Mesonet",
        "event_narrative": "Mesonet station AV868 Medicine Butte Mountain."
      },
      "geometry": {
        "type": "Point",
        "coordinates": [
          -110.91,
          41.35
        ]
      }
    },
    {
      "type": "Feature",
      "id": "iem-lsr-SLC-81",
      "properties": {
        "report_id": "iem-lsr-SLC-81",
        "report_type": "NON-TSTM WND GST",
        "event_category": "thunderstorm_wind",
        "valid_utc": "202605132240",
        "standard_time_display": "2026-05-13 15:40 MST",
        "wfo": "SLC",
        "county_or_zone": "Garfield",
        "city": "10 ENE Henrieville",
        "state": "UT",
        "magnitude": 60.0,
        "magnitude_units": null,
        "source": "Mesonet",
        "event_narrative": "Mesonet station UTPPV Sr-12 At Mp 41 Powell Point Vist."
      },
      "geometry": {
        "type": "Point",
        "coordinates": [
          -111.84,
          37.64
        ]
      }
    },
    {
      "type": "Feature",
      "id": "iem-lsr-SLC-82",
      "properties": {
        "report_id": "iem-lsr-SLC-82",
        "report_type": "TSTM WND GST",
        "event_category": "thunderstorm_wind",
        "valid_utc": "202605132240",
        "standard_time_display": "2026-05-13 15:40 MST",
        "wfo": "SLC",
        "county_or_zone": "Uinta",
        "city": "5 ENE Almy",
        "state": "WY",
        "magnitude": 85.0,
        "magnitude_units": null,
        "source": "Mesonet",
        "event_narrative": "Mesonet station PC450 Evanston North."
      },
      "geometry": {
        "type": "Point",
        "coordinates": [
          -110.9,
          41.35
        ]
      }
    },
    {
      "type": "Feature",
      "id": "iem-lsr-SLC-83",
      "properties": {
        "report_id": "iem-lsr-SLC-83",
        "report_type": "TSTM WND GST",
        "event_category": "thunderstorm_wind",
        "valid_utc": "202605132245",
        "standard_time_display": "2026-05-13 15:45 MST",
        "wfo": "SLC",
        "county_or_zone": "Cache",
        "city": "3 SE Beaver Mtn",
        "state": "UT",
        "magnitude": 73.0,
        "magnitude_units": null,
        "source": "Mesonet",
        "event_narrative": "Mesonet station PSRIM Peter Sinks Rim."
      },
      "geometry": {
        "type": "Point",
        "coordinates": [
          -111.51,
          41.92
        ]
      }
    },
    {
      "type": "Feature",
      "id": "iem-lsr-SLC-84",
      "properties": {
        "report_id": "iem-lsr-SLC-84",
        "report_type": "TSTM WND GST",
        "event_category": "thunderstorm_wind",
        "valid_utc": "202605132246",
        "standard_time_display": "2026-05-13 15:46 MST",
        "wfo": "SLC",
        "county_or_zone": "Uinta",
        "city": "2 N Ragen",
        "state": "WY",
        "magnitude": 58.0,
        "magnitude_units": null,
        "source": "Mesonet",
        "event_narrative": "Mesonet station WY33 Coal Road."
      },
      "geometry": {
        "type": "Point",
        "coordinates": [
          -110.69,
          41.3
        ]
      }
    },
    {
      "type": "Feature",
      "id": "iem-lsr-SLC-85",
      "properties": {
        "report_id": "iem-lsr-SLC-85",
        "report_type": "TSTM WND GST",
        "event_category": "thunderstorm_wind",
        "valid_utc": "202605132250",
        "standard_time_display": "2026-05-13 15:50 MST",
        "wfo": "SLC",
        "county_or_zone": "Duchesne",
        "city": "5 W Duchesne",
        "state": "UT",
        "magnitude": 66.0,
        "magnitude_units": null,
        "source": "Mesonet",
        "event_narrative": "Mesonet station UTSTV US-40 at Starvation."
      },
      "geometry": {
        "type": "Point",
        "coordinates": [
          -110.49,
          40.17
        ]
      }
    },
    {
      "type": "Feature",
      "id": "iem-lsr-SLC-86",
      "properties": {
        "report_id": "iem-lsr-SLC-86",
        "report_type": "TSTM WND GST",
        "event_category": "thunderstorm_wind",
        "valid_utc": "202605132300",
        "standard_time_display": "2026-05-13 16:00 MST",
        "wfo": "SLC",
        "county_or_zone": "Tooele",
        "city": "2 SSW Grantsville",
        "state": "UT",
        "magnitude": 58.0,
        "magnitude_units": null,
        "source": "Mesonet",
        "event_narrative": "Mesonet station PC104 Grantsville South."
      },
      "geometry": {
        "type": "Point",
        "coordinates": [
          -112.48,
          40.56
        ]
      }
    },
    {
      "type": "Feature",
      "id": "iem-lsr-SLC-87",
      "properties": {
        "report_id": "iem-lsr-SLC-87",
        "report_type": "TSTM WND GST",
        "event_category": "thunderstorm_wind",
        "valid_utc": "202605132300",
        "standard_time_display": "2026-05-13 16:00 MST",
        "wfo": "SLC",
        "county_or_zone": "Sanpete",
        "city": "3 NNW Sterling",
        "state": "UT",
        "magnitude": 68.0,
        "magnitude_units": null,
        "source": "Mesonet",
        "event_narrative": "Mesonet station PC098 Gunnison Reservior."
      },
      "geometry": {
        "type": "Point",
        "coordinates": [
          -111.71,
          39.24
        ]
      }
    },
    {
      "type": "Feature",
      "id": "iem-lsr-SLC-88",
      "properties": {
        "report_id": "iem-lsr-SLC-88",
        "report_type": "TSTM WND GST",
        "event_category": "thunderstorm_wind",
        "valid_utc": "202605132310",
        "standard_time_display": "2026-05-13 16:10 MST",
        "wfo": "SLC",
        "county_or_zone": "Juab",
        "city": "5 SSE Levan",
        "state": "UT",
        "magnitude": 70.0,
        "magnitude_units": null,
        "source": "Mesonet",
        "event_narrative": "Mesonet station PC338 Horse Haven."
      },
      "geometry": {
        "type": "Point",
        "coordinates": [
          -111.84,
          39.49
        ]
      }
    },
    {
      "type": "Feature",
      "id": "iem-lsr-SLC-89",
      "properties": {
        "report_id": "iem-lsr-SLC-89",
        "report_type": "TSTM WND GST",
        "event_category": "thunderstorm_wind",
        "valid_utc": "202605132315",
        "standard_time_display": "2026-05-13 16:15 MST",
        "wfo": "SLC",
        "county_or_zone": "Uinta",
        "city": "8 NE Carter",
        "state": "WY",
        "magnitude": 64.0,
        "magnitude_units": null,
        "source": "Mesonet",
        "event_narrative": "Mesonet station UP146 7.8 NE Carter."
      },
      "geometry": {
        "type": "Point",
        "coordinates": [
          -110.33,
          41.52
        ]
      }
    },
    {
      "type": "Feature",
      "id": "iem-lsr-SLC-90",
      "properties": {
        "report_id": "iem-lsr-SLC-90",
        "report_type": "TSTM WND GST",
        "event_category": "thunderstorm_wind",
        "valid_utc": "202605132315",
        "standard_time_display": "2026-05-13 16:15 MST",
        "wfo": "SLC",
        "county_or_zone": "Wasatch",
        "city": "13 E Wallsburg",
        "state": "UT",
        "magnitude": 65.0,
        "magnitude_units": null,
        "source": "Mesonet",
        "event_narrative": "Mesonet station CCPUT Currant Creek Peak."
      },
      "geometry": {
        "type": "Point",
        "coordinates": [
          -111.17,
          40.38
        ]
      }
    },
    {
      "type": "Feature",
      "id": "iem-lsr-SLC-91",
      "properties": {
        "report_id": "iem-lsr-SLC-91",
        "report_type": "TSTM WND GST",
        "event_category": "thunderstorm_wind",
        "valid_utc": "202605132315",
        "standard_time_display": "2026-05-13 16:15 MST",
        "wfo": "SLC",
        "county_or_zone": "Weber",
        "city": "1 W Snowbasin - Mid Bow",
        "state": "UT",
        "magnitude": 67.0,
        "magnitude_units": null,
        "source": "Mesonet",
        "event_narrative": "Mesonet station OGP Snowbasin - Mount Ogden."
      },
      "geometry": {
        "type": "Point",
        "coordinates": [
          -111.88,
          41.2
        ]
      }
    },
    {
      "type": "Feature",
      "id": "iem-lsr-SLC-92",
      "properties": {
        "report_id": "iem-lsr-SLC-92",
        "report_type": "TSTM WND GST",
        "event_category": "thunderstorm_wind",
        "valid_utc": "202605132330",
        "standard_time_display": "2026-05-13 16:30 MST",
        "wfo": "SLC",
        "county_or_zone": "Millard",
        "city": "4 SW Scipio",
        "state": "UT",
        "magnitude": 60.0,
        "magnitude_units": null,
        "source": "Mesonet",
        "event_narrative": "Mesonet station PC291 Scipio Summit."
      },
      "geometry": {
        "type": "Point",
        "coordinates": [
          -112.14,
          39.2
        ]
      }
    },
    {
      "type": "Feature",
      "id": "iem-lsr-SLC-93",
      "properties": {
        "report_id": "iem-lsr-SLC-93",
        "report_type": "TSTM WND GST",
        "event_category": "thunderstorm_wind",
        "valid_utc": "202605132330",
        "standard_time_display": "2026-05-13 16:30 MST",
        "wfo": "SLC",
        "county_or_zone": "Rich",
        "city": "5 NNE Laketown",
        "state": "UT",
        "magnitude": 79.0,
        "magnitude_units": null,
        "source": "Mesonet",
        "event_narrative": "Mesonet station PC367 East Bearlake."
      },
      "geometry": {
        "type": "Point",
        "coordinates": [
          -111.27,
          41.89
        ]
      }
    },
    {
      "type": "Feature",
      "id": "iem-lsr-SLC-94",
      "properties": {
        "report_id": "iem-lsr-SLC-94",
        "report_type": "TSTM WND GST",
        "event_category": "thunderstorm_wind",
        "valid_utc": "202605132335",
        "standard_time_display": "2026-05-13 16:35 MST",
        "wfo": "SLC",
        "county_or_zone": "Weber",
        "city": "11 W Hooper",
        "state": "UT",
        "magnitude": 78.0,
        "magnitude_units": null,
        "source": "Mesonet",
        "event_narrative": "Mesonet station FREUT Fremont Island - Miller Hill."
      },
      "geometry": {
        "type": "Point",
        "coordinates": [
          -112.33,
          41.15
        ]
      }
    },
    {
      "type": "Feature",
      "id": "iem-lsr-SLC-95",
      "properties": {
        "report_id": "iem-lsr-SLC-95",
        "report_type": "NON-TSTM WND GST",
        "event_category": "thunderstorm_wind",
        "valid_utc": "202605132350",
        "standard_time_display": "2026-05-13 16:50 MST",
        "wfo": "SLC",
        "county_or_zone": "Box Elder",
        "city": "3 SW Curlew Jct",
        "state": "UT",
        "magnitude": 64.0,
        "magnitude_units": null,
        "source": "Mesonet",
        "event_narrative": "Mesonet station UTCUR Curlew Junction."
      },
      "geometry": {
        "type": "Point",
        "coordinates": [
          -113.09,
          41.94
        ]
      }
    },
    {
      "type": "Feature",
      "id": "iem-lsr-SLC-96",
      "properties": {
        "report_id": "iem-lsr-SLC-96",
        "report_type": "TSTM WND GST",
        "event_category": "thunderstorm_wind",
        "valid_utc": "202605140000",
        "standard_time_display": "2026-05-13 17:00 MST",
        "wfo": "SLC",
        "county_or_zone": "Uinta",
        "city": "10 N Church Buttes",
        "state": "WY",
        "magnitude": 62.0,
        "magnitude_units": null,
        "source": "Mesonet",
        "event_narrative": "Mesonet station UP199 7.5 W Granger."
      },
      "geometry": {
        "type": "Point",
        "coordinates": [
          -110.11,
          41.57
        ]
      }
    },
    {
      "type": "Feature",
      "id": "iem-lsr-SLC-97",
      "properties": {
        "report_id": "iem-lsr-SLC-97",
        "report_type": "TSTM WND GST",
        "event_category": "thunderstorm_wind",
        "valid_utc": "202605140000",
        "standard_time_display": "2026-05-13 17:00 MST",
        "wfo": "SLC",
        "county_or_zone": "Emery",
        "city": "3 SSW Clear Creek",
        "state": "UT",
        "magnitude": 68.0,
        "magnitude_units": null,
        "source": "Mesonet",
        "event_narrative": "Mesonet station UTMPK Monument Peak."
      },
      "geometry": {
        "type": "Point",
        "coordinates": [
          -111.18,
          39.61
        ]
      }
    },
    {
      "type": "Feature",
      "id": "iem-lsr-SLC-98",
      "properties": {
        "report_id": "iem-lsr-SLC-98",
        "report_type": "TSTM WND GST",
        "event_category": "thunderstorm_wind",
        "valid_utc": "202605140010",
        "standard_time_display": "2026-05-13 17:10 MST",
        "wfo": "SLC",
        "county_or_zone": "Juab",
        "city": "6 W Nephi",
        "state": "UT",
        "magnitude": 59.0,
        "magnitude_units": null,
        "source": "Mesonet",
        "event_narrative": "Mesonet station PC349 Nephi West."
      },
      "geometry": {
        "type": "Point",
        "coordinates": [
          -111.93,
          39.73
        ]
      }
    },
    {
      "type": "Feature",
      "id": "iem-lsr-SLC-99",
      "properties": {
        "report_id": "iem-lsr-SLC-99",
        "report_type": "NON-TSTM WND GST",
        "event_category": "thunderstorm_wind",
        "valid_utc": "202605140030",
        "standard_time_display": "2026-05-13 17:30 MST",
        "wfo": "SLC",
        "county_or_zone": "Box Elder",
        "city": "9 SSE Snowville",
        "state": "UT",
        "magnitude": 58.0,
        "magnitude_units": null,
        "source": "Mesonet",
        "event_narrative": "Mesonet station PC358 Hansel Valley."
      },
      "geometry": {
        "type": "Point",
        "coordinates": [
          -112.67,
          41.85
        ]
      }
    },
    {
      "type": "Feature",
      "id": "iem-lsr-SLC-100",
      "properties": {
        "report_id": "iem-lsr-SLC-100",
        "report_type": "NON-TSTM WND GST",
        "event_category": "thunderstorm_wind",
        "valid_utc": "202605140210",
        "standard_time_display": "2026-05-13 19:10 MST",
        "wfo": "SLC",
        "county_or_zone": "Tooele",
        "city": "12 W Knolls",
        "state": "UT",
        "magnitude": 58.0,
        "magnitude_units": null,
        "source": "Mesonet",
        "event_narrative": "Mesonet station UT33 I-80 at MP 29."
      },
      "geometry": {
        "type": "Point",
        "coordinates": [
          -113.5,
          40.73
        ]
      }
    },
    {
      "type": "Feature",
      "id": "iem-lsr-SLC-101",
      "properties": {
        "report_id": "iem-lsr-SLC-101",
        "report_type": "NON-TSTM WND GST",
        "event_category": "thunderstorm_wind",
        "valid_utc": "202605140215",
        "standard_time_display": "2026-05-13 19:15 MST",
        "wfo": "SLC",
        "county_or_zone": "Tooele",
        "city": "10 W Knolls",
        "state": "UT",
        "magnitude": 64.0,
        "magnitude_units": null,
        "source": "Mesonet",
        "event_narrative": "Mesonet station DPG17 Interstate 80."
      },
      "geometry": {
        "type": "Point",
        "coordinates": [
          -113.47,
          40.73
        ]
      }
    },
    {
      "type": "Feature",
      "id": "iem-lsr-SLC-102",
      "properties": {
        "report_id": "iem-lsr-SLC-102",
        "report_type": "NON-TSTM WND GST",
        "event_category": "thunderstorm_wind",
        "valid_utc": "202605140405",
        "standard_time_display": "2026-05-13 21:05 MST",
        "wfo": "SLC",
        "county_or_zone": "Tooele",
        "city": "2 ENE Wendover",
        "state": "UT",
        "magnitude": 58.0,
        "magnitude_units": null,
        "source": "Mesonet",
        "event_narrative": "Mesonet station WPOE Wendover Port of Entry."
      },
      "geometry": {
        "type": "Point",
        "coordinates": [
          -113.99,
          40.75
        ]
      }
    },
    {
      "type": "Feature",
      "id": "iem-lsr-SLC-103",
      "properties": {
        "report_id": "iem-lsr-SLC-103",
        "report_type": "NON-TSTM WND GST",
        "event_category": "thunderstorm_wind",
        "valid_utc": "202605140415",
        "standard_time_display": "2026-05-13 21:15 MST",
        "wfo": "SLC",
        "county_or_zone": "Tooele",
        "city": "1 N Wendover",
        "state": "UT",
        "magnitude": 63.0,
        "magnitude_units": null,
        "source": "Mesonet",
        "event_narrative": "Mesonet station WPK Wendover Peak."
      },
      "geometry": {
        "type": "Point",
        "coordinates": [
          -114.02,
          40.75
        ]
      }
    },
    {
      "type": "Feature",
      "id": "iem-lsr-SLC-104",
      "properties": {
        "report_id": "iem-lsr-SLC-104",
        "report_type": "NON-TSTM WND GST",
        "event_category": "thunderstorm_wind",
        "valid_utc": "202605140500",
        "standard_time_display": "2026-05-13 22:00 MST",
        "wfo": "SLC",
        "county_or_zone": "Tooele",
        "city": "Wendover",
        "state": "UT",
        "magnitude": 68.0,
        "magnitude_units": null,
        "source": "Mesonet",
        "event_narrative": "Mesonet station UT32 I-80 at MP 1."
      },
      "geometry": {
        "type": "Point",
        "coordinates": [
          -114.02,
          40.74
        ]
      }
    },
    {
      "type": "Feature",
      "id": "iem-lsr-SLC-105",
      "properties": {
        "report_id": "iem-lsr-SLC-105",
        "report_type": "TSTM WND GST",
        "event_category": "thunderstorm_wind",
        "valid_utc": "202605291940",
        "standard_time_display": "2026-05-29 12:40 MST",
        "wfo": "SLC",
        "county_or_zone": "Juab",
        "city": "4 NW Levan",
        "state": "UT",
        "magnitude": 58.0,
        "magnitude_units": null,
        "source": "Mesonet",
        "event_narrative": "Measured at the I15 at MP 215 Lampson Canyon UDOT RWIS site."
      },
      "geometry": {
        "type": "Point",
        "coordinates": [
          -111.92,
          39.59
        ]
      }
    },
    {
      "type": "Feature",
      "id": "iem-lsr-SLC-106",
      "properties": {
        "report_id": "iem-lsr-SLC-106",
        "report_type": "TSTM WND GST",
        "event_category": "thunderstorm_wind",
        "valid_utc": "202605291940",
        "standard_time_display": "2026-05-29 12:40 MST",
        "wfo": "SLC",
        "county_or_zone": "Juab",
        "city": "4 NW Levan",
        "state": "UT",
        "magnitude": 58.0,
        "magnitude_units": null,
        "source": "Mesonet",
        "event_narrative": "Mesonet station UTLMP Lampson Canyon."
      },
      "geometry": {
        "type": "Point",
        "coordinates": [
          -111.92,
          39.59
        ]
      }
    },
    {
      "type": "Feature",
      "id": "iem-lsr-SLC-107",
      "properties": {
        "report_id": "iem-lsr-SLC-107",
        "report_type": "TSTM WND GST",
        "event_category": "thunderstorm_wind",
        "valid_utc": "202605292050",
        "standard_time_display": "2026-05-29 13:50 MST",
        "wfo": "SLC",
        "county_or_zone": "Sevier",
        "city": "4 SE Aurora",
        "state": "UT",
        "magnitude": 59.0,
        "magnitude_units": null,
        "source": "Mesonet",
        "event_narrative": "Mesonet station PC290 Carter Peak."
      },
      "geometry": {
        "type": "Point",
        "coordinates": [
          -111.88,
          38.88
        ]
      }
    },
    {
      "type": "Feature",
      "id": "iem-lsr-SLC-108",
      "properties": {
        "report_id": "iem-lsr-SLC-108",
        "report_type": "TSTM WND GST",
        "event_category": "thunderstorm_wind",
        "valid_utc": "202605292130",
        "standard_time_display": "2026-05-29 14:30 MST",
        "wfo": "SLC",
        "county_or_zone": "Sanpete",
        "city": "2 SSW Manti",
        "state": "UT",
        "magnitude": 64.0,
        "magnitude_units": null,
        "source": "Mesonet",
        "event_narrative": "Mesonet station UTSOM US-89 at MP 254 South Manti."
      },
      "geometry": {
        "type": "Point",
        "coordinates": [
          -111.65,
          39.24
        ]
      }
    },
    {
      "type": "Feature",
      "id": "iem-lsr-SLC-109",
      "properties": {
        "report_id": "iem-lsr-SLC-109",
        "report_type": "TSTM WND GST",
        "event_category": "thunderstorm_wind",
        "valid_utc": "202605292210",
        "standard_time_display": "2026-05-29 15:10 MST",
        "wfo": "SLC",
        "county_or_zone": "Sanpete",
        "city": "2 ENE Spring City",
        "state": "UT",
        "magnitude": 58.0,
        "magnitude_units": null,
        "source": "Mesonet",
        "event_narrative": "Mesonet station PC100 Spring City East."
      },
      "geometry": {
        "type": "Point",
        "coordinates": [
          -111.45,
          39.49
        ]
      }
    },
    {
      "type": "Feature",
      "id": "iem-lsr-SLC-110",
      "properties": {
        "report_id": "iem-lsr-SLC-110",
        "report_type": "TSTM WND GST",
        "event_category": "thunderstorm_wind",
        "valid_utc": "202605292310",
        "standard_time_display": "2026-05-29 16:10 MST",
        "wfo": "SLC",
        "county_or_zone": "Box Elder",
        "city": "3 NE Corinne",
        "state": "UT",
        "magnitude": 60.0,
        "magnitude_units": null,
        "source": "Mesonet",
        "event_narrative": "Mesonet station UTNBC I-15 North Brigham City."
      },
      "geometry": {
        "type": "Point",
        "coordinates": [
          -112.07,
          41.58
        ]
      }
    }
  ]
}