{
  "type": "FeatureCollection",
  "metadata": {
    "schema_version": "0.2.4",
    "year": 2026,
    "month": 10,
    "wfo": "BMX",
    "start_utc": "2026-10-01T00:00:00Z",
    "end_utc": "2026-11-01T00:00:00Z",
    "generated_utc": "2026-10-10T15:19:57Z",
    "mode": "storm_data_prep",
    "public_release_status": "public-source-derived",
    "time_note": "Storm Data entry times should be reviewed in local Standard Time (ST), not daylight time. Candidate reports include standard_time_display.",
    "tornado_track_policy": "Tornado tracks must come from DAT. NCEI begin/end coordinates are not used as a tornado track substitute.",
    "source": "https://mesonet.agron.iastate.edu/cgi-bin/request/gis/lsr.py?wfo=BMX&sts=2026-10-01T00%3A00%3A00Z&ets=2026-11-01T00%3A00%3A00Z&fmt=csv"
  },
  "features": [
    {
      "type": "Feature",
      "id": "iem-lsr-BMX-1",
      "properties": {
        "report_id": "iem-lsr-BMX-1",
        "report_type": "TROPICAL CYCLONE",
        "event_category": "other",
        "valid_utc": "202610100005",
        "standard_time_display": "2026-10-09 18:05 CST",
        "wfo": "BMX",
        "county_or_zone": "Montgomery",
        "city": "3 NW Orion",
        "state": "AL",
        "magnitude": null,
        "magnitude_units": null,
        "source": "Emergency Manager",
        "event_narrative": "Trees down across southern Montgomery county. Powerlines down across Highway 231."
      },
      "geometry": {
        "type": "Point",
        "coordinates": [
          -86.03,
          31.99
        ]
      }
    },
    {
      "type": "Feature",
      "id": "iem-lsr-BMX-2",
      "properties": {
        "report_id": "iem-lsr-BMX-2",
        "report_type": "TROPICAL CYCLONE",
        "event_category": "other",
        "valid_utc": "202610100327",
        "standard_time_display": "2026-10-09 21:27 CST",
        "wfo": "BMX",
        "county_or_zone": "Pike",
        "city": "1 SW Troy",
        "state": "AL",
        "magnitude": null,
        "magnitude_units": null,
        "source": "Public",
        "event_narrative": "Pike County Sheriff's Office reports multiple trees down across the county."
      },
      "geometry": {
        "type": "Point",
        "coordinates": [
          -85.98,
          31.8
        ]
      }
    },
    {
      "type": "Feature",
      "id": "iem-lsr-BMX-3",
      "properties": {
        "report_id": "iem-lsr-BMX-3",
        "report_type": "NON-TSTM WND GST",
        "event_category": "thunderstorm_wind",
        "valid_utc": "202610100353",
        "standard_time_display": "2026-10-09 21:53 CST",
        "wfo": "BMX",
        "county_or_zone": "Pike",
        "city": "Troy Muni Airport",
        "state": "AL",
        "magnitude": 58.0,
        "magnitude_units": null,
        "source": "ASOS/AWOS",
        "event_narrative": "Associated with Isaias."
      },
      "geometry": {
        "type": "Point",
        "coordinates": [
          -86.01,
          31.86
        ]
      }
    },
    {
      "type": "Feature",
      "id": "iem-lsr-BMX-4",
      "properties": {
        "report_id": "iem-lsr-BMX-4",
        "report_type": "TROPICAL CYCLONE",
        "event_category": "other",
        "valid_utc": "202610100410",
        "standard_time_display": "2026-10-09 22:10 CST",
        "wfo": "BMX",
        "county_or_zone": "Barbour",
        "city": "3 NE Richards Crossroad",
        "state": "AL",
        "magnitude": null,
        "magnitude_units": null,
        "source": "Emergency Manager",
        "event_narrative": "Scattered trees and power line down reports in Barbour County; associated with Isaias."
      },
      "geometry": {
        "type": "Point",
        "coordinates": [
          -85.22,
          31.75
        ]
      }
    },
    {
      "type": "Feature",
      "id": "iem-lsr-BMX-5",
      "properties": {
        "report_id": "iem-lsr-BMX-5",
        "report_type": "NON-TSTM WND GST",
        "event_category": "thunderstorm_wind",
        "valid_utc": "202610100411",
        "standard_time_display": "2026-10-09 22:11 CST",
        "wfo": "BMX",
        "county_or_zone": "Barbour",
        "city": "2 N Old Creek Town Rec",
        "state": "AL",
        "magnitude": 51.0,
        "magnitude_units": null,
        "source": "ASOS/AWOS",
        "event_narrative": "At Eufaula/Weedon Field Airport; associated with Isaias."
      },
      "geometry": {
        "type": "Point",
        "coordinates": [
          -85.13,
          31.95
        ]
      }
    },
    {
      "type": "Feature",
      "id": "iem-lsr-BMX-6",
      "properties": {
        "report_id": "iem-lsr-BMX-6",
        "report_type": "NON-TSTM WND GST",
        "event_category": "thunderstorm_wind",
        "valid_utc": "202610100415",
        "standard_time_display": "2026-10-09 22:15 CST",
        "wfo": "BMX",
        "county_or_zone": "Montgomery",
        "city": "Dannelly Field",
        "state": "AL",
        "magnitude": 43.0,
        "magnitude_units": null,
        "source": "ASOS/AWOS",
        "event_narrative": "Associated with Isaias."
      },
      "geometry": {
        "type": "Point",
        "coordinates": [
          -86.39,
          32.3
        ]
      }
    },
    {
      "type": "Feature",
      "id": "iem-lsr-BMX-7",
      "properties": {
        "report_id": "iem-lsr-BMX-7",
        "report_type": "TROPICAL CYCLONE",
        "event_category": "other",
        "valid_utc": "202610100422",
        "standard_time_display": "2026-10-09 22:22 CST",
        "wfo": "BMX",
        "county_or_zone": "Dallas",
        "city": "Selma",
        "state": "AL",
        "magnitude": null,
        "magnitude_units": null,
        "source": "Emergency Manager",
        "event_narrative": "Scattered trees down in Dallas County_ associated with Isaias."
      },
      "geometry": {
        "type": "Point",
        "coordinates": [
          -87.02,
          32.41
        ]
      }
    },
    {
      "type": "Feature",
      "id": "iem-lsr-BMX-8",
      "properties": {
        "report_id": "iem-lsr-BMX-8",
        "report_type": "TROPICAL CYCLONE",
        "event_category": "other",
        "valid_utc": "202610100441",
        "standard_time_display": "2026-10-09 22:41 CST",
        "wfo": "BMX",
        "county_or_zone": "Russell",
        "city": "Seale",
        "state": "AL",
        "magnitude": null,
        "magnitude_units": null,
        "source": "Emergency Manager",
        "event_narrative": "Scattered trees down and power outages_ associated with Isaias."
      },
      "geometry": {
        "type": "Point",
        "coordinates": [
          -85.17,
          32.3
        ]
      }
    },
    {
      "type": "Feature",
      "id": "iem-lsr-BMX-9",
      "properties": {
        "report_id": "iem-lsr-BMX-9",
        "report_type": "TROPICAL CYCLONE",
        "event_category": "other",
        "valid_utc": "202610100500",
        "standard_time_display": "2026-10-09 23:00 CST",
        "wfo": "BMX",
        "county_or_zone": "Montgomery",
        "city": "3 S Snowdoun",
        "state": "AL",
        "magnitude": null,
        "magnitude_units": null,
        "source": "Emergency Manager",
        "event_narrative": "Downed trees and power lines across Montgomery County; associated with Isaias."
      },
      "geometry": {
        "type": "Point",
        "coordinates": [
          -86.29,
          32.2
        ]
      }
    },
    {
      "type": "Feature",
      "id": "iem-lsr-BMX-10",
      "properties": {
        "report_id": "iem-lsr-BMX-10",
        "report_type": "TROPICAL CYCLONE",
        "event_category": "other",
        "valid_utc": "202610100500",
        "standard_time_display": "2026-10-09 23:00 CST",
        "wfo": "BMX",
        "county_or_zone": "Elmore",
        "city": "Wetumpka",
        "state": "AL",
        "magnitude": null,
        "magnitude_units": null,
        "source": "911 Call Center",
        "event_narrative": "Scattered trees and power lines down across Elmore County with power outages; associated with Isaias."
      },
      "geometry": {
        "type": "Point",
        "coordinates": [
          -86.2,
          32.54
        ]
      }
    },
    {
      "type": "Feature",
      "id": "iem-lsr-BMX-11",
      "properties": {
        "report_id": "iem-lsr-BMX-11",
        "report_type": "TROPICAL CYCLONE",
        "event_category": "other",
        "valid_utc": "202610100519",
        "standard_time_display": "2026-10-09 23:19 CST",
        "wfo": "BMX",
        "county_or_zone": "Jefferson",
        "city": "Birmingham",
        "state": "AL",
        "magnitude": null,
        "magnitude_units": null,
        "source": "Emergency Manager",
        "event_narrative": "Scattered trees down and power outages in Jefferson County_ associated with Isaias."
      },
      "geometry": {
        "type": "Point",
        "coordinates": [
          -86.81,
          33.52
        ]
      }
    },
    {
      "type": "Feature",
      "id": "iem-lsr-BMX-12",
      "properties": {
        "report_id": "iem-lsr-BMX-12",
        "report_type": "TROPICAL CYCLONE",
        "event_category": "other",
        "valid_utc": "202610100530",
        "standard_time_display": "2026-10-09 23:30 CST",
        "wfo": "BMX",
        "county_or_zone": "Shelby",
        "city": "Alabaster",
        "state": "AL",
        "magnitude": null,
        "magnitude_units": null,
        "source": "911 Call Center",
        "event_narrative": "Scattered trees down in Shelby County; associated with Isaias."
      },
      "geometry": {
        "type": "Point",
        "coordinates": [
          -86.81,
          33.24
        ]
      }
    },
    {
      "type": "Feature",
      "id": "iem-lsr-BMX-13",
      "properties": {
        "report_id": "iem-lsr-BMX-13",
        "report_type": "TROPICAL CYCLONE",
        "event_category": "other",
        "valid_utc": "202610100530",
        "standard_time_display": "2026-10-09 23:30 CST",
        "wfo": "BMX",
        "county_or_zone": "Randolph",
        "city": "Wedowee",
        "state": "AL",
        "magnitude": null,
        "magnitude_units": null,
        "source": "911 Call Center",
        "event_narrative": "Scattered trees and power lines down across Randolph County with power outages; associated with Isaias."
      },
      "geometry": {
        "type": "Point",
        "coordinates": [
          -85.48,
          33.31
        ]
      }
    },
    {
      "type": "Feature",
      "id": "iem-lsr-BMX-14",
      "properties": {
        "report_id": "iem-lsr-BMX-14",
        "report_type": "TROPICAL CYCLONE",
        "event_category": "other",
        "valid_utc": "202610100552",
        "standard_time_display": "2026-10-09 23:52 CST",
        "wfo": "BMX",
        "county_or_zone": "Lee",
        "city": "2 N Robert G. Pitts Air",
        "state": "AL",
        "magnitude": null,
        "magnitude_units": null,
        "source": "Emergency Manager",
        "event_narrative": "Scattered trees and power lines down in Lee County_ associated with Isaias. A tree was downed onto a manufactured home on Veterans Parkway in Opelika."
      },
      "geometry": {
        "type": "Point",
        "coordinates": [
          -85.44,
          32.64
        ]
      }
    },
    {
      "type": "Feature",
      "id": "iem-lsr-BMX-15",
      "properties": {
        "report_id": "iem-lsr-BMX-15",
        "report_type": "NON-TSTM WND GST",
        "event_category": "thunderstorm_wind",
        "valid_utc": "202610100553",
        "standard_time_display": "2026-10-09 23:53 CST",
        "wfo": "BMX",
        "county_or_zone": "Jefferson",
        "city": "Birmingham Internationa",
        "state": "AL",
        "magnitude": 46.0,
        "magnitude_units": null,
        "source": "Emergency Manager",
        "event_narrative": "Associated with Isaias."
      },
      "geometry": {
        "type": "Point",
        "coordinates": [
          -86.75,
          33.56
        ]
      }
    },
    {
      "type": "Feature",
      "id": "iem-lsr-BMX-16",
      "properties": {
        "report_id": "iem-lsr-BMX-16",
        "report_type": "TROPICAL CYCLONE",
        "event_category": "other",
        "valid_utc": "202610100600",
        "standard_time_display": "2026-10-10 00:00 CST",
        "wfo": "BMX",
        "county_or_zone": "Lee",
        "city": "1 SE Opelika",
        "state": "AL",
        "magnitude": null,
        "magnitude_units": null,
        "source": "Emergency Manager",
        "event_narrative": "Additional reports of downed trees and power lines across Lee County; associated with Isaias."
      },
      "geometry": {
        "type": "Point",
        "coordinates": [
          -85.37,
          32.64
        ]
      }
    },
    {
      "type": "Feature",
      "id": "iem-lsr-BMX-17",
      "properties": {
        "report_id": "iem-lsr-BMX-17",
        "report_type": "TROPICAL CYCLONE",
        "event_category": "other",
        "valid_utc": "202610100615",
        "standard_time_display": "2026-10-10 00:15 CST",
        "wfo": "BMX",
        "county_or_zone": "Tallapoosa",
        "city": "Dadeville",
        "state": "AL",
        "magnitude": null,
        "magnitude_units": null,
        "source": "911 Call Center",
        "event_narrative": "Scattered trees and power lines down across Tallapoosa County with power outages; associated with Isaias."
      },
      "geometry": {
        "type": "Point",
        "coordinates": [
          -85.76,
          32.83
        ]
      }
    },
    {
      "type": "Feature",
      "id": "iem-lsr-BMX-18",
      "properties": {
        "report_id": "iem-lsr-BMX-18",
        "report_type": "TROPICAL CYCLONE",
        "event_category": "other",
        "valid_utc": "202610100621",
        "standard_time_display": "2026-10-10 00:21 CST",
        "wfo": "BMX",
        "county_or_zone": "Russell",
        "city": "2 NE Ladonia",
        "state": "AL",
        "magnitude": null,
        "magnitude_units": null,
        "source": "Emergency Manager",
        "event_narrative": "A tree fell through a house on 43rd Avenue; no injuries; associated with Isaias."
      },
      "geometry": {
        "type": "Point",
        "coordinates": [
          -85.05,
          32.48
        ]
      }
    },
    {
      "type": "Feature",
      "id": "iem-lsr-BMX-19",
      "properties": {
        "report_id": "iem-lsr-BMX-19",
        "report_type": "TROPICAL CYCLONE",
        "event_category": "other",
        "valid_utc": "202610100625",
        "standard_time_display": "2026-10-10 00:25 CST",
        "wfo": "BMX",
        "county_or_zone": "Chambers",
        "city": "Lafayette",
        "state": "AL",
        "magnitude": null,
        "magnitude_units": null,
        "source": "Emergency Manager",
        "event_narrative": "Numerous trees and tree limbs across Chambers County with power outages; measured wind gusts ranging from 46 mph to 53 mph; associated with Isaias."
      },
      "geometry": {
        "type": "Point",
        "coordinates": [
          -85.4,
          32.9
        ]
      }
    },
    {
      "type": "Feature",
      "id": "iem-lsr-BMX-20",
      "properties": {
        "report_id": "iem-lsr-BMX-20",
        "report_type": "TROPICAL CYCLONE",
        "event_category": "other",
        "valid_utc": "202610100632",
        "standard_time_display": "2026-10-10 00:32 CST",
        "wfo": "BMX",
        "county_or_zone": "Jefferson",
        "city": "1 SW UAB Campus",
        "state": "AL",
        "magnitude": null,
        "magnitude_units": null,
        "source": "Amateur Radio",
        "event_narrative": "Tree downed onto a residence on 19th Avenue in the Five Points area; associated with Isaias. Corrected for location based on new information."
      },
      "geometry": {
        "type": "Point",
        "coordinates": [
          -86.81,
          33.49
        ]
      }
    },
    {
      "type": "Feature",
      "id": "iem-lsr-BMX-21",
      "properties": {
        "report_id": "iem-lsr-BMX-21",
        "report_type": "TROPICAL CYCLONE",
        "event_category": "other",
        "valid_utc": "202610100632",
        "standard_time_display": "2026-10-10 00:32 CST",
        "wfo": "BMX",
        "county_or_zone": "Jefferson",
        "city": "Ensley",
        "state": "AL",
        "magnitude": null,
        "magnitude_units": null,
        "source": "Amateur Radio",
        "event_narrative": "Tree downed onto a residence on 19th Street; associated with Isaias."
      },
      "geometry": {
        "type": "Point",
        "coordinates": [
          -86.89,
          33.51
        ]
      }
    },
    {
      "type": "Feature",
      "id": "iem-lsr-BMX-22",
      "properties": {
        "report_id": "iem-lsr-BMX-22",
        "report_type": "NON-TSTM WND GST",
        "event_category": "thunderstorm_wind",
        "valid_utc": "202610100641",
        "standard_time_display": "2026-10-10 00:41 CST",
        "wfo": "BMX",
        "county_or_zone": "Shelby",
        "city": "3 W Dogwood",
        "state": "AL",
        "magnitude": 55.0,
        "magnitude_units": null,
        "source": "Fire Department/R",
        "event_narrative": "Near Pea Ridge in southwest Shelby County' associated with Isaias."
      },
      "geometry": {
        "type": "Point",
        "coordinates": [
          -86.93,
          33.15
        ]
      }
    },
    {
      "type": "Feature",
      "id": "iem-lsr-BMX-23",
      "properties": {
        "report_id": "iem-lsr-BMX-23",
        "report_type": "TROPICAL CYCLONE",
        "event_category": "other",
        "valid_utc": "202610100700",
        "standard_time_display": "2026-10-10 01:00 CST",
        "wfo": "BMX",
        "county_or_zone": "St. Clair",
        "city": "1 S Odenville",
        "state": "AL",
        "magnitude": null,
        "magnitude_units": null,
        "source": "911 Call Center",
        "event_narrative": "Scattered trees down in St. Clair County; associated with Isaias."
      },
      "geometry": {
        "type": "Point",
        "coordinates": [
          -86.4,
          33.68
        ]
      }
    },
    {
      "type": "Feature",
      "id": "iem-lsr-BMX-24",
      "properties": {
        "report_id": "iem-lsr-BMX-24",
        "report_type": "TROPICAL CYCLONE",
        "event_category": "other",
        "valid_utc": "202610100700",
        "standard_time_display": "2026-10-10 01:00 CST",
        "wfo": "BMX",
        "county_or_zone": "Tallapoosa",
        "city": "New Site",
        "state": "AL",
        "magnitude": null,
        "magnitude_units": null,
        "source": "911 Call Center",
        "event_narrative": "Additional reports of trees down at various locations in Tallapoosa County; associated with Isaias."
      },
      "geometry": {
        "type": "Point",
        "coordinates": [
          -85.77,
          33.04
        ]
      }
    },
    {
      "type": "Feature",
      "id": "iem-lsr-BMX-25",
      "properties": {
        "report_id": "iem-lsr-BMX-25",
        "report_type": "TROPICAL CYCLONE",
        "event_category": "other",
        "valid_utc": "202610100718",
        "standard_time_display": "2026-10-10 01:18 CST",
        "wfo": "BMX",
        "county_or_zone": "Jefferson",
        "city": "1 E Mountain Brook",
        "state": "AL",
        "magnitude": null,
        "magnitude_units": null,
        "source": "Amateur Radio",
        "event_narrative": "Tree downed onto a residence on Appomatox Lane; associated with Isaias."
      },
      "geometry": {
        "type": "Point",
        "coordinates": [
          -86.73,
          33.51
        ]
      }
    },
    {
      "type": "Feature",
      "id": "iem-lsr-BMX-26",
      "properties": {
        "report_id": "iem-lsr-BMX-26",
        "report_type": "TROPICAL CYCLONE",
        "event_category": "other",
        "valid_utc": "202610100730",
        "standard_time_display": "2026-10-10 01:30 CST",
        "wfo": "BMX",
        "county_or_zone": "Clay",
        "city": "Ashland",
        "state": "AL",
        "magnitude": null,
        "magnitude_units": null,
        "source": "911 Call Center",
        "event_narrative": "Scattered trees and power lines down in Clay County with power outages; associated with Isaias."
      },
      "geometry": {
        "type": "Point",
        "coordinates": [
          -85.83,
          33.27
        ]
      }
    },
    {
      "type": "Feature",
      "id": "iem-lsr-BMX-27",
      "properties": {
        "report_id": "iem-lsr-BMX-27",
        "report_type": "TROPICAL CYCLONE",
        "event_category": "other",
        "valid_utc": "202610100730",
        "standard_time_display": "2026-10-10 01:30 CST",
        "wfo": "BMX",
        "county_or_zone": "Bibb",
        "city": "Centreville",
        "state": "AL",
        "magnitude": null,
        "magnitude_units": null,
        "source": "Amateur Radio",
        "event_narrative": "Scattered tree limbs and trees down in Bibb County_ with power outages; associated with Isaias."
      },
      "geometry": {
        "type": "Point",
        "coordinates": [
          -87.14,
          32.94
        ]
      }
    },
    {
      "type": "Feature",
      "id": "iem-lsr-BMX-28",
      "properties": {
        "report_id": "iem-lsr-BMX-28",
        "report_type": "NON-TSTM WND DMG",
        "event_category": "thunderstorm_wind",
        "valid_utc": "202610100730",
        "standard_time_display": "2026-10-10 01:30 CST",
        "wfo": "BMX",
        "county_or_zone": "Walker",
        "city": "Jasper",
        "state": "AL",
        "magnitude": null,
        "magnitude_units": null,
        "source": "911 Call Center",
        "event_narrative": "Scattered tree and power line down reports in Walker County; associated with Isaias."
      },
      "geometry": {
        "type": "Point",
        "coordinates": [
          -87.28,
          33.83
        ]
      }
    },
    {
      "type": "Feature",
      "id": "iem-lsr-BMX-29",
      "properties": {
        "report_id": "iem-lsr-BMX-29",
        "report_type": "TROPICAL CYCLONE",
        "event_category": "other",
        "valid_utc": "202610100900",
        "standard_time_display": "2026-10-10 03:00 CST",
        "wfo": "BMX",
        "county_or_zone": "Elmore",
        "city": "1 S Dexter",
        "state": "AL",
        "magnitude": null,
        "magnitude_units": null,
        "source": "911 Call Center",
        "event_narrative": "Numerous downed tree and power line reports continue to come in from Elmore County; associated with Isaias."
      },
      "geometry": {
        "type": "Point",
        "coordinates": [
          -86.15,
          32.62
        ]
      }
    },
    {
      "type": "Feature",
      "id": "iem-lsr-BMX-30",
      "properties": {
        "report_id": "iem-lsr-BMX-30",
        "report_type": "NON-TSTM WND DMG",
        "event_category": "thunderstorm_wind",
        "valid_utc": "202610100900",
        "standard_time_display": "2026-10-10 03:00 CST",
        "wfo": "BMX",
        "county_or_zone": "Talladega",
        "city": "Talladega",
        "state": "AL",
        "magnitude": null,
        "magnitude_units": null,
        "source": "Emergency Manager",
        "event_narrative": "Multiple reports of trees and power lines down at various locations across Talladega County; associated with Isaias."
      },
      "geometry": {
        "type": "Point",
        "coordinates": [
          -86.1,
          33.43
        ]
      }
    },
    {
      "type": "Feature",
      "id": "iem-lsr-BMX-31",
      "properties": {
        "report_id": "iem-lsr-BMX-31",
        "report_type": "TSTM WND GST",
        "event_category": "thunderstorm_wind",
        "valid_utc": "202610100922",
        "standard_time_display": "2026-10-10 03:22 CST",
        "wfo": "BMX",
        "county_or_zone": "Jefferson",
        "city": "Birmingham Internationa",
        "state": "AL",
        "magnitude": 49.0,
        "magnitude_units": null,
        "source": "ASOS/AWOS",
        "event_narrative": "Associated with Isaias."
      },
      "geometry": {
        "type": "Point",
        "coordinates": [
          -86.75,
          33.56
        ]
      }
    },
    {
      "type": "Feature",
      "id": "iem-lsr-BMX-32",
      "properties": {
        "report_id": "iem-lsr-BMX-32",
        "report_type": "TROPICAL CYCLONE",
        "event_category": "other",
        "valid_utc": "202610100930",
        "standard_time_display": "2026-10-10 03:30 CST",
        "wfo": "BMX",
        "county_or_zone": "Clay",
        "city": "6 S Gunthertown",
        "state": "AL",
        "magnitude": null,
        "magnitude_units": null,
        "source": "911 Call Center",
        "event_narrative": "Downed tree reports continue to come in from Clay County; associated with Isaias."
      },
      "geometry": {
        "type": "Point",
        "coordinates": [
          -85.93,
          33.29
        ]
      }
    },
    {
      "type": "Feature",
      "id": "iem-lsr-BMX-33",
      "properties": {
        "report_id": "iem-lsr-BMX-33",
        "report_type": "TROPICAL CYCLONE",
        "event_category": "other",
        "valid_utc": "202610100930",
        "standard_time_display": "2026-10-10 03:30 CST",
        "wfo": "BMX",
        "county_or_zone": "Shelby",
        "city": "Columbiana",
        "state": "AL",
        "magnitude": null,
        "magnitude_units": null,
        "source": "911 Call Center",
        "event_narrative": "Downed tree and power line reports continue to come in from Shelby County; associated with Isaias."
      },
      "geometry": {
        "type": "Point",
        "coordinates": [
          -86.61,
          33.18
        ]
      }
    },
    {
      "type": "Feature",
      "id": "iem-lsr-BMX-34",
      "properties": {
        "report_id": "iem-lsr-BMX-34",
        "report_type": "TROPICAL CYCLONE",
        "event_category": "other",
        "valid_utc": "202610100930",
        "standard_time_display": "2026-10-10 03:30 CST",
        "wfo": "BMX",
        "county_or_zone": "Randolph",
        "city": "Crystal Lake",
        "state": "AL",
        "magnitude": null,
        "magnitude_units": null,
        "source": "911 Call Center",
        "event_narrative": "Downed tree and power line reports continue to come in from Randolph County; associated with Isaias."
      },
      "geometry": {
        "type": "Point",
        "coordinates": [
          -85.41,
          33.19
        ]
      }
    },
    {
      "type": "Feature",
      "id": "iem-lsr-BMX-35",
      "properties": {
        "report_id": "iem-lsr-BMX-35",
        "report_type": "TROPICAL CYCLONE",
        "event_category": "other",
        "valid_utc": "202610100930",
        "standard_time_display": "2026-10-10 03:30 CST",
        "wfo": "BMX",
        "county_or_zone": "Jefferson",
        "city": "Hoover",
        "state": "AL",
        "magnitude": null,
        "magnitude_units": null,
        "source": "911 Call Center",
        "event_narrative": "Additional downed tree and power line reports across Jefferson County; associated with Isaias."
      },
      "geometry": {
        "type": "Point",
        "coordinates": [
          -86.81,
          33.41
        ]
      }
    },
    {
      "type": "Feature",
      "id": "iem-lsr-BMX-36",
      "properties": {
        "report_id": "iem-lsr-BMX-36",
        "report_type": "TROPICAL CYCLONE",
        "event_category": "other",
        "valid_utc": "202610101000",
        "standard_time_display": "2026-10-10 04:00 CST",
        "wfo": "BMX",
        "county_or_zone": "St. Clair",
        "city": "1 W Ragland",
        "state": "AL",
        "magnitude": null,
        "magnitude_units": null,
        "source": "911 Call Center",
        "event_narrative": "Additional downed tree and power line reports from St. Clair County; associated with Isaias."
      },
      "geometry": {
        "type": "Point",
        "coordinates": [
          -86.16,
          33.74
        ]
      }
    },
    {
      "type": "Feature",
      "id": "iem-lsr-BMX-37",
      "properties": {
        "report_id": "iem-lsr-BMX-37",
        "report_type": "NON-TSTM WND DMG",
        "event_category": "thunderstorm_wind",
        "valid_utc": "202610101000",
        "standard_time_display": "2026-10-10 04:00 CST",
        "wfo": "BMX",
        "county_or_zone": "Etowah",
        "city": "1 NE Attalla",
        "state": "AL",
        "magnitude": null,
        "magnitude_units": null,
        "source": "Emergency Manager",
        "event_narrative": "Several reports of downed trees and power lines across Etowah County; associated with Isaias."
      },
      "geometry": {
        "type": "Point",
        "coordinates": [
          -86.08,
          34.02
        ]
      }
    },
    {
      "type": "Feature",
      "id": "iem-lsr-BMX-38",
      "properties": {
        "report_id": "iem-lsr-BMX-38",
        "report_type": "NON-TSTM WND DMG",
        "event_category": "thunderstorm_wind",
        "valid_utc": "202610101000",
        "standard_time_display": "2026-10-10 04:00 CST",
        "wfo": "BMX",
        "county_or_zone": "Calhoun",
        "city": "2 NW Oxford Exchange Sh",
        "state": "AL",
        "magnitude": null,
        "magnitude_units": null,
        "source": "Emergency Manager",
        "event_narrative": "Tree down reports at various locations across Calhoun County_ some blocking roadways; tree on a structure on Valley Creek Road and Stone Road; associated with Isaias."
      },
      "geometry": {
        "type": "Point",
        "coordinates": [
          -85.8,
          33.63
        ]
      }
    },
    {
      "type": "Feature",
      "id": "iem-lsr-BMX-39",
      "properties": {
        "report_id": "iem-lsr-BMX-39",
        "report_type": "NON-TSTM WND DMG",
        "event_category": "thunderstorm_wind",
        "valid_utc": "202610101100",
        "standard_time_display": "2026-10-10 05:00 CST",
        "wfo": "BMX",
        "county_or_zone": "Jefferson",
        "city": "2 S Center Point",
        "state": "AL",
        "magnitude": null,
        "magnitude_units": null,
        "source": "Emergency Manager",
        "event_narrative": "*** 1 FATAL *** A tree was downed onto a residence in northeast Jefferson County on Monterey Drive_ killing one male occupant. The Birmingham International Airport_ located about 5.5 miles southwest of the residence_ measured wind gusts as high as 49 mph (4:22 am observation). Frequent observations with winds sustained 15-25 mph with gusts 30-40 were recorded throughout the early-morning hours. These winds occurred during the time of the fatality. Time of incident is estimated based on reports of scanner traffic."
      },
      "geometry": {
        "type": "Point",
        "coordinates": [
          -86.67,
          33.61
        ]
      }
    },
    {
      "type": "Feature",
      "id": "iem-lsr-BMX-40",
      "properties": {
        "report_id": "iem-lsr-BMX-40",
        "report_type": "NON-TSTM WND DMG",
        "event_category": "thunderstorm_wind",
        "valid_utc": "202610101430",
        "standard_time_display": "2026-10-10 08:30 CST",
        "wfo": "BMX",
        "county_or_zone": "Blount",
        "city": "1 SW Cleveland",
        "state": "AL",
        "magnitude": null,
        "magnitude_units": null,
        "source": "Emergency Manager",
        "event_narrative": "Tree down reports at various locations in Blount County; associated with Isaias remnants."
      },
      "geometry": {
        "type": "Point",
        "coordinates": [
          -86.58,
          33.99
        ]
      }
    }
  ]
}