{
  "type": "FeatureCollection",
  "metadata": {
    "schema_version": "0.2.4",
    "year": 2026,
    "month": 4,
    "wfo": "RAH",
    "start_utc": "2026-04-01T00:00:00Z",
    "end_utc": "2026-05-01T00:00:00Z",
    "generated_utc": "2026-06-18T12:36:24Z",
    "mode": "storm_data_prep",
    "public_release_status": "public-source-derived",
    "time_note": "Storm Data entry times should be reviewed in local Standard Time (ST), not daylight time. Candidate reports include standard_time_display.",
    "tornado_track_policy": "Tornado tracks must come from DAT. NCEI begin/end coordinates are not used as a tornado track substitute.",
    "source": "https://mesonet.agron.iastate.edu/cgi-bin/request/gis/lsr.py?wfo=RAH&sts=2026-04-01T00%3A00%3A00Z&ets=2026-05-01T00%3A00%3A00Z&fmt=csv"
  },
  "features": [
    {
      "type": "Feature",
      "id": "iem-lsr-RAH-1",
      "properties": {
        "report_id": "iem-lsr-RAH-1",
        "report_type": "TSTM WND DMG",
        "event_category": "thunderstorm_wind",
        "valid_utc": "202604051722",
        "standard_time_display": "2026-04-05 12:22 EST",
        "wfo": "RAH",
        "county_or_zone": "Halifax",
        "city": "1 E Roanoke Rapids",
        "state": "NC",
        "magnitude": null,
        "magnitude_units": null,
        "source": "911 Call Center",
        "event_narrative": "Tree down along 700 block of Carolina Avenue."
      },
      "geometry": {
        "type": "Point",
        "coordinates": [
          -77.64,
          36.45
        ]
      }
    },
    {
      "type": "Feature",
      "id": "iem-lsr-RAH-2",
      "properties": {
        "report_id": "iem-lsr-RAH-2",
        "report_type": "TSTM WND DMG",
        "event_category": "thunderstorm_wind",
        "valid_utc": "202604051722",
        "standard_time_display": "2026-04-05 12:22 EST",
        "wfo": "RAH",
        "county_or_zone": "Halifax",
        "city": "1 WSW Roanoke Rapids",
        "state": "NC",
        "magnitude": null,
        "magnitude_units": null,
        "source": "911 Call Center",
        "event_narrative": "Power line down near Clinton St and Roanoke Ave."
      },
      "geometry": {
        "type": "Point",
        "coordinates": [
          -77.66,
          36.45
        ]
      }
    },
    {
      "type": "Feature",
      "id": "iem-lsr-RAH-3",
      "properties": {
        "report_id": "iem-lsr-RAH-3",
        "report_type": "TSTM WND DMG",
        "event_category": "thunderstorm_wind",
        "valid_utc": "202604051722",
        "standard_time_display": "2026-04-05 12:22 EST",
        "wfo": "RAH",
        "county_or_zone": "Halifax",
        "city": "Roanoke Rapids",
        "state": "NC",
        "magnitude": null,
        "magnitude_units": null,
        "source": "911 Call Center",
        "event_narrative": "Tree down along 1000 block of Hamilton St."
      },
      "geometry": {
        "type": "Point",
        "coordinates": [
          -77.66,
          36.46
        ]
      }
    },
    {
      "type": "Feature",
      "id": "iem-lsr-RAH-4",
      "properties": {
        "report_id": "iem-lsr-RAH-4",
        "report_type": "TSTM WND DMG",
        "event_category": "thunderstorm_wind",
        "valid_utc": "202604300145",
        "standard_time_display": "2026-04-29 20:45 EST",
        "wfo": "RAH",
        "county_or_zone": "Guilford",
        "city": "5 NNE Lake Townsend",
        "state": "NC",
        "magnitude": null,
        "magnitude_units": null,
        "source": "Utility Company",
        "event_narrative": "Hundred power outages reported due to trees on powerlines."
      },
      "geometry": {
        "type": "Point",
        "coordinates": [
          -79.76,
          36.23
        ]
      }
    },
    {
      "type": "Feature",
      "id": "iem-lsr-RAH-5",
      "properties": {
        "report_id": "iem-lsr-RAH-5",
        "report_type": "TSTM WND DMG",
        "event_category": "thunderstorm_wind",
        "valid_utc": "202604300148",
        "standard_time_display": "2026-04-29 20:48 EST",
        "wfo": "RAH",
        "county_or_zone": "Guilford",
        "city": "4 NNW Lake Townsend",
        "state": "NC",
        "magnitude": null,
        "magnitude_units": null,
        "source": "Utility Company",
        "event_narrative": "Hundred power outages from trees down on power lines."
      },
      "geometry": {
        "type": "Point",
        "coordinates": [
          -79.8,
          36.22
        ]
      }
    },
    {
      "type": "Feature",
      "id": "iem-lsr-RAH-6",
      "properties": {
        "report_id": "iem-lsr-RAH-6",
        "report_type": "HAIL",
        "event_category": "hail",
        "valid_utc": "202604300152",
        "standard_time_display": "2026-04-29 20:52 EST",
        "wfo": "RAH",
        "county_or_zone": "Stanly",
        "city": "Locust",
        "state": "NC",
        "magnitude": 1.0,
        "magnitude_units": null,
        "source": "Public",
        "event_narrative": "1 inch hail observed near Locust_ NC."
      },
      "geometry": {
        "type": "Point",
        "coordinates": [
          -80.43,
          35.26
        ]
      }
    },
    {
      "type": "Feature",
      "id": "iem-lsr-RAH-7",
      "properties": {
        "report_id": "iem-lsr-RAH-7",
        "report_type": "HAIL",
        "event_category": "hail",
        "valid_utc": "202604300210",
        "standard_time_display": "2026-04-29 21:10 EST",
        "wfo": "RAH",
        "county_or_zone": "Alamance",
        "city": "Mebane",
        "state": "NC",
        "magnitude": 1.0,
        "magnitude_units": null,
        "source": "Public",
        "event_narrative": null
      },
      "geometry": {
        "type": "Point",
        "coordinates": [
          -79.27,
          36.09
        ]
      }
    },
    {
      "type": "Feature",
      "id": "iem-lsr-RAH-8",
      "properties": {
        "report_id": "iem-lsr-RAH-8",
        "report_type": "HAIL",
        "event_category": "hail",
        "valid_utc": "202604300212",
        "standard_time_display": "2026-04-29 21:12 EST",
        "wfo": "RAH",
        "county_or_zone": "Alamance",
        "city": "3 SW Mebane",
        "state": "NC",
        "magnitude": 1.25,
        "magnitude_units": null,
        "source": "Broadcast Media",
        "event_narrative": "Picture passed along via social media shows a hail stone ranging from 1 to 1.5 inches. Time and approximate location estimated from radar."
      },
      "geometry": {
        "type": "Point",
        "coordinates": [
          -79.31,
          36.07
        ]
      }
    },
    {
      "type": "Feature",
      "id": "iem-lsr-RAH-9",
      "properties": {
        "report_id": "iem-lsr-RAH-9",
        "report_type": "HAIL",
        "event_category": "hail",
        "valid_utc": "202604300215",
        "standard_time_display": "2026-04-29 21:15 EST",
        "wfo": "RAH",
        "county_or_zone": "Alamance",
        "city": "2 S Mebane",
        "state": "NC",
        "magnitude": 0.75,
        "magnitude_units": null,
        "source": "Public",
        "event_narrative": "mPING report of dime sized hail near the 3900 block along Long Meadow Drive."
      },
      "geometry": {
        "type": "Point",
        "coordinates": [
          -79.27,
          36.06
        ]
      }
    },
    {
      "type": "Feature",
      "id": "iem-lsr-RAH-10",
      "properties": {
        "report_id": "iem-lsr-RAH-10",
        "report_type": "TSTM WND DMG",
        "event_category": "thunderstorm_wind",
        "valid_utc": "202604300230",
        "standard_time_display": "2026-04-29 21:30 EST",
        "wfo": "RAH",
        "county_or_zone": "Granville",
        "city": "1 NE Oxford",
        "state": "NC",
        "magnitude": null,
        "magnitude_units": null,
        "source": "Utility Company",
        "event_narrative": "Hundred power outages from trees on powerlines."
      },
      "geometry": {
        "type": "Point",
        "coordinates": [
          -78.58,
          36.32
        ]
      }
    },
    {
      "type": "Feature",
      "id": "iem-lsr-RAH-11",
      "properties": {
        "report_id": "iem-lsr-RAH-11",
        "report_type": "TSTM WND DMG",
        "event_category": "thunderstorm_wind",
        "valid_utc": "202604300235",
        "standard_time_display": "2026-04-29 21:35 EST",
        "wfo": "RAH",
        "county_or_zone": "Orange",
        "city": "3 NW Carrboro",
        "state": "NC",
        "magnitude": null,
        "magnitude_units": null,
        "source": "Public",
        "event_narrative": "Several hundred power outages from trees down on powerlines."
      },
      "geometry": {
        "type": "Point",
        "coordinates": [
          -79.12,
          35.95
        ]
      }
    },
    {
      "type": "Feature",
      "id": "iem-lsr-RAH-12",
      "properties": {
        "report_id": "iem-lsr-RAH-12",
        "report_type": "TSTM WND DMG",
        "event_category": "thunderstorm_wind",
        "valid_utc": "202604300235",
        "standard_time_display": "2026-04-29 21:35 EST",
        "wfo": "RAH",
        "county_or_zone": "Orange",
        "city": "3 NW Carrboro",
        "state": "NC",
        "magnitude": null,
        "magnitude_units": null,
        "source": "Utility Company",
        "event_narrative": "Several hundred power outages from trees down on powerlines."
      },
      "geometry": {
        "type": "Point",
        "coordinates": [
          -79.12,
          35.95
        ]
      }
    },
    {
      "type": "Feature",
      "id": "iem-lsr-RAH-13",
      "properties": {
        "report_id": "iem-lsr-RAH-13",
        "report_type": "HAIL",
        "event_category": "hail",
        "valid_utc": "202604300241",
        "standard_time_display": "2026-04-29 21:41 EST",
        "wfo": "RAH",
        "county_or_zone": "Orange",
        "city": "2 N Carrboro",
        "state": "NC",
        "magnitude": 0.5,
        "magnitude_units": null,
        "source": "Public",
        "event_narrative": "mPING report of half inch hail on Wyndham Dr."
      },
      "geometry": {
        "type": "Point",
        "coordinates": [
          -79.09,
          35.94
        ]
      }
    },
    {
      "type": "Feature",
      "id": "iem-lsr-RAH-14",
      "properties": {
        "report_id": "iem-lsr-RAH-14",
        "report_type": "HAIL",
        "event_category": "hail",
        "valid_utc": "202604300244",
        "standard_time_display": "2026-04-29 21:44 EST",
        "wfo": "RAH",
        "county_or_zone": "Orange",
        "city": "1 S Carrboro",
        "state": "NC",
        "magnitude": 1.0,
        "magnitude_units": null,
        "source": "Public",
        "event_narrative": "One inch hail measured near Carrboro."
      },
      "geometry": {
        "type": "Point",
        "coordinates": [
          -79.08,
          35.91
        ]
      }
    },
    {
      "type": "Feature",
      "id": "iem-lsr-RAH-15",
      "properties": {
        "report_id": "iem-lsr-RAH-15",
        "report_type": "HAIL",
        "event_category": "hail",
        "valid_utc": "202604300244",
        "standard_time_display": "2026-04-29 21:44 EST",
        "wfo": "RAH",
        "county_or_zone": "Orange",
        "city": "1 SW Carrboro",
        "state": "NC",
        "magnitude": 1.0,
        "magnitude_units": null,
        "source": "Public",
        "event_narrative": "Report from mPING: Quarter (1.00 in.)."
      },
      "geometry": {
        "type": "Point",
        "coordinates": [
          -79.09,
          35.91
        ]
      }
    },
    {
      "type": "Feature",
      "id": "iem-lsr-RAH-16",
      "properties": {
        "report_id": "iem-lsr-RAH-16",
        "report_type": "TSTM WND DMG",
        "event_category": "thunderstorm_wind",
        "valid_utc": "202604300248",
        "standard_time_display": "2026-04-29 21:48 EST",
        "wfo": "RAH",
        "county_or_zone": "Chatham",
        "city": "2 NE Fearrington",
        "state": "NC",
        "magnitude": null,
        "magnitude_units": null,
        "source": "Utility Company",
        "event_narrative": "Thousand power outages from trees on powerlines."
      },
      "geometry": {
        "type": "Point",
        "coordinates": [
          -79.04,
          35.83
        ]
      }
    },
    {
      "type": "Feature",
      "id": "iem-lsr-RAH-17",
      "properties": {
        "report_id": "iem-lsr-RAH-17",
        "report_type": "TSTM WND DMG",
        "event_category": "thunderstorm_wind",
        "valid_utc": "202604300302",
        "standard_time_display": "2026-04-29 22:02 EST",
        "wfo": "RAH",
        "county_or_zone": "Chatham",
        "city": "3 W Carpenter",
        "state": "NC",
        "magnitude": null,
        "magnitude_units": null,
        "source": "911 Call Center",
        "event_narrative": "Tree down near the intersection of New Hope Church Road and Indian Creek Lane."
      },
      "geometry": {
        "type": "Point",
        "coordinates": [
          -78.93,
          35.82
        ]
      }
    }
  ]
}