{
  "type": "FeatureCollection",
  "metadata": {
    "schema_version": "0.2.4",
    "year": 2026,
    "month": 6,
    "wfo": "EWX",
    "start_utc": "2026-06-01T00:00:00Z",
    "end_utc": "2026-07-01T00:00:00Z",
    "generated_utc": "2026-06-12T12:29:35Z",
    "mode": "storm_data_prep",
    "public_release_status": "public-source-derived",
    "time_note": "Storm Data entry times should be reviewed in local Standard Time (ST), not daylight time. Candidate reports include standard_time_display.",
    "tornado_track_policy": "Tornado tracks must come from DAT. NCEI begin/end coordinates are not used as a tornado track substitute.",
    "source": "https://mesonet.agron.iastate.edu/cgi-bin/request/gis/lsr.py?wfo=EWX&sts=2026-06-01T00%3A00%3A00Z&ets=2026-07-01T00%3A00%3A00Z&fmt=csv"
  },
  "features": [
    {
      "type": "Feature",
      "id": "iem-lsr-EWX-1",
      "properties": {
        "report_id": "iem-lsr-EWX-1",
        "report_type": "TSTM WND DMG",
        "event_category": "thunderstorm_wind",
        "valid_utc": "202606030046",
        "standard_time_display": "2026-06-02 18:46 CST",
        "wfo": "EWX",
        "county_or_zone": "Comal",
        "city": "6 WNW Zorn",
        "state": "TX",
        "magnitude": null,
        "magnitude_units": null,
        "source": "Broadcast Media",
        "event_narrative": "Broadcast Media relayed a report and photo of several powerlines down on Watson Lane West between Interstate 35 and Farm to Market Road 1102. Time estimated by radar."
      },
      "geometry": {
        "type": "Point",
        "coordinates": [
          -98.04,
          29.78
        ]
      }
    },
    {
      "type": "Feature",
      "id": "iem-lsr-EWX-2",
      "properties": {
        "report_id": "iem-lsr-EWX-2",
        "report_type": "HAIL",
        "event_category": "hail",
        "valid_utc": "202606030127",
        "standard_time_display": "2026-06-02 19:27 CST",
        "wfo": "EWX",
        "county_or_zone": "Hays",
        "city": "3 SE Buda",
        "state": "TX",
        "magnitude": 1.0,
        "magnitude_units": null,
        "source": "Public",
        "event_narrative": "Report from mPING. Quarter sized hail."
      },
      "geometry": {
        "type": "Point",
        "coordinates": [
          -97.81,
          30.05
        ]
      }
    },
    {
      "type": "Feature",
      "id": "iem-lsr-EWX-3",
      "properties": {
        "report_id": "iem-lsr-EWX-3",
        "report_type": "TSTM WND GST",
        "event_category": "thunderstorm_wind",
        "valid_utc": "202606030156",
        "standard_time_display": "2026-06-02 19:56 CST",
        "wfo": "EWX",
        "county_or_zone": "Caldwell",
        "city": "3 NNW Martindale",
        "state": "TX",
        "magnitude": 59.0,
        "magnitude_units": null,
        "source": "AWOS",
        "event_narrative": "AWOS station KHYI San Marcos Regional Arpt."
      },
      "geometry": {
        "type": "Point",
        "coordinates": [
          -97.87,
          29.88
        ]
      }
    },
    {
      "type": "Feature",
      "id": "iem-lsr-EWX-4",
      "properties": {
        "report_id": "iem-lsr-EWX-4",
        "report_type": "FLASH FLOOD",
        "event_category": "flooding",
        "valid_utc": "202606051100",
        "standard_time_display": "2026-06-05 05:00 CST",
        "wfo": "EWX",
        "county_or_zone": "Bexar",
        "city": "1 S San Antonio",
        "state": "TX",
        "magnitude": null,
        "magnitude_units": null,
        "source": "Broadcast Media",
        "event_narrative": "Stalled vehicle reported on Alamo and Probandt."
      },
      "geometry": {
        "type": "Point",
        "coordinates": [
          -98.5,
          29.41
        ]
      }
    },
    {
      "type": "Feature",
      "id": "iem-lsr-EWX-5",
      "properties": {
        "report_id": "iem-lsr-EWX-5",
        "report_type": "FLASH FLOOD",
        "event_category": "flooding",
        "valid_utc": "202606051200",
        "standard_time_display": "2026-06-05 06:00 CST",
        "wfo": "EWX",
        "county_or_zone": "Bexar",
        "city": "1 NW Olmos Park",
        "state": "TX",
        "magnitude": null,
        "magnitude_units": null,
        "source": "Broadcast Media",
        "event_narrative": "High-water rescue just after 7 AM involving a man carried 100 ft downstream by floodwaters to near San Pedro Ave and Basse Rd."
      },
      "geometry": {
        "type": "Point",
        "coordinates": [
          -98.5,
          29.49
        ]
      }
    },
    {
      "type": "Feature",
      "id": "iem-lsr-EWX-6",
      "properties": {
        "report_id": "iem-lsr-EWX-6",
        "report_type": "FLASH FLOOD",
        "event_category": "flooding",
        "valid_utc": "202606051237",
        "standard_time_display": "2026-06-05 06:37 CST",
        "wfo": "EWX",
        "county_or_zone": "Bexar",
        "city": "1 NE Castle Hills",
        "state": "TX",
        "magnitude": null,
        "magnitude_units": null,
        "source": "County Official",
        "event_narrative": "Lockhill Selma at Gardenview closed due to water over the road."
      },
      "geometry": {
        "type": "Point",
        "coordinates": [
          -98.51,
          29.53
        ]
      }
    },
    {
      "type": "Feature",
      "id": "iem-lsr-EWX-7",
      "properties": {
        "report_id": "iem-lsr-EWX-7",
        "report_type": "TSTM WND DMG",
        "event_category": "thunderstorm_wind",
        "valid_utc": "202606052240",
        "standard_time_display": "2026-06-05 16:40 CST",
        "wfo": "EWX",
        "county_or_zone": "Val Verde",
        "city": "Del Rio",
        "state": "TX",
        "magnitude": null,
        "magnitude_units": null,
        "source": "Broadcast Media",
        "event_narrative": "Several downed tree limbs 3 inches in diameter or larger_ and minor structural damage within town. Several thousand were without power across Del Rio. Time estimated via radar."
      },
      "geometry": {
        "type": "Point",
        "coordinates": [
          -100.9,
          29.36
        ]
      }
    },
    {
      "type": "Feature",
      "id": "iem-lsr-EWX-8",
      "properties": {
        "report_id": "iem-lsr-EWX-8",
        "report_type": "TSTM WND GST",
        "event_category": "thunderstorm_wind",
        "valid_utc": "202606052242",
        "standard_time_display": "2026-06-05 16:42 CST",
        "wfo": "EWX",
        "county_or_zone": "Val Verde",
        "city": "2 WNW Del Rio",
        "state": "TX",
        "magnitude": 56.0,
        "magnitude_units": null,
        "source": "ASOS",
        "event_narrative": "ASOS station KDRT Del Rio Intl Airport."
      },
      "geometry": {
        "type": "Point",
        "coordinates": [
          -100.93,
          29.38
        ]
      }
    },
    {
      "type": "Feature",
      "id": "iem-lsr-EWX-9",
      "properties": {
        "report_id": "iem-lsr-EWX-9",
        "report_type": "FLASH FLOOD",
        "event_category": "flooding",
        "valid_utc": "202606052345",
        "standard_time_display": "2026-06-05 17:45 CST",
        "wfo": "EWX",
        "county_or_zone": "Burnet",
        "city": "4 S Briggs",
        "state": "TX",
        "magnitude": null,
        "magnitude_units": null,
        "source": "Dept of Highways",
        "event_narrative": "FM 243 closed due to water on roadway east of Mahomet in Burnet County. Additional reports that CR 214_ CR 213 and CR 212 have water on road and are barely passable."
      },
      "geometry": {
        "type": "Point",
        "coordinates": [
          -97.93,
          30.83
        ]
      }
    },
    {
      "type": "Feature",
      "id": "iem-lsr-EWX-10",
      "properties": {
        "report_id": "iem-lsr-EWX-10",
        "report_type": "FLASH FLOOD",
        "event_category": "flooding",
        "valid_utc": "202606060017",
        "standard_time_display": "2026-06-05 18:17 CST",
        "wfo": "EWX",
        "county_or_zone": "Williamson",
        "city": "4 NW Liberty Hill",
        "state": "TX",
        "magnitude": null,
        "magnitude_units": null,
        "source": "Public",
        "event_narrative": "Social media picture of the intersection of CR 201 and CR 206 flooded with a few feet of water and still rising."
      },
      "geometry": {
        "type": "Point",
        "coordinates": [
          -97.96,
          30.72
        ]
      }
    },
    {
      "type": "Feature",
      "id": "iem-lsr-EWX-11",
      "properties": {
        "report_id": "iem-lsr-EWX-11",
        "report_type": "FLASH FLOOD",
        "event_category": "flooding",
        "valid_utc": "202606060045",
        "standard_time_display": "2026-06-05 18:45 CST",
        "wfo": "EWX",
        "county_or_zone": "Lavaca",
        "city": "Hallettsville",
        "state": "TX",
        "magnitude": null,
        "magnitude_units": null,
        "source": "Public",
        "event_narrative": "Social media video of fast moving water closing Crockett and Bowie Street in Hallettsville between North La Grange Street and North Texana Street in Hallettsville."
      },
      "geometry": {
        "type": "Point",
        "coordinates": [
          -96.94,
          29.45
        ]
      }
    },
    {
      "type": "Feature",
      "id": "iem-lsr-EWX-12",
      "properties": {
        "report_id": "iem-lsr-EWX-12",
        "report_type": "FLASH FLOOD",
        "event_category": "flooding",
        "valid_utc": "202606060058",
        "standard_time_display": "2026-06-05 18:58 CST",
        "wfo": "EWX",
        "county_or_zone": "Williamson",
        "city": "1 S Andice",
        "state": "TX",
        "magnitude": null,
        "magnitude_units": null,
        "source": "Emergency Mngr",
        "event_narrative": "Several roads in the Andice area with water over the roadway_ including CR 241_ CR245_ and CR208."
      },
      "geometry": {
        "type": "Point",
        "coordinates": [
          -97.85,
          30.77
        ]
      }
    },
    {
      "type": "Feature",
      "id": "iem-lsr-EWX-13",
      "properties": {
        "report_id": "iem-lsr-EWX-13",
        "report_type": "FLASH FLOOD",
        "event_category": "flooding",
        "valid_utc": "202606060110",
        "standard_time_display": "2026-06-05 19:10 CST",
        "wfo": "EWX",
        "county_or_zone": "Lavaca",
        "city": "1 ESE Hallettsville",
        "state": "TX",
        "magnitude": null,
        "magnitude_units": null,
        "source": "Emergency Mngr",
        "event_narrative": "flooding ongoing with high water on CR 128 and Edna Street."
      },
      "geometry": {
        "type": "Point",
        "coordinates": [
          -96.93,
          29.44
        ]
      }
    },
    {
      "type": "Feature",
      "id": "iem-lsr-EWX-14",
      "properties": {
        "report_id": "iem-lsr-EWX-14",
        "report_type": "FLASH FLOOD",
        "event_category": "flooding",
        "valid_utc": "202606060110",
        "standard_time_display": "2026-06-05 19:10 CST",
        "wfo": "EWX",
        "county_or_zone": "Lavaca",
        "city": "1 NNW Hallettsville",
        "state": "TX",
        "magnitude": null,
        "magnitude_units": null,
        "source": "Emergency Mngr",
        "event_narrative": "flooding ongoing with high water near CR 198 and FM 957."
      },
      "geometry": {
        "type": "Point",
        "coordinates": [
          -96.95,
          29.46
        ]
      }
    },
    {
      "type": "Feature",
      "id": "iem-lsr-EWX-15",
      "properties": {
        "report_id": "iem-lsr-EWX-15",
        "report_type": "FLASH FLOOD",
        "event_category": "flooding",
        "valid_utc": "202606060115",
        "standard_time_display": "2026-06-05 19:15 CST",
        "wfo": "EWX",
        "county_or_zone": "Travis",
        "city": "5 W Leander",
        "state": "TX",
        "magnitude": null,
        "magnitude_units": null,
        "source": "Public",
        "event_narrative": "Social media video of fast moving current of flood waters advancing through property from runoff; entering animal structures and low-lying locations."
      },
      "geometry": {
        "type": "Point",
        "coordinates": [
          -97.94,
          30.57
        ]
      }
    },
    {
      "type": "Feature",
      "id": "iem-lsr-EWX-16",
      "properties": {
        "report_id": "iem-lsr-EWX-16",
        "report_type": "FLASH FLOOD",
        "event_category": "flooding",
        "valid_utc": "202606060130",
        "standard_time_display": "2026-06-05 19:30 CST",
        "wfo": "EWX",
        "county_or_zone": "Travis",
        "city": "3 SW Leander",
        "state": "TX",
        "magnitude": null,
        "magnitude_units": null,
        "source": "Public",
        "event_narrative": "Video of flooding and very fast moving current from Bloody Hollow Creek near the Grand Mesa at Crystal Falls neighborhood. Time estimated."
      },
      "geometry": {
        "type": "Point",
        "coordinates": [
          -97.9,
          30.54
        ]
      }
    },
    {
      "type": "Feature",
      "id": "iem-lsr-EWX-17",
      "properties": {
        "report_id": "iem-lsr-EWX-17",
        "report_type": "FLASH FLOOD",
        "event_category": "flooding",
        "valid_utc": "202606060130",
        "standard_time_display": "2026-06-05 19:30 CST",
        "wfo": "EWX",
        "county_or_zone": "Williamson",
        "city": "4 NE Liberty Hill",
        "state": "TX",
        "magnitude": null,
        "magnitude_units": null,
        "source": "Emergency Mngr",
        "event_narrative": "Several low water crossings of the North Fork San Gabriel River closed to the north of Liberty Hill. This included the 700 block of CR 257 and CR 258."
      },
      "geometry": {
        "type": "Point",
        "coordinates": [
          -97.87,
          30.7
        ]
      }
    },
    {
      "type": "Feature",
      "id": "iem-lsr-EWX-18",
      "properties": {
        "report_id": "iem-lsr-EWX-18",
        "report_type": "FLASH FLOOD",
        "event_category": "flooding",
        "valid_utc": "202606060135",
        "standard_time_display": "2026-06-05 19:35 CST",
        "wfo": "EWX",
        "county_or_zone": "Burnet",
        "city": "3 ENE Briggs",
        "state": "TX",
        "magnitude": null,
        "magnitude_units": null,
        "source": "Public",
        "event_narrative": "low water crossing closed at Mill Creek near Briggs with a few feet of flowing water across the road."
      },
      "geometry": {
        "type": "Point",
        "coordinates": [
          -97.87,
          30.91
        ]
      }
    },
    {
      "type": "Feature",
      "id": "iem-lsr-EWX-19",
      "properties": {
        "report_id": "iem-lsr-EWX-19",
        "report_type": "FLASH FLOOD",
        "event_category": "flooding",
        "valid_utc": "202606060146",
        "standard_time_display": "2026-06-05 19:46 CST",
        "wfo": "EWX",
        "county_or_zone": "Williamson",
        "city": "3 SSE Liberty Hill",
        "state": "TX",
        "magnitude": null,
        "magnitude_units": null,
        "source": "Emergency Mngr",
        "event_narrative": "CR 279 Flooded and bridge being closed at Jinks Branch."
      },
      "geometry": {
        "type": "Point",
        "coordinates": [
          -97.9,
          30.63
        ]
      }
    },
    {
      "type": "Feature",
      "id": "iem-lsr-EWX-20",
      "properties": {
        "report_id": "iem-lsr-EWX-20",
        "report_type": "FLASH FLOOD",
        "event_category": "flooding",
        "valid_utc": "202606060315",
        "standard_time_display": "2026-06-05 21:15 CST",
        "wfo": "EWX",
        "county_or_zone": "Travis",
        "city": "3 N Jonestown",
        "state": "TX",
        "magnitude": null,
        "magnitude_units": null,
        "source": "Emergency Mngr",
        "event_narrative": "Low water crossings on Nameless Road along Big Sandy Creek in NW Travis County being barricaded off due to flooding."
      },
      "geometry": {
        "type": "Point",
        "coordinates": [
          -97.93,
          30.53
        ]
      }
    },
    {
      "type": "Feature",
      "id": "iem-lsr-EWX-21",
      "properties": {
        "report_id": "iem-lsr-EWX-21",
        "report_type": "FLASH FLOOD",
        "event_category": "flooding",
        "valid_utc": "202606060500",
        "standard_time_display": "2026-06-05 23:00 CST",
        "wfo": "EWX",
        "county_or_zone": "Williamson",
        "city": "2 NNW Cedar Park",
        "state": "TX",
        "magnitude": null,
        "magnitude_units": null,
        "source": "Broadcast Media",
        "event_narrative": "Flash flooding associated with Block House Creek at Peggy Garner Park. 3 to 4 feet depth of flowing water on roadside flood gauge across Peach Tree Lane."
      },
      "geometry": {
        "type": "Point",
        "coordinates": [
          -97.84,
          30.54
        ]
      }
    },
    {
      "type": "Feature",
      "id": "iem-lsr-EWX-22",
      "properties": {
        "report_id": "iem-lsr-EWX-22",
        "report_type": "TSTM WND DMG",
        "event_category": "thunderstorm_wind",
        "valid_utc": "202606070010",
        "standard_time_display": "2026-06-06 18:10 CST",
        "wfo": "EWX",
        "county_or_zone": "Maverick",
        "city": "1 ESE Elm Creek",
        "state": "TX",
        "magnitude": null,
        "magnitude_units": null,
        "source": "Public",
        "event_narrative": "Downed powerlines in the Deer Run area and up to 1800 people were without power. Time estimated via radar."
      },
      "geometry": {
        "type": "Point",
        "coordinates": [
          -100.48,
          28.77
        ]
      }
    }
  ]
}