{
  "type": "FeatureCollection",
  "metadata": {
    "schema_version": "0.2.4",
    "year": 2026,
    "month": 7,
    "wfo": "ICT",
    "start_utc": "2026-07-01T00:00:00Z",
    "end_utc": "2026-08-01T00:00:00Z",
    "generated_utc": "2026-07-02T11:42:51Z",
    "mode": "storm_data_prep",
    "public_release_status": "public-source-derived",
    "time_note": "Storm Data entry times should be reviewed in local Standard Time (ST), not daylight time. Candidate reports include standard_time_display.",
    "tornado_track_policy": "Tornado tracks must come from DAT. NCEI begin/end coordinates are not used as a tornado track substitute.",
    "source": "https://mesonet.agron.iastate.edu/cgi-bin/request/gis/lsr.py?wfo=ICT&sts=2026-07-01T00%3A00%3A00Z&ets=2026-08-01T00%3A00%3A00Z&fmt=csv"
  },
  "features": [
    {
      "type": "Feature",
      "id": "iem-lsr-ICT-1",
      "properties": {
        "report_id": "iem-lsr-ICT-1",
        "report_type": "TSTM WND GST",
        "event_category": "thunderstorm_wind",
        "valid_utc": "202607010242",
        "standard_time_display": "2026-06-30 20:42 CST",
        "wfo": "ICT",
        "county_or_zone": "Russell",
        "city": "Russell Airport",
        "state": "KS",
        "magnitude": 64.0,
        "magnitude_units": null,
        "source": "ASOS",
        "event_narrative": null
      },
      "geometry": {
        "type": "Point",
        "coordinates": [
          -98.81,
          38.87
        ]
      }
    },
    {
      "type": "Feature",
      "id": "iem-lsr-ICT-2",
      "properties": {
        "report_id": "iem-lsr-ICT-2",
        "report_type": "TSTM WND GST",
        "event_category": "thunderstorm_wind",
        "valid_utc": "202607010251",
        "standard_time_display": "2026-06-30 20:51 CST",
        "wfo": "ICT",
        "county_or_zone": "Russell",
        "city": "1 SSW Russell",
        "state": "KS",
        "magnitude": 61.0,
        "magnitude_units": null,
        "source": "Mesonet",
        "event_narrative": null
      },
      "geometry": {
        "type": "Point",
        "coordinates": [
          -98.86,
          38.88
        ]
      }
    },
    {
      "type": "Feature",
      "id": "iem-lsr-ICT-3",
      "properties": {
        "report_id": "iem-lsr-ICT-3",
        "report_type": "TSTM WND GST",
        "event_category": "thunderstorm_wind",
        "valid_utc": "202607010309",
        "standard_time_display": "2026-06-30 21:09 CST",
        "wfo": "ICT",
        "county_or_zone": "Lincoln",
        "city": "5 NE Lucas",
        "state": "KS",
        "magnitude": 60.0,
        "magnitude_units": null,
        "source": "Mesonet",
        "event_narrative": null
      },
      "geometry": {
        "type": "Point",
        "coordinates": [
          -98.48,
          39.11
        ]
      }
    }
  ]
}