{
  "type": "FeatureCollection",
  "metadata": {
    "schema_version": "0.2.4",
    "year": 2026,
    "month": 9,
    "wfo": "TSA",
    "start_utc": "2026-09-01T00:00:00Z",
    "end_utc": "2026-10-01T00:00:00Z",
    "generated_utc": "2026-09-26T13:45:30Z",
    "mode": "storm_data_prep",
    "public_release_status": "public-source-derived",
    "time_note": "Storm Data entry times should be reviewed in local Standard Time (ST), not daylight time. Candidate reports include standard_time_display.",
    "tornado_track_policy": "Tornado tracks must come from DAT. NCEI begin/end coordinates are not used as a tornado track substitute.",
    "source": "https://mesonet.agron.iastate.edu/cgi-bin/request/gis/lsr.py?wfo=TSA&sts=2026-09-01T00%3A00%3A00Z&ets=2026-10-01T00%3A00%3A00Z&fmt=csv"
  },
  "features": [
    {
      "type": "Feature",
      "id": "iem-lsr-TSA-1",
      "properties": {
        "report_id": "iem-lsr-TSA-1",
        "report_type": "TSTM WND DMG",
        "event_category": "thunderstorm_wind",
        "valid_utc": "202609062000",
        "standard_time_display": "2026-09-06 14:00 CST",
        "wfo": "TSA",
        "county_or_zone": "Delaware",
        "city": "Jay",
        "state": "OK",
        "magnitude": null,
        "magnitude_units": null,
        "source": "Storm Chaser",
        "event_narrative": "Delayed report. Photos posted to social media show large tree limbs downed and some damage to a structure under construction. Replies to the social media post show a similar level of damage around to"
      },
      "geometry": {
        "type": "Point",
        "coordinates": [
          -94.8,
          36.42
        ]
      }
    },
    {
      "type": "Feature",
      "id": "iem-lsr-TSA-2",
      "properties": {
        "report_id": "iem-lsr-TSA-2",
        "report_type": "TSTM WND DMG",
        "event_category": "thunderstorm_wind",
        "valid_utc": "202609062100",
        "standard_time_display": "2026-09-06 15:00 CST",
        "wfo": "TSA",
        "county_or_zone": "Muskogee",
        "city": "5 SSE Muskogee",
        "state": "OK",
        "magnitude": null,
        "magnitude_units": null,
        "source": "Public",
        "event_narrative": "Delayed report. Multiple reports of thunderstorm wind damage from the public in replies to county emergency management and local digital meteorologist social media posts. Downed trees the main report"
      },
      "geometry": {
        "type": "Point",
        "coordinates": [
          -95.32,
          35.69
        ]
      }
    },
    {
      "type": "Feature",
      "id": "iem-lsr-TSA-3",
      "properties": {
        "report_id": "iem-lsr-TSA-3",
        "report_type": "TSTM WND DMG",
        "event_category": "thunderstorm_wind",
        "valid_utc": "202609062200",
        "standard_time_display": "2026-09-06 16:00 CST",
        "wfo": "TSA",
        "county_or_zone": "Rogers",
        "city": "4 NE Inola",
        "state": "OK",
        "magnitude": null,
        "magnitude_units": null,
        "source": "Public",
        "event_narrative": "Delayed report. Multiple reports of storm damage near Inola and between Inola and Chouteau in replies to a local digital meteorologist social media post_ including trees down and fence damage. Only s"
      },
      "geometry": {
        "type": "Point",
        "coordinates": [
          -95.46,
          36.19
        ]
      }
    },
    {
      "type": "Feature",
      "id": "iem-lsr-TSA-4",
      "properties": {
        "report_id": "iem-lsr-TSA-4",
        "report_type": "TSTM WND GST",
        "event_category": "thunderstorm_wind",
        "valid_utc": "202609072250",
        "standard_time_display": "2026-09-07 16:50 CST",
        "wfo": "TSA",
        "county_or_zone": "Sebastian",
        "city": "3 E Mill Creek",
        "state": "AR",
        "magnitude": 59.0,
        "magnitude_units": null,
        "source": "ASOS",
        "event_narrative": "Peak gust observed at KFSM."
      },
      "geometry": {
        "type": "Point",
        "coordinates": [
          -94.37,
          35.34
        ]
      }
    },
    {
      "type": "Feature",
      "id": "iem-lsr-TSA-5",
      "properties": {
        "report_id": "iem-lsr-TSA-5",
        "report_type": "TSTM WND DMG",
        "event_category": "thunderstorm_wind",
        "valid_utc": "202609121630",
        "standard_time_display": "2026-09-12 10:30 CST",
        "wfo": "TSA",
        "county_or_zone": "Wagoner",
        "city": "4 NNE Broken Arrow",
        "state": "OK",
        "magnitude": null,
        "magnitude_units": null,
        "source": "Public",
        "event_narrative": "Shingles blow off house_ small branches broken and power outages in the vicinity of County Line and 41st street. Time estimated from radar."
      },
      "geometry": {
        "type": "Point",
        "coordinates": [
          -95.76,
          36.1
        ]
      }
    },
    {
      "type": "Feature",
      "id": "iem-lsr-TSA-6",
      "properties": {
        "report_id": "iem-lsr-TSA-6",
        "report_type": "TSTM WND GST",
        "event_category": "thunderstorm_wind",
        "valid_utc": "202609121734",
        "standard_time_display": "2026-09-12 11:34 CST",
        "wfo": "TSA",
        "county_or_zone": "Muskogee",
        "city": "5 SSE Haskell",
        "state": "OK",
        "magnitude": 58.0,
        "magnitude_units": null,
        "source": "Mesonet",
        "event_narrative": "58 mph wind gust recorded by Oklahoma mesonet."
      },
      "geometry": {
        "type": "Point",
        "coordinates": [
          -95.64,
          35.75
        ]
      }
    },
    {
      "type": "Feature",
      "id": "iem-lsr-TSA-7",
      "properties": {
        "report_id": "iem-lsr-TSA-7",
        "report_type": "TSTM WND DMG",
        "event_category": "thunderstorm_wind",
        "valid_utc": "202609162130",
        "standard_time_display": "2026-09-16 15:30 CST",
        "wfo": "TSA",
        "county_or_zone": "Tulsa",
        "city": "2 SW Broken Arrow",
        "state": "OK",
        "magnitude": null,
        "magnitude_units": null,
        "source": "NWS Employee",
        "event_narrative": "Power pole snapped and large tree limb broken near 91st and Aspen."
      },
      "geometry": {
        "type": "Point",
        "coordinates": [
          -95.82,
          36.03
        ]
      }
    }
  ]
}