{
  "type": "FeatureCollection",
  "metadata": {
    "schema_version": "0.2.4",
    "year": 2026,
    "month": 5,
    "wfo": "SGF",
    "start_utc": "2026-05-01T00:00:00Z",
    "end_utc": "2026-06-01T00:00:00Z",
    "generated_utc": "2026-05-29T12:28:18Z",
    "mode": "storm_data_prep",
    "public_release_status": "public-source-derived",
    "time_note": "Storm Data entry times should be reviewed in local Standard Time (ST), not daylight time. Candidate reports include standard_time_display.",
    "tornado_track_policy": "Tornado tracks must come from DAT. NCEI begin/end coordinates are not used as a tornado track substitute.",
    "source": "https://mesonet.agron.iastate.edu/cgi-bin/request/gis/lsr.py?wfo=SGF&sts=2026-05-01T00%3A00%3A00Z&ets=2026-06-01T00%3A00%3A00Z&fmt=csv"
  },
  "features": [
    {
      "type": "Feature",
      "id": "iem-lsr-SGF-1",
      "properties": {
        "report_id": "iem-lsr-SGF-1",
        "report_type": "TSTM WND GST",
        "event_category": "thunderstorm_wind",
        "valid_utc": "202605160451",
        "standard_time_display": "2026-05-15 22:51 CST",
        "wfo": "SGF",
        "county_or_zone": "Newton",
        "city": "Shoal Creek Drive",
        "state": "MO",
        "magnitude": 54.0,
        "magnitude_units": null,
        "source": "Dept of Highways",
        "event_narrative": null
      },
      "geometry": {
        "type": "Point",
        "coordinates": [
          -94.52,
          37.04
        ]
      }
    },
    {
      "type": "Feature",
      "id": "iem-lsr-SGF-2",
      "properties": {
        "report_id": "iem-lsr-SGF-2",
        "report_type": "NON-TSTM WND GST",
        "event_category": "thunderstorm_wind",
        "valid_utc": "202605160535",
        "standard_time_display": "2026-05-15 23:35 CST",
        "wfo": "SGF",
        "county_or_zone": "Cherokee",
        "city": "2 S Lowell",
        "state": "KS",
        "magnitude": 49.0,
        "magnitude_units": null,
        "source": "Dept of Highways",
        "event_narrative": null
      },
      "geometry": {
        "type": "Point",
        "coordinates": [
          -94.7,
          37.02
        ]
      }
    },
    {
      "type": "Feature",
      "id": "iem-lsr-SGF-3",
      "properties": {
        "report_id": "iem-lsr-SGF-3",
        "report_type": "FLASH FLOOD",
        "event_category": "flooding",
        "valid_utc": "202605181926",
        "standard_time_display": "2026-05-18 13:26 CST",
        "wfo": "SGF",
        "county_or_zone": "St. Clair",
        "city": "1 ESE Collins",
        "state": "MO",
        "magnitude": null,
        "magnitude_units": null,
        "source": "Fire Dept/Rescue",
        "event_narrative": "De Laporte SE 900 Rd in Collins flooded and started to wash out."
      },
      "geometry": {
        "type": "Point",
        "coordinates": [
          -93.61,
          37.89
        ]
      }
    },
    {
      "type": "Feature",
      "id": "iem-lsr-SGF-4",
      "properties": {
        "report_id": "iem-lsr-SGF-4",
        "report_type": "FLASH FLOOD",
        "event_category": "flooding",
        "valid_utc": "202605181935",
        "standard_time_display": "2026-05-18 13:35 CST",
        "wfo": "SGF",
        "county_or_zone": "Benton",
        "city": "1 S Hastain",
        "state": "MO",
        "magnitude": null,
        "magnitude_units": null,
        "source": "Dept of Highways",
        "event_narrative": "State Highway V is closed due to flooding at Deer Creek."
      },
      "geometry": {
        "type": "Point",
        "coordinates": [
          -93.18,
          38.2
        ]
      }
    },
    {
      "type": "Feature",
      "id": "iem-lsr-SGF-5",
      "properties": {
        "report_id": "iem-lsr-SGF-5",
        "report_type": "FLASH FLOOD",
        "event_category": "flooding",
        "valid_utc": "202605181940",
        "standard_time_display": "2026-05-18 13:40 CST",
        "wfo": "SGF",
        "county_or_zone": "Benton",
        "city": "1 N Knobby",
        "state": "MO",
        "magnitude": null,
        "magnitude_units": null,
        "source": "Dept of Highways",
        "event_narrative": "State Highway DD is closed due to flooding at Knobby Creek."
      },
      "geometry": {
        "type": "Point",
        "coordinates": [
          -93.1,
          38.17
        ]
      }
    },
    {
      "type": "Feature",
      "id": "iem-lsr-SGF-6",
      "properties": {
        "report_id": "iem-lsr-SGF-6",
        "report_type": "FLASH FLOOD",
        "event_category": "flooding",
        "valid_utc": "202605182105",
        "standard_time_display": "2026-05-18 15:05 CST",
        "wfo": "SGF",
        "county_or_zone": "Camden",
        "city": "2 SE Macks Creek",
        "state": "MO",
        "magnitude": null,
        "magnitude_units": null,
        "source": "Dept of Highways",
        "event_narrative": "Missouri State Highway Patrol reported a swift water rescue at the low water bridge."
      },
      "geometry": {
        "type": "Point",
        "coordinates": [
          -92.95,
          37.94
        ]
      }
    },
    {
      "type": "Feature",
      "id": "iem-lsr-SGF-7",
      "properties": {
        "report_id": "iem-lsr-SGF-7",
        "report_type": "FLOOD",
        "event_category": "flooding",
        "valid_utc": "202605191019",
        "standard_time_display": "2026-05-19 04:19 CST",
        "wfo": "SGF",
        "county_or_zone": "Hickory",
        "city": "2 SE Nemo",
        "state": "MO",
        "magnitude": null,
        "magnitude_units": null,
        "source": "Broadcast Media",
        "event_narrative": "County road 363 was flooded early this morning."
      },
      "geometry": {
        "type": "Point",
        "coordinates": [
          -93.24,
          37.85
        ]
      }
    },
    {
      "type": "Feature",
      "id": "iem-lsr-SGF-8",
      "properties": {
        "report_id": "iem-lsr-SGF-8",
        "report_type": "FLOOD",
        "event_category": "flooding",
        "valid_utc": "202605191107",
        "standard_time_display": "2026-05-19 05:07 CST",
        "wfo": "SGF",
        "county_or_zone": "Hickory",
        "city": "Preston",
        "state": "MO",
        "magnitude": null,
        "magnitude_units": null,
        "source": "Dept of Highways",
        "event_narrative": "Corrects previous flash flood report from Preston. Road closed Route D north and southbound."
      },
      "geometry": {
        "type": "Point",
        "coordinates": [
          -93.21,
          37.94
        ]
      }
    },
    {
      "type": "Feature",
      "id": "iem-lsr-SGF-9",
      "properties": {
        "report_id": "iem-lsr-SGF-9",
        "report_type": "FLASH FLOOD",
        "event_category": "flooding",
        "valid_utc": "202605191107",
        "standard_time_display": "2026-05-19 05:07 CST",
        "wfo": "SGF",
        "county_or_zone": "Hickory",
        "city": "Preston",
        "state": "MO",
        "magnitude": null,
        "magnitude_units": null,
        "source": "Dept of Highways",
        "event_narrative": "Road closed Route D north and southbound."
      },
      "geometry": {
        "type": "Point",
        "coordinates": [
          -93.21,
          37.94
        ]
      }
    },
    {
      "type": "Feature",
      "id": "iem-lsr-SGF-10",
      "properties": {
        "report_id": "iem-lsr-SGF-10",
        "report_type": "FLOOD",
        "event_category": "flooding",
        "valid_utc": "202605191145",
        "standard_time_display": "2026-05-19 05:45 CST",
        "wfo": "SGF",
        "county_or_zone": "Hickory",
        "city": "6 NNE Urbana",
        "state": "MO",
        "magnitude": null,
        "magnitude_units": null,
        "source": "Dept of Highways",
        "event_narrative": "Route BB closed south and northbound due to flooding."
      },
      "geometry": {
        "type": "Point",
        "coordinates": [
          -93.11,
          37.91
        ]
      }
    },
    {
      "type": "Feature",
      "id": "iem-lsr-SGF-11",
      "properties": {
        "report_id": "iem-lsr-SGF-11",
        "report_type": "RAIN",
        "event_category": "other",
        "valid_utc": "202605191153",
        "standard_time_display": "2026-05-19 05:53 CST",
        "wfo": "SGF",
        "county_or_zone": "Maries",
        "city": "2 NNW Vichy",
        "state": "MO",
        "magnitude": 3.42,
        "magnitude_units": null,
        "source": "ASOS",
        "event_narrative": "ASOS station KVIH Vichy Rolla ASOS."
      },
      "geometry": {
        "type": "Point",
        "coordinates": [
          -91.77,
          38.13
        ]
      }
    },
    {
      "type": "Feature",
      "id": "iem-lsr-SGF-12",
      "properties": {
        "report_id": "iem-lsr-SGF-12",
        "report_type": "RAIN",
        "event_category": "other",
        "valid_utc": "202605191200",
        "standard_time_display": "2026-05-19 06:00 CST",
        "wfo": "SGF",
        "county_or_zone": "Polk",
        "city": "1 E Bolivar",
        "state": "MO",
        "magnitude": 3.1,
        "magnitude_units": null,
        "source": "CO-OP Observer",
        "event_narrative": "CO-OP Observer station BVRM7 1.0 E Bolivar."
      },
      "geometry": {
        "type": "Point",
        "coordinates": [
          -93.39,
          37.62
        ]
      }
    },
    {
      "type": "Feature",
      "id": "iem-lsr-SGF-13",
      "properties": {
        "report_id": "iem-lsr-SGF-13",
        "report_type": "RAIN",
        "event_category": "other",
        "valid_utc": "202605191200",
        "standard_time_display": "2026-05-19 06:00 CST",
        "wfo": "SGF",
        "county_or_zone": "Bourbon",
        "city": "4 ENE Hammond",
        "state": "KS",
        "magnitude": 3.41,
        "magnitude_units": null,
        "source": "Cocorahs",
        "event_narrative": "Cocorahs station KS-BB-16 Fort Scott 9.3 NNE."
      },
      "geometry": {
        "type": "Point",
        "coordinates": [
          -94.63,
          37.95
        ]
      }
    },
    {
      "type": "Feature",
      "id": "iem-lsr-SGF-14",
      "properties": {
        "report_id": "iem-lsr-SGF-14",
        "report_type": "RAIN",
        "event_category": "other",
        "valid_utc": "202605191200",
        "standard_time_display": "2026-05-19 06:00 CST",
        "wfo": "SGF",
        "county_or_zone": "Miller",
        "city": "1 NW Iberia",
        "state": "MO",
        "magnitude": 3.71,
        "magnitude_units": null,
        "source": "CO-OP Observer",
        "event_narrative": "CO-OP Observer station IBEM7 Iberia."
      },
      "geometry": {
        "type": "Point",
        "coordinates": [
          -92.31,
          38.1
        ]
      }
    },
    {
      "type": "Feature",
      "id": "iem-lsr-SGF-15",
      "properties": {
        "report_id": "iem-lsr-SGF-15",
        "report_type": "RAIN",
        "event_category": "other",
        "valid_utc": "202605191200",
        "standard_time_display": "2026-05-19 06:00 CST",
        "wfo": "SGF",
        "county_or_zone": "Polk",
        "city": "3 S Flemington",
        "state": "MO",
        "magnitude": 3.72,
        "magnitude_units": null,
        "source": "Cocorahs",
        "event_narrative": "Cocorahs station MO-PL-30 Flemington 2.6 S."
      },
      "geometry": {
        "type": "Point",
        "coordinates": [
          -93.5,
          37.77
        ]
      }
    },
    {
      "type": "Feature",
      "id": "iem-lsr-SGF-16",
      "properties": {
        "report_id": "iem-lsr-SGF-16",
        "report_type": "RAIN",
        "event_category": "other",
        "valid_utc": "202605191200",
        "standard_time_display": "2026-05-19 06:00 CST",
        "wfo": "SGF",
        "county_or_zone": "St. Clair",
        "city": "5 WNW Collins",
        "state": "MO",
        "magnitude": 4.77,
        "magnitude_units": null,
        "source": "Cocorahs",
        "event_narrative": "Cocorahs station MO-SR-12 Collins 5.5 WNW."
      },
      "geometry": {
        "type": "Point",
        "coordinates": [
          -93.71,
          37.92
        ]
      }
    },
    {
      "type": "Feature",
      "id": "iem-lsr-SGF-17",
      "properties": {
        "report_id": "iem-lsr-SGF-17",
        "report_type": "RAIN",
        "event_category": "other",
        "valid_utc": "202605191213",
        "standard_time_display": "2026-05-19 06:13 CST",
        "wfo": "SGF",
        "county_or_zone": "Camden",
        "city": "4 SE Camdenton",
        "state": "MO",
        "magnitude": 4.62,
        "magnitude_units": null,
        "source": "Mesonet",
        "event_narrative": "Mesonet station CMMM7 Camdenton RAWS."
      },
      "geometry": {
        "type": "Point",
        "coordinates": [
          -92.69,
          37.97
        ]
      }
    },
    {
      "type": "Feature",
      "id": "iem-lsr-SGF-18",
      "properties": {
        "report_id": "iem-lsr-SGF-18",
        "report_type": "RAIN",
        "event_category": "other",
        "valid_utc": "202605191228",
        "standard_time_display": "2026-05-19 06:28 CST",
        "wfo": "SGF",
        "county_or_zone": "Cedar",
        "city": "2 NE El Dorado Springs",
        "state": "MO",
        "magnitude": 3.31,
        "magnitude_units": null,
        "source": "Mesonet",
        "event_narrative": "Mesonet station WKTM7 Wah Kon Tah RAWS."
      },
      "geometry": {
        "type": "Point",
        "coordinates": [
          -93.99,
          37.9
        ]
      }
    },
    {
      "type": "Feature",
      "id": "iem-lsr-SGF-19",
      "properties": {
        "report_id": "iem-lsr-SGF-19",
        "report_type": "RAIN",
        "event_category": "other",
        "valid_utc": "202605191240",
        "standard_time_display": "2026-05-19 06:40 CST",
        "wfo": "SGF",
        "county_or_zone": "Newton",
        "city": "Cliff Village",
        "state": "MO",
        "magnitude": 3.02,
        "magnitude_units": null,
        "source": "Mesonet",
        "event_narrative": "Mesonet station AU695 Cliff Village."
      },
      "geometry": {
        "type": "Point",
        "coordinates": [
          -94.52,
          37.03
        ]
      }
    },
    {
      "type": "Feature",
      "id": "iem-lsr-SGF-20",
      "properties": {
        "report_id": "iem-lsr-SGF-20",
        "report_type": "RAIN",
        "event_category": "other",
        "valid_utc": "202605191245",
        "standard_time_display": "2026-05-19 06:45 CST",
        "wfo": "SGF",
        "county_or_zone": "McDonald",
        "city": "1 SW Goodman",
        "state": "MO",
        "magnitude": 3.0,
        "magnitude_units": null,
        "source": "Mesonet",
        "event_narrative": "Mesonet station GW2092 GOODMAN."
      },
      "geometry": {
        "type": "Point",
        "coordinates": [
          -94.41,
          36.73
        ]
      }
    },
    {
      "type": "Feature",
      "id": "iem-lsr-SGF-21",
      "properties": {
        "report_id": "iem-lsr-SGF-21",
        "report_type": "RAIN",
        "event_category": "other",
        "valid_utc": "202605191245",
        "standard_time_display": "2026-05-19 06:45 CST",
        "wfo": "SGF",
        "county_or_zone": "Camden",
        "city": "5 S Roach",
        "state": "MO",
        "magnitude": 3.08,
        "magnitude_units": null,
        "source": "Mesonet",
        "event_narrative": "Mesonet station FW7970 Camdenton."
      },
      "geometry": {
        "type": "Point",
        "coordinates": [
          -92.84,
          37.93
        ]
      }
    },
    {
      "type": "Feature",
      "id": "iem-lsr-SGF-22",
      "properties": {
        "report_id": "iem-lsr-SGF-22",
        "report_type": "RAIN",
        "event_category": "other",
        "valid_utc": "202605191245",
        "standard_time_display": "2026-05-19 06:45 CST",
        "wfo": "SGF",
        "county_or_zone": "Morgan",
        "city": "4 ENE Versailles",
        "state": "MO",
        "magnitude": 3.1,
        "magnitude_units": null,
        "source": "Mesonet",
        "event_narrative": "Mesonet station GW3917 VERSAILLES."
      },
      "geometry": {
        "type": "Point",
        "coordinates": [
          -92.77,
          38.45
        ]
      }
    },
    {
      "type": "Feature",
      "id": "iem-lsr-SGF-23",
      "properties": {
        "report_id": "iem-lsr-SGF-23",
        "report_type": "RAIN",
        "event_category": "other",
        "valid_utc": "202605191245",
        "standard_time_display": "2026-05-19 06:45 CST",
        "wfo": "SGF",
        "county_or_zone": "Benton",
        "city": "Warsaw",
        "state": "MO",
        "magnitude": 3.79,
        "magnitude_units": null,
        "source": "Mesonet",
        "event_narrative": "Mesonet station WRSM7 Osage River at Warsaw."
      },
      "geometry": {
        "type": "Point",
        "coordinates": [
          -93.39,
          38.24
        ]
      }
    },
    {
      "type": "Feature",
      "id": "iem-lsr-SGF-24",
      "properties": {
        "report_id": "iem-lsr-SGF-24",
        "report_type": "RAIN",
        "event_category": "other",
        "valid_utc": "202605191245",
        "standard_time_display": "2026-05-19 06:45 CST",
        "wfo": "SGF",
        "county_or_zone": "Cherokee",
        "city": "Baxter Springs",
        "state": "KS",
        "magnitude": 3.93,
        "magnitude_units": null,
        "source": "Mesonet",
        "event_narrative": "Mesonet station FW8104 Baxter Springs."
      },
      "geometry": {
        "type": "Point",
        "coordinates": [
          -94.74,
          37.02
        ]
      }
    },
    {
      "type": "Feature",
      "id": "iem-lsr-SGF-25",
      "properties": {
        "report_id": "iem-lsr-SGF-25",
        "report_type": "RAIN",
        "event_category": "other",
        "valid_utc": "202605191245",
        "standard_time_display": "2026-05-19 06:45 CST",
        "wfo": "SGF",
        "county_or_zone": "Cherokee",
        "city": "Sherman",
        "state": "KS",
        "magnitude": 4.59,
        "magnitude_units": null,
        "source": "Mesonet",
        "event_narrative": "Mesonet station EW0910 Oswego."
      },
      "geometry": {
        "type": "Point",
        "coordinates": [
          -95.05,
          37.26
        ]
      }
    },
    {
      "type": "Feature",
      "id": "iem-lsr-SGF-26",
      "properties": {
        "report_id": "iem-lsr-SGF-26",
        "report_type": "RAIN",
        "event_category": "other",
        "valid_utc": "202605191245",
        "standard_time_display": "2026-05-19 06:45 CST",
        "wfo": "SGF",
        "county_or_zone": "St. Clair",
        "city": "2 SW Iconium",
        "state": "MO",
        "magnitude": 5.42,
        "magnitude_units": null,
        "source": "Mesonet",
        "event_narrative": "Mesonet station GW3465 OSCEOLA."
      },
      "geometry": {
        "type": "Point",
        "coordinates": [
          -93.56,
          38.09
        ]
      }
    },
    {
      "type": "Feature",
      "id": "iem-lsr-SGF-27",
      "properties": {
        "report_id": "iem-lsr-SGF-27",
        "report_type": "RAIN",
        "event_category": "other",
        "valid_utc": "202605191246",
        "standard_time_display": "2026-05-19 06:46 CST",
        "wfo": "SGF",
        "county_or_zone": "Cedar",
        "city": "Stockton",
        "state": "MO",
        "magnitude": 3.0,
        "magnitude_units": null,
        "source": "Mesonet",
        "event_narrative": "Mesonet station AU864 Stockton."
      },
      "geometry": {
        "type": "Point",
        "coordinates": [
          -93.8,
          37.7
        ]
      }
    },
    {
      "type": "Feature",
      "id": "iem-lsr-SGF-28",
      "properties": {
        "report_id": "iem-lsr-SGF-28",
        "report_type": "RAIN",
        "event_category": "other",
        "valid_utc": "202605191246",
        "standard_time_display": "2026-05-19 06:46 CST",
        "wfo": "SGF",
        "county_or_zone": "Morgan",
        "city": "7 SE Zora",
        "state": "MO",
        "magnitude": 4.78,
        "magnitude_units": null,
        "source": "Mesonet",
        "event_narrative": "Mesonet station GW3570 STOVER."
      },
      "geometry": {
        "type": "Point",
        "coordinates": [
          -92.99,
          38.22
        ]
      }
    },
    {
      "type": "Feature",
      "id": "iem-lsr-SGF-29",
      "properties": {
        "report_id": "iem-lsr-SGF-29",
        "report_type": "RAIN",
        "event_category": "other",
        "valid_utc": "202605191247",
        "standard_time_display": "2026-05-19 06:47 CST",
        "wfo": "SGF",
        "county_or_zone": "Newton",
        "city": "3 SSW Redings Mill",
        "state": "MO",
        "magnitude": 3.57,
        "magnitude_units": null,
        "source": "Mesonet",
        "event_narrative": "Mesonet station GW6964 JOPLIN."
      },
      "geometry": {
        "type": "Point",
        "coordinates": [
          -94.54,
          36.98
        ]
      }
    },
    {
      "type": "Feature",
      "id": "iem-lsr-SGF-30",
      "properties": {
        "report_id": "iem-lsr-SGF-30",
        "report_type": "RAIN",
        "event_category": "other",
        "valid_utc": "202605191249",
        "standard_time_display": "2026-05-19 06:49 CST",
        "wfo": "SGF",
        "county_or_zone": "Cherokee",
        "city": "1 NE Riverton",
        "state": "KS",
        "magnitude": 3.29,
        "magnitude_units": null,
        "source": "Mesonet",
        "event_narrative": "Mesonet station FW8200 Riverton."
      },
      "geometry": {
        "type": "Point",
        "coordinates": [
          -94.69,
          37.08
        ]
      }
    },
    {
      "type": "Feature",
      "id": "iem-lsr-SGF-31",
      "properties": {
        "report_id": "iem-lsr-SGF-31",
        "report_type": "RAIN",
        "event_category": "other",
        "valid_utc": "202605191250",
        "standard_time_display": "2026-05-19 06:50 CST",
        "wfo": "SGF",
        "county_or_zone": "Morgan",
        "city": "3 W Versailles",
        "state": "MO",
        "magnitude": 3.27,
        "magnitude_units": null,
        "source": "Mesonet",
        "event_narrative": "Mesonet station FW8305 Versailles."
      },
      "geometry": {
        "type": "Point",
        "coordinates": [
          -92.9,
          38.43
        ]
      }
    },
    {
      "type": "Feature",
      "id": "iem-lsr-SGF-32",
      "properties": {
        "report_id": "iem-lsr-SGF-32",
        "report_type": "RAIN",
        "event_category": "other",
        "valid_utc": "202605191255",
        "standard_time_display": "2026-05-19 06:55 CST",
        "wfo": "SGF",
        "county_or_zone": "Newton",
        "city": "Racine",
        "state": "MO",
        "magnitude": 4.35,
        "magnitude_units": null,
        "source": "Utility Company",
        "event_narrative": "Since midnight."
      },
      "geometry": {
        "type": "Point",
        "coordinates": [
          -94.53,
          36.9
        ]
      }
    },
    {
      "type": "Feature",
      "id": "iem-lsr-SGF-33",
      "properties": {
        "report_id": "iem-lsr-SGF-33",
        "report_type": "FLOOD",
        "event_category": "flooding",
        "valid_utc": "202605191255",
        "standard_time_display": "2026-05-19 06:55 CST",
        "wfo": "SGF",
        "county_or_zone": "Morgan",
        "city": "2 ESE Florence",
        "state": "MO",
        "magnitude": null,
        "magnitude_units": null,
        "source": "Dept of Highways",
        "event_narrative": "Route BB closed due to water over roadway."
      },
      "geometry": {
        "type": "Point",
        "coordinates": [
          -92.95,
          38.58
        ]
      }
    },
    {
      "type": "Feature",
      "id": "iem-lsr-SGF-34",
      "properties": {
        "report_id": "iem-lsr-SGF-34",
        "report_type": "RAIN",
        "event_category": "other",
        "valid_utc": "202605191259",
        "standard_time_display": "2026-05-19 06:59 CST",
        "wfo": "SGF",
        "county_or_zone": "Camden",
        "city": "Macks Creek",
        "state": "MO",
        "magnitude": 6.0,
        "magnitude_units": null,
        "source": "Broadcast Media",
        "event_narrative": "2 day total."
      },
      "geometry": {
        "type": "Point",
        "coordinates": [
          -92.97,
          37.97
        ]
      }
    },
    {
      "type": "Feature",
      "id": "iem-lsr-SGF-35",
      "properties": {
        "report_id": "iem-lsr-SGF-35",
        "report_type": "RAIN",
        "event_category": "other",
        "valid_utc": "202605191259",
        "standard_time_display": "2026-05-19 06:59 CST",
        "wfo": "SGF",
        "county_or_zone": "Benton",
        "city": "2 NE Harper",
        "state": "MO",
        "magnitude": 6.5,
        "magnitude_units": null,
        "source": "Broadcast Media",
        "event_narrative": "2 day total."
      },
      "geometry": {
        "type": "Point",
        "coordinates": [
          -93.49,
          38.09
        ]
      }
    },
    {
      "type": "Feature",
      "id": "iem-lsr-SGF-36",
      "properties": {
        "report_id": "iem-lsr-SGF-36",
        "report_type": "TSTM WND DMG",
        "event_category": "thunderstorm_wind",
        "valid_utc": "202605191300",
        "standard_time_display": "2026-05-19 07:00 CST",
        "wfo": "SGF",
        "county_or_zone": "McDonald",
        "city": "3 E Anderson",
        "state": "MO",
        "magnitude": null,
        "magnitude_units": null,
        "source": "911 Call Center",
        "event_narrative": "A few reports of trees down in McDonald County from the storms this morning. Time was estimated via radar. One report was near Southwest City on State Highway PP_ one report was just east of Anderson"
      },
      "geometry": {
        "type": "Point",
        "coordinates": [
          -94.39,
          36.65
        ]
      }
    },
    {
      "type": "Feature",
      "id": "iem-lsr-SGF-37",
      "properties": {
        "report_id": "iem-lsr-SGF-37",
        "report_type": "RAIN",
        "event_category": "other",
        "valid_utc": "202605191310",
        "standard_time_display": "2026-05-19 07:10 CST",
        "wfo": "SGF",
        "county_or_zone": "Camden",
        "city": "Linn Creek",
        "state": "MO",
        "magnitude": 4.8,
        "magnitude_units": null,
        "source": "Broadcast Media",
        "event_narrative": "2 day total."
      },
      "geometry": {
        "type": "Point",
        "coordinates": [
          -92.71,
          38.04
        ]
      }
    },
    {
      "type": "Feature",
      "id": "iem-lsr-SGF-38",
      "properties": {
        "report_id": "iem-lsr-SGF-38",
        "report_type": "RAIN",
        "event_category": "other",
        "valid_utc": "202605191329",
        "standard_time_display": "2026-05-19 07:29 CST",
        "wfo": "SGF",
        "county_or_zone": "McDonald",
        "city": "Rocky Comfort",
        "state": "MO",
        "magnitude": 3.41,
        "magnitude_units": null,
        "source": "Fire Dept/Rescue",
        "event_narrative": "Since midnight."
      },
      "geometry": {
        "type": "Point",
        "coordinates": [
          -94.09,
          36.75
        ]
      }
    },
    {
      "type": "Feature",
      "id": "iem-lsr-SGF-39",
      "properties": {
        "report_id": "iem-lsr-SGF-39",
        "report_type": "RAIN",
        "event_category": "other",
        "valid_utc": "202605191349",
        "standard_time_display": "2026-05-19 07:49 CST",
        "wfo": "SGF",
        "county_or_zone": "Hickory",
        "city": "4 SSE Wheatland",
        "state": "MO",
        "magnitude": 6.0,
        "magnitude_units": null,
        "source": "Broadcast Media",
        "event_narrative": "Event total so far."
      },
      "geometry": {
        "type": "Point",
        "coordinates": [
          -93.36,
          37.89
        ]
      }
    },
    {
      "type": "Feature",
      "id": "iem-lsr-SGF-40",
      "properties": {
        "report_id": "iem-lsr-SGF-40",
        "report_type": "RAIN",
        "event_category": "other",
        "valid_utc": "202605191431",
        "standard_time_display": "2026-05-19 08:31 CST",
        "wfo": "SGF",
        "county_or_zone": "St. Clair",
        "city": "1 WNW Gerster",
        "state": "MO",
        "magnitude": 7.0,
        "magnitude_units": null,
        "source": "Broadcast Media",
        "event_narrative": "2 Day total."
      },
      "geometry": {
        "type": "Point",
        "coordinates": [
          -93.59,
          37.96
        ]
      }
    },
    {
      "type": "Feature",
      "id": "iem-lsr-SGF-41",
      "properties": {
        "report_id": "iem-lsr-SGF-41",
        "report_type": "FLOOD",
        "event_category": "flooding",
        "valid_utc": "202605191515",
        "standard_time_display": "2026-05-19 09:15 CST",
        "wfo": "SGF",
        "county_or_zone": "St. Clair",
        "city": "5 SW Collins",
        "state": "MO",
        "magnitude": null,
        "magnitude_units": null,
        "source": "Fire Dept/Rescue",
        "event_narrative": "Brush Creek is out of its banks at the bridge on SE 1200 Rd. A small crossing before the bridge is heavily damaged."
      },
      "geometry": {
        "type": "Point",
        "coordinates": [
          -93.69,
          37.85
        ]
      }
    },
    {
      "type": "Feature",
      "id": "iem-lsr-SGF-42",
      "properties": {
        "report_id": "iem-lsr-SGF-42",
        "report_type": "FLOOD",
        "event_category": "flooding",
        "valid_utc": "202605191515",
        "standard_time_display": "2026-05-19 09:15 CST",
        "wfo": "SGF",
        "county_or_zone": "St. Clair",
        "city": "6 WSW Collins",
        "state": "MO",
        "magnitude": null,
        "magnitude_units": null,
        "source": "Fire Dept/Rescue",
        "event_narrative": "Water is over the road and bridge at Brush Creek on SE 451 Rd."
      },
      "geometry": {
        "type": "Point",
        "coordinates": [
          -93.71,
          37.85
        ]
      }
    },
    {
      "type": "Feature",
      "id": "iem-lsr-SGF-43",
      "properties": {
        "report_id": "iem-lsr-SGF-43",
        "report_type": "FLASH FLOOD",
        "event_category": "flooding",
        "valid_utc": "202605191515",
        "standard_time_display": "2026-05-19 09:15 CST",
        "wfo": "SGF",
        "county_or_zone": "St. Clair",
        "city": "4 ESE Roscoe",
        "state": "MO",
        "magnitude": null,
        "magnitude_units": null,
        "source": "Fire Dept/Rescue",
        "event_narrative": "Crossing on SE 550 Rd is washed out_ flooded_ and completely impassable."
      },
      "geometry": {
        "type": "Point",
        "coordinates": [
          -93.75,
          37.94
        ]
      }
    },
    {
      "type": "Feature",
      "id": "iem-lsr-SGF-44",
      "properties": {
        "report_id": "iem-lsr-SGF-44",
        "report_type": "RAIN",
        "event_category": "other",
        "valid_utc": "202605191657",
        "standard_time_display": "2026-05-19 10:57 CST",
        "wfo": "SGF",
        "county_or_zone": "Hickory",
        "city": "Hermitage",
        "state": "MO",
        "magnitude": 8.2,
        "magnitude_units": null,
        "source": "Broadcast Media",
        "event_narrative": "48 hour rainfall total of 8.2 inches in Hermitage."
      },
      "geometry": {
        "type": "Point",
        "coordinates": [
          -93.32,
          37.94
        ]
      }
    },
    {
      "type": "Feature",
      "id": "iem-lsr-SGF-45",
      "properties": {
        "report_id": "iem-lsr-SGF-45",
        "report_type": "RAIN",
        "event_category": "other",
        "valid_utc": "202605191658",
        "standard_time_display": "2026-05-19 10:58 CST",
        "wfo": "SGF",
        "county_or_zone": "Benton",
        "city": "Warsaw",
        "state": "MO",
        "magnitude": 6.25,
        "magnitude_units": null,
        "source": "Broadcast Media",
        "event_narrative": "48 hour rainfall total of 6.25 inches in Warsaw."
      },
      "geometry": {
        "type": "Point",
        "coordinates": [
          -93.38,
          38.24
        ]
      }
    },
    {
      "type": "Feature",
      "id": "iem-lsr-SGF-46",
      "properties": {
        "report_id": "iem-lsr-SGF-46",
        "report_type": "FLOOD",
        "event_category": "flooding",
        "valid_utc": "202605192110",
        "standard_time_display": "2026-05-19 15:10 CST",
        "wfo": "SGF",
        "county_or_zone": "McDonald",
        "city": "5 E Goodman",
        "state": "MO",
        "magnitude": null,
        "magnitude_units": null,
        "source": "Dept of Highways",
        "event_narrative": "State Highway CC is closed due to flooding at Indian Creek."
      },
      "geometry": {
        "type": "Point",
        "coordinates": [
          -94.31,
          36.73
        ]
      }
    },
    {
      "type": "Feature",
      "id": "iem-lsr-SGF-47",
      "properties": {
        "report_id": "iem-lsr-SGF-47",
        "report_type": "FLOOD",
        "event_category": "flooding",
        "valid_utc": "202605192217",
        "standard_time_display": "2026-05-19 16:17 CST",
        "wfo": "SGF",
        "county_or_zone": "Barton",
        "city": "2 NNE Jasper",
        "state": "MO",
        "magnitude": null,
        "magnitude_units": null,
        "source": "911 Call Center",
        "event_narrative": "Se 95th road is closed in southern Barton county due to flooding."
      },
      "geometry": {
        "type": "Point",
        "coordinates": [
          -94.29,
          37.36
        ]
      }
    },
    {
      "type": "Feature",
      "id": "iem-lsr-SGF-48",
      "properties": {
        "report_id": "iem-lsr-SGF-48",
        "report_type": "FLOOD",
        "event_category": "flooding",
        "valid_utc": "202605232229",
        "standard_time_display": "2026-05-23 16:29 CST",
        "wfo": "SGF",
        "county_or_zone": "Jasper",
        "city": "3 NW Neck City",
        "state": "MO",
        "magnitude": null,
        "magnitude_units": null,
        "source": "Dept of Highways",
        "event_narrative": "State Highway 43 is closed due to flooding near Base Line Blvd."
      },
      "geometry": {
        "type": "Point",
        "coordinates": [
          -94.49,
          37.28
        ]
      }
    },
    {
      "type": "Feature",
      "id": "iem-lsr-SGF-49",
      "properties": {
        "report_id": "iem-lsr-SGF-49",
        "report_type": "FLOOD",
        "event_category": "flooding",
        "valid_utc": "202605232232",
        "standard_time_display": "2026-05-23 16:32 CST",
        "wfo": "SGF",
        "county_or_zone": "Jasper",
        "city": "4 NW Neck City",
        "state": "MO",
        "magnitude": null,
        "magnitude_units": null,
        "source": "Dept of Highways",
        "event_narrative": "State Highway M is closed due to flooding near Highway 43."
      },
      "geometry": {
        "type": "Point",
        "coordinates": [
          -94.5,
          37.3
        ]
      }
    },
    {
      "type": "Feature",
      "id": "iem-lsr-SGF-50",
      "properties": {
        "report_id": "iem-lsr-SGF-50",
        "report_type": "FLOOD",
        "event_category": "flooding",
        "valid_utc": "202605232312",
        "standard_time_display": "2026-05-23 17:12 CST",
        "wfo": "SGF",
        "county_or_zone": "Barry",
        "city": "Wheaton",
        "state": "MO",
        "magnitude": null,
        "magnitude_units": null,
        "source": "Dept of Highways",
        "event_narrative": "State Highway 86 is closed due to water over the road."
      },
      "geometry": {
        "type": "Point",
        "coordinates": [
          -94.06,
          36.76
        ]
      }
    },
    {
      "type": "Feature",
      "id": "iem-lsr-SGF-51",
      "properties": {
        "report_id": "iem-lsr-SGF-51",
        "report_type": "FLOOD",
        "event_category": "flooding",
        "valid_utc": "202605232318",
        "standard_time_display": "2026-05-23 17:18 CST",
        "wfo": "SGF",
        "county_or_zone": "Dallas",
        "city": "3 E Long Lane",
        "state": "MO",
        "magnitude": null,
        "magnitude_units": null,
        "source": "911 Call Center",
        "event_narrative": "Delayed report of water over the road on state highway 32 near Antler trail east of Long Lane."
      },
      "geometry": {
        "type": "Point",
        "coordinates": [
          -92.85,
          37.61
        ]
      }
    },
    {
      "type": "Feature",
      "id": "iem-lsr-SGF-52",
      "properties": {
        "report_id": "iem-lsr-SGF-52",
        "report_type": "FLOOD",
        "event_category": "flooding",
        "valid_utc": "202605240456",
        "standard_time_display": "2026-05-23 22:56 CST",
        "wfo": "SGF",
        "county_or_zone": "Barry",
        "city": "Pioneer",
        "state": "MO",
        "magnitude": null,
        "magnitude_units": null,
        "source": "Dept of Highways",
        "event_narrative": "State Highway T is closed due to flooding at Shoal Creek."
      },
      "geometry": {
        "type": "Point",
        "coordinates": [
          -94.05,
          36.84
        ]
      }
    }
  ]
}