{
  "type": "FeatureCollection",
  "name": "cwa",
  "crs": {
    "type": "name",
    "properties": {
      "name": "urn:ogc:def:crs:OGC:1.3:CRS84"
    }
  },
  "features": [
    {
      "type": "Feature",
      "properties": {
        "WFO": "ABQ",
        "CWA": "ABQ",
        "STATE": "New Mexico",
        "ST": "NM",
        "CITYSTATE": "Albuquerque NM"
      },
      "geometry": {
        "type": "Polygon",
        "coordinates": [
          [
            [
              -108.35719299276235,
              36.99941253665929
            ],
            [
              -106.87779998827881,
              37.000110626404364
            ],
            [
              -106.86979675321754,
              36.99241256728618
            ],
            [
              -106.75059509278924,
              36.99241256728618
            ],
            [
              -105.48459625231516,
              36.996013640717024
            ],
            [
              -105.12019348094435,
              36.995410918679
            ],
            [
              -105.0303955082461,
              36.99281311003705
            ],
            [
              -104.36759948692674,
              36.993412018050265
            ],
            [
              -103.50069427472096,
              36.999210358271455
            ],
            [
              -103.00169372558491,
              36.999912262041335
            ],
            [
              -103.00189971889688,
              36.50041198662393
            ],
            [
              -103.04189300555771,
              36.50021362316022
            ],
            [
              -103.04079437306183,
              36.000011443972994
            ],
            [
              -103.04329681399673,
              35.12501144392303
            ],
            [
              -103.04349517835976,
              34.015110015614766
            ],
            [
              -103.05259704591691,
              33.571411132617754
            ],
            [
              -103.709793091378,
              33.56961059635199
            ],
            [
              -103.72069549610023,
              33.568412781224936
            ],
            [
              -103.72139739987006,
              33.39591217021052
            ],
            [
              -103.76639556930007,
              33.39551162656039
            ],
            [
              -103.76629638756822,
              32.96531295782677
            ],
            [
              -104.84109497055641,
              32.96321105964273
            ],
            [
              -104.84199523958858,
              32.52071380579753
            ],
            [
              -105.12549591070768,
              32.52071380579753
            ],
            [
              -105.1645965581846,
              32.51881027197652
            ],
            [
              -105.35389709497491,
              32.51881408690065
            ],
            [
              -105.35350036624885,
              32.596210479629974
            ],
            [
              -105.35189819344686,
              32.6096115112623
            ],
            [
              -105.352600098116,
              32.962013245414994
            ],
            [
              -105.31620025593702,
              32.96202850331281
            ],
            [
              -105.31719970760037,
              33.21371078542444
            ],
            [
              -105.31909942559798,
              33.30551147457493
            ],
            [
              -105.72599792456452,
              33.30551147457493
            ],
            [
              -105.72729492232276,
              33.38921356185642
            ],
            [
              -105.73399352977754,
              33.39051055871539
            ],
            [
              -106.10789489743155,
              33.38941192621945
            ],
            [
              -106.37169647221441,
              33.39131164601571
            ],
            [
              -106.37309265080518,
              33.479110718085224
            ],
            [
              -106.37559509443804,
              33.4799118035869
            ],
            [
              -106.47409820596738,
              33.48011398287406
            ],
            [
              -106.47429657033041,
              33.47581100477413
            ],
            [
              -106.61559295734907,
              33.47521209676091
            ],
            [
              -106.9427948001399,
              33.475910187405304
            ],
            [
              -107.11899566721621,
              33.478713989359164
            ],
            [
              -107.39289856032025,
              33.47781372122631
            ],
            [
              -107.53369903598167,
              33.47581100477413
            ],
            [
              -107.74649810780141,
              33.47781372122631
            ],
            [
              -107.93159484912297,
              33.474411011259235
            ],
            [
              -107.96849822980943,
              33.47801208469002
            ],
            [
              -108.0005950929891,
              33.47801208469002
            ],
            [
              -108.0005950929891,
              33.20162963929647
            ],
            [
              -108.44999694939963,
              33.20101165756199
            ],
            [
              -108.5434951781599,
              33.207813262572074
            ],
            [
              -108.62879943824345,
              33.20771408084022
            ],
            [
              -108.70669555725414,
              33.20991134583198
            ],
            [
              -108.95669555675448,
              33.20741271982121
            ],
            [
              -109.00059509278924,
              33.20911407525443
            ],
            [
              -109.04719543502125,
              33.208412169685914
            ],
            [
              -109.0453948969569,
              34.78471374544307
            ],
            [
              -109.04679870629525,
              35.39301300014989
            ],
            [
              -109.04529571522505,
              36.999210358271455
            ],
            [
              -108.4468002318452,
              36.99931335402812
            ],
            [
              -108.38009643740065,
              37.000511169155175
            ],
            [
              -108.35719299276235,
              36.99941253665929
            ]
          ]
        ]
      }
    }
  ],
  "metadata": {
    "schema_version": "0.1.0",
    "wfo": "ABQ",
    "layer": "cwa",
    "source": "https://www.weather.gov/source/gis/Shapefiles/WSOM/w_16ap26.zip",
    "public_release_status": "public-source-derived"
  }
}