{
  "type": "FeatureCollection",
  "metadata": {
    "schema_version": "0.2.4",
    "year": 2026,
    "month": 6,
    "wfo": "ILX",
    "start_utc": "2026-06-01T00:00:00Z",
    "end_utc": "2026-07-01T00:00:00Z",
    "generated_utc": "2026-06-07T11:16:51Z",
    "mode": "storm_data_prep",
    "public_release_status": "public-source-derived",
    "time_note": "Storm Data entry times should be reviewed in local Standard Time (ST), not daylight time. Candidate reports include standard_time_display.",
    "tornado_track_policy": "Tornado tracks must come from DAT. NCEI begin/end coordinates are not used as a tornado track substitute.",
    "source": "https://mesonet.agron.iastate.edu/cgi-bin/request/gis/lsr.py?wfo=ILX&sts=2026-06-01T00%3A00%3A00Z&ets=2026-07-01T00%3A00%3A00Z&fmt=csv"
  },
  "features": [
    {
      "type": "Feature",
      "id": "iem-lsr-ILX-1",
      "properties": {
        "report_id": "iem-lsr-ILX-1",
        "report_type": "TSTM WND GST",
        "event_category": "thunderstorm_wind",
        "valid_utc": "202606012130",
        "standard_time_display": "2026-06-01 15:30 CST",
        "wfo": "ILX",
        "county_or_zone": "Shelby",
        "city": "Oconee",
        "state": "IL",
        "magnitude": 68.0,
        "magnitude_units": null,
        "source": "Public",
        "event_narrative": "Relayed by WCIA-TV."
      },
      "geometry": {
        "type": "Point",
        "coordinates": [
          -89.11,
          39.29
        ]
      }
    },
    {
      "type": "Feature",
      "id": "iem-lsr-ILX-2",
      "properties": {
        "report_id": "iem-lsr-ILX-2",
        "report_type": "RAIN",
        "event_category": "other",
        "valid_utc": "202606070235",
        "standard_time_display": "2026-06-06 20:35 CST",
        "wfo": "ILX",
        "county_or_zone": "Vermilion",
        "city": "Vermilion Regional Airp",
        "state": "IL",
        "magnitude": 5.57,
        "magnitude_units": null,
        "source": "AWOS",
        "event_narrative": null
      },
      "geometry": {
        "type": "Point",
        "coordinates": [
          -87.6,
          40.2
        ]
      }
    },
    {
      "type": "Feature",
      "id": "iem-lsr-ILX-3",
      "properties": {
        "report_id": "iem-lsr-ILX-3",
        "report_type": "FLASH FLOOD",
        "event_category": "flooding",
        "valid_utc": "202606070250",
        "standard_time_display": "2026-06-06 20:50 CST",
        "wfo": "ILX",
        "county_or_zone": "Vermilion",
        "city": "Vermilion Regional Airp",
        "state": "IL",
        "magnitude": null,
        "magnitude_units": null,
        "source": "911 Call Center",
        "event_narrative": "Water is flowing across several county roads near the Vermilion Regional Airport (KDNV). A vehicle is stranded in high water as well."
      },
      "geometry": {
        "type": "Point",
        "coordinates": [
          -87.6,
          40.2
        ]
      }
    },
    {
      "type": "Feature",
      "id": "iem-lsr-ILX-4",
      "properties": {
        "report_id": "iem-lsr-ILX-4",
        "report_type": "FLOOD",
        "event_category": "flooding",
        "valid_utc": "202606070301",
        "standard_time_display": "2026-06-06 21:01 CST",
        "wfo": "ILX",
        "county_or_zone": "Vermilion",
        "city": "1 SSW Vermilion Regiona",
        "state": "IL",
        "magnitude": null,
        "magnitude_units": null,
        "source": "Emergency Mngr",
        "event_narrative": "Numerous in-town roads flooded in Bismarck."
      },
      "geometry": {
        "type": "Point",
        "coordinates": [
          -87.6,
          40.19
        ]
      }
    },
    {
      "type": "Feature",
      "id": "iem-lsr-ILX-5",
      "properties": {
        "report_id": "iem-lsr-ILX-5",
        "report_type": "FLOOD",
        "event_category": "flooding",
        "valid_utc": "202606070312",
        "standard_time_display": "2026-06-06 21:12 CST",
        "wfo": "ILX",
        "county_or_zone": "Vermilion",
        "city": "2 S Bismarck",
        "state": "IL",
        "magnitude": null,
        "magnitude_units": null,
        "source": "Emergency Mngr",
        "event_narrative": "Multiple areas flooded on Bowman between North Danville and Bismarck."
      },
      "geometry": {
        "type": "Point",
        "coordinates": [
          -87.6,
          40.23
        ]
      }
    },
    {
      "type": "Feature",
      "id": "iem-lsr-ILX-6",
      "properties": {
        "report_id": "iem-lsr-ILX-6",
        "report_type": "RAIN",
        "event_category": "other",
        "valid_utc": "202606070335",
        "standard_time_display": "2026-06-06 21:35 CST",
        "wfo": "ILX",
        "county_or_zone": "Vermilion",
        "city": "1 NE Vermilion Regional",
        "state": "IL",
        "magnitude": 5.8,
        "magnitude_units": null,
        "source": "AWOS",
        "event_narrative": "AWOS station KDNV Danville Arpt."
      },
      "geometry": {
        "type": "Point",
        "coordinates": [
          -87.59,
          40.2
        ]
      }
    },
    {
      "type": "Feature",
      "id": "iem-lsr-ILX-7",
      "properties": {
        "report_id": "iem-lsr-ILX-7",
        "report_type": "RAIN",
        "event_category": "other",
        "valid_utc": "202606070336",
        "standard_time_display": "2026-06-06 21:36 CST",
        "wfo": "ILX",
        "county_or_zone": "Vermilion",
        "city": "2 NNW Danville",
        "state": "IL",
        "magnitude": 0.98,
        "magnitude_units": null,
        "source": "Mesonet",
        "event_narrative": "Mesonet station CW9931 Danville."
      },
      "geometry": {
        "type": "Point",
        "coordinates": [
          -87.65,
          40.17
        ]
      }
    },
    {
      "type": "Feature",
      "id": "iem-lsr-ILX-8",
      "properties": {
        "report_id": "iem-lsr-ILX-8",
        "report_type": "RAIN",
        "event_category": "other",
        "valid_utc": "202606070356",
        "standard_time_display": "2026-06-06 21:56 CST",
        "wfo": "ILX",
        "county_or_zone": "Vermilion",
        "city": "2 NNW Danville",
        "state": "IL",
        "magnitude": 1.0,
        "magnitude_units": null,
        "source": "Mesonet",
        "event_narrative": "Mesonet station CW9931 Danville."
      },
      "geometry": {
        "type": "Point",
        "coordinates": [
          -87.65,
          40.17
        ]
      }
    },
    {
      "type": "Feature",
      "id": "iem-lsr-ILX-9",
      "properties": {
        "report_id": "iem-lsr-ILX-9",
        "report_type": "RAIN",
        "event_category": "other",
        "valid_utc": "202606070400",
        "standard_time_display": "2026-06-06 22:00 CST",
        "wfo": "ILX",
        "county_or_zone": "Vermilion",
        "city": "4 WNW Henning",
        "state": "IL",
        "magnitude": 1.53,
        "magnitude_units": null,
        "source": "Mesonet",
        "event_narrative": "Personal Weather Station 4.1 WNW Henning."
      },
      "geometry": {
        "type": "Point",
        "coordinates": [
          -87.77,
          40.33
        ]
      }
    },
    {
      "type": "Feature",
      "id": "iem-lsr-ILX-10",
      "properties": {
        "report_id": "iem-lsr-ILX-10",
        "report_type": "RAIN",
        "event_category": "other",
        "valid_utc": "202606070400",
        "standard_time_display": "2026-06-06 22:00 CST",
        "wfo": "ILX",
        "county_or_zone": "Vermilion",
        "city": "2 S Henning",
        "state": "IL",
        "magnitude": 2.33,
        "magnitude_units": null,
        "source": "Mesonet",
        "event_narrative": "Personal Weather Station."
      },
      "geometry": {
        "type": "Point",
        "coordinates": [
          -87.7,
          40.28
        ]
      }
    },
    {
      "type": "Feature",
      "id": "iem-lsr-ILX-11",
      "properties": {
        "report_id": "iem-lsr-ILX-11",
        "report_type": "RAIN",
        "event_category": "other",
        "valid_utc": "202606070400",
        "standard_time_display": "2026-06-06 22:00 CST",
        "wfo": "ILX",
        "county_or_zone": "Vermilion",
        "city": "4 NNW Danville",
        "state": "IL",
        "magnitude": 2.51,
        "magnitude_units": null,
        "source": "Mesonet",
        "event_narrative": "Personal Weather Station 3.8 NNW Danville."
      },
      "geometry": {
        "type": "Point",
        "coordinates": [
          -87.66,
          40.19
        ]
      }
    },
    {
      "type": "Feature",
      "id": "iem-lsr-ILX-12",
      "properties": {
        "report_id": "iem-lsr-ILX-12",
        "report_type": "RAIN",
        "event_category": "other",
        "valid_utc": "202606070400",
        "standard_time_display": "2026-06-06 22:00 CST",
        "wfo": "ILX",
        "county_or_zone": "Vermilion",
        "city": "3.3 SSW Bismarck",
        "state": "IL",
        "magnitude": 3.36,
        "magnitude_units": null,
        "source": "Mesonet",
        "event_narrative": "Personal Weather Station 3.3 SSW Bismarck."
      },
      "geometry": {
        "type": "Point",
        "coordinates": [
          -87.63,
          40.22
        ]
      }
    },
    {
      "type": "Feature",
      "id": "iem-lsr-ILX-13",
      "properties": {
        "report_id": "iem-lsr-ILX-13",
        "report_type": "RAIN",
        "event_category": "other",
        "valid_utc": "202606070400",
        "standard_time_display": "2026-06-06 22:00 CST",
        "wfo": "ILX",
        "county_or_zone": "Vermilion",
        "city": "1 SSW Alvin",
        "state": "IL",
        "magnitude": 4.63,
        "magnitude_units": null,
        "source": "Mesonet",
        "event_narrative": "Personal Weather Station 1.4 SSW Alvin."
      },
      "geometry": {
        "type": "Point",
        "coordinates": [
          -87.61,
          40.3
        ]
      }
    },
    {
      "type": "Feature",
      "id": "iem-lsr-ILX-14",
      "properties": {
        "report_id": "iem-lsr-ILX-14",
        "report_type": "RAIN",
        "event_category": "other",
        "valid_utc": "202606070400",
        "standard_time_display": "2026-06-06 22:00 CST",
        "wfo": "ILX",
        "county_or_zone": "Vermilion",
        "city": "Bismarck",
        "state": "IL",
        "magnitude": 6.4,
        "magnitude_units": null,
        "source": "Mesonet",
        "event_narrative": "Personal Weather Station 0.2 WNW Bismarck."
      },
      "geometry": {
        "type": "Point",
        "coordinates": [
          -87.61,
          40.26
        ]
      }
    },
    {
      "type": "Feature",
      "id": "iem-lsr-ILX-15",
      "properties": {
        "report_id": "iem-lsr-ILX-15",
        "report_type": "RAIN",
        "event_category": "other",
        "valid_utc": "202606070430",
        "standard_time_display": "2026-06-06 22:30 CST",
        "wfo": "ILX",
        "county_or_zone": "Vermilion",
        "city": "3.1 NW Danville",
        "state": "IL",
        "magnitude": 1.0,
        "magnitude_units": null,
        "source": "Mesonet",
        "event_narrative": "Personal Weather Station 3.1 NW Danville."
      },
      "geometry": {
        "type": "Point",
        "coordinates": [
          -87.67,
          40.17
        ]
      }
    },
    {
      "type": "Feature",
      "id": "iem-lsr-ILX-16",
      "properties": {
        "report_id": "iem-lsr-ILX-16",
        "report_type": "RAIN",
        "event_category": "other",
        "valid_utc": "202606070430",
        "standard_time_display": "2026-06-06 22:30 CST",
        "wfo": "ILX",
        "county_or_zone": "Vermilion",
        "city": "4.8 NNW Danville",
        "state": "IL",
        "magnitude": 1.67,
        "magnitude_units": null,
        "source": "Mesonet",
        "event_narrative": "Personal Weather Station 4.8 NNW Danville."
      },
      "geometry": {
        "type": "Point",
        "coordinates": [
          -87.67,
          40.2
        ]
      }
    },
    {
      "type": "Feature",
      "id": "iem-lsr-ILX-17",
      "properties": {
        "report_id": "iem-lsr-ILX-17",
        "report_type": "RAIN",
        "event_category": "other",
        "valid_utc": "202606070430",
        "standard_time_display": "2026-06-06 22:30 CST",
        "wfo": "ILX",
        "county_or_zone": "Vermilion",
        "city": "5.4 SE Danville",
        "state": "IL",
        "magnitude": 1.88,
        "magnitude_units": null,
        "source": "Mesonet",
        "event_narrative": "Personal Weather Station 5.4 SE Danville."
      },
      "geometry": {
        "type": "Point",
        "coordinates": [
          -87.56,
          40.08
        ]
      }
    },
    {
      "type": "Feature",
      "id": "iem-lsr-ILX-18",
      "properties": {
        "report_id": "iem-lsr-ILX-18",
        "report_type": "RAIN",
        "event_category": "other",
        "valid_utc": "202606070430",
        "standard_time_display": "2026-06-06 22:30 CST",
        "wfo": "ILX",
        "county_or_zone": "Vermilion",
        "city": "4.2 ESE Danville",
        "state": "IL",
        "magnitude": 2.62,
        "magnitude_units": null,
        "source": "Mesonet",
        "event_narrative": "Personal Weather Station 4.2 ESE Danville."
      },
      "geometry": {
        "type": "Point",
        "coordinates": [
          -87.56,
          40.12
        ]
      }
    },
    {
      "type": "Feature",
      "id": "iem-lsr-ILX-19",
      "properties": {
        "report_id": "iem-lsr-ILX-19",
        "report_type": "RAIN",
        "event_category": "other",
        "valid_utc": "202606070430",
        "standard_time_display": "2026-06-06 22:30 CST",
        "wfo": "ILX",
        "county_or_zone": "Vermilion",
        "city": "3 ENE Danville",
        "state": "IL",
        "magnitude": 3.22,
        "magnitude_units": null,
        "source": "Mesonet",
        "event_narrative": "Personal Weather Station 3 ENE Danville."
      },
      "geometry": {
        "type": "Point",
        "coordinates": [
          -87.58,
          40.16
        ]
      }
    },
    {
      "type": "Feature",
      "id": "iem-lsr-ILX-20",
      "properties": {
        "report_id": "iem-lsr-ILX-20",
        "report_type": "RAIN",
        "event_category": "other",
        "valid_utc": "202606070615",
        "standard_time_display": "2026-06-07 00:15 CST",
        "wfo": "ILX",
        "county_or_zone": "Vermilion",
        "city": "1 NE Vermilion Regional",
        "state": "IL",
        "magnitude": 6.41,
        "magnitude_units": null,
        "source": "AWOS",
        "event_narrative": "AWOS station KDNV Danville Arpt."
      },
      "geometry": {
        "type": "Point",
        "coordinates": [
          -87.59,
          40.2
        ]
      }
    }
  ]
}