{
  "type": "FeatureCollection",
  "metadata": {
    "schema_version": "0.2.4",
    "year": 2026,
    "month": 5,
    "wfo": "MQT",
    "start_utc": "2026-05-01T00:00:00Z",
    "end_utc": "2026-06-01T00:00:00Z",
    "generated_utc": "2026-07-25T10:46:12Z",
    "mode": "storm_data_prep",
    "public_release_status": "public-source-derived",
    "time_note": "Storm Data entry times should be reviewed in local Standard Time (ST), not daylight time. Candidate reports include standard_time_display.",
    "tornado_track_policy": "Tornado tracks must come from DAT. NCEI begin/end coordinates are not used as a tornado track substitute.",
    "source": "https://mesonet.agron.iastate.edu/cgi-bin/request/gis/lsr.py?wfo=MQT&sts=2026-05-01T00%3A00%3A00Z&ets=2026-06-01T00%3A00%3A00Z&fmt=csv"
  },
  "features": [
    {
      "type": "Feature",
      "id": "iem-lsr-MQT-1",
      "properties": {
        "report_id": "iem-lsr-MQT-1",
        "report_type": "NON-TSTM WND GST",
        "event_category": "thunderstorm_wind",
        "valid_utc": "202605041440",
        "standard_time_display": "2026-05-04 08:40 CST",
        "wfo": "MQT",
        "county_or_zone": "LSZ266",
        "city": "28 ESE Keweenaw Point",
        "state": "MI",
        "magnitude": 53.0,
        "magnitude_units": null,
        "source": "Mesonet",
        "event_narrative": "C-MAN Station STDM4 33 NNE Granite Island."
      },
      "geometry": {
        "type": "Point",
        "coordinates": [
          -87.22,
          47.18
        ]
      }
    },
    {
      "type": "Feature",
      "id": "iem-lsr-MQT-2",
      "properties": {
        "report_id": "iem-lsr-MQT-2",
        "report_type": "NON-TSTM WND GST",
        "event_category": "thunderstorm_wind",
        "valid_utc": "202605041457",
        "standard_time_display": "2026-05-04 08:57 CST",
        "wfo": "MQT",
        "county_or_zone": "Dickinson",
        "city": "1 NW Kingsford",
        "state": "MI",
        "magnitude": 46.0,
        "magnitude_units": null,
        "source": "ASOS",
        "event_narrative": "ASOS station KIMT Ford Airport."
      },
      "geometry": {
        "type": "Point",
        "coordinates": [
          -88.12,
          45.82
        ]
      }
    },
    {
      "type": "Feature",
      "id": "iem-lsr-MQT-3",
      "properties": {
        "report_id": "iem-lsr-MQT-3",
        "report_type": "NON-TSTM WND GST",
        "event_category": "thunderstorm_wind",
        "valid_utc": "202605041525",
        "standard_time_display": "2026-05-04 09:25 CST",
        "wfo": "MQT",
        "county_or_zone": "LMZ221",
        "city": "10 SE Ford River",
        "state": "MI",
        "magnitude": 45.0,
        "magnitude_units": null,
        "source": "Mesonet",
        "event_narrative": "Mesonet station XMAPV Minneapolis Shoal."
      },
      "geometry": {
        "type": "Point",
        "coordinates": [
          -87.0,
          45.58
        ]
      }
    },
    {
      "type": "Feature",
      "id": "iem-lsr-MQT-4",
      "properties": {
        "report_id": "iem-lsr-MQT-4",
        "report_type": "NON-TSTM WND GST",
        "event_category": "thunderstorm_wind",
        "valid_utc": "202605041536",
        "standard_time_display": "2026-05-04 09:36 CST",
        "wfo": "MQT",
        "county_or_zone": "LSZ263",
        "city": "3 W Rock of Ages",
        "state": "MI",
        "magnitude": 43.0,
        "magnitude_units": null,
        "source": "Mesonet",
        "event_narrative": "C-MAN station ROAM4 Rock of Ages Lighthouse."
      },
      "geometry": {
        "type": "Point",
        "coordinates": [
          -89.31,
          47.87
        ]
      }
    },
    {
      "type": "Feature",
      "id": "iem-lsr-MQT-5",
      "properties": {
        "report_id": "iem-lsr-MQT-5",
        "report_type": "NON-TSTM WND GST",
        "event_category": "thunderstorm_wind",
        "valid_utc": "202605041700",
        "standard_time_display": "2026-05-04 11:00 CST",
        "wfo": "MQT",
        "county_or_zone": "LSZ244",
        "city": "7 N Keweenaw Point",
        "state": "MI",
        "magnitude": 39.0,
        "magnitude_units": null,
        "source": "Public",
        "event_narrative": "Ship Observation from Tug Defiance."
      },
      "geometry": {
        "type": "Point",
        "coordinates": [
          -87.7,
          47.51
        ]
      }
    },
    {
      "type": "Feature",
      "id": "iem-lsr-MQT-6",
      "properties": {
        "report_id": "iem-lsr-MQT-6",
        "report_type": "NON-TSTM WND GST",
        "event_category": "thunderstorm_wind",
        "valid_utc": "202605041719",
        "standard_time_display": "2026-05-04 11:19 CST",
        "wfo": "MQT",
        "county_or_zone": "LSZ264",
        "city": "48 ENE Rock of Ages",
        "state": "MI",
        "magnitude": 46.0,
        "magnitude_units": null,
        "source": "Mesonet",
        "event_narrative": "C-MAN PILM4 Passage Island Lighthouse."
      },
      "geometry": {
        "type": "Point",
        "coordinates": [
          -88.37,
          48.22
        ]
      }
    },
    {
      "type": "Feature",
      "id": "iem-lsr-MQT-7",
      "properties": {
        "report_id": "iem-lsr-MQT-7",
        "report_type": "NON-TSTM WND GST",
        "event_category": "thunderstorm_wind",
        "valid_utc": "202605041844",
        "standard_time_display": "2026-05-04 12:44 CST",
        "wfo": "MQT",
        "county_or_zone": "Keweenaw",
        "city": "Copper Harbor",
        "state": "MI",
        "magnitude": 46.0,
        "magnitude_units": null,
        "source": "ASOS",
        "event_narrative": "ASOS station KP59 Copper Harbor."
      },
      "geometry": {
        "type": "Point",
        "coordinates": [
          -87.88,
          47.47
        ]
      }
    },
    {
      "type": "Feature",
      "id": "iem-lsr-MQT-8",
      "properties": {
        "report_id": "iem-lsr-MQT-8",
        "report_type": "NON-TSTM WND GST",
        "event_category": "thunderstorm_wind",
        "valid_utc": "202605041900",
        "standard_time_display": "2026-05-04 13:00 CST",
        "wfo": "MQT",
        "county_or_zone": "LSZ265",
        "city": "14 S Keweenaw Point",
        "state": "MI",
        "magnitude": 43.0,
        "magnitude_units": null,
        "source": "Public",
        "event_narrative": "Ship Observation from Tug Defiance."
      },
      "geometry": {
        "type": "Point",
        "coordinates": [
          -87.7,
          47.2
        ]
      }
    },
    {
      "type": "Feature",
      "id": "iem-lsr-MQT-9",
      "properties": {
        "report_id": "iem-lsr-MQT-9",
        "report_type": "NON-TSTM WND GST",
        "event_category": "thunderstorm_wind",
        "valid_utc": "202605041940",
        "standard_time_display": "2026-05-04 13:40 CST",
        "wfo": "MQT",
        "county_or_zone": "LSZ246",
        "city": "5 NE Arnheim",
        "state": "MI",
        "magnitude": 43.0,
        "magnitude_units": null,
        "source": "Mesonet",
        "event_narrative": "Buoy 45025 5 ENE Arnheim."
      },
      "geometry": {
        "type": "Point",
        "coordinates": [
          -88.4,
          46.97
        ]
      }
    },
    {
      "type": "Feature",
      "id": "iem-lsr-MQT-10",
      "properties": {
        "report_id": "iem-lsr-MQT-10",
        "report_type": "NON-TSTM WND GST",
        "event_category": "thunderstorm_wind",
        "valid_utc": "202605042024",
        "standard_time_display": "2026-05-04 14:24 CST",
        "wfo": "MQT",
        "county_or_zone": "Keweenaw",
        "city": "34 ENE Rock of Ages",
        "state": "MI",
        "magnitude": 42.0,
        "magnitude_units": null,
        "source": "Mesonet",
        "event_narrative": "Mesonet station OJIM4 Ojibway - Isle Royale."
      },
      "geometry": {
        "type": "Point",
        "coordinates": [
          -88.61,
          48.11
        ]
      }
    },
    {
      "type": "Feature",
      "id": "iem-lsr-MQT-11",
      "properties": {
        "report_id": "iem-lsr-MQT-11",
        "report_type": "NON-TSTM WND GST",
        "event_category": "thunderstorm_wind",
        "valid_utc": "202605042035",
        "standard_time_display": "2026-05-04 14:35 CST",
        "wfo": "MQT",
        "county_or_zone": "Houghton",
        "city": "Houghton Co Airport",
        "state": "MI",
        "magnitude": 58.0,
        "magnitude_units": null,
        "source": "ASOS",
        "event_narrative": "ASOS station KCMX Houghton Co. Airport."
      },
      "geometry": {
        "type": "Point",
        "coordinates": [
          -88.48,
          47.17
        ]
      }
    },
    {
      "type": "Feature",
      "id": "iem-lsr-MQT-12",
      "properties": {
        "report_id": "iem-lsr-MQT-12",
        "report_type": "NON-TSTM WND GST",
        "event_category": "thunderstorm_wind",
        "valid_utc": "202605042353",
        "standard_time_display": "2026-05-04 17:53 CST",
        "wfo": "MQT",
        "county_or_zone": "Houghton",
        "city": "Houghton Co Airport",
        "state": "MI",
        "magnitude": 48.0,
        "magnitude_units": null,
        "source": "ASOS",
        "event_narrative": "ASOS station KCMX Houghton Co. Airport."
      },
      "geometry": {
        "type": "Point",
        "coordinates": [
          -88.48,
          47.17
        ]
      }
    },
    {
      "type": "Feature",
      "id": "iem-lsr-MQT-13",
      "properties": {
        "report_id": "iem-lsr-MQT-13",
        "report_type": "NON-TSTM WND GST",
        "event_category": "thunderstorm_wind",
        "valid_utc": "202605050424",
        "standard_time_display": "2026-05-04 22:24 CST",
        "wfo": "MQT",
        "county_or_zone": "Keweenaw",
        "city": "Ojibway",
        "state": "MI",
        "magnitude": 43.0,
        "magnitude_units": null,
        "source": "Mesonet",
        "event_narrative": "Mesonet station OJIM4 Ojibway - Isle Royale."
      },
      "geometry": {
        "type": "Point",
        "coordinates": [
          -88.61,
          48.11
        ]
      }
    },
    {
      "type": "Feature",
      "id": "iem-lsr-MQT-14",
      "properties": {
        "report_id": "iem-lsr-MQT-14",
        "report_type": "NON-TSTM WND GST",
        "event_category": "thunderstorm_wind",
        "valid_utc": "202605121751",
        "standard_time_display": "2026-05-12 11:51 CST",
        "wfo": "MQT",
        "county_or_zone": "LSZ244",
        "city": "Copper Harbor",
        "state": "MI",
        "magnitude": 44.0,
        "magnitude_units": null,
        "source": "ASOS",
        "event_narrative": "ASOS station KP59 Copper Harbor."
      },
      "geometry": {
        "type": "Point",
        "coordinates": [
          -87.89,
          47.47
        ]
      }
    },
    {
      "type": "Feature",
      "id": "iem-lsr-MQT-15",
      "properties": {
        "report_id": "iem-lsr-MQT-15",
        "report_type": "NON-TSTM WND GST",
        "event_category": "thunderstorm_wind",
        "valid_utc": "202605130350",
        "standard_time_display": "2026-05-12 21:50 CST",
        "wfo": "MQT",
        "county_or_zone": "LSZ265",
        "city": "Granite Island",
        "state": "MI",
        "magnitude": 41.0,
        "magnitude_units": null,
        "source": "Mesonet",
        "event_narrative": "U-MICH and NMU Mesonet station GISM4_ 11 N Trowbridge Park."
      },
      "geometry": {
        "type": "Point",
        "coordinates": [
          -87.41,
          46.73
        ]
      }
    },
    {
      "type": "Feature",
      "id": "iem-lsr-MQT-16",
      "properties": {
        "report_id": "iem-lsr-MQT-16",
        "report_type": "NON-TSTM WND GST",
        "event_category": "thunderstorm_wind",
        "valid_utc": "202605142330",
        "standard_time_display": "2026-05-14 17:30 CST",
        "wfo": "MQT",
        "county_or_zone": "LSZ263",
        "city": "Rock of Ages Lighthouse",
        "state": "MI",
        "magnitude": 40.0,
        "magnitude_units": null,
        "source": "C-Man Station",
        "event_narrative": "C-MAN station ROAM4_ 2 W Rock of Ages."
      },
      "geometry": {
        "type": "Point",
        "coordinates": [
          -89.31,
          47.87
        ]
      }
    },
    {
      "type": "Feature",
      "id": "iem-lsr-MQT-17",
      "properties": {
        "report_id": "iem-lsr-MQT-17",
        "report_type": "NON-TSTM WND GST",
        "event_category": "thunderstorm_wind",
        "valid_utc": "202605152242",
        "standard_time_display": "2026-05-15 16:42 CST",
        "wfo": "MQT",
        "county_or_zone": "Luce",
        "city": "5 SE Newberry",
        "state": "MI",
        "magnitude": 43.0,
        "magnitude_units": null,
        "source": "AWOS",
        "event_narrative": "AWOS station KERY Newberry."
      },
      "geometry": {
        "type": "Point",
        "coordinates": [
          -85.45,
          46.3
        ]
      }
    },
    {
      "type": "Feature",
      "id": "iem-lsr-MQT-18",
      "properties": {
        "report_id": "iem-lsr-MQT-18",
        "report_type": "NON-TSTM WND GST",
        "event_category": "thunderstorm_wind",
        "valid_utc": "202605160140",
        "standard_time_display": "2026-05-15 19:40 CST",
        "wfo": "MQT",
        "county_or_zone": "LSZ248",
        "city": "1 N Big Bay",
        "state": "MI",
        "magnitude": 44.0,
        "magnitude_units": null,
        "source": "Mesonet",
        "event_narrative": "Mesonet station BIGM4 Big Bay Harbor."
      },
      "geometry": {
        "type": "Point",
        "coordinates": [
          -87.73,
          46.83
        ]
      }
    },
    {
      "type": "Feature",
      "id": "iem-lsr-MQT-19",
      "properties": {
        "report_id": "iem-lsr-MQT-19",
        "report_type": "NON-TSTM WND GST",
        "event_category": "thunderstorm_wind",
        "valid_utc": "202605160226",
        "standard_time_display": "2026-05-15 20:26 CST",
        "wfo": "MQT",
        "county_or_zone": "Dickinson",
        "city": "1 NW Kingsford",
        "state": "MI",
        "magnitude": 41.0,
        "magnitude_units": null,
        "source": "ASOS",
        "event_narrative": "ASOS station KIMT Ford Airport."
      },
      "geometry": {
        "type": "Point",
        "coordinates": [
          -88.12,
          45.82
        ]
      }
    },
    {
      "type": "Feature",
      "id": "iem-lsr-MQT-20",
      "properties": {
        "report_id": "iem-lsr-MQT-20",
        "report_type": "NON-TSTM WND GST",
        "event_category": "thunderstorm_wind",
        "valid_utc": "202605160310",
        "standard_time_display": "2026-05-15 21:10 CST",
        "wfo": "MQT",
        "county_or_zone": "LMZ221",
        "city": "10 SE Ford River",
        "state": "MI",
        "magnitude": 43.0,
        "magnitude_units": null,
        "source": "Mesonet",
        "event_narrative": "Mesonet station XMAPV Minneapolis Shoal."
      },
      "geometry": {
        "type": "Point",
        "coordinates": [
          -87.0,
          45.58
        ]
      }
    },
    {
      "type": "Feature",
      "id": "iem-lsr-MQT-21",
      "properties": {
        "report_id": "iem-lsr-MQT-21",
        "report_type": "NON-TSTM WND GST",
        "event_category": "thunderstorm_wind",
        "valid_utc": "202605160403",
        "standard_time_display": "2026-05-15 22:03 CST",
        "wfo": "MQT",
        "county_or_zone": "Schoolcraft",
        "city": "1 SW Germfask",
        "state": "MI",
        "magnitude": 41.0,
        "magnitude_units": null,
        "source": "Mesonet",
        "event_narrative": "Mesonet station SNYM4 Seney RAWS."
      },
      "geometry": {
        "type": "Point",
        "coordinates": [
          -85.94,
          46.24
        ]
      }
    },
    {
      "type": "Feature",
      "id": "iem-lsr-MQT-22",
      "properties": {
        "report_id": "iem-lsr-MQT-22",
        "report_type": "NON-TSTM WND GST",
        "event_category": "thunderstorm_wind",
        "valid_utc": "202605160550",
        "standard_time_display": "2026-05-15 23:50 CST",
        "wfo": "MQT",
        "county_or_zone": "LSZ251",
        "city": "1 NNE Grand Marais",
        "state": "MI",
        "magnitude": 41.0,
        "magnitude_units": null,
        "source": "Mesonet",
        "event_narrative": "Mesonet station GRMM4 Grand Marais."
      },
      "geometry": {
        "type": "Point",
        "coordinates": [
          -85.97,
          46.68
        ]
      }
    },
    {
      "type": "Feature",
      "id": "iem-lsr-MQT-23",
      "properties": {
        "report_id": "iem-lsr-MQT-23",
        "report_type": "NON-TSTM WND GST",
        "event_category": "thunderstorm_wind",
        "valid_utc": "202605160630",
        "standard_time_display": "2026-05-16 00:30 CST",
        "wfo": "MQT",
        "county_or_zone": "LSZ266",
        "city": "28 ESE Keweenaw Point",
        "state": "MI",
        "magnitude": 46.0,
        "magnitude_units": null,
        "source": "Mesonet",
        "event_narrative": "Mesonet station STDM4 33 NNE Granite Island."
      },
      "geometry": {
        "type": "Point",
        "coordinates": [
          -87.22,
          47.18
        ]
      }
    },
    {
      "type": "Feature",
      "id": "iem-lsr-MQT-24",
      "properties": {
        "report_id": "iem-lsr-MQT-24",
        "report_type": "NON-TSTM WND GST",
        "event_category": "thunderstorm_wind",
        "valid_utc": "202605161705",
        "standard_time_display": "2026-05-16 11:05 CST",
        "wfo": "MQT",
        "county_or_zone": "Keweenaw",
        "city": "Copper Harbor",
        "state": "MI",
        "magnitude": 44.0,
        "magnitude_units": null,
        "source": "ASOS",
        "event_narrative": "ASOS station KP59 Copper Harbor."
      },
      "geometry": {
        "type": "Point",
        "coordinates": [
          -87.88,
          47.47
        ]
      }
    },
    {
      "type": "Feature",
      "id": "iem-lsr-MQT-25",
      "properties": {
        "report_id": "iem-lsr-MQT-25",
        "report_type": "NON-TSTM WND GST",
        "event_category": "thunderstorm_wind",
        "valid_utc": "202605162107",
        "standard_time_display": "2026-05-16 15:07 CST",
        "wfo": "MQT",
        "county_or_zone": "Houghton",
        "city": "Houghton Co Airport",
        "state": "MI",
        "magnitude": 48.0,
        "magnitude_units": null,
        "source": "ASOS",
        "event_narrative": "ASOS station KCMX Houghton Co. Airport."
      },
      "geometry": {
        "type": "Point",
        "coordinates": [
          -88.48,
          47.17
        ]
      }
    },
    {
      "type": "Feature",
      "id": "iem-lsr-MQT-26",
      "properties": {
        "report_id": "iem-lsr-MQT-26",
        "report_type": "NON-TSTM WND GST",
        "event_category": "thunderstorm_wind",
        "valid_utc": "202605181000",
        "standard_time_display": "2026-05-18 04:00 CST",
        "wfo": "MQT",
        "county_or_zone": "Marquette",
        "city": "Marquette C.G.",
        "state": "MI",
        "magnitude": 51.0,
        "magnitude_units": null,
        "source": "Mesonet",
        "event_narrative": "NOS Water Level Observation Network station MCGM4 Marquette C.G._ MI."
      },
      "geometry": {
        "type": "Point",
        "coordinates": [
          -87.38,
          46.55
        ]
      }
    },
    {
      "type": "Feature",
      "id": "iem-lsr-MQT-27",
      "properties": {
        "report_id": "iem-lsr-MQT-27",
        "report_type": "NON-TSTM WND GST",
        "event_category": "thunderstorm_wind",
        "valid_utc": "202605191502",
        "standard_time_display": "2026-05-19 09:02 CST",
        "wfo": "MQT",
        "county_or_zone": "Alger",
        "city": "Munising",
        "state": "MI",
        "magnitude": 39.0,
        "magnitude_units": null,
        "source": "ASOS",
        "event_narrative": "ASOS station KP53 Munising Lakeshore."
      },
      "geometry": {
        "type": "Point",
        "coordinates": [
          -86.65,
          46.41
        ]
      }
    },
    {
      "type": "Feature",
      "id": "iem-lsr-MQT-28",
      "properties": {
        "report_id": "iem-lsr-MQT-28",
        "report_type": "NON-TSTM WND GST",
        "event_category": "thunderstorm_wind",
        "valid_utc": "202605191840",
        "standard_time_display": "2026-05-19 12:40 CST",
        "wfo": "MQT",
        "county_or_zone": "Keweenaw",
        "city": "Copper Harbor",
        "state": "MI",
        "magnitude": 46.0,
        "magnitude_units": null,
        "source": "ASOS",
        "event_narrative": "ASOS station KP59 Copper Harbor."
      },
      "geometry": {
        "type": "Point",
        "coordinates": [
          -87.88,
          47.47
        ]
      }
    },
    {
      "type": "Feature",
      "id": "iem-lsr-MQT-29",
      "properties": {
        "report_id": "iem-lsr-MQT-29",
        "report_type": "NON-TSTM WND GST",
        "event_category": "thunderstorm_wind",
        "valid_utc": "202605232248",
        "standard_time_display": "2026-05-23 16:48 CST",
        "wfo": "MQT",
        "county_or_zone": "Schoolcraft",
        "city": "Port Inland",
        "state": "MI",
        "magnitude": 47.0,
        "magnitude_units": null,
        "source": "Mesonet",
        "event_narrative": "GLOS Weather Station PNLM4 Port Inland."
      },
      "geometry": {
        "type": "Point",
        "coordinates": [
          -85.87,
          45.97
        ]
      }
    },
    {
      "type": "Feature",
      "id": "iem-lsr-MQT-30",
      "properties": {
        "report_id": "iem-lsr-MQT-30",
        "report_type": "NON-TSTM WND GST",
        "event_category": "thunderstorm_wind",
        "valid_utc": "202605240141",
        "standard_time_display": "2026-05-23 19:41 CST",
        "wfo": "MQT",
        "county_or_zone": "Alger",
        "city": "Munising",
        "state": "MI",
        "magnitude": 40.0,
        "magnitude_units": null,
        "source": "ASOS",
        "event_narrative": "ASOS station KP53 Munising Lakeshore."
      },
      "geometry": {
        "type": "Point",
        "coordinates": [
          -86.65,
          46.41
        ]
      }
    },
    {
      "type": "Feature",
      "id": "iem-lsr-MQT-31",
      "properties": {
        "report_id": "iem-lsr-MQT-31",
        "report_type": "NON-TSTM WND GST",
        "event_category": "thunderstorm_wind",
        "valid_utc": "202605240206",
        "standard_time_display": "2026-05-23 20:06 CST",
        "wfo": "MQT",
        "county_or_zone": "Keweenaw",
        "city": "Copper Harbor",
        "state": "MI",
        "magnitude": 41.0,
        "magnitude_units": null,
        "source": "ASOS",
        "event_narrative": "ASOS station KP59 Copper Harbor."
      },
      "geometry": {
        "type": "Point",
        "coordinates": [
          -87.88,
          47.47
        ]
      }
    },
    {
      "type": "Feature",
      "id": "iem-lsr-MQT-32",
      "properties": {
        "report_id": "iem-lsr-MQT-32",
        "report_type": "HAIL",
        "event_category": "hail",
        "valid_utc": "202605252127",
        "standard_time_display": "2026-05-25 15:27 CST",
        "wfo": "MQT",
        "county_or_zone": "Marquette",
        "city": "4 SE Harvey",
        "state": "MI",
        "magnitude": 0.25,
        "magnitude_units": null,
        "source": "CO-OP Observer",
        "event_narrative": "Pea sized hail covering the ground enough to make it white. 0.09 inches of rainfall."
      },
      "geometry": {
        "type": "Point",
        "coordinates": [
          -87.3,
          46.45
        ]
      }
    },
    {
      "type": "Feature",
      "id": "iem-lsr-MQT-33",
      "properties": {
        "report_id": "iem-lsr-MQT-33",
        "report_type": "TSTM WND GST",
        "event_category": "thunderstorm_wind",
        "valid_utc": "202605260124",
        "standard_time_display": "2026-05-25 19:24 CST",
        "wfo": "MQT",
        "county_or_zone": "Keweenaw",
        "city": "34 ENE Rock of Ages",
        "state": "MI",
        "magnitude": 50.0,
        "magnitude_units": null,
        "source": "Mesonet",
        "event_narrative": "Mesonet station OJIM4 Ojibway - Isle Royale."
      },
      "geometry": {
        "type": "Point",
        "coordinates": [
          -88.61,
          48.11
        ]
      }
    },
    {
      "type": "Feature",
      "id": "iem-lsr-MQT-34",
      "properties": {
        "report_id": "iem-lsr-MQT-34",
        "report_type": "TSTM WND GST",
        "event_category": "thunderstorm_wind",
        "valid_utc": "202605260253",
        "standard_time_display": "2026-05-25 20:53 CST",
        "wfo": "MQT",
        "county_or_zone": "Houghton",
        "city": "Houghton Co Airport",
        "state": "MI",
        "magnitude": 43.0,
        "magnitude_units": null,
        "source": "ASOS",
        "event_narrative": "ASOS station KCMX Houghton Co. Airport."
      },
      "geometry": {
        "type": "Point",
        "coordinates": [
          -88.48,
          47.17
        ]
      }
    },
    {
      "type": "Feature",
      "id": "iem-lsr-MQT-35",
      "properties": {
        "report_id": "iem-lsr-MQT-35",
        "report_type": "TSTM WND GST",
        "event_category": "thunderstorm_wind",
        "valid_utc": "202605260340",
        "standard_time_display": "2026-05-25 21:40 CST",
        "wfo": "MQT",
        "county_or_zone": "LSZ266",
        "city": "28 ESE Keweenaw Point",
        "state": "MI",
        "magnitude": 43.0,
        "magnitude_units": null,
        "source": "Mesonet",
        "event_narrative": "Mesonet station STDM4 33 NNE Granite Island."
      },
      "geometry": {
        "type": "Point",
        "coordinates": [
          -87.22,
          47.18
        ]
      }
    }
  ]
}