{
  "type": "FeatureCollection",
  "name": "marine_zones",
  "crs": {
    "type": "name",
    "properties": {
      "name": "urn:ogc:def:crs:OGC:1.3:CRS84"
    }
  },
  "features": [
    {
      "type": "Feature",
      "properties": {
        "ID": "PSZ156",
        "WFO": "STU",
        "GL_WFO": null,
        "NAME": "Southern Coastal waters of Tutuila and Aunuu"
      },
      "geometry": {
        "type": "Polygon",
        "coordinates": [
          [
            [
              -170.67683,
              -14.295348
            ],
            [
              -170.660945,
              -14.289105
            ],
            [
              -170.656693,
              -14.289813
            ],
            [
              -170.653434,
              -14.288082
            ],
            [
              -170.651486,
              -14.289055
            ],
            [
              -170.650773,
              -14.288268
            ],
            [
              -170.645621,
              -14.286696
            ],
            [
              -170.64016,
              -14.286516
            ],
            [
              -170.638166,
              -14.280247
            ],
            [
              -170.634247,
              -14.281245
            ],
            [
              -170.628754,
              -14.27997
            ],
            [
              -170.623326,
              -14.283114
            ],
            [
              -170.609978,
              -14.284703
            ],
            [
              -170.60192,
              -14.284204
            ],
            [
              -170.595909,
              -14.280251
            ],
            [
              -170.591074,
              -14.279656
            ],
            [
              -170.584045,
              -14.273495
            ],
            [
              -170.578591,
              -14.274824
            ],
            [
              -170.574416,
              -14.27167
            ],
            [
              -170.57347,
              -14.2724
            ],
            [
              -170.573851,
              -14.271334
            ],
            [
              -170.564605,
              -14.270196
            ],
            [
              -170.561806,
              -14.258175
            ],
            [
              -170.564235,
              -14.254698
            ],
            [
              -170.56455,
              -14.248424
            ],
            [
              -170.56154584499998,
              -14.245740488999957
            ],
            [
              -170.10427635999997,
              -14.24604710999995
            ],
            [
              -170.04810450999997,
              -14.736412179999945
            ],
            [
              -170.04991798799998,
              -14.734936790999939
            ],
            [
              -170.07563289599997,
              -14.763194103999979
            ],
            [
              -170.10020194899997,
              -14.786583648999965
            ],
            [
              -170.13860662199997,
              -14.818771984999955
            ],
            [
              -170.17052696999997,
              -14.837376782999968
            ],
            [
              -170.18499811399997,
              -14.849030137999932
            ],
            [
              -170.22564558099998,
              -14.870353874999978
            ],
            [
              -170.256729268,
              -14.892493883999975
            ],
            [
              -170.26333808199996,
              -14.894143393999968
            ],
            [
              -170.27084522899997,
              -14.899254182999982
            ],
            [
              -170.28021649799996,
              -14.90130940399996
            ],
            [
              -170.29376249599997,
              -14.909458962999963
            ],
            [
              -170.32391386999998,
              -14.919044637999946
            ],
            [
              -170.33508745399996,
              -14.924789673999953
            ],
            [
              -170.34899616699997,
              -14.927122095999948
            ],
            [
              -170.39675628499998,
              -14.942502679999961
            ],
            [
              -170.40585949899997,
              -14.94358492699996
            ],
            [
              -170.43674649599998,
              -14.960049235999975
            ],
            [
              -170.44741965199998,
              -14.967648524999959
            ],
            [
              -170.45395589199998,
              -14.969222701999968
            ],
            [
              -170.50357649599997,
              -14.994304962999934
            ],
            [
              -170.63303454899997,
              -15.032643134999944
            ],
            [
              -170.67841803399998,
              -15.038043473999949
            ],
            [
              -170.72947539499998,
              -15.041768711999964
            ],
            [
              -170.74108101699997,
              -15.044229520999977
            ],
            [
              -170.74626652199998,
              -15.043349555999953
            ],
            [
              -170.758527,
              -15.045017771999937
            ],
            [
              -170.79383986199997,
              -15.038181880999957
            ],
            [
              -170.80199859999996,
              -15.039481260999935
            ],
            [
              -170.82291800499996,
              -15.03455714599994
            ],
            [
              -170.88396304899996,
              -15.028749441999935
            ],
            [
              -170.94691165399996,
              -15.010040497999967
            ],
            [
              -171.007144306,
              -14.996890247999943
            ],
            [
              -171.08048645299996,
              -14.96137895299995
            ],
            [
              -171.12169297999998,
              -14.934695404999957
            ],
            [
              -171.18994375299997,
              -14.900474608999957
            ],
            [
              -171.20548476399998,
              -14.89085526499997
            ],
            [
              -171.21925966099997,
              -14.87981952299998
            ],
            [
              -171.22653374099997,
              -14.875874132999968
            ],
            [
              -171.29310736399998,
              -14.820656525999937
            ],
            [
              -171.32158110399996,
              -14.798903103999976
            ],
            [
              -171.34031396199998,
              -14.775335168999959
            ],
            [
              -171.34807791599997,
              -14.769764943999974
            ],
            [
              -171.35796933999998,
              -14.754412354999943
            ],
            [
              -171.39552810599997,
              -14.709450539999978
            ],
            [
              -171.40758455699998,
              -14.687446905999934
            ],
            [
              -171.42229864299998,
              -14.666440405999936
            ],
            [
              -171.45466829599997,
              -14.601516690999972
            ],
            [
              -171.46599896299998,
              -14.582766503999949
            ],
            [
              -171.47099216399997,
              -14.563440527999944
            ],
            [
              -171.47491718399996,
              -14.557282573999942
            ],
            [
              -171.47755459399997,
              -14.542583324999953
            ],
            [
              -171.49989712599998,
              -14.471572634999973
            ],
            [
              -171.50380114299998,
              -14.435916107999958
            ],
            [
              -171.51150702999996,
              -14.402388723999934
            ],
            [
              -171.51261542199998,
              -14.383390016999954
            ],
            [
              -171.51486475999997,
              -14.373884868999937
            ],
            [
              -171.51370372399998,
              -14.364608158999943
            ],
            [
              -171.51672612799996,
              -14.322041316999957
            ],
            [
              -170.846573,
              -14.320681
            ],
            [
              -170.837764,
              -14.324988
            ],
            [
              -170.831373,
              -14.325201
            ],
            [
              -170.829173,
              -14.327668
            ],
            [
              -170.829163,
              -14.331366
            ],
            [
              -170.828768,
              -14.329349
            ],
            [
              -170.826835,
              -14.329028
            ],
            [
              -170.817688,
              -14.332306
            ],
            [
              -170.813144,
              -14.327276
            ],
            [
              -170.809378,
              -14.32551
            ],
            [
              -170.807418,
              -14.327081
            ],
            [
              -170.806701,
              -14.330833
            ],
            [
              -170.804297,
              -14.332395
            ],
            [
              -170.800738,
              -14.331922
            ],
            [
              -170.799318,
              -14.334127
            ],
            [
              -170.797505,
              -14.331458
            ],
            [
              -170.795008,
              -14.331393
            ],
            [
              -170.793775,
              -14.334999
            ],
            [
              -170.791927,
              -14.33366
            ],
            [
              -170.78931,
              -14.33667
            ],
            [
              -170.790573,
              -14.342104
            ],
            [
              -170.788112,
              -14.337381
            ],
            [
              -170.787411,
              -14.33698
            ],
            [
              -170.78555,
              -14.339911
            ],
            [
              -170.788166,
              -14.345935
            ],
            [
              -170.785104,
              -14.35048
            ],
            [
              -170.785433,
              -14.357442
            ],
            [
              -170.778567,
              -14.359109
            ],
            [
              -170.775364,
              -14.362072
            ],
            [
              -170.774541,
              -14.362297
            ],
            [
              -170.773902,
              -14.361971
            ],
            [
              -170.772715,
              -14.362123
            ],
            [
              -170.770242,
              -14.36354
            ],
            [
              -170.769426,
              -14.365411
            ],
            [
              -170.767276,
              -14.361982
            ],
            [
              -170.76074,
              -14.362184
            ],
            [
              -170.759752,
              -14.365275
            ],
            [
              -170.762549,
              -14.367999
            ],
            [
              -170.759737,
              -14.373765
            ],
            [
              -170.753811,
              -14.36715
            ],
            [
              -170.753167,
              -14.363975
            ],
            [
              -170.754743,
              -14.362187
            ],
            [
              -170.751754,
              -14.360005
            ],
            [
              -170.752183,
              -14.358477
            ],
            [
              -170.747478,
              -14.359367
            ],
            [
              -170.747595,
              -14.361148
            ],
            [
              -170.744163,
              -14.3644
            ],
            [
              -170.740339,
              -14.364956
            ],
            [
              -170.737052,
              -14.358397
            ],
            [
              -170.732049,
              -14.355544
            ],
            [
              -170.72732,
              -14.347554
            ],
            [
              -170.723876,
              -14.347912
            ],
            [
              -170.72083,
              -14.344617
            ],
            [
              -170.721696,
              -14.33979
            ],
            [
              -170.699675,
              -14.327006
            ],
            [
              -170.699428,
              -14.324727
            ],
            [
              -170.702421,
              -14.325662
            ],
            [
              -170.702714,
              -14.322091
            ],
            [
              -170.697947,
              -14.311479
            ],
            [
              -170.69572,
              -14.313464
            ],
            [
              -170.694592,
              -14.313071
            ],
            [
              -170.696621,
              -14.311052
            ],
            [
              -170.694465,
              -14.307243
            ],
            [
              -170.689911,
              -14.305212
            ],
            [
              -170.688288,
              -14.301683
            ],
            [
              -170.684576,
              -14.301498
            ],
            [
              -170.683328,
              -14.299046
            ],
            [
              -170.680029,
              -14.300271
            ],
            [
              -170.67683,
              -14.295348
            ]
          ],
          [
            [
              -170.773054,
              -14.362648
            ],
            [
              -170.773099,
              -14.362449
            ],
            [
              -170.773248,
              -14.362504
            ],
            [
              -170.773054,
              -14.362648
            ]
          ],
          [
            [
              -170.773718,
              -14.36226
            ],
            [
              -170.77367,
              -14.362025
            ],
            [
              -170.773802,
              -14.36216
            ],
            [
              -170.773718,
              -14.36226
            ]
          ],
          [
            [
              -170.829259,
              -14.332125
            ],
            [
              -170.829121,
              -14.331637
            ],
            [
              -170.829541,
              -14.33199
            ],
            [
              -170.829259,
              -14.332125
            ]
          ],
          [
            [
              -170.835555,
              -14.325873
            ],
            [
              -170.835919,
              -14.325321
            ],
            [
              -170.836308,
              -14.325991
            ],
            [
              -170.835555,
              -14.325873
            ]
          ],
          [
            [
              -170.838075,
              -14.325054
            ],
            [
              -170.83815,
              -14.324853
            ],
            [
              -170.838257,
              -14.325007
            ],
            [
              -170.838075,
              -14.325054
            ]
          ],
          [
            [
              -170.84131,
              -14.323842
            ],
            [
              -170.840888,
              -14.324303
            ],
            [
              -170.840618,
              -14.323959
            ],
            [
              -170.84131,
              -14.323842
            ]
          ],
          [
            [
              -170.651496,
              -14.289887
            ],
            [
              -170.651855,
              -14.289607
            ],
            [
              -170.651927,
              -14.289861
            ],
            [
              -170.651496,
              -14.289887
            ]
          ],
          [
            [
              -170.549408,
              -14.288812
            ],
            [
              -170.545593,
              -14.283597
            ],
            [
              -170.548965,
              -14.279643
            ],
            [
              -170.552894,
              -14.278321
            ],
            [
              -170.557488,
              -14.279027
            ],
            [
              -170.56134,
              -14.282451
            ],
            [
              -170.561584,
              -14.285914
            ],
            [
              -170.558274,
              -14.288236
            ],
            [
              -170.554512,
              -14.287452
            ],
            [
              -170.549408,
              -14.288812
            ]
          ],
          [
            [
              -170.650454,
              -14.28871
            ],
            [
              -170.650175,
              -14.288547
            ],
            [
              -170.650415,
              -14.288439
            ],
            [
              -170.650454,
              -14.28871
            ]
          ],
          [
            [
              -170.645396,
              -14.287609
            ],
            [
              -170.645183,
              -14.288287
            ],
            [
              -170.645534,
              -14.28713
            ],
            [
              -170.645396,
              -14.287609
            ]
          ]
        ]
      }
    },
    {
      "type": "Feature",
      "properties": {
        "ID": "PSZ157",
        "WFO": "STU",
        "GL_WFO": null,
        "NAME": "Northern Coastal waters of Manua"
      },
      "geometry": {
        "type": "Polygon",
        "coordinates": [
          [
            [
              -169.612165,
              -13.494128227999965
            ],
            [
              -169.52440318799998,
              -13.501110762999929
            ],
            [
              -169.47392334899996,
              -13.514559756999972
            ],
            [
              -169.42418137899998,
              -13.521668714999976
            ],
            [
              -169.35627949599998,
              -13.544951036999976
            ],
            [
              -169.32191266199996,
              -13.561381180999945
            ],
            [
              -169.29174109099998,
              -13.56515778499994
            ],
            [
              -169.24277967999998,
              -13.580325355999946
            ],
            [
              -169.22095029999997,
              -13.58384048399995
            ],
            [
              -169.21639261599998,
              -13.586641271999952
            ],
            [
              -169.21093200099997,
              -13.587570354999968
            ],
            [
              -169.20265626699998,
              -13.59275503799995
            ],
            [
              -169.17276049599997,
              -13.601420036999968
            ],
            [
              -169.12597769499996,
              -13.623338686999944
            ],
            [
              -169.11197031799998,
              -13.633502411999928
            ],
            [
              -169.06160785799997,
              -13.660734842999943
            ],
            [
              -169.01346666799998,
              -13.695079737999947
            ],
            [
              -168.96724916399998,
              -13.734953906999976
            ],
            [
              -168.94852589599998,
              -13.75269489599998
            ],
            [
              -168.93006107899998,
              -13.77336311099998
            ],
            [
              -168.90225138799997,
              -13.806137750999937
            ],
            [
              -168.89484651399997,
              -13.81875574999998
            ],
            [
              -168.86653530699996,
              -13.853289870999959
            ],
            [
              -168.84595520599999,
              -13.89063434999997
            ],
            [
              -168.83556517699998,
              -13.904512274999945
            ],
            [
              -168.80410803699996,
              -13.96883149599995
            ],
            [
              -168.78094079099998,
              -14.035831966999979
            ],
            [
              -168.77020367699998,
              -14.076236625999968
            ],
            [
              -168.76261942799997,
              -14.11642265599994
            ],
            [
              -168.75557479499997,
              -14.187430852999967
            ],
            [
              -168.75469751899996,
              -14.211011299999939
            ],
            [
              -169.42777,
              -14.211664
            ],
            [
              -169.441026,
              -14.214188
            ],
            [
              -169.455198,
              -14.212002
            ],
            [
              -169.463827,
              -14.213774
            ],
            [
              -169.467261,
              -14.21617
            ],
            [
              -169.488729,
              -14.215454
            ],
            [
              -169.49939,
              -14.218076
            ],
            [
              -169.506973,
              -14.21301
            ],
            [
              -169.507172,
              -14.215298
            ],
            [
              -169.509796,
              -14.215732
            ],
            [
              -169.511429,
              -14.22
            ],
            [
              -169.514862,
              -14.220961
            ],
            [
              -169.515335,
              -14.218731
            ],
            [
              -169.518527,
              -14.220866
            ],
            [
              -169.612749,
              -14.155326
            ],
            [
              -169.615949,
              -14.156673
            ],
            [
              -169.620548,
              -14.164401
            ],
            [
              -169.631998,
              -14.16889
            ],
            [
              -169.638011,
              -14.166426
            ],
            [
              -169.645199,
              -14.167832
            ],
            [
              -169.653928,
              -14.166742
            ],
            [
              -169.680044,
              -14.158996
            ],
            [
              -170.10427635999997,
              -14.24604710999995
            ],
            [
              -170.16550972199997,
              -13.711496411999974
            ],
            [
              -170.15568210399996,
              -13.698216895999963
            ],
            [
              -170.14601388499997,
              -13.690243891999955
            ],
            [
              -170.14295584099997,
              -13.68582549499996
            ],
            [
              -170.13188412199997,
              -13.678291585999943
            ],
            [
              -170.06476202099998,
              -13.621513289999939
            ],
            [
              -169.98211968199996,
              -13.57573541399995
            ],
            [
              -169.96577744599998,
              -13.56418638699995
            ],
            [
              -169.95809924499997,
              -13.562432865999938
            ],
            [
              -169.94296570999998,
              -13.55258545099997
            ],
            [
              -169.93259350399998,
              -13.548186036999937
            ],
            [
              -169.92358208199997,
              -13.546211694999954
            ],
            [
              -169.91853428199997,
              -13.542947325999933
            ],
            [
              -169.89425281999996,
              -13.538404477999961
            ],
            [
              -169.77903830099999,
              -13.506253858999969
            ],
            [
              -169.76179129499997,
              -13.50492328599995
            ],
            [
              -169.74920155399997,
              -13.501728309999976
            ],
            [
              -169.612165,
              -13.494128227999965
            ]
          ]
        ]
      }
    },
    {
      "type": "Feature",
      "properties": {
        "ID": "PSZ152",
        "WFO": "STU",
        "GL_WFO": null,
        "NAME": "Coastal waters of Swain's Island"
      },
      "geometry": {
        "type": "MultiPolygon",
        "coordinates": [
          [
            [
              [
                -171.07913223799997,
                -10.384602911999934
              ],
              [
                -170.98366723699996,
                -10.391258344999926
              ],
              [
                -170.93420766999998,
                -10.404761678999932
              ],
              [
                -170.90610311399996,
                -10.40951113899996
              ],
              [
                -170.85660103399997,
                -10.425949657999979
              ],
              [
                -170.83328016899998,
                -10.430837174999965
              ],
              [
                -170.82091573399998,
                -10.435814720999929
              ],
              [
                -170.75561402699998,
                -10.467123673999936
              ],
              [
                -170.72489864699997,
                -10.489460085999951
              ],
              [
                -170.68479705899998,
                -10.511867595999945
              ],
              [
                -170.60367213399996,
                -10.58094357999994
              ],
              [
                -170.58922379499998,
                -10.59866263799995
              ],
              [
                -170.58142801099999,
                -10.604291113999977
              ],
              [
                -170.56951798499998,
                -10.623067839999976
              ],
              [
                -170.51405402299997,
                -10.691758708999942
              ],
              [
                -170.45803827499998,
                -10.798496179999972
              ],
              [
                -170.43068578399996,
                -10.878572524999981
              ],
              [
                -170.42146945099998,
                -10.947270642999968
              ],
              [
                -170.41644540699997,
                -10.965972123999961
              ],
              [
                -170.41397772599998,
                -11.002617057999942
              ],
              [
                -170.40747165499997,
                -11.032786389999956
              ],
              [
                -170.40890648699997,
                -11.040914395999948
              ],
              [
                -170.40712146599998,
                -11.054385683999953
              ],
              [
                -170.42082838399998,
                -11.188831601999937
              ],
              [
                -170.42926087899997,
                -11.216410631999963
              ],
              [
                -170.43046179899997,
                -11.225681703999953
              ],
              [
                -170.45790927499996,
                -11.309700187999965
              ],
              [
                -170.48607426699996,
                -11.369199287999948
              ],
              [
                -170.50106093799997,
                -11.389418274999969
              ],
              [
                -170.52502174499998,
                -11.43379591699994
              ],
              [
                -170.60451013399998,
                -11.530496787999937
              ],
              [
                -170.61494990799997,
                -11.53747242199995
              ],
              [
                -170.66501968899996,
                -11.581710549999968
              ],
              [
                -170.68659840399997,
                -11.594437681999977
              ],
              [
                -170.71384279799997,
                -11.616606340999965
              ],
              [
                -170.76275995499998,
                -11.642558698999949
              ],
              [
                -170.77360378299997,
                -11.650452987999927
              ],
              [
                -170.80823487799998,
                -11.666621309999925
              ],
              [
                -170.82064673399998,
                -11.67491464699998
              ],
              [
                -170.90796901999997,
                -11.703601204999927
              ],
              [
                -170.93086771999998,
                -11.70661995599994
              ],
              [
                -170.94008940999998,
                -11.709383874999958
              ],
              [
                -170.97372923099996,
                -11.712882684999954
              ],
              [
                -171.01408448899997,
                -11.72303123599994
              ],
              [
                -171.08115223799996,
                -11.726415455999927
              ],
              [
                -171.11784116899997,
                -11.721947306999937
              ],
              [
                -171.124050736,
                -11.722917097999925
              ],
              [
                -171.13233638399998,
                -11.72098266699993
              ],
              [
                -171.169500356,
                -11.718509445999928
              ],
              [
                -171.18221366999998,
                -11.71511458699996
              ],
              [
                -171.20450437199997,
                -11.713019935999966
              ],
              [
                -171.22611824499998,
                -11.70658276599994
              ],
              [
                -171.26119355099996,
                -11.701627766999934
              ],
              [
                -171.33720374199999,
                -11.67539564699996
              ],
              [
                -171.36699627799996,
                -11.65844106399993
              ],
              [
                -171.41741055599996,
                -11.633421804999955
              ],
              [
                -171.43411195099998,
                -11.623298224999928
              ],
              [
                -171.44783226599998,
                -11.612383540999929
              ],
              [
                -171.48161445399998,
                -11.593141786999979
              ],
              [
                -171.52444083199998,
                -11.556160684999952
              ],
              [
                -171.53283155799997,
                -11.550823201999947
              ],
              [
                -171.53682712699998,
                -11.545517552999968
              ],
              [
                -171.55591434199997,
                -11.528793787999973
              ],
              [
                -171.63692420999996,
                -11.43058110499993
              ],
              [
                -171.70332820099998,
                -11.309442187999935
              ],
              [
                -171.74099342199997,
                -11.183138277999944
              ],
              [
                -171.75404100999998,
                -11.05449168399997
              ],
              [
                -171.74897037199997,
                -10.972451528999954
              ],
              [
                -171.74394101499996,
                -10.953325765999978
              ],
              [
                -171.74232319899997,
                -10.935886249999953
              ],
              [
                -171.72013142899996,
                -10.860271829999931
              ],
              [
                -171.71586682799997,
                -10.83504179099998
              ],
              [
                -171.71022699599996,
                -10.825603907999948
              ],
              [
                -171.70331120099996,
                -10.799404179999954
              ],
              [
                -171.68114867699998,
                -10.766235618999929
              ],
              [
                -171.67647348599996,
                -10.751972988999967
              ],
              [
                -171.66880343399998,
                -10.741399885999954
              ],
              [
                -171.65753327599998,
                -10.718726969999977
              ],
              [
                -171.65042789399996,
                -10.709486510999966
              ],
              [
                -171.64101337599996,
                -10.691638706999981
              ],
              [
                -171.61432906899998,
                -10.656015514999979
              ],
              [
                -171.604396553,
                -10.639165529999957
              ],
              [
                -171.57198899199997,
                -10.602866603999928
              ],
              [
                -171.55889334199998,
                -10.583267579999927
              ],
              [
                -171.53920203099997,
                -10.569759524999938
              ],
              [
                -171.52636690499997,
                -10.552806597999961
              ],
              [
                -171.49009192499997,
                -10.530169903999933
              ],
              [
                -171.45938258599998,
                -10.504982634999976
              ],
              [
                -171.41544285499998,
                -10.47732664299997
              ],
              [
                -171.38377049899998,
                -10.461204649999956
              ],
              [
                -171.37585823799998,
                -10.45554404099994
              ],
              [
                -171.35820516399997,
                -10.447868540999934
              ],
              [
                -171.34047074199998,
                -10.436801720999938
              ],
              [
                -171.25872031999998,
                -10.408938870999975
              ],
              [
                -171.23820208699996,
                -10.405935994999936
              ],
              [
                -171.20046586699996,
                -10.395664095999962
              ],
              [
                -171.15735664999997,
                -10.391633006999939
              ],
              [
                -171.14021428799998,
                -10.387408436999976
              ],
              [
                -171.07913223799997,
                -10.384602911999934
              ]
            ],
            [
              [
                -171.08376279099997,
                -11.058580151999934
              ],
              [
                -171.080162676,
                -11.059680398999944
              ],
              [
                -171.07366243099997,
                -11.054480965999971
              ],
              [
                -171.07586026499996,
                -11.051383330999954
              ],
              [
                -171.08495393499996,
                -11.052181657999938
              ],
              [
                -171.08625093199998,
                -11.054878648999932
              ],
              [
                -171.08376279099997,
                -11.058580151999934
              ]
            ]
          ],
          [
            [
              [
                -171.07935395999996,
                -11.055079873999944
              ],
              [
                -171.08095613299997,
                -11.057784493999975
              ],
              [
                -171.08266511699998,
                -11.054779465999957
              ],
              [
                -171.08046785099998,
                -11.053281243999947
              ],
              [
                -171.07935395999996,
                -11.055079873999944
              ]
            ]
          ]
        ]
      }
    },
    {
      "type": "Feature",
      "properties": {
        "ID": "PSZ158",
        "WFO": "STU",
        "GL_WFO": null,
        "NAME": "Southern Coastal waters of Manua"
      },
      "geometry": {
        "type": "Polygon",
        "coordinates": [
          [
            [
              -169.518527,
              -14.220866
            ],
            [
              -169.513151,
              -14.23751
            ],
            [
              -169.503546,
              -14.245625
            ],
            [
              -169.499417,
              -14.255132
            ],
            [
              -169.497696,
              -14.264124
            ],
            [
              -169.492172,
              -14.270966
            ],
            [
              -169.487683,
              -14.272674
            ],
            [
              -169.483431,
              -14.270466
            ],
            [
              -169.482982,
              -14.267875
            ],
            [
              -169.47128,
              -14.254173
            ],
            [
              -169.460693,
              -14.248617
            ],
            [
              -169.450272,
              -14.248178
            ],
            [
              -169.437927,
              -14.255451
            ],
            [
              -169.426041,
              -14.257294
            ],
            [
              -169.423676,
              -14.256446
            ],
            [
              -169.420959,
              -14.244509
            ],
            [
              -169.418961,
              -14.219863
            ],
            [
              -169.42777,
              -14.211664
            ],
            [
              -168.75469751899996,
              -14.211011299999939
            ],
            [
              -168.75321822799998,
              -14.227292
            ],
            [
              -168.75541629999998,
              -14.27831009099998
            ],
            [
              -168.75891643499997,
              -14.316235233999976
            ],
            [
              -168.76877950199997,
              -14.382195388999946
            ],
            [
              -168.77365049699998,
              -14.399268649999954
            ],
            [
              -168.77838292099997,
              -14.426487402999953
            ],
            [
              -168.79247896099997,
              -14.468580798999938
            ],
            [
              -168.79408581299998,
              -14.478120454999953
            ],
            [
              -168.80835503699998,
              -14.515990503999944
            ],
            [
              -168.83044385299996,
              -14.563324074999969
            ],
            [
              -168.84226127599996,
              -14.57956087399998
            ],
            [
              -168.869270907,
              -14.630258820999927
            ],
            [
              -168.88064476099999,
              -14.64418238299993
            ],
            [
              -168.88749663399997,
              -14.656338558999948
            ],
            [
              -168.92582074899997,
              -14.70257728599995
            ],
            [
              -168.95337089599997,
              -14.733067103999929
            ],
            [
              -168.97747183199996,
              -14.749927644999957
            ],
            [
              -168.98961164699998,
              -14.766712373999951
            ],
            [
              -169.04916336199997,
              -14.803413862999946
            ],
            [
              -169.06017269399996,
              -14.812485246999927
            ],
            [
              -169.08979963299998,
              -14.828436035999971
            ],
            [
              -169.112992495,
              -14.844353057999967
            ],
            [
              -169.12725946199998,
              -14.851502282999945
            ],
            [
              -169.16963749599998,
              -14.877596962999974
            ],
            [
              -169.22888928999998,
              -14.898928377999937
            ],
            [
              -169.25571916599998,
              -14.90298469499993
            ],
            [
              -169.27611214899997,
              -14.91015529599997
            ],
            [
              -169.35585633599996,
              -14.930995601999939
            ],
            [
              -169.40564580199998,
              -14.936387905999936
            ],
            [
              -169.42710442099997,
              -14.94166469399994
            ],
            [
              -169.487003,
              -14.944362771999977
            ],
            [
              -169.55362016899997,
              -14.940248886999939
            ],
            [
              -169.56480641099998,
              -14.937491801999954
            ],
            [
              -169.59882469599998,
              -14.934597061999966
            ],
            [
              -169.62512746399997,
              -14.927010634999931
            ],
            [
              -169.64805499499997,
              -14.924180172999968
            ],
            [
              -169.69702416299998,
              -14.908155350999948
            ],
            [
              -169.709664171,
              -14.905925288999981
            ],
            [
              -169.71601124699998,
              -14.901941958999942
            ],
            [
              -169.74195350399998,
              -14.893649962999973
            ],
            [
              -169.76820181199997,
              -14.881606311999974
            ],
            [
              -169.81681901599998,
              -14.857576385999948
            ],
            [
              -169.82866585299996,
              -14.848641628999928
            ],
            [
              -169.85131095099996,
              -14.836756074999983
            ],
            [
              -169.86732670399996,
              -14.823853360999976
            ],
            [
              -169.92434050399999,
              -14.80561996299997
            ],
            [
              -169.94610575099998,
              -14.79410523599995
            ],
            [
              -169.95490694199998,
              -14.791983046999974
            ],
            [
              -169.96742165499998,
              -14.783173803999944
            ],
            [
              -170.01491535499997,
              -14.759233765999966
            ],
            [
              -170.03515582099996,
              -14.746946824999952
            ],
            [
              -170.04810450999997,
              -14.736412179999945
            ],
            [
              -170.10427635999997,
              -14.24604710999995
            ],
            [
              -169.68069,
              -14.159406
            ],
            [
              -169.682161,
              -14.163627
            ],
            [
              -169.680439,
              -14.163789
            ],
            [
              -169.681375,
              -14.166723
            ],
            [
              -169.67727,
              -14.175143
            ],
            [
              -169.677281,
              -14.17922
            ],
            [
              -169.67192,
              -14.185076
            ],
            [
              -169.66188,
              -14.183402
            ],
            [
              -169.64642,
              -14.171961
            ],
            [
              -169.632631,
              -14.168611
            ],
            [
              -169.626776,
              -14.173657
            ],
            [
              -169.621472,
              -14.182142
            ],
            [
              -169.612962,
              -14.191205
            ],
            [
              -169.613008,
              -14.192688
            ],
            [
              -169.612679,
              -14.193364
            ],
            [
              -169.606387,
              -14.179967
            ],
            [
              -169.610332,
              -14.169942
            ],
            [
              -169.609527,
              -14.157721
            ],
            [
              -169.518527,
              -14.220866
            ]
          ],
          [
            [
              -169.68418,
              -14.171692
            ],
            [
              -169.684563,
              -14.170998
            ],
            [
              -169.684195,
              -14.172596
            ],
            [
              -169.68418,
              -14.171692
            ]
          ],
          [
            [
              -169.68455,
              -14.170148
            ],
            [
              -169.683385,
              -14.166562
            ],
            [
              -169.687224,
              -14.164369
            ],
            [
              -169.685203,
              -14.167494
            ],
            [
              -169.686008,
              -14.169614
            ],
            [
              -169.68455,
              -14.170148
            ]
          ]
        ]
      }
    },
    {
      "type": "Feature",
      "properties": {
        "ID": "PSZ159",
        "WFO": "STU",
        "GL_WFO": null,
        "NAME": "Coastal waters of Rose Atoll"
      },
      "geometry": {
        "type": "Polygon",
        "coordinates": [
          [
            [
              -168.16589557799998,
              -13.866470504999938
            ],
            [
              -168.07043057699997,
              -13.87312593799993
            ],
            [
              -168.02097100999998,
              -13.886629271999936
            ],
            [
              -167.99286645399997,
              -13.891378731999964
            ],
            [
              -167.94336437399997,
              -13.907817250999926
            ],
            [
              -167.92004350899998,
              -13.91270476799997
            ],
            [
              -167.907679074,
              -13.917682313999933
            ],
            [
              -167.84237736699998,
              -13.94899126699994
            ],
            [
              -167.81166198699998,
              -13.971327678999955
            ],
            [
              -167.77156039899998,
              -13.993735188999949
            ],
            [
              -167.69043547399997,
              -14.062811172999943
            ],
            [
              -167.67598713499999,
              -14.080530230999955
            ],
            [
              -167.66819135099996,
              -14.086158706999981
            ],
            [
              -167.65628132499998,
              -14.10493543299998
            ],
            [
              -167.60081736299998,
              -14.173626301999946
            ],
            [
              -167.54480161499998,
              -14.280363772999976
            ],
            [
              -167.51744912399997,
              -14.360440117999929
            ],
            [
              -167.50823279099998,
              -14.429138235999972
            ],
            [
              -167.50320874699997,
              -14.447839716999965
            ],
            [
              -167.50074106599996,
              -14.484484650999946
            ],
            [
              -167.49423499499997,
              -14.51465398299996
            ],
            [
              -167.49566982699997,
              -14.522781988999952
            ],
            [
              -167.49388480599998,
              -14.536253276999958
            ],
            [
              -167.50759172399998,
              -14.67069919499994
            ],
            [
              -167.51602421899997,
              -14.698278224999967
            ],
            [
              -167.51722513899998,
              -14.707549296999957
            ],
            [
              -167.54467261499997,
              -14.79156778099997
            ],
            [
              -167.57283760699997,
              -14.851066880999952
            ],
            [
              -167.58782427799997,
              -14.871285867999973
            ],
            [
              -167.61178508499998,
              -14.915663509999945
            ],
            [
              -167.69127347399998,
              -15.01236438099994
            ],
            [
              -167.70171324799998,
              -15.019340014999955
            ],
            [
              -167.75178302899997,
              -15.063578142999972
            ],
            [
              -167.77336174399997,
              -15.076305274999982
            ],
            [
              -167.80060613799998,
              -15.09847393399997
            ],
            [
              -167.84952329499998,
              -15.124426291999953
            ],
            [
              -167.86036712299997,
              -15.13232058099993
            ],
            [
              -167.89499821799998,
              -15.14848890299993
            ],
            [
              -167.90741007399998,
              -15.156782239999927
            ],
            [
              -167.99473235999997,
              -15.185468797999931
            ],
            [
              -168.01763105999999,
              -15.188487548999944
            ],
            [
              -168.02685274999996,
              -15.191251467999962
            ],
            [
              -168.06049257099997,
              -15.194750277999958
            ],
            [
              -168.10084782899997,
              -15.204898828999944
            ],
            [
              -168.16791557799996,
              -15.208283048999931
            ],
            [
              -168.20460450899998,
              -15.20381489999994
            ],
            [
              -168.21081407599996,
              -15.20478469099993
            ],
            [
              -168.21909972399996,
              -15.202850259999934
            ],
            [
              -168.25626369599996,
              -15.200377038999932
            ],
            [
              -168.26897701,
              -15.196982179999964
            ],
            [
              -168.29126771199998,
              -15.19488752899997
            ],
            [
              -168.31288158499999,
              -15.188450358999944
            ],
            [
              -168.34795689099997,
              -15.183495359999938
            ],
            [
              -168.42396708199996,
              -15.157263239999963
            ],
            [
              -168.45375961799996,
              -15.140308656999935
            ],
            [
              -168.50417389599997,
              -15.115289397999959
            ],
            [
              -168.52087529099998,
              -15.105165817999932
            ],
            [
              -168.53459560599998,
              -15.094251133999933
            ],
            [
              -168.56837779399999,
              -15.075009379999926
            ],
            [
              -168.62992202899997,
              -15.023080637999954
            ],
            [
              -168.64567368199997,
              -15.007446380999966
            ],
            [
              -168.72368754999997,
              -14.912448697999935
            ],
            [
              -168.79009154099998,
              -14.791309780999939
            ],
            [
              -168.82775676199998,
              -14.665005870999948
            ],
            [
              -168.83682168199996,
              -14.572087027999942
            ],
            [
              -168.83044385299996,
              -14.563324074999969
            ],
            [
              -168.80470234499998,
              -14.506972023999936
            ],
            [
              -168.80028977199999,
              -14.49190533199993
            ],
            [
              -168.79408581299998,
              -14.478120454999953
            ],
            [
              -168.79247896099997,
              -14.468580798999938
            ],
            [
              -168.77786242099998,
              -14.424465915999974
            ],
            [
              -168.77365049699998,
              -14.399268649999954
            ],
            [
              -168.76877950199997,
              -14.382195388999946
            ],
            [
              -168.75891643499997,
              -14.316235233999976
            ],
            [
              -168.75541629999998,
              -14.27831009099998
            ],
            [
              -168.753850219,
              -14.219814172999975
            ],
            [
              -168.74429661599999,
              -14.200594562999981
            ],
            [
              -168.73719123399997,
              -14.19135410399997
            ],
            [
              -168.72777671599997,
              -14.173506299999929
            ],
            [
              -168.70109240899998,
              -14.137883107999926
            ],
            [
              -168.69115989299996,
              -14.121033122999961
            ],
            [
              -168.65875233199998,
              -14.084734196999932
            ],
            [
              -168.64565668199998,
              -14.06513517299993
            ],
            [
              -168.62596537099998,
              -14.051627117999942
            ],
            [
              -168.61313024499998,
              -14.034674190999965
            ],
            [
              -168.57685526499998,
              -14.012037496999938
            ],
            [
              -168.54614592599998,
              -13.98685022799998
            ],
            [
              -168.50220619499999,
              -13.959194235999973
            ],
            [
              -168.47053383899998,
              -13.94307224299996
            ],
            [
              -168.46262157799998,
              -13.937411633999943
            ],
            [
              -168.44496850399997,
              -13.929736133999938
            ],
            [
              -168.42723408199998,
              -13.918669313999942
            ],
            [
              -168.34548365999999,
              -13.89080646399998
            ],
            [
              -168.32496542699997,
              -13.88780358799994
            ],
            [
              -168.28722920699997,
              -13.877531688999966
            ],
            [
              -168.24411998999997,
              -13.873500599999943
            ],
            [
              -168.226977628,
              -13.86927602999998
            ],
            [
              -168.16589557799998,
              -13.866470504999938
            ]
          ],
          [
            [
              -168.15661161399998,
              -14.533374323999965
            ],
            [
              -168.17234031499999,
              -14.539612298999941
            ],
            [
              -168.16997209599998,
              -14.54624090599998
            ],
            [
              -168.15852405199996,
              -14.559737820999942
            ],
            [
              -168.14338504499997,
              -14.552970414999947
            ],
            [
              -168.13911570799996,
              -14.548856438999962
            ],
            [
              -168.15110565799998,
              -14.53072035699995
            ],
            [
              -168.15410497299996,
              -14.530311910999956
            ],
            [
              -168.15661161399998,
              -14.533374323999965
            ]
          ]
        ]
      }
    },
    {
      "type": "Feature",
      "properties": {
        "ID": "PSZ155",
        "WFO": "STU",
        "GL_WFO": null,
        "NAME": "Northern Coastal waters of Tutuila and Aunuu"
      },
      "geometry": {
        "type": "Polygon",
        "coordinates": [
          [
            [
              -170.671986,
              -13.56822122799997
            ],
            [
              -170.63041084099999,
              -13.571755028999974
            ],
            [
              -170.62449956999998,
              -13.570819619999952
            ],
            [
              -170.61495214999997,
              -13.573068984999964
            ],
            [
              -170.55954414199996,
              -13.577778548999959
            ],
            [
              -170.52094027699997,
              -13.588909907999948
            ],
            [
              -170.48180657899997,
              -13.591691053999966
            ],
            [
              -170.47200006499997,
              -13.594369245999928
            ],
            [
              -170.43668661199996,
              -13.597823055999982
            ],
            [
              -170.41817025699999,
              -13.60339748299998
            ],
            [
              -170.38211794699998,
              -13.608962322999957
            ],
            [
              -170.34538901999997,
              -13.62167579499993
            ],
            [
              -170.33812642199996,
              -13.622930530999952
            ],
            [
              -170.33344321499996,
              -13.625810755999964
            ],
            [
              -170.30704549599997,
              -13.634742036999967
            ],
            [
              -170.19507863299998,
              -13.694173474999957
            ],
            [
              -170.16898458699998,
              -13.715424120999955
            ],
            [
              -170.16550972199997,
              -13.711496411999974
            ],
            [
              -170.10427635999997,
              -14.24604710999995
            ],
            [
              -170.561998,
              -14.245327
            ],
            [
              -170.571031,
              -14.248562
            ],
            [
              -170.577728,
              -14.246278
            ],
            [
              -170.580994,
              -14.251394
            ],
            [
              -170.584661,
              -14.251073
            ],
            [
              -170.586379,
              -14.254286
            ],
            [
              -170.58561,
              -14.258244
            ],
            [
              -170.590455,
              -14.261979
            ],
            [
              -170.591472,
              -14.25745
            ],
            [
              -170.594312,
              -14.258015
            ],
            [
              -170.597932,
              -14.254902
            ],
            [
              -170.6003,
              -14.256163
            ],
            [
              -170.604244,
              -14.253909
            ],
            [
              -170.605754,
              -14.258776
            ],
            [
              -170.608635,
              -14.254694
            ],
            [
              -170.609895,
              -14.255844
            ],
            [
              -170.61259,
              -14.254872
            ],
            [
              -170.613146,
              -14.251455
            ],
            [
              -170.615833,
              -14.254362
            ],
            [
              -170.61925,
              -14.255109
            ],
            [
              -170.62249,
              -14.248451
            ],
            [
              -170.624537,
              -14.25071
            ],
            [
              -170.62805,
              -14.248758
            ],
            [
              -170.630915,
              -14.251122
            ],
            [
              -170.633272,
              -14.247654
            ],
            [
              -170.634795,
              -14.247728
            ],
            [
              -170.635419,
              -14.2498
            ],
            [
              -170.637954,
              -14.249813
            ],
            [
              -170.639779,
              -14.247094
            ],
            [
              -170.640301,
              -14.251823
            ],
            [
              -170.642147,
              -14.253201
            ],
            [
              -170.644053,
              -14.251892
            ],
            [
              -170.643196,
              -14.25001
            ],
            [
              -170.650119,
              -14.247907
            ],
            [
              -170.652406,
              -14.249973
            ],
            [
              -170.652231,
              -14.24864
            ],
            [
              -170.653915,
              -14.248579
            ],
            [
              -170.658603,
              -14.252773
            ],
            [
              -170.660969,
              -14.245389
            ],
            [
              -170.663824,
              -14.248241
            ],
            [
              -170.672288,
              -14.246569
            ],
            [
              -170.674699,
              -14.250905
            ],
            [
              -170.675005,
              -14.247624
            ],
            [
              -170.670782,
              -14.241533
            ],
            [
              -170.671592,
              -14.238803
            ],
            [
              -170.679024,
              -14.244926
            ],
            [
              -170.682835,
              -14.244108
            ],
            [
              -170.683576,
              -14.247716
            ],
            [
              -170.687501,
              -14.246673
            ],
            [
              -170.690298,
              -14.248223
            ],
            [
              -170.688868,
              -14.254007
            ],
            [
              -170.69069,
              -14.254245
            ],
            [
              -170.694598,
              -14.251076
            ],
            [
              -170.695246,
              -14.253609
            ],
            [
              -170.701964,
              -14.254277
            ],
            [
              -170.704562,
              -14.262183
            ],
            [
              -170.707305,
              -14.262566
            ],
            [
              -170.70936,
              -14.260706
            ],
            [
              -170.709433,
              -14.262162
            ],
            [
              -170.712718,
              -14.261876
            ],
            [
              -170.712149,
              -14.264751
            ],
            [
              -170.713587,
              -14.266733
            ],
            [
              -170.715761,
              -14.26641
            ],
            [
              -170.718997,
              -14.271938
            ],
            [
              -170.722516,
              -14.272521
            ],
            [
              -170.72142,
              -14.273162
            ],
            [
              -170.723542,
              -14.274783
            ],
            [
              -170.723443,
              -14.280696
            ],
            [
              -170.727135,
              -14.284236
            ],
            [
              -170.731331,
              -14.2816
            ],
            [
              -170.733227,
              -14.284432
            ],
            [
              -170.740049,
              -14.287713
            ],
            [
              -170.738852,
              -14.290198
            ],
            [
              -170.740344,
              -14.291556
            ],
            [
              -170.742283,
              -14.290392
            ],
            [
              -170.746292,
              -14.292313
            ],
            [
              -170.748535,
              -14.291158
            ],
            [
              -170.753255,
              -14.296235
            ],
            [
              -170.755281,
              -14.291454
            ],
            [
              -170.761224,
              -14.291388
            ],
            [
              -170.760294,
              -14.289009
            ],
            [
              -170.761433,
              -14.287419
            ],
            [
              -170.76427,
              -14.28998
            ],
            [
              -170.766846,
              -14.288961
            ],
            [
              -170.773837,
              -14.293191
            ],
            [
              -170.775061,
              -14.291013
            ],
            [
              -170.777127,
              -14.292904
            ],
            [
              -170.778051,
              -14.292082
            ],
            [
              -170.780171,
              -14.295104
            ],
            [
              -170.783299,
              -14.287286
            ],
            [
              -170.788048,
              -14.291459
            ],
            [
              -170.791103,
              -14.290069
            ],
            [
              -170.792496,
              -14.292891
            ],
            [
              -170.795041,
              -14.292785
            ],
            [
              -170.795282,
              -14.290868
            ],
            [
              -170.796939,
              -14.291466
            ],
            [
              -170.798393,
              -14.289325
            ],
            [
              -170.799458,
              -14.291631
            ],
            [
              -170.801319,
              -14.29138
            ],
            [
              -170.800897,
              -14.293142
            ],
            [
              -170.806283,
              -14.292423
            ],
            [
              -170.809054,
              -14.293646
            ],
            [
              -170.808177,
              -14.294893
            ],
            [
              -170.809378,
              -14.295907
            ],
            [
              -170.811436,
              -14.295131
            ],
            [
              -170.809845,
              -14.297797
            ],
            [
              -170.815457,
              -14.300442
            ],
            [
              -170.815732,
              -14.303724
            ],
            [
              -170.821734,
              -14.300682
            ],
            [
              -170.821408,
              -14.302074
            ],
            [
              -170.824958,
              -14.303496
            ],
            [
              -170.826346,
              -14.30705
            ],
            [
              -170.83327,
              -14.31107
            ],
            [
              -170.83587,
              -14.318884
            ],
            [
              -170.843066,
              -14.320923
            ],
            [
              -171.51672612799996,
              -14.322041316999957
            ],
            [
              -171.514729613,
              -14.272357658999965
            ],
            [
              -171.50652693299998,
              -14.235382699999946
            ],
            [
              -171.50294314499996,
              -14.198629499999981
            ],
            [
              -171.49512388999997,
              -14.17269504899997
            ],
            [
              -171.49198484399997,
              -14.14963359799998
            ],
            [
              -171.48755452499998,
              -14.13288005399994
            ],
            [
              -171.46615396299998,
              -14.07072749599996
            ],
            [
              -171.44920995099997,
              -14.039079107999953
            ],
            [
              -171.44649628999997,
              -14.027664354999956
            ],
            [
              -171.43461025399998,
              -14.011173360999976
            ],
            [
              -171.40625099499997,
              -13.958534457999974
            ],
            [
              -171.35363504899996,
              -13.894007730999931
            ],
            [
              -171.33680321899996,
              -13.870122530999936
            ],
            [
              -171.33067150199997,
              -13.86584587699997
            ],
            [
              -171.32161110399997,
              -13.854423895999957
            ],
            [
              -171.29880552099996,
              -13.837155872999972
            ],
            [
              -171.29493234499998,
              -13.831729374999952
            ],
            [
              -171.28531983899998,
              -13.825674277999951
            ],
            [
              -171.22643482899997,
              -13.775529615999972
            ],
            [
              -171.21053933099998,
              -13.766424649999976
            ],
            [
              -171.15182447399997,
              -13.725846200999968
            ],
            [
              -171.09953835099998,
              -13.698682453999936
            ],
            [
              -171.06459950399997,
              -13.682822036999937
            ],
            [
              -171.009574981,
              -13.66287886899994
            ],
            [
              -170.99492323199996,
              -13.659187299999928
            ],
            [
              -170.96432197999997,
              -13.64391421299996
            ],
            [
              -170.92693650399997,
              -13.618934036999974
            ],
            [
              -170.89956434999996,
              -13.61348937699995
            ],
            [
              -170.73083827199997,
              -13.571989476999931
            ],
            [
              -170.671986,
              -13.56822122799997
            ]
          ],
          [
            [
              -170.671555,
              -14.229563
            ],
            [
              -170.671224,
              -14.238396
            ],
            [
              -170.670248,
              -14.234099
            ],
            [
              -170.670829,
              -14.230596
            ],
            [
              -170.671555,
              -14.229563
            ]
          ],
          [
            [
              -170.701482,
              -14.251917
            ],
            [
              -170.700981,
              -14.252594
            ],
            [
              -170.700824,
              -14.25216
            ],
            [
              -170.701482,
              -14.251917
            ]
          ],
          [
            [
              -170.732451,
              -14.280516
            ],
            [
              -170.73245,
              -14.280769
            ],
            [
              -170.732639,
              -14.280372
            ],
            [
              -170.732451,
              -14.280516
            ]
          ],
          [
            [
              -170.768039,
              -14.287516
            ],
            [
              -170.767702,
              -14.287814
            ],
            [
              -170.767741,
              -14.287597
            ],
            [
              -170.768039,
              -14.287516
            ]
          ],
          [
            [
              -170.781861,
              -14.289183
            ],
            [
              -170.781723,
              -14.289346
            ],
            [
              -170.78179,
              -14.289039
            ],
            [
              -170.781861,
              -14.289183
            ]
          ]
        ]
      }
    },
    {
      "type": "Feature",
      "properties": {
        "ID": "PSZ154",
        "WFO": "STU",
        "GL_WFO": null,
        "NAME": "Pago Pago Harbor"
      },
      "geometry": {
        "type": "Polygon",
        "coordinates": [
          [
            [
              -170.663329,
              -14.291071
            ],
            [
              -170.67683,
              -14.295348
            ],
            [
              -170.683395,
              -14.29136
            ],
            [
              -170.675201,
              -14.285303
            ],
            [
              -170.681412,
              -14.282407
            ],
            [
              -170.682558,
              -14.279316
            ],
            [
              -170.680682,
              -14.276366
            ],
            [
              -170.688679,
              -14.277751
            ],
            [
              -170.693238,
              -14.274655
            ],
            [
              -170.699249,
              -14.273931
            ],
            [
              -170.699647,
              -14.272557
            ],
            [
              -170.702363,
              -14.273654
            ],
            [
              -170.701625,
              -14.272532
            ],
            [
              -170.702851,
              -14.272371
            ],
            [
              -170.699526,
              -14.272367
            ],
            [
              -170.69877,
              -14.27082
            ],
            [
              -170.685527,
              -14.27158
            ],
            [
              -170.682631,
              -14.268791
            ],
            [
              -170.678347,
              -14.267719
            ],
            [
              -170.666891,
              -14.270009
            ],
            [
              -170.664049,
              -14.273242
            ],
            [
              -170.66559,
              -14.275974
            ],
            [
              -170.663275,
              -14.287174
            ],
            [
              -170.665904,
              -14.289448
            ],
            [
              -170.663329,
              -14.291071
            ]
          ]
        ]
      }
    }
  ],
  "metadata": {
    "schema_version": "0.1.0",
    "wfo": "PPG",
    "layer": "marine_zones",
    "source": "https://www.weather.gov/source/gis/Shapefiles/WSOM/mz16ap26.zip",
    "public_release_status": "public-source-derived"
  }
}