{
  "type": "FeatureCollection",
  "metadata": {
    "schema_version": "0.2.4",
    "year": 2026,
    "month": 9,
    "wfo": "SLC",
    "start_utc": "2026-09-01T00:00:00Z",
    "end_utc": "2026-10-01T00:00:00Z",
    "generated_utc": "2026-09-16T14:12:15Z",
    "mode": "storm_data_prep",
    "public_release_status": "public-source-derived",
    "time_note": "Storm Data entry times should be reviewed in local Standard Time (ST), not daylight time. Candidate reports include standard_time_display.",
    "tornado_track_policy": "Tornado tracks must come from DAT. NCEI begin/end coordinates are not used as a tornado track substitute.",
    "source": "https://mesonet.agron.iastate.edu/cgi-bin/request/gis/lsr.py?wfo=SLC&sts=2026-09-01T00%3A00%3A00Z&ets=2026-10-01T00%3A00%3A00Z&fmt=csv"
  },
  "features": [
    {
      "type": "Feature",
      "id": "iem-lsr-SLC-1",
      "properties": {
        "report_id": "iem-lsr-SLC-1",
        "report_type": "FLASH FLOOD",
        "event_category": "flooding",
        "valid_utc": "202609010028",
        "standard_time_display": "2026-08-31 17:28 MST",
        "wfo": "SLC",
        "county_or_zone": "Garfield",
        "city": "1 NNE Escalante",
        "state": "UT",
        "magnitude": null,
        "magnitude_units": null,
        "source": "Public",
        "event_narrative": "Video of the Escalante River hitting the bottom of the bridge on 300 east north of town."
      },
      "geometry": {
        "type": "Point",
        "coordinates": [
          -111.59,
          37.78
        ]
      }
    },
    {
      "type": "Feature",
      "id": "iem-lsr-SLC-2",
      "properties": {
        "report_id": "iem-lsr-SLC-2",
        "report_type": "FLASH FLOOD",
        "event_category": "flooding",
        "valid_utc": "202609010045",
        "standard_time_display": "2026-08-31 17:45 MST",
        "wfo": "SLC",
        "county_or_zone": "Washington",
        "city": "1 WSW Hildale",
        "state": "UT",
        "magnitude": null,
        "magnitude_units": null,
        "source": "County Official",
        "event_narrative": "Mohave County camera showed high flows on Short Creek."
      },
      "geometry": {
        "type": "Point",
        "coordinates": [
          -112.98,
          37.01
        ]
      }
    },
    {
      "type": "Feature",
      "id": "iem-lsr-SLC-3",
      "properties": {
        "report_id": "iem-lsr-SLC-3",
        "report_type": "FLASH FLOOD",
        "event_category": "flooding",
        "valid_utc": "202609010100",
        "standard_time_display": "2026-08-31 18:00 MST",
        "wfo": "SLC",
        "county_or_zone": "Garfield",
        "city": "10 E Escalante",
        "state": "UT",
        "magnitude": null,
        "magnitude_units": null,
        "source": "Park/Forest Srvc",
        "event_narrative": "Videos show a large flood on the Escalante River with a foot bridge over topped and the river well out of banks. Time is estimated."
      },
      "geometry": {
        "type": "Point",
        "coordinates": [
          -111.42,
          37.78
        ]
      }
    },
    {
      "type": "Feature",
      "id": "iem-lsr-SLC-4",
      "properties": {
        "report_id": "iem-lsr-SLC-4",
        "report_type": "FLASH FLOOD",
        "event_category": "flooding",
        "valid_utc": "202609010230",
        "standard_time_display": "2026-08-31 19:30 MST",
        "wfo": "SLC",
        "county_or_zone": "Kane",
        "city": "14 WNW Big Water",
        "state": "UT",
        "magnitude": null,
        "magnitude_units": null,
        "source": "Official NWS Obs",
        "event_narrative": "Large flood wave passed the US-89 Gauge on the Paria River. Flood remained very elevated through the overnight hours."
      },
      "geometry": {
        "type": "Point",
        "coordinates": [
          -111.91,
          37.11
        ]
      }
    },
    {
      "type": "Feature",
      "id": "iem-lsr-SLC-5",
      "properties": {
        "report_id": "iem-lsr-SLC-5",
        "report_type": "FLASH FLOOD",
        "event_category": "flooding",
        "valid_utc": "202609010430",
        "standard_time_display": "2026-08-31 21:30 MST",
        "wfo": "SLC",
        "county_or_zone": "Washington",
        "city": "1 S Springdale",
        "state": "UT",
        "magnitude": null,
        "magnitude_units": null,
        "source": "Official NWS Obs",
        "event_narrative": "East Fork of the Virgin River had another flood wave_ around 1300 cfs hit the gauge."
      },
      "geometry": {
        "type": "Point",
        "coordinates": [
          -113.0,
          37.16
        ]
      }
    },
    {
      "type": "Feature",
      "id": "iem-lsr-SLC-6",
      "properties": {
        "report_id": "iem-lsr-SLC-6",
        "report_type": "FLASH FLOOD",
        "event_category": "flooding",
        "valid_utc": "202609010845",
        "standard_time_display": "2026-09-01 01:45 MST",
        "wfo": "SLC",
        "county_or_zone": "Washington",
        "city": "1 S Springdale",
        "state": "UT",
        "magnitude": null,
        "magnitude_units": null,
        "source": "Official NWS Obs",
        "event_narrative": "Final flood wave_ around 600 cfs_ hit the gauge on the East Fork of the Virgin River."
      },
      "geometry": {
        "type": "Point",
        "coordinates": [
          -113.0,
          37.16
        ]
      }
    },
    {
      "type": "Feature",
      "id": "iem-lsr-SLC-7",
      "properties": {
        "report_id": "iem-lsr-SLC-7",
        "report_type": "FLASH FLOOD",
        "event_category": "flooding",
        "valid_utc": "202609011930",
        "standard_time_display": "2026-09-01 12:30 MST",
        "wfo": "SLC",
        "county_or_zone": "Washington",
        "city": "2 W Hildale",
        "state": "UT",
        "magnitude": null,
        "magnitude_units": null,
        "source": "Trained Spotter",
        "event_narrative": "Flood wave overtopped road around 130 PM."
      },
      "geometry": {
        "type": "Point",
        "coordinates": [
          -113.0,
          37.01
        ]
      }
    },
    {
      "type": "Feature",
      "id": "iem-lsr-SLC-8",
      "properties": {
        "report_id": "iem-lsr-SLC-8",
        "report_type": "FLASH FLOOD",
        "event_category": "flooding",
        "valid_utc": "202609020520",
        "standard_time_display": "2026-09-01 22:20 MST",
        "wfo": "SLC",
        "county_or_zone": "Kane",
        "city": "14 WNW Big Water",
        "state": "UT",
        "magnitude": null,
        "magnitude_units": null,
        "source": "Official NWS Obs",
        "event_narrative": "Initial flood wave hit the US-89 gauge on the Paria River."
      },
      "geometry": {
        "type": "Point",
        "coordinates": [
          -111.91,
          37.11
        ]
      }
    },
    {
      "type": "Feature",
      "id": "iem-lsr-SLC-9",
      "properties": {
        "report_id": "iem-lsr-SLC-9",
        "report_type": "TSTM WND GST",
        "event_category": "thunderstorm_wind",
        "valid_utc": "202609070000",
        "standard_time_display": "2026-09-06 17:00 MST",
        "wfo": "SLC",
        "county_or_zone": "Box Elder",
        "city": "9 N Lakeside",
        "state": "UT",
        "magnitude": 60.0,
        "magnitude_units": null,
        "source": "Mesonet",
        "event_narrative": "The Gunnison Island mesonet station (GNI) measured a wind gust of 60 mph from passing storms and associated outflow."
      },
      "geometry": {
        "type": "Point",
        "coordinates": [
          -112.85,
          41.33
        ]
      }
    },
    {
      "type": "Feature",
      "id": "iem-lsr-SLC-10",
      "properties": {
        "report_id": "iem-lsr-SLC-10",
        "report_type": "TSTM WND GST",
        "event_category": "thunderstorm_wind",
        "valid_utc": "202609152010",
        "standard_time_display": "2026-09-15 13:10 MST",
        "wfo": "SLC",
        "county_or_zone": "Piute",
        "city": "2 S Junction",
        "state": "UT",
        "magnitude": 66.0,
        "magnitude_units": null,
        "source": "Mesonet",
        "event_narrative": "Mesonet station PC172 Junction South."
      },
      "geometry": {
        "type": "Point",
        "coordinates": [
          -112.23,
          38.22
        ]
      }
    },
    {
      "type": "Feature",
      "id": "iem-lsr-SLC-11",
      "properties": {
        "report_id": "iem-lsr-SLC-11",
        "report_type": "FLASH FLOOD",
        "event_category": "flooding",
        "valid_utc": "202609152100",
        "standard_time_display": "2026-09-15 14:00 MST",
        "wfo": "SLC",
        "county_or_zone": "Kane",
        "city": "1 NNE Big Water",
        "state": "UT",
        "magnitude": null,
        "magnitude_units": null,
        "source": "Trained Spotter",
        "event_narrative": "Time estimated."
      },
      "geometry": {
        "type": "Point",
        "coordinates": [
          -111.65,
          37.08
        ]
      }
    },
    {
      "type": "Feature",
      "id": "iem-lsr-SLC-12",
      "properties": {
        "report_id": "iem-lsr-SLC-12",
        "report_type": "FLASH FLOOD",
        "event_category": "flooding",
        "valid_utc": "202609152119",
        "standard_time_display": "2026-09-15 14:19 MST",
        "wfo": "SLC",
        "county_or_zone": "Kane",
        "city": "20 W Big Water",
        "state": "UT",
        "magnitude": null,
        "magnitude_units": null,
        "source": "Trained Spotter",
        "event_narrative": "Coyote Wash flashing across House Rock Valley Road south of Wire Pass Trailhead."
      },
      "geometry": {
        "type": "Point",
        "coordinates": [
          -112.03,
          37.02
        ]
      }
    },
    {
      "type": "Feature",
      "id": "iem-lsr-SLC-13",
      "properties": {
        "report_id": "iem-lsr-SLC-13",
        "report_type": "FLASH FLOOD",
        "event_category": "flooding",
        "valid_utc": "202609160010",
        "standard_time_display": "2026-09-15 17:10 MST",
        "wfo": "SLC",
        "county_or_zone": "Emery",
        "city": "7 WNW Goblin Valley",
        "state": "UT",
        "magnitude": null,
        "magnitude_units": null,
        "source": "Emergency Mngr",
        "event_narrative": "Report of mudslide in Little Wildhorse Canyon."
      },
      "geometry": {
        "type": "Point",
        "coordinates": [
          -110.81,
          38.59
        ]
      }
    },
    {
      "type": "Feature",
      "id": "iem-lsr-SLC-14",
      "properties": {
        "report_id": "iem-lsr-SLC-14",
        "report_type": "NON-TSTM WND GST",
        "event_category": "thunderstorm_wind",
        "valid_utc": "202609160740",
        "standard_time_display": "2026-09-16 00:40 MST",
        "wfo": "SLC",
        "county_or_zone": "Tooele",
        "city": "10 SSW Dugway",
        "state": "UT",
        "magnitude": 58.0,
        "magnitude_units": null,
        "source": "Mesonet",
        "event_narrative": "Mesonet station DPG13 Durand Road."
      },
      "geometry": {
        "type": "Point",
        "coordinates": [
          -112.81,
          40.11
        ]
      }
    },
    {
      "type": "Feature",
      "id": "iem-lsr-SLC-15",
      "properties": {
        "report_id": "iem-lsr-SLC-15",
        "report_type": "NON-TSTM WND GST",
        "event_category": "thunderstorm_wind",
        "valid_utc": "202609160755",
        "standard_time_display": "2026-09-16 00:55 MST",
        "wfo": "SLC",
        "county_or_zone": "Tooele",
        "city": "2 SE Dugway",
        "state": "UT",
        "magnitude": 60.0,
        "magnitude_units": null,
        "source": "Mesonet",
        "event_narrative": "Mesonet station DPG07 English Village."
      },
      "geometry": {
        "type": "Point",
        "coordinates": [
          -112.73,
          40.23
        ]
      }
    },
    {
      "type": "Feature",
      "id": "iem-lsr-SLC-16",
      "properties": {
        "report_id": "iem-lsr-SLC-16",
        "report_type": "NON-TSTM WND GST",
        "event_category": "thunderstorm_wind",
        "valid_utc": "202609160815",
        "standard_time_display": "2026-09-16 01:15 MST",
        "wfo": "SLC",
        "county_or_zone": "Tooele",
        "city": "3 W Stockton",
        "state": "UT",
        "magnitude": 66.0,
        "magnitude_units": null,
        "source": "Mesonet",
        "event_narrative": "Mesonet station SMT South Mountain."
      },
      "geometry": {
        "type": "Point",
        "coordinates": [
          -112.41,
          40.46
        ]
      }
    },
    {
      "type": "Feature",
      "id": "iem-lsr-SLC-17",
      "properties": {
        "report_id": "iem-lsr-SLC-17",
        "report_type": "NON-TSTM WND GST",
        "event_category": "thunderstorm_wind",
        "valid_utc": "202609160830",
        "standard_time_display": "2026-09-16 01:30 MST",
        "wfo": "SLC",
        "county_or_zone": "Tooele",
        "city": "2 WNW Tooele",
        "state": "UT",
        "magnitude": 59.0,
        "magnitude_units": null,
        "source": "Mesonet",
        "event_narrative": "Mesonet station UT112 SR-112 at MP 6 Utah Avenue."
      },
      "geometry": {
        "type": "Point",
        "coordinates": [
          -112.34,
          40.55
        ]
      }
    },
    {
      "type": "Feature",
      "id": "iem-lsr-SLC-18",
      "properties": {
        "report_id": "iem-lsr-SLC-18",
        "report_type": "NON-TSTM WND GST",
        "event_category": "thunderstorm_wind",
        "valid_utc": "202609160840",
        "standard_time_display": "2026-09-16 01:40 MST",
        "wfo": "SLC",
        "county_or_zone": "Utah",
        "city": "2 ENE Provo Canyon",
        "state": "UT",
        "magnitude": 66.0,
        "magnitude_units": null,
        "source": "Mesonet",
        "event_narrative": "Mesonet station PC034 Provo Canyon."
      },
      "geometry": {
        "type": "Point",
        "coordinates": [
          -111.6,
          40.34
        ]
      }
    },
    {
      "type": "Feature",
      "id": "iem-lsr-SLC-19",
      "properties": {
        "report_id": "iem-lsr-SLC-19",
        "report_type": "NON-TSTM WND GST",
        "event_category": "thunderstorm_wind",
        "valid_utc": "202609161030",
        "standard_time_display": "2026-09-16 03:30 MST",
        "wfo": "SLC",
        "county_or_zone": "Tooele",
        "city": "3 S Faust",
        "state": "UT",
        "magnitude": 67.0,
        "magnitude_units": null,
        "source": "Mesonet",
        "event_narrative": "Mesonet station VRH Vernon Hill."
      },
      "geometry": {
        "type": "Point",
        "coordinates": [
          -112.38,
          40.13
        ]
      }
    }
  ]
}