{
  "type": "FeatureCollection",
  "metadata": {
    "schema_version": "0.2.4",
    "year": 2026,
    "month": 7,
    "wfo": "HUN",
    "start_utc": "2026-07-01T00:00:00Z",
    "end_utc": "2026-08-01T00:00:00Z",
    "generated_utc": "2026-07-03T11:41:31Z",
    "mode": "storm_data_prep",
    "public_release_status": "public-source-derived",
    "time_note": "Storm Data entry times should be reviewed in local Standard Time (ST), not daylight time. Candidate reports include standard_time_display.",
    "tornado_track_policy": "Tornado tracks must come from DAT. NCEI begin/end coordinates are not used as a tornado track substitute.",
    "source": "https://mesonet.agron.iastate.edu/cgi-bin/request/gis/lsr.py?wfo=HUN&sts=2026-07-01T00%3A00%3A00Z&ets=2026-08-01T00%3A00%3A00Z&fmt=csv"
  },
  "features": [
    {
      "type": "Feature",
      "id": "iem-lsr-HUN-1",
      "properties": {
        "report_id": "iem-lsr-HUN-1",
        "report_type": "HAIL",
        "event_category": "hail",
        "valid_utc": "202607011759",
        "standard_time_display": "2026-07-01 11:59 CST",
        "wfo": "HUN",
        "county_or_zone": "Morgan",
        "city": "3 N Baileyton",
        "state": "AL",
        "magnitude": 1.0,
        "magnitude_units": null,
        "source": "Broadcast Media",
        "event_narrative": "Hail up to quarter sized near Hulaco reported."
      },
      "geometry": {
        "type": "Point",
        "coordinates": [
          -86.62,
          34.31
        ]
      }
    },
    {
      "type": "Feature",
      "id": "iem-lsr-HUN-2",
      "properties": {
        "report_id": "iem-lsr-HUN-2",
        "report_type": "HAIL",
        "event_category": "hail",
        "valid_utc": "202607011820",
        "standard_time_display": "2026-07-01 12:20 CST",
        "wfo": "HUN",
        "county_or_zone": "Jackson",
        "city": "1 NW Powell",
        "state": "AL",
        "magnitude": 1.0,
        "magnitude_units": null,
        "source": "Emergency Mngr",
        "event_narrative": "Quarter sized hail reported at NEACC."
      },
      "geometry": {
        "type": "Point",
        "coordinates": [
          -85.91,
          34.54
        ]
      }
    },
    {
      "type": "Feature",
      "id": "iem-lsr-HUN-3",
      "properties": {
        "report_id": "iem-lsr-HUN-3",
        "report_type": "HAIL",
        "event_category": "hail",
        "valid_utc": "202607011859",
        "standard_time_display": "2026-07-01 12:59 CST",
        "wfo": "HUN",
        "county_or_zone": "DeKalb",
        "city": "1 E Powell",
        "state": "AL",
        "magnitude": 1.0,
        "magnitude_units": null,
        "source": "911 Call Center",
        "event_narrative": "A tree was knocked down onto a power line. Power was out at this location at 217 Reel Road."
      },
      "geometry": {
        "type": "Point",
        "coordinates": [
          -85.88,
          34.53
        ]
      }
    },
    {
      "type": "Feature",
      "id": "iem-lsr-HUN-4",
      "properties": {
        "report_id": "iem-lsr-HUN-4",
        "report_type": "TSTM WND DMG",
        "event_category": "thunderstorm_wind",
        "valid_utc": "202607011859",
        "standard_time_display": "2026-07-01 12:59 CST",
        "wfo": "HUN",
        "county_or_zone": "DeKalb",
        "city": "1 E Powell",
        "state": "AL",
        "magnitude": null,
        "magnitude_units": null,
        "source": "911 Call Center",
        "event_narrative": "Corrects previous hail report from 1 E Powell. A tree was knocked down onto a power line. Power was out at this location at 217 Reel Road."
      },
      "geometry": {
        "type": "Point",
        "coordinates": [
          -85.88,
          34.53
        ]
      }
    },
    {
      "type": "Feature",
      "id": "iem-lsr-HUN-5",
      "properties": {
        "report_id": "iem-lsr-HUN-5",
        "report_type": "TSTM WND DMG",
        "event_category": "thunderstorm_wind",
        "valid_utc": "202607011947",
        "standard_time_display": "2026-07-01 13:47 CST",
        "wfo": "HUN",
        "county_or_zone": "Lawrence",
        "city": "7 W Moulton",
        "state": "AL",
        "magnitude": null,
        "magnitude_units": null,
        "source": "Public",
        "event_narrative": "Photo and report from social media of a tree down on a house near County Road 110 and 460. Time estimated from radar."
      },
      "geometry": {
        "type": "Point",
        "coordinates": [
          -87.4,
          34.47
        ]
      }
    },
    {
      "type": "Feature",
      "id": "iem-lsr-HUN-6",
      "properties": {
        "report_id": "iem-lsr-HUN-6",
        "report_type": "TSTM WND DMG",
        "event_category": "thunderstorm_wind",
        "valid_utc": "202607012011",
        "standard_time_display": "2026-07-01 14:11 CST",
        "wfo": "HUN",
        "county_or_zone": "Lawrence",
        "city": "10 SSW Town Creek",
        "state": "AL",
        "magnitude": null,
        "magnitude_units": null,
        "source": "Public",
        "event_narrative": "Photo from social media of a tree split and downed onto power lines. Time estimated from radar."
      },
      "geometry": {
        "type": "Point",
        "coordinates": [
          -87.44,
          34.54
        ]
      }
    },
    {
      "type": "Feature",
      "id": "iem-lsr-HUN-7",
      "properties": {
        "report_id": "iem-lsr-HUN-7",
        "report_type": "TSTM WND DMG",
        "event_category": "thunderstorm_wind",
        "valid_utc": "202607012030",
        "standard_time_display": "2026-07-01 14:30 CST",
        "wfo": "HUN",
        "county_or_zone": "Franklin",
        "city": "5 ENE Hodges",
        "state": "AL",
        "magnitude": null,
        "magnitude_units": null,
        "source": "911 Call Center",
        "event_narrative": "Tree down on County Road 57. Time estimated from radar."
      },
      "geometry": {
        "type": "Point",
        "coordinates": [
          -87.85,
          34.34
        ]
      }
    },
    {
      "type": "Feature",
      "id": "iem-lsr-HUN-8",
      "properties": {
        "report_id": "iem-lsr-HUN-8",
        "report_type": "TSTM WND DMG",
        "event_category": "thunderstorm_wind",
        "valid_utc": "202607012041",
        "standard_time_display": "2026-07-01 14:41 CST",
        "wfo": "HUN",
        "county_or_zone": "Franklin",
        "city": "10 ENE Red Bay",
        "state": "AL",
        "magnitude": null,
        "magnitude_units": null,
        "source": "911 Call Center",
        "event_narrative": "Tree down near County Road 21. Time estimated from radar."
      },
      "geometry": {
        "type": "Point",
        "coordinates": [
          -87.99,
          34.51
        ]
      }
    },
    {
      "type": "Feature",
      "id": "iem-lsr-HUN-9",
      "properties": {
        "report_id": "iem-lsr-HUN-9",
        "report_type": "TSTM WND DMG",
        "event_category": "thunderstorm_wind",
        "valid_utc": "202607012041",
        "standard_time_display": "2026-07-01 14:41 CST",
        "wfo": "HUN",
        "county_or_zone": "Franklin",
        "city": "1 NNE Russellville",
        "state": "AL",
        "magnitude": null,
        "magnitude_units": null,
        "source": "911 Call Center",
        "event_narrative": "Tree down and power lines down near Potts Street. Time estimated from radar."
      },
      "geometry": {
        "type": "Point",
        "coordinates": [
          -87.72,
          34.52
        ]
      }
    },
    {
      "type": "Feature",
      "id": "iem-lsr-HUN-10",
      "properties": {
        "report_id": "iem-lsr-HUN-10",
        "report_type": "TSTM WND DMG",
        "event_category": "thunderstorm_wind",
        "valid_utc": "202607012041",
        "standard_time_display": "2026-07-01 14:41 CST",
        "wfo": "HUN",
        "county_or_zone": "Franklin",
        "city": "1 NW Russellville",
        "state": "AL",
        "magnitude": null,
        "magnitude_units": null,
        "source": "911 Call Center",
        "event_narrative": "Tree down near Clay Avenue. Time estimated from radar."
      },
      "geometry": {
        "type": "Point",
        "coordinates": [
          -87.74,
          34.52
        ]
      }
    },
    {
      "type": "Feature",
      "id": "iem-lsr-HUN-11",
      "properties": {
        "report_id": "iem-lsr-HUN-11",
        "report_type": "TSTM WND DMG",
        "event_category": "thunderstorm_wind",
        "valid_utc": "202607012041",
        "standard_time_display": "2026-07-01 14:41 CST",
        "wfo": "HUN",
        "county_or_zone": "Franklin",
        "city": "2 ENE Russellville",
        "state": "AL",
        "magnitude": null,
        "magnitude_units": null,
        "source": "911 Call Center",
        "event_narrative": "Tree down on Underwood Road. Time estimated from radar."
      },
      "geometry": {
        "type": "Point",
        "coordinates": [
          -87.69,
          34.52
        ]
      }
    },
    {
      "type": "Feature",
      "id": "iem-lsr-HUN-12",
      "properties": {
        "report_id": "iem-lsr-HUN-12",
        "report_type": "TSTM WND DMG",
        "event_category": "thunderstorm_wind",
        "valid_utc": "202607012041",
        "standard_time_display": "2026-07-01 14:41 CST",
        "wfo": "HUN",
        "county_or_zone": "Franklin",
        "city": "2 NNW Russellville",
        "state": "AL",
        "magnitude": null,
        "magnitude_units": null,
        "source": "911 Call Center",
        "event_narrative": "Tree down on Summit Street. Time estimated from radar."
      },
      "geometry": {
        "type": "Point",
        "coordinates": [
          -87.74,
          34.53
        ]
      }
    },
    {
      "type": "Feature",
      "id": "iem-lsr-HUN-13",
      "properties": {
        "report_id": "iem-lsr-HUN-13",
        "report_type": "TSTM WND DMG",
        "event_category": "thunderstorm_wind",
        "valid_utc": "202607012041",
        "standard_time_display": "2026-07-01 14:41 CST",
        "wfo": "HUN",
        "county_or_zone": "Franklin",
        "city": "3 WNW Russellville",
        "state": "AL",
        "magnitude": null,
        "magnitude_units": null,
        "source": "911 Call Center",
        "event_narrative": "Tree down near Duncan Creek Road. Time estimated from radar."
      },
      "geometry": {
        "type": "Point",
        "coordinates": [
          -87.77,
          34.52
        ]
      }
    },
    {
      "type": "Feature",
      "id": "iem-lsr-HUN-14",
      "properties": {
        "report_id": "iem-lsr-HUN-14",
        "report_type": "TSTM WND DMG",
        "event_category": "thunderstorm_wind",
        "valid_utc": "202607012041",
        "standard_time_display": "2026-07-01 14:41 CST",
        "wfo": "HUN",
        "county_or_zone": "Franklin",
        "city": "Russellville",
        "state": "AL",
        "magnitude": null,
        "magnitude_units": null,
        "source": "911 Call Center",
        "event_narrative": "Tree down on Tuscaloosa Street. Time estimated from radar."
      },
      "geometry": {
        "type": "Point",
        "coordinates": [
          -87.73,
          34.5
        ]
      }
    },
    {
      "type": "Feature",
      "id": "iem-lsr-HUN-15",
      "properties": {
        "report_id": "iem-lsr-HUN-15",
        "report_type": "TSTM WND DMG",
        "event_category": "thunderstorm_wind",
        "valid_utc": "202607012044",
        "standard_time_display": "2026-07-01 14:44 CST",
        "wfo": "HUN",
        "county_or_zone": "Franklin",
        "city": "2 NW Vina",
        "state": "AL",
        "magnitude": null,
        "magnitude_units": null,
        "source": "911 Call Center",
        "event_narrative": "Multiple trees down on Old Vina Road. Time estimated from radar."
      },
      "geometry": {
        "type": "Point",
        "coordinates": [
          -88.08,
          34.39
        ]
      }
    },
    {
      "type": "Feature",
      "id": "iem-lsr-HUN-16",
      "properties": {
        "report_id": "iem-lsr-HUN-16",
        "report_type": "TSTM WND DMG",
        "event_category": "thunderstorm_wind",
        "valid_utc": "202607012044",
        "standard_time_display": "2026-07-01 14:44 CST",
        "wfo": "HUN",
        "county_or_zone": "Franklin",
        "city": "5 WNW Russellville",
        "state": "AL",
        "magnitude": null,
        "magnitude_units": null,
        "source": "911 Call Center",
        "event_narrative": "Tree down on County Road 58 near the Frankfort Community. Time estimated from radar."
      },
      "geometry": {
        "type": "Point",
        "coordinates": [
          -87.8,
          34.54
        ]
      }
    },
    {
      "type": "Feature",
      "id": "iem-lsr-HUN-17",
      "properties": {
        "report_id": "iem-lsr-HUN-17",
        "report_type": "TSTM WND DMG",
        "event_category": "thunderstorm_wind",
        "valid_utc": "202607012044",
        "standard_time_display": "2026-07-01 14:44 CST",
        "wfo": "HUN",
        "county_or_zone": "Franklin",
        "city": "6 NNE Vina",
        "state": "AL",
        "magnitude": null,
        "magnitude_units": null,
        "source": "911 Call Center",
        "event_narrative": "Tree down near County Road 124. Time estimated from radar."
      },
      "geometry": {
        "type": "Point",
        "coordinates": [
          -88.03,
          34.46
        ]
      }
    },
    {
      "type": "Feature",
      "id": "iem-lsr-HUN-18",
      "properties": {
        "report_id": "iem-lsr-HUN-18",
        "report_type": "TSTM WND DMG",
        "event_category": "thunderstorm_wind",
        "valid_utc": "202607012044",
        "standard_time_display": "2026-07-01 14:44 CST",
        "wfo": "HUN",
        "county_or_zone": "Franklin",
        "city": "6 NNE Vina",
        "state": "AL",
        "magnitude": null,
        "magnitude_units": null,
        "source": "911 Call Center",
        "event_narrative": "Tree down near County Road 16 and County Road 224. Time estimated from radar."
      },
      "geometry": {
        "type": "Point",
        "coordinates": [
          -88.02,
          34.45
        ]
      }
    },
    {
      "type": "Feature",
      "id": "iem-lsr-HUN-19",
      "properties": {
        "report_id": "iem-lsr-HUN-19",
        "report_type": "TSTM WND DMG",
        "event_category": "thunderstorm_wind",
        "valid_utc": "202607012044",
        "standard_time_display": "2026-07-01 14:44 CST",
        "wfo": "HUN",
        "county_or_zone": "Franklin",
        "city": "Vina",
        "state": "AL",
        "magnitude": null,
        "magnitude_units": null,
        "source": "911 Call Center",
        "event_narrative": "Tree down near County Road 23 and Cedar Street. Time estimated from radar."
      },
      "geometry": {
        "type": "Point",
        "coordinates": [
          -88.06,
          34.38
        ]
      }
    },
    {
      "type": "Feature",
      "id": "iem-lsr-HUN-20",
      "properties": {
        "report_id": "iem-lsr-HUN-20",
        "report_type": "TSTM WND DMG",
        "event_category": "thunderstorm_wind",
        "valid_utc": "202607012044",
        "standard_time_display": "2026-07-01 14:44 CST",
        "wfo": "HUN",
        "county_or_zone": "Franklin",
        "city": "Vina",
        "state": "AL",
        "magnitude": null,
        "magnitude_units": null,
        "source": "911 Call Center",
        "event_narrative": "Tree down near County Road 23. Time estimated from radar."
      },
      "geometry": {
        "type": "Point",
        "coordinates": [
          -88.06,
          34.37
        ]
      }
    },
    {
      "type": "Feature",
      "id": "iem-lsr-HUN-21",
      "properties": {
        "report_id": "iem-lsr-HUN-21",
        "report_type": "TSTM WND DMG",
        "event_category": "thunderstorm_wind",
        "valid_utc": "202607012049",
        "standard_time_display": "2026-07-01 14:49 CST",
        "wfo": "HUN",
        "county_or_zone": "Franklin",
        "city": "Russellville",
        "state": "AL",
        "magnitude": null,
        "magnitude_units": null,
        "source": "Emergency Mngr",
        "event_narrative": "Tree down in Russellville. Time estimated from radar."
      },
      "geometry": {
        "type": "Point",
        "coordinates": [
          -87.73,
          34.5
        ]
      }
    },
    {
      "type": "Feature",
      "id": "iem-lsr-HUN-22",
      "properties": {
        "report_id": "iem-lsr-HUN-22",
        "report_type": "TSTM WND DMG",
        "event_category": "thunderstorm_wind",
        "valid_utc": "202607012054",
        "standard_time_display": "2026-07-01 14:54 CST",
        "wfo": "HUN",
        "county_or_zone": "Franklin",
        "city": "1 N Red Bay",
        "state": "AL",
        "magnitude": null,
        "magnitude_units": null,
        "source": "911 Call Center",
        "event_narrative": "Tree downed on a residence near 4th Street. Time estiimated from radar."
      },
      "geometry": {
        "type": "Point",
        "coordinates": [
          -88.14,
          34.45
        ]
      }
    },
    {
      "type": "Feature",
      "id": "iem-lsr-HUN-23",
      "properties": {
        "report_id": "iem-lsr-HUN-23",
        "report_type": "TSTM WND DMG",
        "event_category": "thunderstorm_wind",
        "valid_utc": "202607012054",
        "standard_time_display": "2026-07-01 14:54 CST",
        "wfo": "HUN",
        "county_or_zone": "Franklin",
        "city": "1 N Red Bay",
        "state": "AL",
        "magnitude": null,
        "magnitude_units": null,
        "source": "Public",
        "event_narrative": "Picture from social media of large tree branches and power lines down near 5th Court. Time estimated from radar."
      },
      "geometry": {
        "type": "Point",
        "coordinates": [
          -88.14,
          34.45
        ]
      }
    },
    {
      "type": "Feature",
      "id": "iem-lsr-HUN-24",
      "properties": {
        "report_id": "iem-lsr-HUN-24",
        "report_type": "TSTM WND DMG",
        "event_category": "thunderstorm_wind",
        "valid_utc": "202607012057",
        "standard_time_display": "2026-07-01 14:57 CST",
        "wfo": "HUN",
        "county_or_zone": "Franklin",
        "city": "2 NNW Red Bay",
        "state": "AL",
        "magnitude": null,
        "magnitude_units": null,
        "source": "911 Call Center",
        "event_narrative": "Tree down on a house near 4th and 7th street. Time estimated from radar."
      },
      "geometry": {
        "type": "Point",
        "coordinates": [
          -88.15,
          34.46
        ]
      }
    },
    {
      "type": "Feature",
      "id": "iem-lsr-HUN-25",
      "properties": {
        "report_id": "iem-lsr-HUN-25",
        "report_type": "FLASH FLOOD",
        "event_category": "flooding",
        "valid_utc": "202607012112",
        "standard_time_display": "2026-07-01 15:12 CST",
        "wfo": "HUN",
        "county_or_zone": "Franklin",
        "city": "4 ESE Russellville",
        "state": "AL",
        "magnitude": null,
        "magnitude_units": null,
        "source": "911 Call Center",
        "event_narrative": "Flooding on County Road 724 between County Roads 75 and 144. No water depth given."
      },
      "geometry": {
        "type": "Point",
        "coordinates": [
          -87.67,
          34.48
        ]
      }
    },
    {
      "type": "Feature",
      "id": "iem-lsr-HUN-26",
      "properties": {
        "report_id": "iem-lsr-HUN-26",
        "report_type": "TSTM WND DMG",
        "event_category": "thunderstorm_wind",
        "valid_utc": "202607012146",
        "standard_time_display": "2026-07-01 15:46 CST",
        "wfo": "HUN",
        "county_or_zone": "Limestone",
        "city": "4 S Athens",
        "state": "AL",
        "magnitude": null,
        "magnitude_units": null,
        "source": "Public",
        "event_narrative": "Picture and report from social media of a power pole and three transformers down on Escue Drive. Time estimated from radar."
      },
      "geometry": {
        "type": "Point",
        "coordinates": [
          -86.96,
          34.73
        ]
      }
    },
    {
      "type": "Feature",
      "id": "iem-lsr-HUN-27",
      "properties": {
        "report_id": "iem-lsr-HUN-27",
        "report_type": "TSTM WND DMG",
        "event_category": "thunderstorm_wind",
        "valid_utc": "202607012155",
        "standard_time_display": "2026-07-01 15:55 CST",
        "wfo": "HUN",
        "county_or_zone": "Lauderdale",
        "city": "Waterloo",
        "state": "AL",
        "magnitude": null,
        "magnitude_units": null,
        "source": "911 Call Center",
        "event_narrative": "Power lines down on the road near School House Lane. Time estimated from radar."
      },
      "geometry": {
        "type": "Point",
        "coordinates": [
          -88.06,
          34.92
        ]
      }
    },
    {
      "type": "Feature",
      "id": "iem-lsr-HUN-28",
      "properties": {
        "report_id": "iem-lsr-HUN-28",
        "report_type": "TSTM WND DMG",
        "event_category": "thunderstorm_wind",
        "valid_utc": "202607012157",
        "standard_time_display": "2026-07-01 15:57 CST",
        "wfo": "HUN",
        "county_or_zone": "Limestone",
        "city": "2 SSE Athens",
        "state": "AL",
        "magnitude": null,
        "magnitude_units": null,
        "source": "Public",
        "event_narrative": "Picture from social media of a tree down on Strain Road. Time estimated from radar."
      },
      "geometry": {
        "type": "Point",
        "coordinates": [
          -86.95,
          34.76
        ]
      }
    },
    {
      "type": "Feature",
      "id": "iem-lsr-HUN-29",
      "properties": {
        "report_id": "iem-lsr-HUN-29",
        "report_type": "TSTM WND DMG",
        "event_category": "thunderstorm_wind",
        "valid_utc": "202607012207",
        "standard_time_display": "2026-07-01 16:07 CST",
        "wfo": "HUN",
        "county_or_zone": "Limestone",
        "city": "8 E Rogersville",
        "state": "AL",
        "magnitude": null,
        "magnitude_units": null,
        "source": "Public",
        "event_narrative": "Report from social media of trees down on Lentzville Road. Time estimated from radar."
      },
      "geometry": {
        "type": "Point",
        "coordinates": [
          -87.15,
          34.84
        ]
      }
    },
    {
      "type": "Feature",
      "id": "iem-lsr-HUN-30",
      "properties": {
        "report_id": "iem-lsr-HUN-30",
        "report_type": "TSTM WND DMG",
        "event_category": "thunderstorm_wind",
        "valid_utc": "202607012207",
        "standard_time_display": "2026-07-01 16:07 CST",
        "wfo": "HUN",
        "county_or_zone": "Limestone",
        "city": "9 WNW Athens",
        "state": "AL",
        "magnitude": null,
        "magnitude_units": null,
        "source": "Public",
        "event_narrative": "Report from social media of trees down on Baker Hill Road. Time estimated from radar."
      },
      "geometry": {
        "type": "Point",
        "coordinates": [
          -87.1,
          34.83
        ]
      }
    },
    {
      "type": "Feature",
      "id": "iem-lsr-HUN-31",
      "properties": {
        "report_id": "iem-lsr-HUN-31",
        "report_type": "TSTM WND DMG",
        "event_category": "thunderstorm_wind",
        "valid_utc": "202607012210",
        "standard_time_display": "2026-07-01 16:10 CST",
        "wfo": "HUN",
        "county_or_zone": "Limestone",
        "city": "7 S Lester",
        "state": "AL",
        "magnitude": null,
        "magnitude_units": null,
        "source": "Public",
        "event_narrative": "Two trees down at Cotton Belt Rd and Hardaway Loop. Time estimated from radar."
      },
      "geometry": {
        "type": "Point",
        "coordinates": [
          -87.14,
          34.89
        ]
      }
    },
    {
      "type": "Feature",
      "id": "iem-lsr-HUN-32",
      "properties": {
        "report_id": "iem-lsr-HUN-32",
        "report_type": "TSTM WND DMG",
        "event_category": "thunderstorm_wind",
        "valid_utc": "202607012226",
        "standard_time_display": "2026-07-01 16:26 CST",
        "wfo": "HUN",
        "county_or_zone": "Lauderdale",
        "city": "3 NNE Rogersville",
        "state": "AL",
        "magnitude": null,
        "magnitude_units": null,
        "source": "911 Call Center",
        "event_narrative": "Tree down at intersection of CR 555 and CR 92; time estimated from radar."
      },
      "geometry": {
        "type": "Point",
        "coordinates": [
          -87.27,
          34.86
        ]
      }
    },
    {
      "type": "Feature",
      "id": "iem-lsr-HUN-33",
      "properties": {
        "report_id": "iem-lsr-HUN-33",
        "report_type": "TSTM WND DMG",
        "event_category": "thunderstorm_wind",
        "valid_utc": "202607012226",
        "standard_time_display": "2026-07-01 16:26 CST",
        "wfo": "HUN",
        "county_or_zone": "Lauderdale",
        "city": "4 E Rogersville",
        "state": "AL",
        "magnitude": null,
        "magnitude_units": null,
        "source": "Public",
        "event_narrative": "Picture from social media of multiple trees down_ with one on a vehicle. Time estimated from radar."
      },
      "geometry": {
        "type": "Point",
        "coordinates": [
          -87.22,
          34.83
        ]
      }
    },
    {
      "type": "Feature",
      "id": "iem-lsr-HUN-34",
      "properties": {
        "report_id": "iem-lsr-HUN-34",
        "report_type": "TSTM WND DMG",
        "event_category": "thunderstorm_wind",
        "valid_utc": "202607012226",
        "standard_time_display": "2026-07-01 16:26 CST",
        "wfo": "HUN",
        "county_or_zone": "Limestone",
        "city": "8 ESE Anderson",
        "state": "AL",
        "magnitude": null,
        "magnitude_units": null,
        "source": "Broadcast Media",
        "event_narrative": "Trees down and shutters blew off a house near Cairo. Time estimated from radar."
      },
      "geometry": {
        "type": "Point",
        "coordinates": [
          -87.14,
          34.87
        ]
      }
    },
    {
      "type": "Feature",
      "id": "iem-lsr-HUN-35",
      "properties": {
        "report_id": "iem-lsr-HUN-35",
        "report_type": "TSTM WND DMG",
        "event_category": "thunderstorm_wind",
        "valid_utc": "202607012230",
        "standard_time_display": "2026-07-01 16:30 CST",
        "wfo": "HUN",
        "county_or_zone": "Limestone",
        "city": "Elkmont",
        "state": "AL",
        "magnitude": null,
        "magnitude_units": null,
        "source": "Broadcast Media",
        "event_narrative": "Tree down in Elkmont. Time estimated from radar."
      },
      "geometry": {
        "type": "Point",
        "coordinates": [
          -86.97,
          34.93
        ]
      }
    },
    {
      "type": "Feature",
      "id": "iem-lsr-HUN-36",
      "properties": {
        "report_id": "iem-lsr-HUN-36",
        "report_type": "TSTM WND DMG",
        "event_category": "thunderstorm_wind",
        "valid_utc": "202607012234",
        "standard_time_display": "2026-07-01 16:34 CST",
        "wfo": "HUN",
        "county_or_zone": "Lauderdale",
        "city": "3 NNE Rogersville",
        "state": "AL",
        "magnitude": null,
        "magnitude_units": null,
        "source": "911 Call Center",
        "event_narrative": "Tree downed onto a power line near County Road 86. Time estimated from radar."
      },
      "geometry": {
        "type": "Point",
        "coordinates": [
          -87.26,
          34.87
        ]
      }
    },
    {
      "type": "Feature",
      "id": "iem-lsr-HUN-37",
      "properties": {
        "report_id": "iem-lsr-HUN-37",
        "report_type": "TSTM WND DMG",
        "event_category": "thunderstorm_wind",
        "valid_utc": "202607012234",
        "standard_time_display": "2026-07-01 16:34 CST",
        "wfo": "HUN",
        "county_or_zone": "Lauderdale",
        "city": "3 NNE Rogersville",
        "state": "AL",
        "magnitude": null,
        "magnitude_units": null,
        "source": "911 Call Center",
        "event_narrative": "Tree downed onto a power line near County Roads 92 and 555. Time estimated from radar."
      },
      "geometry": {
        "type": "Point",
        "coordinates": [
          -87.27,
          34.86
        ]
      }
    },
    {
      "type": "Feature",
      "id": "iem-lsr-HUN-38",
      "properties": {
        "report_id": "iem-lsr-HUN-38",
        "report_type": "TSTM WND DMG",
        "event_category": "thunderstorm_wind",
        "valid_utc": "202607012242",
        "standard_time_display": "2026-07-01 16:42 CST",
        "wfo": "HUN",
        "county_or_zone": "Lauderdale",
        "city": "3 ENE Anderson",
        "state": "AL",
        "magnitude": null,
        "magnitude_units": null,
        "source": "911 Call Center",
        "event_narrative": "Multiple trees down in the intersection of CR 155 & 156 with complete blockage; time estimated from radar."
      },
      "geometry": {
        "type": "Point",
        "coordinates": [
          -87.22,
          34.92
        ]
      }
    },
    {
      "type": "Feature",
      "id": "iem-lsr-HUN-39",
      "properties": {
        "report_id": "iem-lsr-HUN-39",
        "report_type": "TSTM WND DMG",
        "event_category": "thunderstorm_wind",
        "valid_utc": "202607012242",
        "standard_time_display": "2026-07-01 16:42 CST",
        "wfo": "HUN",
        "county_or_zone": "Lauderdale",
        "city": "5 N Anderson",
        "state": "AL",
        "magnitude": null,
        "magnitude_units": null,
        "source": "911 Call Center",
        "event_narrative": "Large tree blocking road."
      },
      "geometry": {
        "type": "Point",
        "coordinates": [
          -87.25,
          34.99
        ]
      }
    },
    {
      "type": "Feature",
      "id": "iem-lsr-HUN-40",
      "properties": {
        "report_id": "iem-lsr-HUN-40",
        "report_type": "TSTM WND DMG",
        "event_category": "thunderstorm_wind",
        "valid_utc": "202607012244",
        "standard_time_display": "2026-07-01 16:44 CST",
        "wfo": "HUN",
        "county_or_zone": "Lauderdale",
        "city": "5 W Lester",
        "state": "AL",
        "magnitude": null,
        "magnitude_units": null,
        "source": "911 Call Center",
        "event_narrative": "Tree down on Highway 64 near Highway 207. Time estimated from radar."
      },
      "geometry": {
        "type": "Point",
        "coordinates": [
          -87.23,
          34.98
        ]
      }
    },
    {
      "type": "Feature",
      "id": "iem-lsr-HUN-41",
      "properties": {
        "report_id": "iem-lsr-HUN-41",
        "report_type": "TSTM WND DMG",
        "event_category": "thunderstorm_wind",
        "valid_utc": "202607012302",
        "standard_time_display": "2026-07-01 17:02 CST",
        "wfo": "HUN",
        "county_or_zone": "Lauderdale",
        "city": "3 N Anderson",
        "state": "AL",
        "magnitude": null,
        "magnitude_units": null,
        "source": "911 Call Center",
        "event_narrative": "Multiple trees down at intersection of SR 515 and CR 523. Time estimated from radar."
      },
      "geometry": {
        "type": "Point",
        "coordinates": [
          -87.27,
          34.96
        ]
      }
    },
    {
      "type": "Feature",
      "id": "iem-lsr-HUN-42",
      "properties": {
        "report_id": "iem-lsr-HUN-42",
        "report_type": "TSTM WND DMG",
        "event_category": "thunderstorm_wind",
        "valid_utc": "202607012302",
        "standard_time_display": "2026-07-01 17:02 CST",
        "wfo": "HUN",
        "county_or_zone": "Lauderdale",
        "city": "4 E Lexington",
        "state": "AL",
        "magnitude": null,
        "magnitude_units": null,
        "source": "911 Call Center",
        "event_narrative": "Mulitple trees down at intersection of CR 89 and Hwy 64. Time estiamted by radar."
      },
      "geometry": {
        "type": "Point",
        "coordinates": [
          -87.3,
          34.97
        ]
      }
    },
    {
      "type": "Feature",
      "id": "iem-lsr-HUN-43",
      "properties": {
        "report_id": "iem-lsr-HUN-43",
        "report_type": "TSTM WND DMG",
        "event_category": "thunderstorm_wind",
        "valid_utc": "202607012302",
        "standard_time_display": "2026-07-01 17:02 CST",
        "wfo": "HUN",
        "county_or_zone": "Lauderdale",
        "city": "4 ENE Lexington",
        "state": "AL",
        "magnitude": null,
        "magnitude_units": null,
        "source": "911 Call Center",
        "event_narrative": "Multiple trees down on County Road 89. Time estimated from radar."
      },
      "geometry": {
        "type": "Point",
        "coordinates": [
          -87.3,
          34.98
        ]
      }
    },
    {
      "type": "Feature",
      "id": "iem-lsr-HUN-44",
      "properties": {
        "report_id": "iem-lsr-HUN-44",
        "report_type": "TSTM WND DMG",
        "event_category": "thunderstorm_wind",
        "valid_utc": "202607030111",
        "standard_time_display": "2026-07-02 19:11 CST",
        "wfo": "HUN",
        "county_or_zone": "Jackson",
        "city": "2 E Section",
        "state": "AL",
        "magnitude": null,
        "magnitude_units": null,
        "source": "Emergency Mngr",
        "event_narrative": "Two trees down on CR 19; time estimated from radar."
      },
      "geometry": {
        "type": "Point",
        "coordinates": [
          -85.96,
          34.58
        ]
      }
    },
    {
      "type": "Feature",
      "id": "iem-lsr-HUN-45",
      "properties": {
        "report_id": "iem-lsr-HUN-45",
        "report_type": "TSTM WND DMG",
        "event_category": "thunderstorm_wind",
        "valid_utc": "202607030111",
        "standard_time_display": "2026-07-02 19:11 CST",
        "wfo": "HUN",
        "county_or_zone": "Jackson",
        "city": "2 ESE Section",
        "state": "AL",
        "magnitude": null,
        "magnitude_units": null,
        "source": "Broadcast Media",
        "event_narrative": "Multiple trees down near the intersection of Hwy 35 and CR 19. Time estimated from radar."
      },
      "geometry": {
        "type": "Point",
        "coordinates": [
          -85.95,
          34.57
        ]
      }
    },
    {
      "type": "Feature",
      "id": "iem-lsr-HUN-46",
      "properties": {
        "report_id": "iem-lsr-HUN-46",
        "report_type": "TSTM WND DMG",
        "event_category": "thunderstorm_wind",
        "valid_utc": "202607030111",
        "standard_time_display": "2026-07-02 19:11 CST",
        "wfo": "HUN",
        "county_or_zone": "Jackson",
        "city": "2 SSE Section",
        "state": "AL",
        "magnitude": null,
        "magnitude_units": null,
        "source": "Emergency Mngr",
        "event_narrative": "Tree down at CR 419 and CR 48; time estimated from radar."
      },
      "geometry": {
        "type": "Point",
        "coordinates": [
          -85.97,
          34.56
        ]
      }
    },
    {
      "type": "Feature",
      "id": "iem-lsr-HUN-47",
      "properties": {
        "report_id": "iem-lsr-HUN-47",
        "report_type": "TSTM WND DMG",
        "event_category": "thunderstorm_wind",
        "valid_utc": "202607030115",
        "standard_time_display": "2026-07-02 19:15 CST",
        "wfo": "HUN",
        "county_or_zone": "Jackson",
        "city": "2 S Hollywood",
        "state": "AL",
        "magnitude": null,
        "magnitude_units": null,
        "source": "Emergency Mngr",
        "event_narrative": "Tree on power lines on Ruby Johnson Drive; time estimated from radar."
      },
      "geometry": {
        "type": "Point",
        "coordinates": [
          -85.96,
          34.69
        ]
      }
    },
    {
      "type": "Feature",
      "id": "iem-lsr-HUN-48",
      "properties": {
        "report_id": "iem-lsr-HUN-48",
        "report_type": "TSTM WND DMG",
        "event_category": "thunderstorm_wind",
        "valid_utc": "202607030120",
        "standard_time_display": "2026-07-02 19:20 CST",
        "wfo": "HUN",
        "county_or_zone": "Jackson",
        "city": "1 SW Scottsboro",
        "state": "AL",
        "magnitude": null,
        "magnitude_units": null,
        "source": "Emergency Mngr",
        "event_narrative": "Large tree down_ time estimated from radar."
      },
      "geometry": {
        "type": "Point",
        "coordinates": [
          -86.06,
          34.64
        ]
      }
    },
    {
      "type": "Feature",
      "id": "iem-lsr-HUN-49",
      "properties": {
        "report_id": "iem-lsr-HUN-49",
        "report_type": "TSTM WND DMG",
        "event_category": "thunderstorm_wind",
        "valid_utc": "202607030120",
        "standard_time_display": "2026-07-02 19:20 CST",
        "wfo": "HUN",
        "county_or_zone": "Jackson",
        "city": "3 SW Section",
        "state": "AL",
        "magnitude": null,
        "magnitude_units": null,
        "source": "Emergency Mngr",
        "event_narrative": "Large tree down. Time estimated from radar."
      },
      "geometry": {
        "type": "Point",
        "coordinates": [
          -86.02,
          34.55
        ]
      }
    },
    {
      "type": "Feature",
      "id": "iem-lsr-HUN-50",
      "properties": {
        "report_id": "iem-lsr-HUN-50",
        "report_type": "TSTM WND DMG",
        "event_category": "thunderstorm_wind",
        "valid_utc": "202607030120",
        "standard_time_display": "2026-07-02 19:20 CST",
        "wfo": "HUN",
        "county_or_zone": "Jackson",
        "city": "4 E Scottsboro",
        "state": "AL",
        "magnitude": null,
        "magnitude_units": null,
        "source": "Emergency Mngr",
        "event_narrative": "Tree down. Time estimated from radar."
      },
      "geometry": {
        "type": "Point",
        "coordinates": [
          -85.98,
          34.66
        ]
      }
    },
    {
      "type": "Feature",
      "id": "iem-lsr-HUN-51",
      "properties": {
        "report_id": "iem-lsr-HUN-51",
        "report_type": "TSTM WND DMG",
        "event_category": "thunderstorm_wind",
        "valid_utc": "202607030120",
        "standard_time_display": "2026-07-02 19:20 CST",
        "wfo": "HUN",
        "county_or_zone": "Jackson",
        "city": "7 WNW Scottsboro",
        "state": "AL",
        "magnitude": null,
        "magnitude_units": null,
        "source": "Emergency Mngr",
        "event_narrative": "Large tree down in the 3700 block of CR 30. Time estimated from radar."
      },
      "geometry": {
        "type": "Point",
        "coordinates": [
          -86.16,
          34.68
        ]
      }
    },
    {
      "type": "Feature",
      "id": "iem-lsr-HUN-52",
      "properties": {
        "report_id": "iem-lsr-HUN-52",
        "report_type": "TSTM WND DMG",
        "event_category": "thunderstorm_wind",
        "valid_utc": "202607030257",
        "standard_time_display": "2026-07-02 20:57 CST",
        "wfo": "HUN",
        "county_or_zone": "Marshall",
        "city": "3 NE Douglas",
        "state": "AL",
        "magnitude": null,
        "magnitude_units": null,
        "source": "Emergency Mngr",
        "event_narrative": "Trees down near the intersection of Hwy 75 with Old Oneonta Rd and Bethany Rd. Time estimated from radar."
      },
      "geometry": {
        "type": "Point",
        "coordinates": [
          -86.29,
          34.21
        ]
      }
    },
    {
      "type": "Feature",
      "id": "iem-lsr-HUN-53",
      "properties": {
        "report_id": "iem-lsr-HUN-53",
        "report_type": "TSTM WND DMG",
        "event_category": "thunderstorm_wind",
        "valid_utc": "202607030257",
        "standard_time_display": "2026-07-02 20:57 CST",
        "wfo": "HUN",
        "county_or_zone": "Marshall",
        "city": "4 NE Douglas",
        "state": "AL",
        "magnitude": null,
        "magnitude_units": null,
        "source": "Emergency Mngr",
        "event_narrative": "Power poles down_ power pole snapped near Hwy 75 and Lazy Creek Rd. Time estimated by radar."
      },
      "geometry": {
        "type": "Point",
        "coordinates": [
          -86.27,
          34.22
        ]
      }
    },
    {
      "type": "Feature",
      "id": "iem-lsr-HUN-54",
      "properties": {
        "report_id": "iem-lsr-HUN-54",
        "report_type": "TSTM WND DMG",
        "event_category": "thunderstorm_wind",
        "valid_utc": "202607030257",
        "standard_time_display": "2026-07-02 20:57 CST",
        "wfo": "HUN",
        "county_or_zone": "Marshall",
        "city": "4 NE Douglas",
        "state": "AL",
        "magnitude": null,
        "magnitude_units": null,
        "source": "Emergency Mngr",
        "event_narrative": "Trees down and blocking the road at White Oak Rd and Needmore Road. Time estimated by radar."
      },
      "geometry": {
        "type": "Point",
        "coordinates": [
          -86.27,
          34.21
        ]
      }
    }
  ]
}