{
  "type": "FeatureCollection",
  "metadata": {
    "schema_version": "0.2.4",
    "year": 2026,
    "month": 4,
    "wfo": "OAX",
    "start_utc": "2026-04-01T00:00:00Z",
    "end_utc": "2026-05-01T00:00:00Z",
    "generated_utc": "2026-05-29T12:29:25Z",
    "mode": "storm_data_prep",
    "public_release_status": "public-source-derived",
    "time_note": "Storm Data entry times should be reviewed in local Standard Time (ST), not daylight time. Candidate reports include standard_time_display.",
    "tornado_track_policy": "Tornado tracks must come from DAT. NCEI begin/end coordinates are not used as a tornado track substitute.",
    "source": "https://mesonet.agron.iastate.edu/cgi-bin/request/gis/lsr.py?wfo=OAX&sts=2026-04-01T00%3A00%3A00Z&ets=2026-05-01T00%3A00%3A00Z&fmt=csv"
  },
  "features": [
    {
      "type": "Feature",
      "id": "iem-lsr-OAX-1",
      "properties": {
        "report_id": "iem-lsr-OAX-1",
        "report_type": "HAIL",
        "event_category": "hail",
        "valid_utc": "202604032002",
        "standard_time_display": "2026-04-03 14:02 CST",
        "wfo": "OAX",
        "county_or_zone": "Nemaha",
        "city": "3 NE Shubert",
        "state": "NE",
        "magnitude": 1.0,
        "magnitude_units": null,
        "source": "Public",
        "event_narrative": "Public report of hail estimated up to quarter sized."
      },
      "geometry": {
        "type": "Point",
        "coordinates": [
          -95.64,
          40.28
        ]
      }
    },
    {
      "type": "Feature",
      "id": "iem-lsr-OAX-2",
      "properties": {
        "report_id": "iem-lsr-OAX-2",
        "report_type": "SNOW",
        "event_category": "winter",
        "valid_utc": "202604071200",
        "standard_time_display": "2026-04-07 06:00 CST",
        "wfo": "OAX",
        "county_or_zone": "Douglas",
        "city": "3 SSW Bennington",
        "state": "NE",
        "magnitude": 0.1,
        "magnitude_units": null,
        "source": "Cocorahs",
        "event_narrative": "Cocorahs station NE-DG-35 2.9 SSW Bennington."
      },
      "geometry": {
        "type": "Point",
        "coordinates": [
          -96.17,
          41.33
        ]
      }
    },
    {
      "type": "Feature",
      "id": "iem-lsr-OAX-3",
      "properties": {
        "report_id": "iem-lsr-OAX-3",
        "report_type": "FREEZING RAIN",
        "event_category": "other",
        "valid_utc": "202604071200",
        "standard_time_display": "2026-04-07 06:00 CST",
        "wfo": "OAX",
        "county_or_zone": "Douglas",
        "city": "1 WNW Valley",
        "state": "NE",
        "magnitude": 0.2,
        "magnitude_units": null,
        "source": "Public",
        "event_narrative": "Measured flat ice thickness on an elevated surface."
      },
      "geometry": {
        "type": "Point",
        "coordinates": [
          -96.37,
          41.32
        ]
      }
    },
    {
      "type": "Feature",
      "id": "iem-lsr-OAX-4",
      "properties": {
        "report_id": "iem-lsr-OAX-4",
        "report_type": "SNOW",
        "event_category": "winter",
        "valid_utc": "202604071200",
        "standard_time_display": "2026-04-07 06:00 CST",
        "wfo": "OAX",
        "county_or_zone": "Sarpy",
        "city": "1 SW Papillion",
        "state": "NE",
        "magnitude": 0.2,
        "magnitude_units": null,
        "source": "Cocorahs",
        "event_narrative": "Cocorahs station SARP031 Papillion 1.2 WSW."
      },
      "geometry": {
        "type": "Point",
        "coordinates": [
          -96.06,
          41.14
        ]
      }
    },
    {
      "type": "Feature",
      "id": "iem-lsr-OAX-5",
      "properties": {
        "report_id": "iem-lsr-OAX-5",
        "report_type": "SNOW",
        "event_category": "winter",
        "valid_utc": "202604071200",
        "standard_time_display": "2026-04-07 06:00 CST",
        "wfo": "OAX",
        "county_or_zone": "Sarpy",
        "city": "2 SSW Papillion",
        "state": "NE",
        "magnitude": 0.2,
        "magnitude_units": null,
        "source": "Cocorahs",
        "event_narrative": "Cocorahs station NE-SY-16 Papillion 1.9 SSW."
      },
      "geometry": {
        "type": "Point",
        "coordinates": [
          -96.06,
          41.13
        ]
      }
    },
    {
      "type": "Feature",
      "id": "iem-lsr-OAX-6",
      "properties": {
        "report_id": "iem-lsr-OAX-6",
        "report_type": "SNOW",
        "event_category": "winter",
        "valid_utc": "202604071200",
        "standard_time_display": "2026-04-07 06:00 CST",
        "wfo": "OAX",
        "county_or_zone": "Sarpy",
        "city": "1 WSW Papillion",
        "state": "NE",
        "magnitude": 0.3,
        "magnitude_units": null,
        "source": "Cocorahs",
        "event_narrative": "Cocorahs station NE-SY-18 Papillion 0.8 WSW."
      },
      "geometry": {
        "type": "Point",
        "coordinates": [
          -96.06,
          41.15
        ]
      }
    },
    {
      "type": "Feature",
      "id": "iem-lsr-OAX-7",
      "properties": {
        "report_id": "iem-lsr-OAX-7",
        "report_type": "SNOW",
        "event_category": "winter",
        "valid_utc": "202604071200",
        "standard_time_display": "2026-04-07 06:00 CST",
        "wfo": "OAX",
        "county_or_zone": "Harrison",
        "city": "1 WNW Logan",
        "state": "IA",
        "magnitude": 1.0,
        "magnitude_units": null,
        "source": "Cocorahs",
        "event_narrative": "Cocorahs station IA-HR-16 Logan 0.8 WNW."
      },
      "geometry": {
        "type": "Point",
        "coordinates": [
          -95.81,
          41.65
        ]
      }
    },
    {
      "type": "Feature",
      "id": "iem-lsr-OAX-8",
      "properties": {
        "report_id": "iem-lsr-OAX-8",
        "report_type": "SNOW",
        "event_category": "winter",
        "valid_utc": "202604071200",
        "standard_time_display": "2026-04-07 06:00 CST",
        "wfo": "OAX",
        "county_or_zone": "Washington",
        "city": "1 WNW Herman",
        "state": "NE",
        "magnitude": 1.5,
        "magnitude_units": null,
        "source": "Cocorahs",
        "event_narrative": "Cocorahs station NE-WS-13 1 WNW Herman."
      },
      "geometry": {
        "type": "Point",
        "coordinates": [
          -96.24,
          41.68
        ]
      }
    },
    {
      "type": "Feature",
      "id": "iem-lsr-OAX-9",
      "properties": {
        "report_id": "iem-lsr-OAX-9",
        "report_type": "SNOW",
        "event_category": "winter",
        "valid_utc": "202604071200",
        "standard_time_display": "2026-04-07 06:00 CST",
        "wfo": "OAX",
        "county_or_zone": "Harrison",
        "city": "2 SSW Mondamin",
        "state": "IA",
        "magnitude": 1.5,
        "magnitude_units": null,
        "source": "Cocorahs",
        "event_narrative": "Cocorahs station IA-HR-7 Mondamin 1.7 SSW."
      },
      "geometry": {
        "type": "Point",
        "coordinates": [
          -96.03,
          41.69
        ]
      }
    },
    {
      "type": "Feature",
      "id": "iem-lsr-OAX-10",
      "properties": {
        "report_id": "iem-lsr-OAX-10",
        "report_type": "SNOW",
        "event_category": "winter",
        "valid_utc": "202604071200",
        "standard_time_display": "2026-04-07 06:00 CST",
        "wfo": "OAX",
        "county_or_zone": "Harrison",
        "city": "1 NE Little Sioux",
        "state": "IA",
        "magnitude": 2.5,
        "magnitude_units": null,
        "source": "CO-OP Observer",
        "event_narrative": "CO-OP Observer station LSXI4 2 NW Little Sioux."
      },
      "geometry": {
        "type": "Point",
        "coordinates": [
          -96.02,
          41.82
        ]
      }
    },
    {
      "type": "Feature",
      "id": "iem-lsr-OAX-11",
      "properties": {
        "report_id": "iem-lsr-OAX-11",
        "report_type": "SNOW",
        "event_category": "winter",
        "valid_utc": "202604071200",
        "standard_time_display": "2026-04-07 06:00 CST",
        "wfo": "OAX",
        "county_or_zone": "Pottawattamie",
        "city": "Oakland",
        "state": "IA",
        "magnitude": 3.5,
        "magnitude_units": null,
        "source": "CO-OP Observer",
        "event_narrative": "CO-OP Observer station OAKI4 Oakland."
      },
      "geometry": {
        "type": "Point",
        "coordinates": [
          -95.39,
          41.31
        ]
      }
    },
    {
      "type": "Feature",
      "id": "iem-lsr-OAX-12",
      "properties": {
        "report_id": "iem-lsr-OAX-12",
        "report_type": "SNOW",
        "event_category": "winter",
        "valid_utc": "202604071230",
        "standard_time_display": "2026-04-07 06:30 CST",
        "wfo": "OAX",
        "county_or_zone": "Douglas",
        "city": "1 NNW Elkhorn",
        "state": "NE",
        "magnitude": 0.3,
        "magnitude_units": null,
        "source": "Cocorahs",
        "event_narrative": "Cocorahs station NE-DG-18 Elkhorn 0.8 NNW."
      },
      "geometry": {
        "type": "Point",
        "coordinates": [
          -96.24,
          41.29
        ]
      }
    },
    {
      "type": "Feature",
      "id": "iem-lsr-OAX-13",
      "properties": {
        "report_id": "iem-lsr-OAX-13",
        "report_type": "SNOW",
        "event_category": "winter",
        "valid_utc": "202604071247",
        "standard_time_display": "2026-04-07 06:47 CST",
        "wfo": "OAX",
        "county_or_zone": "Douglas",
        "city": "4 SE Bennington",
        "state": "NE",
        "magnitude": 0.7,
        "magnitude_units": null,
        "source": "Public",
        "event_narrative": null
      },
      "geometry": {
        "type": "Point",
        "coordinates": [
          -96.11,
          41.32
        ]
      }
    },
    {
      "type": "Feature",
      "id": "iem-lsr-OAX-14",
      "properties": {
        "report_id": "iem-lsr-OAX-14",
        "report_type": "SNOW",
        "event_category": "winter",
        "valid_utc": "202604071300",
        "standard_time_display": "2026-04-07 07:00 CST",
        "wfo": "OAX",
        "county_or_zone": "Harrison",
        "city": "5 W Portsmouth",
        "state": "IA",
        "magnitude": 0.5,
        "magnitude_units": null,
        "source": "Cocorahs",
        "event_narrative": "Cocorahs station IA-HR-20 Portsmouth 4.8 W."
      },
      "geometry": {
        "type": "Point",
        "coordinates": [
          -95.61,
          41.66
        ]
      }
    },
    {
      "type": "Feature",
      "id": "iem-lsr-OAX-15",
      "properties": {
        "report_id": "iem-lsr-OAX-15",
        "report_type": "SNOW",
        "event_category": "winter",
        "valid_utc": "202604071300",
        "standard_time_display": "2026-04-07 07:00 CST",
        "wfo": "OAX",
        "county_or_zone": "Pottawattamie",
        "city": "2 SSE Council Bluffs",
        "state": "IA",
        "magnitude": 0.9,
        "magnitude_units": null,
        "source": "Cocorahs",
        "event_narrative": "Cocorahs station IA-PT-13 Council Bluffs 2.1 SSE."
      },
      "geometry": {
        "type": "Point",
        "coordinates": [
          -95.85,
          41.21
        ]
      }
    },
    {
      "type": "Feature",
      "id": "iem-lsr-OAX-16",
      "properties": {
        "report_id": "iem-lsr-OAX-16",
        "report_type": "SNOW",
        "event_category": "winter",
        "valid_utc": "202604071300",
        "standard_time_display": "2026-04-07 07:00 CST",
        "wfo": "OAX",
        "county_or_zone": "Cuming",
        "city": "1 WSW West Point",
        "state": "NE",
        "magnitude": 1.5,
        "magnitude_units": null,
        "source": "CO-OP Observer",
        "event_narrative": "CO-OP Observer station WPTN1 0.6 SW West Point."
      },
      "geometry": {
        "type": "Point",
        "coordinates": [
          -96.72,
          41.83
        ]
      }
    },
    {
      "type": "Feature",
      "id": "iem-lsr-OAX-17",
      "properties": {
        "report_id": "iem-lsr-OAX-17",
        "report_type": "SNOW",
        "event_category": "winter",
        "valid_utc": "202604071345",
        "standard_time_display": "2026-04-07 07:45 CST",
        "wfo": "OAX",
        "county_or_zone": "Pottawattamie",
        "city": "5 NE Council Bluffs",
        "state": "IA",
        "magnitude": 1.6,
        "magnitude_units": null,
        "source": "Public",
        "event_narrative": null
      },
      "geometry": {
        "type": "Point",
        "coordinates": [
          -95.8,
          41.29
        ]
      }
    },
    {
      "type": "Feature",
      "id": "iem-lsr-OAX-18",
      "properties": {
        "report_id": "iem-lsr-OAX-18",
        "report_type": "SLEET",
        "event_category": "winter",
        "valid_utc": "202604071416",
        "standard_time_display": "2026-04-07 08:16 CST",
        "wfo": "OAX",
        "county_or_zone": "Douglas",
        "city": "2 SE Boys Town",
        "state": "NE",
        "magnitude": 0.5,
        "magnitude_units": null,
        "source": "Trained Spotter",
        "event_narrative": "Trained spotter reported storm total ice pellet accumulation."
      },
      "geometry": {
        "type": "Point",
        "coordinates": [
          -96.1,
          41.23
        ]
      }
    },
    {
      "type": "Feature",
      "id": "iem-lsr-OAX-19",
      "properties": {
        "report_id": "iem-lsr-OAX-19",
        "report_type": "SNOW",
        "event_category": "winter",
        "valid_utc": "202604071416",
        "standard_time_display": "2026-04-07 08:16 CST",
        "wfo": "OAX",
        "county_or_zone": "Pottawattamie",
        "city": "Avoca",
        "state": "IA",
        "magnitude": 3.0,
        "magnitude_units": null,
        "source": "Public",
        "event_narrative": "Trained spotter related public report of storm total snowfall."
      },
      "geometry": {
        "type": "Point",
        "coordinates": [
          -95.34,
          41.48
        ]
      }
    },
    {
      "type": "Feature",
      "id": "iem-lsr-OAX-20",
      "properties": {
        "report_id": "iem-lsr-OAX-20",
        "report_type": "SNOW",
        "event_category": "winter",
        "valid_utc": "202604071416",
        "standard_time_display": "2026-04-07 08:16 CST",
        "wfo": "OAX",
        "county_or_zone": "Pottawattamie",
        "city": "Underwood",
        "state": "IA",
        "magnitude": 3.5,
        "magnitude_units": null,
        "source": "Public",
        "event_narrative": "Trained spotter relayed a report from the public of storm total snowfall."
      },
      "geometry": {
        "type": "Point",
        "coordinates": [
          -95.68,
          41.39
        ]
      }
    },
    {
      "type": "Feature",
      "id": "iem-lsr-OAX-21",
      "properties": {
        "report_id": "iem-lsr-OAX-21",
        "report_type": "SNOW",
        "event_category": "winter",
        "valid_utc": "202604071451",
        "standard_time_display": "2026-04-07 08:51 CST",
        "wfo": "OAX",
        "county_or_zone": "Douglas",
        "city": "4 NNE Boys Town",
        "state": "NE",
        "magnitude": 1.0,
        "magnitude_units": null,
        "source": "Public",
        "event_narrative": "Trained spotter relayed public report of storm total precipitation."
      },
      "geometry": {
        "type": "Point",
        "coordinates": [
          -96.09,
          41.31
        ]
      }
    },
    {
      "type": "Feature",
      "id": "iem-lsr-OAX-22",
      "properties": {
        "report_id": "iem-lsr-OAX-22",
        "report_type": "TSTM WND GST",
        "event_category": "thunderstorm_wind",
        "valid_utc": "202604100039",
        "standard_time_display": "2026-04-09 18:39 CST",
        "wfo": "OAX",
        "county_or_zone": "Mills",
        "city": "1 SSE Emerson",
        "state": "IA",
        "magnitude": 59.0,
        "magnitude_units": null,
        "source": "Public",
        "event_narrative": "Delayed report of a personal weather station measured wind gust of 59 mph as a thunderstorm passed through."
      },
      "geometry": {
        "type": "Point",
        "coordinates": [
          -95.39,
          41.01
        ]
      }
    },
    {
      "type": "Feature",
      "id": "iem-lsr-OAX-23",
      "properties": {
        "report_id": "iem-lsr-OAX-23",
        "report_type": "TSTM WND GST",
        "event_category": "thunderstorm_wind",
        "valid_utc": "202604100109",
        "standard_time_display": "2026-04-09 19:09 CST",
        "wfo": "OAX",
        "county_or_zone": "Page",
        "city": "4 NW Hepburn",
        "state": "IA",
        "magnitude": 58.0,
        "magnitude_units": null,
        "source": "Public",
        "event_narrative": "Delayed report of a personal weather station measured wind gust of 58 mph as a thunderstorm passed through."
      },
      "geometry": {
        "type": "Point",
        "coordinates": [
          -95.07,
          40.89
        ]
      }
    },
    {
      "type": "Feature",
      "id": "iem-lsr-OAX-24",
      "properties": {
        "report_id": "iem-lsr-OAX-24",
        "report_type": "TSTM WND GST",
        "event_category": "thunderstorm_wind",
        "valid_utc": "202604120121",
        "standard_time_display": "2026-04-11 19:21 CST",
        "wfo": "OAX",
        "county_or_zone": "Richardson",
        "city": "1 E Falls City",
        "state": "NE",
        "magnitude": 68.0,
        "magnitude_units": null,
        "source": "AWOS",
        "event_narrative": "AWOS station KFNB Falls City Airport."
      },
      "geometry": {
        "type": "Point",
        "coordinates": [
          -95.58,
          40.07
        ]
      }
    },
    {
      "type": "Feature",
      "id": "iem-lsr-OAX-25",
      "properties": {
        "report_id": "iem-lsr-OAX-25",
        "report_type": "HAIL",
        "event_category": "hail",
        "valid_utc": "202604150317",
        "standard_time_display": "2026-04-14 21:17 CST",
        "wfo": "OAX",
        "county_or_zone": "Gage",
        "city": "Beatrice",
        "state": "NE",
        "magnitude": 1.0,
        "magnitude_units": null,
        "source": "Trained Spotter",
        "event_narrative": "Spotter reported quarter-sized hail in Beatrice_ time estimated from radar."
      },
      "geometry": {
        "type": "Point",
        "coordinates": [
          -96.74,
          40.26
        ]
      }
    },
    {
      "type": "Feature",
      "id": "iem-lsr-OAX-26",
      "properties": {
        "report_id": "iem-lsr-OAX-26",
        "report_type": "HAIL",
        "event_category": "hail",
        "valid_utc": "202604150427",
        "standard_time_display": "2026-04-14 22:27 CST",
        "wfo": "OAX",
        "county_or_zone": "Page",
        "city": "Essex",
        "state": "IA",
        "magnitude": 1.0,
        "magnitude_units": null,
        "source": "Emergency Mngr",
        "event_narrative": "Delayed report from emergency management of hail up to one inch in diameter in Essex_ Iowa."
      },
      "geometry": {
        "type": "Point",
        "coordinates": [
          -95.3,
          40.83
        ]
      }
    },
    {
      "type": "Feature",
      "id": "iem-lsr-OAX-27",
      "properties": {
        "report_id": "iem-lsr-OAX-27",
        "report_type": "HAIL",
        "event_category": "hail",
        "valid_utc": "202604151501",
        "standard_time_display": "2026-04-15 09:01 CST",
        "wfo": "OAX",
        "county_or_zone": "Colfax",
        "city": "1 ESE Schuyler",
        "state": "NE",
        "magnitude": 1.0,
        "magnitude_units": null,
        "source": "Trained Spotter",
        "event_narrative": null
      },
      "geometry": {
        "type": "Point",
        "coordinates": [
          -97.05,
          41.45
        ]
      }
    },
    {
      "type": "Feature",
      "id": "iem-lsr-OAX-28",
      "properties": {
        "report_id": "iem-lsr-OAX-28",
        "report_type": "HAIL",
        "event_category": "hail",
        "valid_utc": "202604151502",
        "standard_time_display": "2026-04-15 09:02 CST",
        "wfo": "OAX",
        "county_or_zone": "Colfax",
        "city": "2 S Schuyler",
        "state": "NE",
        "magnitude": 1.0,
        "magnitude_units": null,
        "source": "Public",
        "event_narrative": null
      },
      "geometry": {
        "type": "Point",
        "coordinates": [
          -97.06,
          41.42
        ]
      }
    },
    {
      "type": "Feature",
      "id": "iem-lsr-OAX-29",
      "properties": {
        "report_id": "iem-lsr-OAX-29",
        "report_type": "HAIL",
        "event_category": "hail",
        "valid_utc": "202604151504",
        "standard_time_display": "2026-04-15 09:04 CST",
        "wfo": "OAX",
        "county_or_zone": "Colfax",
        "city": "2 E Schuyler",
        "state": "NE",
        "magnitude": 1.0,
        "magnitude_units": null,
        "source": "Trained Spotter",
        "event_narrative": null
      },
      "geometry": {
        "type": "Point",
        "coordinates": [
          -97.02,
          41.45
        ]
      }
    },
    {
      "type": "Feature",
      "id": "iem-lsr-OAX-30",
      "properties": {
        "report_id": "iem-lsr-OAX-30",
        "report_type": "HAIL",
        "event_category": "hail",
        "valid_utc": "202604151510",
        "standard_time_display": "2026-04-15 09:10 CST",
        "wfo": "OAX",
        "county_or_zone": "Colfax",
        "city": "Rogers",
        "state": "NE",
        "magnitude": 1.0,
        "magnitude_units": null,
        "source": "Trained Spotter",
        "event_narrative": null
      },
      "geometry": {
        "type": "Point",
        "coordinates": [
          -96.91,
          41.47
        ]
      }
    },
    {
      "type": "Feature",
      "id": "iem-lsr-OAX-31",
      "properties": {
        "report_id": "iem-lsr-OAX-31",
        "report_type": "HAIL",
        "event_category": "hail",
        "valid_utc": "202604151534",
        "standard_time_display": "2026-04-15 09:34 CST",
        "wfo": "OAX",
        "county_or_zone": "Dodge",
        "city": "1 N Winslow",
        "state": "NE",
        "magnitude": 1.0,
        "magnitude_units": null,
        "source": "Trained Spotter",
        "event_narrative": null
      },
      "geometry": {
        "type": "Point",
        "coordinates": [
          -96.5,
          41.63
        ]
      }
    },
    {
      "type": "Feature",
      "id": "iem-lsr-OAX-32",
      "properties": {
        "report_id": "iem-lsr-OAX-32",
        "report_type": "HAIL",
        "event_category": "hail",
        "valid_utc": "202604151555",
        "standard_time_display": "2026-04-15 09:55 CST",
        "wfo": "OAX",
        "county_or_zone": "Burt",
        "city": "3 NNW Herman",
        "state": "NE",
        "magnitude": 1.0,
        "magnitude_units": null,
        "source": "Public",
        "event_narrative": null
      },
      "geometry": {
        "type": "Point",
        "coordinates": [
          -96.24,
          41.71
        ]
      }
    },
    {
      "type": "Feature",
      "id": "iem-lsr-OAX-33",
      "properties": {
        "report_id": "iem-lsr-OAX-33",
        "report_type": "HAIL",
        "event_category": "hail",
        "valid_utc": "202604151610",
        "standard_time_display": "2026-04-15 10:10 CST",
        "wfo": "OAX",
        "county_or_zone": "Harrison",
        "city": "4 S Pisgah",
        "state": "IA",
        "magnitude": 1.5,
        "magnitude_units": null,
        "source": "Public",
        "event_narrative": null
      },
      "geometry": {
        "type": "Point",
        "coordinates": [
          -95.92,
          41.77
        ]
      }
    },
    {
      "type": "Feature",
      "id": "iem-lsr-OAX-34",
      "properties": {
        "report_id": "iem-lsr-OAX-34",
        "report_type": "HAIL",
        "event_category": "hail",
        "valid_utc": "202604151618",
        "standard_time_display": "2026-04-15 10:18 CST",
        "wfo": "OAX",
        "county_or_zone": "Harrison",
        "city": "Pisgah",
        "state": "IA",
        "magnitude": 1.0,
        "magnitude_units": null,
        "source": "Trained Spotter",
        "event_narrative": null
      },
      "geometry": {
        "type": "Point",
        "coordinates": [
          -95.93,
          41.84
        ]
      }
    },
    {
      "type": "Feature",
      "id": "iem-lsr-OAX-35",
      "properties": {
        "report_id": "iem-lsr-OAX-35",
        "report_type": "HAIL",
        "event_category": "hail",
        "valid_utc": "202604151633",
        "standard_time_display": "2026-04-15 10:33 CST",
        "wfo": "OAX",
        "county_or_zone": "Harrison",
        "city": "Dunlap",
        "state": "IA",
        "magnitude": 1.75,
        "magnitude_units": null,
        "source": "Emergency Mngr",
        "event_narrative": null
      },
      "geometry": {
        "type": "Point",
        "coordinates": [
          -95.6,
          41.85
        ]
      }
    },
    {
      "type": "Feature",
      "id": "iem-lsr-OAX-36",
      "properties": {
        "report_id": "iem-lsr-OAX-36",
        "report_type": "HAIL",
        "event_category": "hail",
        "valid_utc": "202604151635",
        "standard_time_display": "2026-04-15 10:35 CST",
        "wfo": "OAX",
        "county_or_zone": "Harrison",
        "city": "Dunlap",
        "state": "IA",
        "magnitude": 1.75,
        "magnitude_units": null,
        "source": "Public",
        "event_narrative": null
      },
      "geometry": {
        "type": "Point",
        "coordinates": [
          -95.6,
          41.85
        ]
      }
    },
    {
      "type": "Feature",
      "id": "iem-lsr-OAX-37",
      "properties": {
        "report_id": "iem-lsr-OAX-37",
        "report_type": "HAIL",
        "event_category": "hail",
        "valid_utc": "202604151635",
        "standard_time_display": "2026-04-15 10:35 CST",
        "wfo": "OAX",
        "county_or_zone": "Harrison",
        "city": "Dunlap",
        "state": "IA",
        "magnitude": 1.75,
        "magnitude_units": null,
        "source": "Trained Spotter",
        "event_narrative": "All windows broken on the west side of home."
      },
      "geometry": {
        "type": "Point",
        "coordinates": [
          -95.6,
          41.85
        ]
      }
    },
    {
      "type": "Feature",
      "id": "iem-lsr-OAX-38",
      "properties": {
        "report_id": "iem-lsr-OAX-38",
        "report_type": "HAIL",
        "event_category": "hail",
        "valid_utc": "202604151817",
        "standard_time_display": "2026-04-15 12:17 CST",
        "wfo": "OAX",
        "county_or_zone": "Butler",
        "city": "3 ESE Ulysses",
        "state": "NE",
        "magnitude": 1.0,
        "magnitude_units": null,
        "source": "Public",
        "event_narrative": null
      },
      "geometry": {
        "type": "Point",
        "coordinates": [
          -97.15,
          41.05
        ]
      }
    },
    {
      "type": "Feature",
      "id": "iem-lsr-OAX-39",
      "properties": {
        "report_id": "iem-lsr-OAX-39",
        "report_type": "HAIL",
        "event_category": "hail",
        "valid_utc": "202604151822",
        "standard_time_display": "2026-04-15 12:22 CST",
        "wfo": "OAX",
        "county_or_zone": "Butler",
        "city": "2 SSW Dwight",
        "state": "NE",
        "magnitude": 2.0,
        "magnitude_units": null,
        "source": "Trained Spotter",
        "event_narrative": null
      },
      "geometry": {
        "type": "Point",
        "coordinates": [
          -97.04,
          41.06
        ]
      }
    },
    {
      "type": "Feature",
      "id": "iem-lsr-OAX-40",
      "properties": {
        "report_id": "iem-lsr-OAX-40",
        "report_type": "HAIL",
        "event_category": "hail",
        "valid_utc": "202604151826",
        "standard_time_display": "2026-04-15 12:26 CST",
        "wfo": "OAX",
        "county_or_zone": "Butler",
        "city": "Dwight",
        "state": "NE",
        "magnitude": 1.25,
        "magnitude_units": null,
        "source": "Public",
        "event_narrative": null
      },
      "geometry": {
        "type": "Point",
        "coordinates": [
          -97.02,
          41.08
        ]
      }
    },
    {
      "type": "Feature",
      "id": "iem-lsr-OAX-41",
      "properties": {
        "report_id": "iem-lsr-OAX-41",
        "report_type": "HAIL",
        "event_category": "hail",
        "valid_utc": "202604151826",
        "standard_time_display": "2026-04-15 12:26 CST",
        "wfo": "OAX",
        "county_or_zone": "Butler",
        "city": "Dwight",
        "state": "NE",
        "magnitude": 1.5,
        "magnitude_units": null,
        "source": "Emergency Mngr",
        "event_narrative": "Delayed report from emergency management of hail up to ping pong ball sized with wind-driven damage to windows and siding."
      },
      "geometry": {
        "type": "Point",
        "coordinates": [
          -97.02,
          41.08
        ]
      }
    },
    {
      "type": "Feature",
      "id": "iem-lsr-OAX-42",
      "properties": {
        "report_id": "iem-lsr-OAX-42",
        "report_type": "HAIL",
        "event_category": "hail",
        "valid_utc": "202604151826",
        "standard_time_display": "2026-04-15 12:26 CST",
        "wfo": "OAX",
        "county_or_zone": "Butler",
        "city": "Dwight",
        "state": "NE",
        "magnitude": 1.5,
        "magnitude_units": null,
        "source": "Trained Spotter",
        "event_narrative": "Trained spotter shared hail size images on social media."
      },
      "geometry": {
        "type": "Point",
        "coordinates": [
          -97.02,
          41.08
        ]
      }
    },
    {
      "type": "Feature",
      "id": "iem-lsr-OAX-43",
      "properties": {
        "report_id": "iem-lsr-OAX-43",
        "report_type": "HAIL",
        "event_category": "hail",
        "valid_utc": "202604151826",
        "standard_time_display": "2026-04-15 12:26 CST",
        "wfo": "OAX",
        "county_or_zone": "Butler",
        "city": "Dwight",
        "state": "NE",
        "magnitude": 1.75,
        "magnitude_units": null,
        "source": "Emergency Mngr",
        "event_narrative": "Lots of quarter to golf ball sized hail. damage to vinyl siding."
      },
      "geometry": {
        "type": "Point",
        "coordinates": [
          -97.02,
          41.08
        ]
      }
    },
    {
      "type": "Feature",
      "id": "iem-lsr-OAX-44",
      "properties": {
        "report_id": "iem-lsr-OAX-44",
        "report_type": "HAIL",
        "event_category": "hail",
        "valid_utc": "202604151840",
        "standard_time_display": "2026-04-15 12:40 CST",
        "wfo": "OAX",
        "county_or_zone": "Saunders",
        "city": "4 NNW Valparaiso",
        "state": "NE",
        "magnitude": 1.0,
        "magnitude_units": null,
        "source": "Public",
        "event_narrative": null
      },
      "geometry": {
        "type": "Point",
        "coordinates": [
          -96.86,
          41.13
        ]
      }
    },
    {
      "type": "Feature",
      "id": "iem-lsr-OAX-45",
      "properties": {
        "report_id": "iem-lsr-OAX-45",
        "report_type": "HAIL",
        "event_category": "hail",
        "valid_utc": "202604151905",
        "standard_time_display": "2026-04-15 13:05 CST",
        "wfo": "OAX",
        "county_or_zone": "Saunders",
        "city": "2 NNE Wahoo",
        "state": "NE",
        "magnitude": 1.0,
        "magnitude_units": null,
        "source": "Public",
        "event_narrative": null
      },
      "geometry": {
        "type": "Point",
        "coordinates": [
          -96.6,
          41.24
        ]
      }
    },
    {
      "type": "Feature",
      "id": "iem-lsr-OAX-46",
      "properties": {
        "report_id": "iem-lsr-OAX-46",
        "report_type": "HAIL",
        "event_category": "hail",
        "valid_utc": "202604152040",
        "standard_time_display": "2026-04-15 14:40 CST",
        "wfo": "OAX",
        "county_or_zone": "Harrison",
        "city": "3 NE Woodbine",
        "state": "IA",
        "magnitude": 0.75,
        "magnitude_units": null,
        "source": "Public",
        "event_narrative": "Report from mPING: Dime (0.75 in.)."
      },
      "geometry": {
        "type": "Point",
        "coordinates": [
          -95.68,
          41.77
        ]
      }
    },
    {
      "type": "Feature",
      "id": "iem-lsr-OAX-47",
      "properties": {
        "report_id": "iem-lsr-OAX-47",
        "report_type": "HAIL",
        "event_category": "hail",
        "valid_utc": "202604152055",
        "standard_time_display": "2026-04-15 14:55 CST",
        "wfo": "OAX",
        "county_or_zone": "Harrison",
        "city": "Dunlap",
        "state": "IA",
        "magnitude": 0.75,
        "magnitude_units": null,
        "source": "Public",
        "event_narrative": "Report from mPING: Dime (0.75 in.)."
      },
      "geometry": {
        "type": "Point",
        "coordinates": [
          -95.6,
          41.85
        ]
      }
    },
    {
      "type": "Feature",
      "id": "iem-lsr-OAX-48",
      "properties": {
        "report_id": "iem-lsr-OAX-48",
        "report_type": "HAIL",
        "event_category": "hail",
        "valid_utc": "202604230805",
        "standard_time_display": "2026-04-23 02:05 CST",
        "wfo": "OAX",
        "county_or_zone": "Lancaster",
        "city": "3 NE Lincoln",
        "state": "NE",
        "magnitude": 1.25,
        "magnitude_units": null,
        "source": "Public",
        "event_narrative": "Large amount of hail. Quarter to half dollar size. Quickly melting."
      },
      "geometry": {
        "type": "Point",
        "coordinates": [
          -96.64,
          40.84
        ]
      }
    },
    {
      "type": "Feature",
      "id": "iem-lsr-OAX-49",
      "properties": {
        "report_id": "iem-lsr-OAX-49",
        "report_type": "HAIL",
        "event_category": "hail",
        "valid_utc": "202604230805",
        "standard_time_display": "2026-04-23 02:05 CST",
        "wfo": "OAX",
        "county_or_zone": "Lancaster",
        "city": "3 NE Lincoln",
        "state": "NE",
        "magnitude": 1.25,
        "magnitude_units": null,
        "source": "Public",
        "event_narrative": "Size varied between quarters to half dollar sized."
      },
      "geometry": {
        "type": "Point",
        "coordinates": [
          -96.64,
          40.84
        ]
      }
    },
    {
      "type": "Feature",
      "id": "iem-lsr-OAX-50",
      "properties": {
        "report_id": "iem-lsr-OAX-50",
        "report_type": "HAIL",
        "event_category": "hail",
        "valid_utc": "202604231750",
        "standard_time_display": "2026-04-23 11:50 CST",
        "wfo": "OAX",
        "county_or_zone": "Dodge",
        "city": "Uehling",
        "state": "NE",
        "magnitude": 1.0,
        "magnitude_units": null,
        "source": "Public",
        "event_narrative": "Delayed report received via social media of hail up to quarter sized. Time estimated with radar."
      },
      "geometry": {
        "type": "Point",
        "coordinates": [
          -96.5,
          41.73
        ]
      }
    },
    {
      "type": "Feature",
      "id": "iem-lsr-OAX-51",
      "properties": {
        "report_id": "iem-lsr-OAX-51",
        "report_type": "HAIL",
        "event_category": "hail",
        "valid_utc": "202604231815",
        "standard_time_display": "2026-04-23 12:15 CST",
        "wfo": "OAX",
        "county_or_zone": "Burt",
        "city": "1 S Craig",
        "state": "NE",
        "magnitude": 1.0,
        "magnitude_units": null,
        "source": "Public",
        "event_narrative": "Delayed social media report."
      },
      "geometry": {
        "type": "Point",
        "coordinates": [
          -96.36,
          41.77
        ]
      }
    },
    {
      "type": "Feature",
      "id": "iem-lsr-OAX-52",
      "properties": {
        "report_id": "iem-lsr-OAX-52",
        "report_type": "TSTM WND GST",
        "event_category": "thunderstorm_wind",
        "valid_utc": "202604231832",
        "standard_time_display": "2026-04-23 12:32 CST",
        "wfo": "OAX",
        "county_or_zone": "Burt",
        "city": "2 ESE Tekamah",
        "state": "NE",
        "magnitude": 68.0,
        "magnitude_units": null,
        "source": "ASOS",
        "event_narrative": "Measured from Tekamah ASOS."
      },
      "geometry": {
        "type": "Point",
        "coordinates": [
          -96.18,
          41.76
        ]
      }
    },
    {
      "type": "Feature",
      "id": "iem-lsr-OAX-53",
      "properties": {
        "report_id": "iem-lsr-OAX-53",
        "report_type": "TORNADO",
        "event_category": "tornado",
        "valid_utc": "202604231846",
        "standard_time_display": "2026-04-23 12:46 CST",
        "wfo": "OAX",
        "county_or_zone": "Harrison",
        "city": "2 N Little Sioux",
        "state": "IA",
        "magnitude": null,
        "magnitude_units": null,
        "source": "Emergency Mngr",
        "event_narrative": "EM relayed reports of numerous power lines down and roofs off of buildings along 120th St. Time is estimated from radar."
      },
      "geometry": {
        "type": "Point",
        "coordinates": [
          -96.02,
          41.83
        ]
      }
    },
    {
      "type": "Feature",
      "id": "iem-lsr-OAX-54",
      "properties": {
        "report_id": "iem-lsr-OAX-54",
        "report_type": "TORNADO",
        "event_category": "tornado",
        "valid_utc": "202604231846",
        "standard_time_display": "2026-04-23 12:46 CST",
        "wfo": "OAX",
        "county_or_zone": "Harrison",
        "city": "2 N Little Sioux",
        "state": "IA",
        "magnitude": null,
        "magnitude_units": null,
        "source": "NWS Storm Survey",
        "event_narrative": "A tornado developed approximately 1.5 miles north-northwest of Little Sioux at 1:46 PM. The tornado began just southeast of the intersection of 120th Street and Dayton Avenue_ flipping a center pivot"
      },
      "geometry": {
        "type": "Point",
        "coordinates": [
          -96.03,
          41.83
        ]
      }
    },
    {
      "type": "Feature",
      "id": "iem-lsr-OAX-55",
      "properties": {
        "report_id": "iem-lsr-OAX-55",
        "report_type": "TORNADO",
        "event_category": "tornado",
        "valid_utc": "202604231846",
        "standard_time_display": "2026-04-23 12:46 CST",
        "wfo": "OAX",
        "county_or_zone": "Harrison",
        "city": "2 NW Little Sioux",
        "state": "IA",
        "magnitude": null,
        "magnitude_units": null,
        "source": "Emergency Mngr",
        "event_narrative": "EM reported a tornado touchdown."
      },
      "geometry": {
        "type": "Point",
        "coordinates": [
          -96.05,
          41.83
        ]
      }
    },
    {
      "type": "Feature",
      "id": "iem-lsr-OAX-56",
      "properties": {
        "report_id": "iem-lsr-OAX-56",
        "report_type": "HAIL",
        "event_category": "hail",
        "valid_utc": "202604231849",
        "standard_time_display": "2026-04-23 12:49 CST",
        "wfo": "OAX",
        "county_or_zone": "Saunders",
        "city": "2 S Leshara",
        "state": "NE",
        "magnitude": 1.5,
        "magnitude_units": null,
        "source": "Public",
        "event_narrative": "Photo on social media of many quarter sized or slightly larger stones. Time estimated from radar."
      },
      "geometry": {
        "type": "Point",
        "coordinates": [
          -96.43,
          41.31
        ]
      }
    },
    {
      "type": "Feature",
      "id": "iem-lsr-OAX-57",
      "properties": {
        "report_id": "iem-lsr-OAX-57",
        "report_type": "HAIL",
        "event_category": "hail",
        "valid_utc": "202604231858",
        "standard_time_display": "2026-04-23 12:58 CST",
        "wfo": "OAX",
        "county_or_zone": "Douglas",
        "city": "5 W Washington",
        "state": "NE",
        "magnitude": 1.0,
        "magnitude_units": null,
        "source": "Public",
        "event_narrative": "Delayed report received via social media of hail up to quarter sized. Time estimated with radar."
      },
      "geometry": {
        "type": "Point",
        "coordinates": [
          -96.31,
          41.39
        ]
      }
    },
    {
      "type": "Feature",
      "id": "iem-lsr-OAX-58",
      "properties": {
        "report_id": "iem-lsr-OAX-58",
        "report_type": "HAIL",
        "event_category": "hail",
        "valid_utc": "202604231911",
        "standard_time_display": "2026-04-23 13:11 CST",
        "wfo": "OAX",
        "county_or_zone": "Washington",
        "city": "4 WSW Kennard",
        "state": "NE",
        "magnitude": 1.75,
        "magnitude_units": null,
        "source": "Law Enforcement",
        "event_narrative": "Reported by law enforcement_ east of town. Time estimated based on radar."
      },
      "geometry": {
        "type": "Point",
        "coordinates": [
          -96.27,
          41.45
        ]
      }
    },
    {
      "type": "Feature",
      "id": "iem-lsr-OAX-59",
      "properties": {
        "report_id": "iem-lsr-OAX-59",
        "report_type": "HAIL",
        "event_category": "hail",
        "valid_utc": "202604231917",
        "standard_time_display": "2026-04-23 13:17 CST",
        "wfo": "OAX",
        "county_or_zone": "Seward",
        "city": "Pleasant Dale",
        "state": "NE",
        "magnitude": 1.75,
        "magnitude_units": null,
        "source": "Public",
        "event_narrative": "Public report of golf balls in Pleasant Dale."
      },
      "geometry": {
        "type": "Point",
        "coordinates": [
          -96.93,
          40.79
        ]
      }
    },
    {
      "type": "Feature",
      "id": "iem-lsr-OAX-60",
      "properties": {
        "report_id": "iem-lsr-OAX-60",
        "report_type": "HAIL",
        "event_category": "hail",
        "valid_utc": "202604231918",
        "standard_time_display": "2026-04-23 13:18 CST",
        "wfo": "OAX",
        "county_or_zone": "Jefferson",
        "city": "1 SSE Fairbury",
        "state": "NE",
        "magnitude": 1.0,
        "magnitude_units": null,
        "source": "Emergency Mngr",
        "event_narrative": "Reported by emergency management."
      },
      "geometry": {
        "type": "Point",
        "coordinates": [
          -97.17,
          40.13
        ]
      }
    },
    {
      "type": "Feature",
      "id": "iem-lsr-OAX-61",
      "properties": {
        "report_id": "iem-lsr-OAX-61",
        "report_type": "HAIL",
        "event_category": "hail",
        "valid_utc": "202604231921",
        "standard_time_display": "2026-04-23 13:21 CST",
        "wfo": "OAX",
        "county_or_zone": "Jefferson",
        "city": "1 E Fairbury",
        "state": "NE",
        "magnitude": 1.75,
        "magnitude_units": null,
        "source": "Public",
        "event_narrative": "Golf ball sized hail at Fairbury High School."
      },
      "geometry": {
        "type": "Point",
        "coordinates": [
          -97.16,
          40.14
        ]
      }
    },
    {
      "type": "Feature",
      "id": "iem-lsr-OAX-62",
      "properties": {
        "report_id": "iem-lsr-OAX-62",
        "report_type": "HAIL",
        "event_category": "hail",
        "valid_utc": "202604231924",
        "standard_time_display": "2026-04-23 13:24 CST",
        "wfo": "OAX",
        "county_or_zone": "Jefferson",
        "city": "1 E Fairbury",
        "state": "NE",
        "magnitude": 1.0,
        "magnitude_units": null,
        "source": "Public",
        "event_narrative": "Delayed report received via social media of hail up to quarter sized. Time estimated with radar."
      },
      "geometry": {
        "type": "Point",
        "coordinates": [
          -97.17,
          40.14
        ]
      }
    },
    {
      "type": "Feature",
      "id": "iem-lsr-OAX-63",
      "properties": {
        "report_id": "iem-lsr-OAX-63",
        "report_type": "HAIL",
        "event_category": "hail",
        "valid_utc": "202604231924",
        "standard_time_display": "2026-04-23 13:24 CST",
        "wfo": "OAX",
        "county_or_zone": "Jefferson",
        "city": "1 SSE Fairbury",
        "state": "NE",
        "magnitude": 1.75,
        "magnitude_units": null,
        "source": "Public",
        "event_narrative": "Report from EM."
      },
      "geometry": {
        "type": "Point",
        "coordinates": [
          -97.17,
          40.13
        ]
      }
    },
    {
      "type": "Feature",
      "id": "iem-lsr-OAX-64",
      "properties": {
        "report_id": "iem-lsr-OAX-64",
        "report_type": "HAIL",
        "event_category": "hail",
        "valid_utc": "202604231924",
        "standard_time_display": "2026-04-23 13:24 CST",
        "wfo": "OAX",
        "county_or_zone": "Jefferson",
        "city": "1 ESE Fairbury",
        "state": "NE",
        "magnitude": 2.0,
        "magnitude_units": null,
        "source": "Public",
        "event_narrative": "Delayed report via social media of hail up to 2 inches in diameter. Time estimated with radar."
      },
      "geometry": {
        "type": "Point",
        "coordinates": [
          -97.17,
          40.14
        ]
      }
    },
    {
      "type": "Feature",
      "id": "iem-lsr-OAX-65",
      "properties": {
        "report_id": "iem-lsr-OAX-65",
        "report_type": "HAIL",
        "event_category": "hail",
        "valid_utc": "202604231925",
        "standard_time_display": "2026-04-23 13:25 CST",
        "wfo": "OAX",
        "county_or_zone": "Lancaster",
        "city": "6 SE Malcolm",
        "state": "NE",
        "magnitude": 1.25,
        "magnitude_units": null,
        "source": "Public",
        "event_narrative": "Measured quarter to half dollar size hail."
      },
      "geometry": {
        "type": "Point",
        "coordinates": [
          -96.79,
          40.85
        ]
      }
    },
    {
      "type": "Feature",
      "id": "iem-lsr-OAX-66",
      "properties": {
        "report_id": "iem-lsr-OAX-66",
        "report_type": "HAIL",
        "event_category": "hail",
        "valid_utc": "202604231925",
        "standard_time_display": "2026-04-23 13:25 CST",
        "wfo": "OAX",
        "county_or_zone": "Lancaster",
        "city": "2 ESE Pleasant Dale",
        "state": "NE",
        "magnitude": 1.75,
        "magnitude_units": null,
        "source": "Trained Spotter",
        "event_narrative": "Reported through emergency management."
      },
      "geometry": {
        "type": "Point",
        "coordinates": [
          -96.89,
          40.78
        ]
      }
    },
    {
      "type": "Feature",
      "id": "iem-lsr-OAX-67",
      "properties": {
        "report_id": "iem-lsr-OAX-67",
        "report_type": "HAIL",
        "event_category": "hail",
        "valid_utc": "202604231928",
        "standard_time_display": "2026-04-23 13:28 CST",
        "wfo": "OAX",
        "county_or_zone": "Lancaster",
        "city": "5 SE Malcolm",
        "state": "NE",
        "magnitude": 1.75,
        "magnitude_units": null,
        "source": "Public",
        "event_narrative": "Delayed report with picture received via social media."
      },
      "geometry": {
        "type": "Point",
        "coordinates": [
          -96.79,
          40.86
        ]
      }
    },
    {
      "type": "Feature",
      "id": "iem-lsr-OAX-68",
      "properties": {
        "report_id": "iem-lsr-OAX-68",
        "report_type": "HAIL",
        "event_category": "hail",
        "valid_utc": "202604231935",
        "standard_time_display": "2026-04-23 13:35 CST",
        "wfo": "OAX",
        "county_or_zone": "Douglas",
        "city": "Elkhorn",
        "state": "NE",
        "magnitude": 1.0,
        "magnitude_units": null,
        "source": "Public",
        "event_narrative": "Delayed report received from social media."
      },
      "geometry": {
        "type": "Point",
        "coordinates": [
          -96.24,
          41.28
        ]
      }
    },
    {
      "type": "Feature",
      "id": "iem-lsr-OAX-69",
      "properties": {
        "report_id": "iem-lsr-OAX-69",
        "report_type": "HAIL",
        "event_category": "hail",
        "valid_utc": "202604231936",
        "standard_time_display": "2026-04-23 13:36 CST",
        "wfo": "OAX",
        "county_or_zone": "Lancaster",
        "city": "5 W Lincoln",
        "state": "NE",
        "magnitude": 1.0,
        "magnitude_units": null,
        "source": "Public",
        "event_narrative": null
      },
      "geometry": {
        "type": "Point",
        "coordinates": [
          -96.78,
          40.83
        ]
      }
    },
    {
      "type": "Feature",
      "id": "iem-lsr-OAX-70",
      "properties": {
        "report_id": "iem-lsr-OAX-70",
        "report_type": "HAIL",
        "event_category": "hail",
        "valid_utc": "202604231937",
        "standard_time_display": "2026-04-23 13:37 CST",
        "wfo": "OAX",
        "county_or_zone": "Lancaster",
        "city": "5 W Lincoln",
        "state": "NE",
        "magnitude": 1.0,
        "magnitude_units": null,
        "source": "Public",
        "event_narrative": "Public report of quarters."
      },
      "geometry": {
        "type": "Point",
        "coordinates": [
          -96.79,
          40.83
        ]
      }
    },
    {
      "type": "Feature",
      "id": "iem-lsr-OAX-71",
      "properties": {
        "report_id": "iem-lsr-OAX-71",
        "report_type": "HAIL",
        "event_category": "hail",
        "valid_utc": "202604231937",
        "standard_time_display": "2026-04-23 13:37 CST",
        "wfo": "OAX",
        "county_or_zone": "Lancaster",
        "city": "4 NW Lincoln",
        "state": "NE",
        "magnitude": 1.25,
        "magnitude_units": null,
        "source": "Public",
        "event_narrative": "Report from mPING: Half Dollar (1.25 in.)."
      },
      "geometry": {
        "type": "Point",
        "coordinates": [
          -96.74,
          40.85
        ]
      }
    },
    {
      "type": "Feature",
      "id": "iem-lsr-OAX-72",
      "properties": {
        "report_id": "iem-lsr-OAX-72",
        "report_type": "HAIL",
        "event_category": "hail",
        "valid_utc": "202604231938",
        "standard_time_display": "2026-04-23 13:38 CST",
        "wfo": "OAX",
        "county_or_zone": "Lancaster",
        "city": "5 NW Lincoln",
        "state": "NE",
        "magnitude": 1.0,
        "magnitude_units": null,
        "source": "Public",
        "event_narrative": null
      },
      "geometry": {
        "type": "Point",
        "coordinates": [
          -96.73,
          40.88
        ]
      }
    },
    {
      "type": "Feature",
      "id": "iem-lsr-OAX-73",
      "properties": {
        "report_id": "iem-lsr-OAX-73",
        "report_type": "HAIL",
        "event_category": "hail",
        "valid_utc": "202604231940",
        "standard_time_display": "2026-04-23 13:40 CST",
        "wfo": "OAX",
        "county_or_zone": "Lancaster",
        "city": "6 SE Malcolm",
        "state": "NE",
        "magnitude": 1.25,
        "magnitude_units": null,
        "source": "Public",
        "event_narrative": "Report from mPING: Half Dollar (1.25 in.)."
      },
      "geometry": {
        "type": "Point",
        "coordinates": [
          -96.79,
          40.85
        ]
      }
    },
    {
      "type": "Feature",
      "id": "iem-lsr-OAX-74",
      "properties": {
        "report_id": "iem-lsr-OAX-74",
        "report_type": "HAIL",
        "event_category": "hail",
        "valid_utc": "202604231941",
        "standard_time_display": "2026-04-23 13:41 CST",
        "wfo": "OAX",
        "county_or_zone": "Harrison",
        "city": "Modale",
        "state": "IA",
        "magnitude": 1.0,
        "magnitude_units": null,
        "source": "Public",
        "event_narrative": "Delayed report received via social media of quarter sized hail. Time estimated with radar."
      },
      "geometry": {
        "type": "Point",
        "coordinates": [
          -96.01,
          41.62
        ]
      }
    },
    {
      "type": "Feature",
      "id": "iem-lsr-OAX-75",
      "properties": {
        "report_id": "iem-lsr-OAX-75",
        "report_type": "HAIL",
        "event_category": "hail",
        "valid_utc": "202604231942",
        "standard_time_display": "2026-04-23 13:42 CST",
        "wfo": "OAX",
        "county_or_zone": "Lancaster",
        "city": "5 N Lincoln",
        "state": "NE",
        "magnitude": 1.5,
        "magnitude_units": null,
        "source": "Public",
        "event_narrative": null
      },
      "geometry": {
        "type": "Point",
        "coordinates": [
          -96.7,
          40.88
        ]
      }
    },
    {
      "type": "Feature",
      "id": "iem-lsr-OAX-76",
      "properties": {
        "report_id": "iem-lsr-OAX-76",
        "report_type": "HAIL",
        "event_category": "hail",
        "valid_utc": "202604231951",
        "standard_time_display": "2026-04-23 13:51 CST",
        "wfo": "OAX",
        "county_or_zone": "Harrison",
        "city": "4 N Missouri Valley",
        "state": "IA",
        "magnitude": 1.5,
        "magnitude_units": null,
        "source": "Public",
        "event_narrative": "Delayed report via social media of hail up to ping pong ball sized. Time estimated with radar."
      },
      "geometry": {
        "type": "Point",
        "coordinates": [
          -95.9,
          41.62
        ]
      }
    },
    {
      "type": "Feature",
      "id": "iem-lsr-OAX-77",
      "properties": {
        "report_id": "iem-lsr-OAX-77",
        "report_type": "HAIL",
        "event_category": "hail",
        "valid_utc": "202604232000",
        "standard_time_display": "2026-04-23 14:00 CST",
        "wfo": "OAX",
        "county_or_zone": "Lancaster",
        "city": "2 E Lincoln",
        "state": "NE",
        "magnitude": 1.0,
        "magnitude_units": null,
        "source": "Public",
        "event_narrative": null
      },
      "geometry": {
        "type": "Point",
        "coordinates": [
          -96.65,
          40.81
        ]
      }
    },
    {
      "type": "Feature",
      "id": "iem-lsr-OAX-78",
      "properties": {
        "report_id": "iem-lsr-OAX-78",
        "report_type": "HAIL",
        "event_category": "hail",
        "valid_utc": "202604232000",
        "standard_time_display": "2026-04-23 14:00 CST",
        "wfo": "OAX",
        "county_or_zone": "Harrison",
        "city": "2 NE Little Sioux",
        "state": "IA",
        "magnitude": 1.25,
        "magnitude_units": null,
        "source": "Trained Spotter",
        "event_narrative": "Delayed report from spotter of approximately half dollar size hail 4 miles west of Pisgah."
      },
      "geometry": {
        "type": "Point",
        "coordinates": [
          -96.0,
          41.83
        ]
      }
    },
    {
      "type": "Feature",
      "id": "iem-lsr-OAX-79",
      "properties": {
        "report_id": "iem-lsr-OAX-79",
        "report_type": "HAIL",
        "event_category": "hail",
        "valid_utc": "202604232001",
        "standard_time_display": "2026-04-23 14:01 CST",
        "wfo": "OAX",
        "county_or_zone": "Lancaster",
        "city": "3 E Lincoln",
        "state": "NE",
        "magnitude": 1.0,
        "magnitude_units": null,
        "source": "Public",
        "event_narrative": "Report from mPING: Quarter (1.00 in.)."
      },
      "geometry": {
        "type": "Point",
        "coordinates": [
          -96.64,
          40.82
        ]
      }
    },
    {
      "type": "Feature",
      "id": "iem-lsr-OAX-80",
      "properties": {
        "report_id": "iem-lsr-OAX-80",
        "report_type": "HAIL",
        "event_category": "hail",
        "valid_utc": "202604232001",
        "standard_time_display": "2026-04-23 14:01 CST",
        "wfo": "OAX",
        "county_or_zone": "Harrison",
        "city": "Logan",
        "state": "IA",
        "magnitude": 1.0,
        "magnitude_units": null,
        "source": "Public",
        "event_narrative": "Quarter size hail reported in Logan."
      },
      "geometry": {
        "type": "Point",
        "coordinates": [
          -95.79,
          41.64
        ]
      }
    },
    {
      "type": "Feature",
      "id": "iem-lsr-OAX-81",
      "properties": {
        "report_id": "iem-lsr-OAX-81",
        "report_type": "HAIL",
        "event_category": "hail",
        "valid_utc": "202604232008",
        "standard_time_display": "2026-04-23 14:08 CST",
        "wfo": "OAX",
        "county_or_zone": "Lancaster",
        "city": "3 ENE Lincoln",
        "state": "NE",
        "magnitude": 1.25,
        "magnitude_units": null,
        "source": "Public",
        "event_narrative": "Delayed report received via social media of hail up to half dollar sized. Time estimated with radar."
      },
      "geometry": {
        "type": "Point",
        "coordinates": [
          -96.64,
          40.84
        ]
      }
    },
    {
      "type": "Feature",
      "id": "iem-lsr-OAX-82",
      "properties": {
        "report_id": "iem-lsr-OAX-82",
        "report_type": "HAIL",
        "event_category": "hail",
        "valid_utc": "202604232008",
        "standard_time_display": "2026-04-23 14:08 CST",
        "wfo": "OAX",
        "county_or_zone": "Lancaster",
        "city": "3 ENE Lincoln",
        "state": "NE",
        "magnitude": 1.5,
        "magnitude_units": null,
        "source": "Public",
        "event_narrative": "Delayed report with photo via social media. Also reported damage to vehicle hood."
      },
      "geometry": {
        "type": "Point",
        "coordinates": [
          -96.62,
          40.83
        ]
      }
    },
    {
      "type": "Feature",
      "id": "iem-lsr-OAX-83",
      "properties": {
        "report_id": "iem-lsr-OAX-83",
        "report_type": "HAIL",
        "event_category": "hail",
        "valid_utc": "202604232009",
        "standard_time_display": "2026-04-23 14:09 CST",
        "wfo": "OAX",
        "county_or_zone": "Lancaster",
        "city": "4 NE Lincoln",
        "state": "NE",
        "magnitude": 1.0,
        "magnitude_units": null,
        "source": "Public",
        "event_narrative": "Report from mPING: Quarter (1.00 in.)."
      },
      "geometry": {
        "type": "Point",
        "coordinates": [
          -96.63,
          40.84
        ]
      }
    },
    {
      "type": "Feature",
      "id": "iem-lsr-OAX-84",
      "properties": {
        "report_id": "iem-lsr-OAX-84",
        "report_type": "HAIL",
        "event_category": "hail",
        "valid_utc": "202604232011",
        "standard_time_display": "2026-04-23 14:11 CST",
        "wfo": "OAX",
        "county_or_zone": "Lancaster",
        "city": "4 E Lincoln",
        "state": "NE",
        "magnitude": 1.0,
        "magnitude_units": null,
        "source": "Public",
        "event_narrative": "Report from mPING: Quarter (1.00 in.)."
      },
      "geometry": {
        "type": "Point",
        "coordinates": [
          -96.62,
          40.82
        ]
      }
    },
    {
      "type": "Feature",
      "id": "iem-lsr-OAX-85",
      "properties": {
        "report_id": "iem-lsr-OAX-85",
        "report_type": "HAIL",
        "event_category": "hail",
        "valid_utc": "202604232012",
        "standard_time_display": "2026-04-23 14:12 CST",
        "wfo": "OAX",
        "county_or_zone": "Douglas",
        "city": "1 NNW Boys Town",
        "state": "NE",
        "magnitude": 0.88,
        "magnitude_units": null,
        "source": "Broadcast Media",
        "event_narrative": "Report relayed via NWSChat. Size ranged from pea to nickel size hail."
      },
      "geometry": {
        "type": "Point",
        "coordinates": [
          -96.14,
          41.28
        ]
      }
    },
    {
      "type": "Feature",
      "id": "iem-lsr-OAX-86",
      "properties": {
        "report_id": "iem-lsr-OAX-86",
        "report_type": "HAIL",
        "event_category": "hail",
        "valid_utc": "202604232015",
        "standard_time_display": "2026-04-23 14:15 CST",
        "wfo": "OAX",
        "county_or_zone": "Lancaster",
        "city": "1 N Waverly",
        "state": "NE",
        "magnitude": 1.0,
        "magnitude_units": null,
        "source": "Trained Spotter",
        "event_narrative": null
      },
      "geometry": {
        "type": "Point",
        "coordinates": [
          -96.53,
          40.93
        ]
      }
    },
    {
      "type": "Feature",
      "id": "iem-lsr-OAX-87",
      "properties": {
        "report_id": "iem-lsr-OAX-87",
        "report_type": "HAIL",
        "event_category": "hail",
        "valid_utc": "202604232023",
        "standard_time_display": "2026-04-23 14:23 CST",
        "wfo": "OAX",
        "county_or_zone": "Nemaha",
        "city": "Auburn",
        "state": "NE",
        "magnitude": 1.25,
        "magnitude_units": null,
        "source": "Public",
        "event_narrative": "Delayed social media report. Time estimated from radar."
      },
      "geometry": {
        "type": "Point",
        "coordinates": [
          -95.84,
          40.39
        ]
      }
    },
    {
      "type": "Feature",
      "id": "iem-lsr-OAX-88",
      "properties": {
        "report_id": "iem-lsr-OAX-88",
        "report_type": "HAIL",
        "event_category": "hail",
        "valid_utc": "202604232025",
        "standard_time_display": "2026-04-23 14:25 CST",
        "wfo": "OAX",
        "county_or_zone": "Gage",
        "city": "5 ENE Harbine",
        "state": "NE",
        "magnitude": 1.5,
        "magnitude_units": null,
        "source": "Trained Spotter",
        "event_narrative": "Trained spotter reported ping pong ball sized hail."
      },
      "geometry": {
        "type": "Point",
        "coordinates": [
          -96.88,
          40.22
        ]
      }
    },
    {
      "type": "Feature",
      "id": "iem-lsr-OAX-89",
      "properties": {
        "report_id": "iem-lsr-OAX-89",
        "report_type": "HAIL",
        "event_category": "hail",
        "valid_utc": "202604232027",
        "standard_time_display": "2026-04-23 14:27 CST",
        "wfo": "OAX",
        "county_or_zone": "Harrison",
        "city": "3 ESE Missouri Valley",
        "state": "IA",
        "magnitude": 1.0,
        "magnitude_units": null,
        "source": "Public",
        "event_narrative": "Emergency dispatch relayed report of quarter size hail near 335th and Mounds Trail."
      },
      "geometry": {
        "type": "Point",
        "coordinates": [
          -95.85,
          41.55
        ]
      }
    },
    {
      "type": "Feature",
      "id": "iem-lsr-OAX-90",
      "properties": {
        "report_id": "iem-lsr-OAX-90",
        "report_type": "HAIL",
        "event_category": "hail",
        "valid_utc": "202604232033",
        "standard_time_display": "2026-04-23 14:33 CST",
        "wfo": "OAX",
        "county_or_zone": "Douglas",
        "city": "1 SE Millard",
        "state": "NE",
        "magnitude": 1.25,
        "magnitude_units": null,
        "source": "Public",
        "event_narrative": "Report from mPING: Half Dollar (1.25 in.)."
      },
      "geometry": {
        "type": "Point",
        "coordinates": [
          -96.15,
          41.19
        ]
      }
    },
    {
      "type": "Feature",
      "id": "iem-lsr-OAX-91",
      "properties": {
        "report_id": "iem-lsr-OAX-91",
        "report_type": "HAIL",
        "event_category": "hail",
        "valid_utc": "202604232035",
        "standard_time_display": "2026-04-23 14:35 CST",
        "wfo": "OAX",
        "county_or_zone": "Gage",
        "city": "1 NE Beatrice",
        "state": "NE",
        "magnitude": 1.5,
        "magnitude_units": null,
        "source": "Trained Spotter",
        "event_narrative": null
      },
      "geometry": {
        "type": "Point",
        "coordinates": [
          -96.73,
          40.28
        ]
      }
    },
    {
      "type": "Feature",
      "id": "iem-lsr-OAX-92",
      "properties": {
        "report_id": "iem-lsr-OAX-92",
        "report_type": "HAIL",
        "event_category": "hail",
        "valid_utc": "202604232036",
        "standard_time_display": "2026-04-23 14:36 CST",
        "wfo": "OAX",
        "county_or_zone": "Harrison",
        "city": "Dunlap",
        "state": "IA",
        "magnitude": 1.0,
        "magnitude_units": null,
        "source": "Public",
        "event_narrative": "Local business reported approximately quarter size hail in Dunlap."
      },
      "geometry": {
        "type": "Point",
        "coordinates": [
          -95.6,
          41.85
        ]
      }
    },
    {
      "type": "Feature",
      "id": "iem-lsr-OAX-93",
      "properties": {
        "report_id": "iem-lsr-OAX-93",
        "report_type": "HAIL",
        "event_category": "hail",
        "valid_utc": "202604232040",
        "standard_time_display": "2026-04-23 14:40 CST",
        "wfo": "OAX",
        "county_or_zone": "Douglas",
        "city": "1 NE Millard",
        "state": "NE",
        "magnitude": 1.0,
        "magnitude_units": null,
        "source": "Public",
        "event_narrative": "Delayed report received from social media."
      },
      "geometry": {
        "type": "Point",
        "coordinates": [
          -96.14,
          41.22
        ]
      }
    },
    {
      "type": "Feature",
      "id": "iem-lsr-OAX-94",
      "properties": {
        "report_id": "iem-lsr-OAX-94",
        "report_type": "HAIL",
        "event_category": "hail",
        "valid_utc": "202604232041",
        "standard_time_display": "2026-04-23 14:41 CST",
        "wfo": "OAX",
        "county_or_zone": "Sarpy",
        "city": "2 WSW La Vista",
        "state": "NE",
        "magnitude": 1.0,
        "magnitude_units": null,
        "source": "Public",
        "event_narrative": "Delayed report via social media. Sizes ranged from nickel to quarter size and lasted for around 8 to 10 minutes. Time estimated via radar."
      },
      "geometry": {
        "type": "Point",
        "coordinates": [
          -96.07,
          41.18
        ]
      }
    },
    {
      "type": "Feature",
      "id": "iem-lsr-OAX-95",
      "properties": {
        "report_id": "iem-lsr-OAX-95",
        "report_type": "HAIL",
        "event_category": "hail",
        "valid_utc": "202604232042",
        "standard_time_display": "2026-04-23 14:42 CST",
        "wfo": "OAX",
        "county_or_zone": "Sarpy",
        "city": "Chalco",
        "state": "NE",
        "magnitude": 1.0,
        "magnitude_units": null,
        "source": "Public",
        "event_narrative": "Report from mPING: Quarter (1.00 in.)."
      },
      "geometry": {
        "type": "Point",
        "coordinates": [
          -96.13,
          41.19
        ]
      }
    },
    {
      "type": "Feature",
      "id": "iem-lsr-OAX-96",
      "properties": {
        "report_id": "iem-lsr-OAX-96",
        "report_type": "HAIL",
        "event_category": "hail",
        "valid_utc": "202604232043",
        "standard_time_display": "2026-04-23 14:43 CST",
        "wfo": "OAX",
        "county_or_zone": "Sarpy",
        "city": "3 SE Chalco",
        "state": "NE",
        "magnitude": 1.0,
        "magnitude_units": null,
        "source": "Public",
        "event_narrative": "Report from mPING: Quarter (1.00 in.)."
      },
      "geometry": {
        "type": "Point",
        "coordinates": [
          -96.1,
          41.15
        ]
      }
    },
    {
      "type": "Feature",
      "id": "iem-lsr-OAX-97",
      "properties": {
        "report_id": "iem-lsr-OAX-97",
        "report_type": "HAIL",
        "event_category": "hail",
        "valid_utc": "202604232044",
        "standard_time_display": "2026-04-23 14:44 CST",
        "wfo": "OAX",
        "county_or_zone": "Douglas",
        "city": "2 NW Ralston",
        "state": "NE",
        "magnitude": 1.0,
        "magnitude_units": null,
        "source": "Public",
        "event_narrative": "Report from mPING: Quarter (1.00 in.)."
      },
      "geometry": {
        "type": "Point",
        "coordinates": [
          -96.07,
          41.22
        ]
      }
    },
    {
      "type": "Feature",
      "id": "iem-lsr-OAX-98",
      "properties": {
        "report_id": "iem-lsr-OAX-98",
        "report_type": "HAIL",
        "event_category": "hail",
        "valid_utc": "202604232045",
        "standard_time_display": "2026-04-23 14:45 CST",
        "wfo": "OAX",
        "county_or_zone": "Pottawattamie",
        "city": "5 WNW Underwood",
        "state": "IA",
        "magnitude": 1.0,
        "magnitude_units": null,
        "source": "Trained Spotter",
        "event_narrative": "Delayed report received via social media."
      },
      "geometry": {
        "type": "Point",
        "coordinates": [
          -95.77,
          41.42
        ]
      }
    },
    {
      "type": "Feature",
      "id": "iem-lsr-OAX-99",
      "properties": {
        "report_id": "iem-lsr-OAX-99",
        "report_type": "HAIL",
        "event_category": "hail",
        "valid_utc": "202604232045",
        "standard_time_display": "2026-04-23 14:45 CST",
        "wfo": "OAX",
        "county_or_zone": "Harrison",
        "city": "Logan",
        "state": "IA",
        "magnitude": 1.0,
        "magnitude_units": null,
        "source": "Public",
        "event_narrative": "Video of penny to quarter size hail in Logan."
      },
      "geometry": {
        "type": "Point",
        "coordinates": [
          -95.79,
          41.64
        ]
      }
    },
    {
      "type": "Feature",
      "id": "iem-lsr-OAX-100",
      "properties": {
        "report_id": "iem-lsr-OAX-100",
        "report_type": "HAIL",
        "event_category": "hail",
        "valid_utc": "202604232051",
        "standard_time_display": "2026-04-23 14:51 CST",
        "wfo": "OAX",
        "county_or_zone": "Harrison",
        "city": "7 ESE Missouri Valley",
        "state": "IA",
        "magnitude": 1.0,
        "magnitude_units": null,
        "source": "Trained Spotter",
        "event_narrative": "Delayed report via social media. Reported lots of nickel sized hail with some quarters mixed in."
      },
      "geometry": {
        "type": "Point",
        "coordinates": [
          -95.76,
          41.52
        ]
      }
    },
    {
      "type": "Feature",
      "id": "iem-lsr-OAX-101",
      "properties": {
        "report_id": "iem-lsr-OAX-101",
        "report_type": "HAIL",
        "event_category": "hail",
        "valid_utc": "202604232054",
        "standard_time_display": "2026-04-23 14:54 CST",
        "wfo": "OAX",
        "county_or_zone": "Sarpy",
        "city": "1 W La Vista",
        "state": "NE",
        "magnitude": 1.25,
        "magnitude_units": null,
        "source": "Public",
        "event_narrative": "Report from mPING: Half Dollar (1.25 in.)."
      },
      "geometry": {
        "type": "Point",
        "coordinates": [
          -96.07,
          41.19
        ]
      }
    },
    {
      "type": "Feature",
      "id": "iem-lsr-OAX-102",
      "properties": {
        "report_id": "iem-lsr-OAX-102",
        "report_type": "HAIL",
        "event_category": "hail",
        "valid_utc": "202604232055",
        "standard_time_display": "2026-04-23 14:55 CST",
        "wfo": "OAX",
        "county_or_zone": "Douglas",
        "city": "3 E Omaha",
        "state": "NE",
        "magnitude": 1.0,
        "magnitude_units": null,
        "source": "Public",
        "event_narrative": "Social media photo of quarter size hail. Hail was largely smaller_ closer to pea size."
      },
      "geometry": {
        "type": "Point",
        "coordinates": [
          -95.96,
          41.26
        ]
      }
    },
    {
      "type": "Feature",
      "id": "iem-lsr-OAX-103",
      "properties": {
        "report_id": "iem-lsr-OAX-103",
        "report_type": "HAIL",
        "event_category": "hail",
        "valid_utc": "202604232057",
        "standard_time_display": "2026-04-23 14:57 CST",
        "wfo": "OAX",
        "county_or_zone": "Pottawattamie",
        "city": "2 SE Carter Lake",
        "state": "IA",
        "magnitude": 1.0,
        "magnitude_units": null,
        "source": "Public",
        "event_narrative": "Report from mPING: Quarter (1.00 in.)."
      },
      "geometry": {
        "type": "Point",
        "coordinates": [
          -95.9,
          41.27
        ]
      }
    },
    {
      "type": "Feature",
      "id": "iem-lsr-OAX-104",
      "properties": {
        "report_id": "iem-lsr-OAX-104",
        "report_type": "HAIL",
        "event_category": "hail",
        "valid_utc": "202604232059",
        "standard_time_display": "2026-04-23 14:59 CST",
        "wfo": "OAX",
        "county_or_zone": "Sarpy",
        "city": "1 NW Chalco",
        "state": "NE",
        "magnitude": 1.0,
        "magnitude_units": null,
        "source": "Public",
        "event_narrative": "Report from mPING: Quarter (1.00 in.)."
      },
      "geometry": {
        "type": "Point",
        "coordinates": [
          -96.14,
          41.19
        ]
      }
    },
    {
      "type": "Feature",
      "id": "iem-lsr-OAX-105",
      "properties": {
        "report_id": "iem-lsr-OAX-105",
        "report_type": "HAIL",
        "event_category": "hail",
        "valid_utc": "202604232107",
        "standard_time_display": "2026-04-23 15:07 CST",
        "wfo": "OAX",
        "county_or_zone": "Pottawattamie",
        "city": "1 NE Council Bluffs",
        "state": "IA",
        "magnitude": 1.0,
        "magnitude_units": null,
        "source": "Public",
        "event_narrative": "Delayed report received via social media. Estimated time of occurrence was 4:07 pm."
      },
      "geometry": {
        "type": "Point",
        "coordinates": [
          -95.85,
          41.25
        ]
      }
    },
    {
      "type": "Feature",
      "id": "iem-lsr-OAX-106",
      "properties": {
        "report_id": "iem-lsr-OAX-106",
        "report_type": "HAIL",
        "event_category": "hail",
        "valid_utc": "202604232116",
        "standard_time_display": "2026-04-23 15:16 CST",
        "wfo": "OAX",
        "county_or_zone": "Harrison",
        "city": "4 S Persia",
        "state": "IA",
        "magnitude": 1.0,
        "magnitude_units": null,
        "source": "Public",
        "event_narrative": "Delayed report received via social media of hail up to quarter sized. Time estimated with radar."
      },
      "geometry": {
        "type": "Point",
        "coordinates": [
          -95.57,
          41.53
        ]
      }
    },
    {
      "type": "Feature",
      "id": "iem-lsr-OAX-107",
      "properties": {
        "report_id": "iem-lsr-OAX-107",
        "report_type": "HAIL",
        "event_category": "hail",
        "valid_utc": "202604232128",
        "standard_time_display": "2026-04-23 15:28 CST",
        "wfo": "OAX",
        "county_or_zone": "Johnson",
        "city": "4 W Tecumseh",
        "state": "NE",
        "magnitude": 1.0,
        "magnitude_units": null,
        "source": "Law Enforcement",
        "event_narrative": "Relayed through EM."
      },
      "geometry": {
        "type": "Point",
        "coordinates": [
          -96.26,
          40.36
        ]
      }
    },
    {
      "type": "Feature",
      "id": "iem-lsr-OAX-108",
      "properties": {
        "report_id": "iem-lsr-OAX-108",
        "report_type": "HAIL",
        "event_category": "hail",
        "valid_utc": "202604232135",
        "standard_time_display": "2026-04-23 15:35 CST",
        "wfo": "OAX",
        "county_or_zone": "Johnson",
        "city": "Cook",
        "state": "NE",
        "magnitude": 1.25,
        "magnitude_units": null,
        "source": "Public",
        "event_narrative": "Delayed report received via social media of hail up to half dollar sized. Time estimated with radar."
      },
      "geometry": {
        "type": "Point",
        "coordinates": [
          -96.16,
          40.51
        ]
      }
    },
    {
      "type": "Feature",
      "id": "iem-lsr-OAX-109",
      "properties": {
        "report_id": "iem-lsr-OAX-109",
        "report_type": "HAIL",
        "event_category": "hail",
        "valid_utc": "202604232135",
        "standard_time_display": "2026-04-23 15:35 CST",
        "wfo": "OAX",
        "county_or_zone": "Johnson",
        "city": "4 NNW Tecumseh",
        "state": "NE",
        "magnitude": 1.75,
        "magnitude_units": null,
        "source": "Public",
        "event_narrative": "Public report."
      },
      "geometry": {
        "type": "Point",
        "coordinates": [
          -96.23,
          40.43
        ]
      }
    },
    {
      "type": "Feature",
      "id": "iem-lsr-OAX-110",
      "properties": {
        "report_id": "iem-lsr-OAX-110",
        "report_type": "HAIL",
        "event_category": "hail",
        "valid_utc": "202604232135",
        "standard_time_display": "2026-04-23 15:35 CST",
        "wfo": "OAX",
        "county_or_zone": "Johnson",
        "city": "2 NNE Tecumseh",
        "state": "NE",
        "magnitude": 2.0,
        "magnitude_units": null,
        "source": "Emergency Mngr",
        "event_narrative": "Delay report from emergency management of measured 2 inch hail north of Tecumseh_ NE."
      },
      "geometry": {
        "type": "Point",
        "coordinates": [
          -96.18,
          40.4
        ]
      }
    },
    {
      "type": "Feature",
      "id": "iem-lsr-OAX-111",
      "properties": {
        "report_id": "iem-lsr-OAX-111",
        "report_type": "HAIL",
        "event_category": "hail",
        "valid_utc": "202604232135",
        "standard_time_display": "2026-04-23 15:35 CST",
        "wfo": "OAX",
        "county_or_zone": "Johnson",
        "city": "3 NNE Tecumseh",
        "state": "NE",
        "magnitude": 2.0,
        "magnitude_units": null,
        "source": "Public",
        "event_narrative": "Delayed report received via social media of hail just over 2 inch in diameter. Time estimated with radar."
      },
      "geometry": {
        "type": "Point",
        "coordinates": [
          -96.16,
          40.4
        ]
      }
    },
    {
      "type": "Feature",
      "id": "iem-lsr-OAX-112",
      "properties": {
        "report_id": "iem-lsr-OAX-112",
        "report_type": "HAIL",
        "event_category": "hail",
        "valid_utc": "202604232136",
        "standard_time_display": "2026-04-23 15:36 CST",
        "wfo": "OAX",
        "county_or_zone": "Johnson",
        "city": "1 NE Tecumseh",
        "state": "NE",
        "magnitude": 1.25,
        "magnitude_units": null,
        "source": "Public",
        "event_narrative": "Report from mPING: Half Dollar (1.25 in.)."
      },
      "geometry": {
        "type": "Point",
        "coordinates": [
          -96.18,
          40.38
        ]
      }
    },
    {
      "type": "Feature",
      "id": "iem-lsr-OAX-113",
      "properties": {
        "report_id": "iem-lsr-OAX-113",
        "report_type": "HAIL",
        "event_category": "hail",
        "valid_utc": "202604232139",
        "standard_time_display": "2026-04-23 15:39 CST",
        "wfo": "OAX",
        "county_or_zone": "Shelby",
        "city": "3 SE Westphalia",
        "state": "IA",
        "magnitude": 1.0,
        "magnitude_units": null,
        "source": "Public",
        "event_narrative": "Delayed report with picture and coin for reference via social media. Time estimated via radar."
      },
      "geometry": {
        "type": "Point",
        "coordinates": [
          -95.36,
          41.69
        ]
      }
    },
    {
      "type": "Feature",
      "id": "iem-lsr-OAX-114",
      "properties": {
        "report_id": "iem-lsr-OAX-114",
        "report_type": "HAIL",
        "event_category": "hail",
        "valid_utc": "202604232148",
        "standard_time_display": "2026-04-23 15:48 CST",
        "wfo": "OAX",
        "county_or_zone": "Pottawattamie",
        "city": "5 NW Oakland",
        "state": "IA",
        "magnitude": 1.0,
        "magnitude_units": null,
        "source": "Emergency Mngr",
        "event_narrative": null
      },
      "geometry": {
        "type": "Point",
        "coordinates": [
          -95.46,
          41.36
        ]
      }
    },
    {
      "type": "Feature",
      "id": "iem-lsr-OAX-115",
      "properties": {
        "report_id": "iem-lsr-OAX-115",
        "report_type": "HAIL",
        "event_category": "hail",
        "valid_utc": "202604232148",
        "standard_time_display": "2026-04-23 15:48 CST",
        "wfo": "OAX",
        "county_or_zone": "Pottawattamie",
        "city": "5 NW Oakland",
        "state": "IA",
        "magnitude": 1.0,
        "magnitude_units": null,
        "source": "Emergency Mngr",
        "event_narrative": "Relayed through emergency management."
      },
      "geometry": {
        "type": "Point",
        "coordinates": [
          -95.46,
          41.36
        ]
      }
    },
    {
      "type": "Feature",
      "id": "iem-lsr-OAX-116",
      "properties": {
        "report_id": "iem-lsr-OAX-116",
        "report_type": "TSTM WND DMG",
        "event_category": "thunderstorm_wind",
        "valid_utc": "202604232153",
        "standard_time_display": "2026-04-23 15:53 CST",
        "wfo": "OAX",
        "county_or_zone": "Nemaha",
        "city": "Brock",
        "state": "NE",
        "magnitude": null,
        "magnitude_units": null,
        "source": "Public",
        "event_narrative": "Delayed report received from the public of a large tree limb broken on a house. Time estimated with radar."
      },
      "geometry": {
        "type": "Point",
        "coordinates": [
          -95.96,
          40.49
        ]
      }
    },
    {
      "type": "Feature",
      "id": "iem-lsr-OAX-117",
      "properties": {
        "report_id": "iem-lsr-OAX-117",
        "report_type": "HAIL",
        "event_category": "hail",
        "valid_utc": "202604232154",
        "standard_time_display": "2026-04-23 15:54 CST",
        "wfo": "OAX",
        "county_or_zone": "Pawnee",
        "city": "4 SE Lewiston",
        "state": "NE",
        "magnitude": 1.0,
        "magnitude_units": null,
        "source": "Public",
        "event_narrative": "Report from mPING: Quarter (1.00 in.)."
      },
      "geometry": {
        "type": "Point",
        "coordinates": [
          -96.35,
          40.21
        ]
      }
    },
    {
      "type": "Feature",
      "id": "iem-lsr-OAX-118",
      "properties": {
        "report_id": "iem-lsr-OAX-118",
        "report_type": "HAIL",
        "event_category": "hail",
        "valid_utc": "202604232200",
        "standard_time_display": "2026-04-23 16:00 CST",
        "wfo": "OAX",
        "county_or_zone": "Otoe",
        "city": "Talmage",
        "state": "NE",
        "magnitude": 1.0,
        "magnitude_units": null,
        "source": "Public",
        "event_narrative": "Delayed report received via social media."
      },
      "geometry": {
        "type": "Point",
        "coordinates": [
          -96.02,
          40.53
        ]
      }
    },
    {
      "type": "Feature",
      "id": "iem-lsr-OAX-119",
      "properties": {
        "report_id": "iem-lsr-OAX-119",
        "report_type": "HAIL",
        "event_category": "hail",
        "valid_utc": "202604232209",
        "standard_time_display": "2026-04-23 16:09 CST",
        "wfo": "OAX",
        "county_or_zone": "Johnson",
        "city": "3 WNW Elk Creek",
        "state": "NE",
        "magnitude": 1.0,
        "magnitude_units": null,
        "source": "Trained Spotter",
        "event_narrative": "Estimated quarter size hail_ but largely pea size."
      },
      "geometry": {
        "type": "Point",
        "coordinates": [
          -96.18,
          40.31
        ]
      }
    },
    {
      "type": "Feature",
      "id": "iem-lsr-OAX-120",
      "properties": {
        "report_id": "iem-lsr-OAX-120",
        "report_type": "TORNADO",
        "event_category": "tornado",
        "valid_utc": "202604232234",
        "standard_time_display": "2026-04-23 16:34 CST",
        "wfo": "OAX",
        "county_or_zone": "Fremont",
        "city": "5 SE Riverton",
        "state": "IA",
        "magnitude": null,
        "magnitude_units": null,
        "source": "NWS Storm Survey",
        "event_narrative": "Several videos and photographs from multiple angles indicated that a weak tornado developed and moved to the east northeast along this approximate path. While the near-surface dust cloud was wider_ t"
      },
      "geometry": {
        "type": "Point",
        "coordinates": [
          -95.5,
          40.63
        ]
      }
    },
    {
      "type": "Feature",
      "id": "iem-lsr-OAX-121",
      "properties": {
        "report_id": "iem-lsr-OAX-121",
        "report_type": "TORNADO",
        "event_category": "tornado",
        "valid_utc": "202604232234",
        "standard_time_display": "2026-04-23 16:34 CST",
        "wfo": "OAX",
        "county_or_zone": "Fremont",
        "city": "5 SE Riverton",
        "state": "IA",
        "magnitude": null,
        "magnitude_units": null,
        "source": "NWS Storm Survey",
        "event_narrative": "Video and photo evidence of a small tornado near this location."
      },
      "geometry": {
        "type": "Point",
        "coordinates": [
          -95.49,
          40.64
        ]
      }
    },
    {
      "type": "Feature",
      "id": "iem-lsr-OAX-122",
      "properties": {
        "report_id": "iem-lsr-OAX-122",
        "report_type": "HAIL",
        "event_category": "hail",
        "valid_utc": "202604232235",
        "standard_time_display": "2026-04-23 16:35 CST",
        "wfo": "OAX",
        "county_or_zone": "Richardson",
        "city": "3 W Humboldt",
        "state": "NE",
        "magnitude": 1.0,
        "magnitude_units": null,
        "source": "Public",
        "event_narrative": null
      },
      "geometry": {
        "type": "Point",
        "coordinates": [
          -96.0,
          40.16
        ]
      }
    },
    {
      "type": "Feature",
      "id": "iem-lsr-OAX-123",
      "properties": {
        "report_id": "iem-lsr-OAX-123",
        "report_type": "TORNADO",
        "event_category": "tornado",
        "valid_utc": "202604232238",
        "standard_time_display": "2026-04-23 16:38 CST",
        "wfo": "OAX",
        "county_or_zone": "Fremont",
        "city": "2 E Riverton",
        "state": "IA",
        "magnitude": null,
        "magnitude_units": null,
        "source": "Emergency Mngr",
        "event_narrative": null
      },
      "geometry": {
        "type": "Point",
        "coordinates": [
          -95.55,
          40.69
        ]
      }
    },
    {
      "type": "Feature",
      "id": "iem-lsr-OAX-124",
      "properties": {
        "report_id": "iem-lsr-OAX-124",
        "report_type": "HAIL",
        "event_category": "hail",
        "valid_utc": "202604232300",
        "standard_time_display": "2026-04-23 17:00 CST",
        "wfo": "OAX",
        "county_or_zone": "Page",
        "city": "Shenandoah",
        "state": "IA",
        "magnitude": 0.75,
        "magnitude_units": null,
        "source": "Public",
        "event_narrative": "Delayed report with picture via social media."
      },
      "geometry": {
        "type": "Point",
        "coordinates": [
          -95.37,
          40.76
        ]
      }
    },
    {
      "type": "Feature",
      "id": "iem-lsr-OAX-125",
      "properties": {
        "report_id": "iem-lsr-OAX-125",
        "report_type": "TORNADO",
        "event_category": "tornado",
        "valid_utc": "202604232317",
        "standard_time_display": "2026-04-23 17:17 CST",
        "wfo": "OAX",
        "county_or_zone": "Page",
        "city": "3 NW College Springs",
        "state": "IA",
        "magnitude": null,
        "magnitude_units": null,
        "source": "NWS Storm Survey",
        "event_narrative": "Two spotter reports confirmed a funnel with rotating dust at ground level with minor tree damage at one location. The track was mainly over open fields."
      },
      "geometry": {
        "type": "Point",
        "coordinates": [
          -95.17,
          40.65
        ]
      }
    },
    {
      "type": "Feature",
      "id": "iem-lsr-OAX-126",
      "properties": {
        "report_id": "iem-lsr-OAX-126",
        "report_type": "HAIL",
        "event_category": "hail",
        "valid_utc": "202604232346",
        "standard_time_display": "2026-04-23 17:46 CST",
        "wfo": "OAX",
        "county_or_zone": "Richardson",
        "city": "Falls City",
        "state": "NE",
        "magnitude": 1.0,
        "magnitude_units": null,
        "source": "Trained Spotter",
        "event_narrative": null
      },
      "geometry": {
        "type": "Point",
        "coordinates": [
          -95.6,
          40.07
        ]
      }
    },
    {
      "type": "Feature",
      "id": "iem-lsr-OAX-127",
      "properties": {
        "report_id": "iem-lsr-OAX-127",
        "report_type": "HAIL",
        "event_category": "hail",
        "valid_utc": "202604252256",
        "standard_time_display": "2026-04-25 16:56 CST",
        "wfo": "OAX",
        "county_or_zone": "Seward",
        "city": "1 NE Seward",
        "state": "NE",
        "magnitude": 1.0,
        "magnitude_units": null,
        "source": "Public",
        "event_narrative": "Report from mPING: Quarter (1.00 in.)."
      },
      "geometry": {
        "type": "Point",
        "coordinates": [
          -97.09,
          40.92
        ]
      }
    },
    {
      "type": "Feature",
      "id": "iem-lsr-OAX-128",
      "properties": {
        "report_id": "iem-lsr-OAX-128",
        "report_type": "HAIL",
        "event_category": "hail",
        "valid_utc": "202604260155",
        "standard_time_display": "2026-04-25 19:55 CST",
        "wfo": "OAX",
        "county_or_zone": "Gage",
        "city": "Beatrice",
        "state": "NE",
        "magnitude": 1.5,
        "magnitude_units": null,
        "source": "Trained Spotter",
        "event_narrative": null
      },
      "geometry": {
        "type": "Point",
        "coordinates": [
          -96.75,
          40.27
        ]
      }
    },
    {
      "type": "Feature",
      "id": "iem-lsr-OAX-129",
      "properties": {
        "report_id": "iem-lsr-OAX-129",
        "report_type": "HAIL",
        "event_category": "hail",
        "valid_utc": "202604260255",
        "standard_time_display": "2026-04-25 20:55 CST",
        "wfo": "OAX",
        "county_or_zone": "Pawnee",
        "city": "4 S Elk Creek",
        "state": "NE",
        "magnitude": 1.75,
        "magnitude_units": null,
        "source": "Trained Spotter",
        "event_narrative": "Quarter to golf ball sized hail."
      },
      "geometry": {
        "type": "Point",
        "coordinates": [
          -96.14,
          40.24
        ]
      }
    }
  ]
}