{
  "type": "FeatureCollection",
  "name": "cwa",
  "crs": {
    "type": "name",
    "properties": {
      "name": "urn:ogc:def:crs:OGC:1.3:CRS84"
    }
  },
  "features": [
    {
      "type": "Feature",
      "properties": {
        "WFO": "LZK",
        "CWA": "LZK",
        "STATE": "Arkansas",
        "ST": "AR",
        "CITYSTATE": "Little Rock AR"
      },
      "geometry": {
        "type": "Polygon",
        "coordinates": [
          [
            [
              -91.61769866895838,
              36.499210358371386
            ],
            [
              -91.42029571537495,
              36.49701309158098
            ],
            [
              -90.78319549587542,
              36.49821090670804
            ],
            [
              -90.77890014582505,
              36.49061203022109
            ],
            [
              -90.77669525098503,
              36.48871231132415
            ],
            [
              -90.7716979980641,
              36.48801040575569
            ],
            [
              -90.76969909743536,
              36.485412598013056
            ],
            [
              -90.77109527602613,
              36.481513976688746
            ],
            [
              -90.7693939205929,
              36.47621154782473
            ],
            [
              -90.77330017086615,
              36.47421264629662
            ],
            [
              -90.77199554415898,
              36.46701049763641
            ],
            [
              -90.77389526395524,
              36.46441268899446
            ],
            [
              -90.77349853522918,
              36.45951080288131
            ],
            [
              -90.77549743675729,
              36.453712462660064
            ],
            [
              -90.77489471381995,
              36.447013855205284
            ],
            [
              -90.77949523891408,
              36.438110352011165
            ],
            [
              -90.77709960865997,
              36.43511199971908
            ],
            [
              -90.76839446982888,
              36.43331146165468
            ],
            [
              -90.773399352598,
              36.42831039380968
            ],
            [
              -90.77849578904937,
              36.429710388223896
            ],
            [
              -90.77799987769214,
              36.42671203593176
            ],
            [
              -90.77579498285212,
              36.42521285978569
            ],
            [
              -90.76799774200214,
              36.42461395267185
            ],
            [
              -90.76499938971006,
              36.42791366598294
            ],
            [
              -90.76269531313818,
              36.4280128477148
            ],
            [
              -90.75709533727996,
              36.422710418850784
            ],
            [
              -90.7616958623741,
              36.42111206097286
            ],
            [
              -90.76179504410595,
              36.41811370778146
            ],
            [
              -90.76559448189977,
              36.4205131529597
            ],
            [
              -90.76869964577202,
              36.420413971227845
            ],
            [
              -90.7705993646689,
              36.414112090700485
            ],
            [
              -90.7491989137988,
              36.412811278917445
            ],
            [
              -90.75189971909674,
              36.28341293336024
            ],
            [
              -90.74979400598858,
              36.28101348908132
            ],
            [
              -90.75149536142175,
              36.28001403831729
            ],
            [
              -90.75489807138882,
              36.283512115092094
            ],
            [
              -90.7590942379087,
              36.28361129772327
            ],
            [
              -90.76599883957476,
              36.28711319032152
            ],
            [
              -90.77700042692811,
              36.28321075407308
            ],
            [
              -90.78029632621445,
              36.28451156585612
            ],
            [
              -90.78329467760727,
              36.29081344638348
            ],
            [
              -90.78649902321132,
              36.2938117977763
            ],
            [
              -90.78939819287228,
              36.29431152315834
            ],
            [
              -90.79139709529966,
              36.2932128906624
            ],
            [
              -90.79129791266848,
              36.2882118228174
            ],
            [
              -90.79449462932365,
              36.28661346404016
            ],
            [
              -90.79909515441778,
              36.28681182930251
            ],
            [
              -90.79989623991952,
              36.28951263370112
            ],
            [
              -90.80169677708454,
              36.28681182930251
            ],
            [
              -90.80309295657463,
              36.28971099896347
            ],
            [
              -90.80619812044688,
              36.28811264018623
            ],
            [
              -90.80979919387767,
              36.14971160880373
            ],
            [
              -90.7474975592649,
              36.14901351905871
            ],
            [
              -90.74909973116763,
              36.14581298837874
            ],
            [
              -90.76439666677271,
              36.133712769428826
            ],
            [
              -90.77129364038916,
              36.123313904113445
            ],
            [
              -90.77129364038916,
              36.10841369633505
            ],
            [
              -90.78919982940857,
              36.10021209691081
            ],
            [
              -90.79109954830545,
              36.09291076741806
            ],
            [
              -90.79369354202333,
              36.09191131575466
            ],
            [
              -90.7945938110555,
              36.088413238979854
            ],
            [
              -90.79889679005476,
              36.089313507112706
            ],
            [
              -90.80079650895169,
              36.08701324456564
            ],
            [
              -90.80419921891877,
              36.08721160892867
            ],
            [
              -90.81049346869861,
              36.083213805872504
            ],
            [
              -90.81900024406599,
              36.08051299967525
            ],
            [
              -90.8228988653903,
              36.07501220734753
            ],
            [
              -90.82559966978891,
              36.05531311011197
            ],
            [
              -90.84029388425535,
              36.03721237165371
            ],
            [
              -90.83779907226932,
              36.02311325117563
            ],
            [
              -90.8388977047652,
              36.020610809341406
            ],
            [
              -90.84569549575048,
              36.011112213058254
            ],
            [
              -90.85509491030183,
              36.002010344601786
            ],
            [
              -90.85399627690663,
              35.99571227989787
            ],
            [
              -90.85889434809565,
              35.994213103751804
            ],
            [
              -90.8579940799628,
              35.99081039378467
            ],
            [
              -90.84519958529256,
              35.98681259162788
            ],
            [
              -90.84689331087753,
              35.98501205356348
            ],
            [
              -90.8422927857834,
              35.98271179191573
            ],
            [
              -90.84189605705734,
              35.97911071758563
            ],
            [
              -90.84819793668538,
              35.97781372072666
            ],
            [
              -90.84409332294848,
              35.97381210274642
            ],
            [
              -90.8514938350724,
              35.97131347673559
            ],
            [
              -90.85239410410458,
              35.96921157765223
            ],
            [
              -90.85109710724566,
              35.96431350736253
            ],
            [
              -90.85469818067645,
              35.961910248159484
            ],
            [
              -90.85499572767066,
              35.95921325688636
            ],
            [
              -90.85769653296859,
              35.95931243861821
            ],
            [
              -90.86100006120381,
              35.95471191442334
            ],
            [
              -90.85879516636379,
              35.95451355006031
            ],
            [
              -90.85769653296859,
              35.95131301938039
            ],
            [
              -90.8589935298275,
              35.94901275593401
            ],
            [
              -90.86459350568572,
              35.94751357978794
            ],
            [
              -90.86079406699258,
              35.945312499872045
            ],
            [
              -90.86219787633087,
              35.94161224381003
            ],
            [
              -90.86519622772369,
              35.940910339140885
            ],
            [
              -90.86319732619563,
              35.93921278783995
            ],
            [
              -90.86289978010075,
              35.93041229209365
            ],
            [
              -90.85959625186547,
              35.93001174934278
            ],
            [
              -90.86089324962376,
              35.92461395277178
            ],
            [
              -90.87220001202093,
              35.92441177438394
            ],
            [
              -90.87289428684181,
              35.88121032719488
            ],
            [
              -91.03269958491785,
              35.88511276164468
            ],
            [
              -91.03819274919596,
              35.64971160890366
            ],
            [
              -91.04029846230418,
              35.273513793626705
            ],
            [
              -91.04529571522505,
              35.00201415972572
            ],
            [
              -91.14979553223799,
              35.00251388510776
            ],
            [
              -91.15239715580407,
              34.91191101108433
            ],
            [
              -91.11669921919355,
              34.91121292133931
            ],
            [
              -91.11709594702029,
              34.867313385304556
            ],
            [
              -91.10019683771384,
              34.86721038774925
            ],
            [
              -91.10159301810324,
              34.73501205426294
            ],
            [
              -91.04929351828122,
              34.734111786130086
            ],
            [
              -91.05479431240758,
              34.47091293338519
            ],
            [
              -91.0013961791903,
              34.469512938971036
            ],
            [
              -91.00049591105739,
              34.46411132837517
            ],
            [
              -91.0024948125855,
              34.33621215806471
            ],
            [
              -91.05569458143975,
              34.336311339796566
            ],
            [
              -91.05339813201812,
              34.332813263021706
            ],
            [
              -91.05619811994723,
              34.326110839743535
            ],
            [
              -91.05459594714523,
              34.32291030906356
            ],
            [
              -91.06219482543082,
              34.320911406636185
            ],
            [
              -91.06399536079721,
              34.31881332427554
            ],
            [
              -91.05719757071131,
              34.31841278062535
            ],
            [
              -91.05349731374997,
              34.316612244359646
            ],
            [
              -91.05220031689106,
              34.31281280476719
            ],
            [
              -91.05619811994723,
              34.309413909724185
            ],
            [
              -91.06229400626336,
              34.312011719265456
            ],
            [
              -91.06449890110338,
              34.31101226760211
            ],
            [
              -91.0606002815777,
              34.30411148086023
            ],
            [
              -91.06119537376748,
              34.297512054237984
            ],
            [
              -91.05839538583837,
              34.29031372140116
            ],
            [
              -91.059997560439,
              34.287513732572734
            ],
            [
              -91.06309509356367,
              34.28711318982192
            ],
            [
              -91.0654983518674,
              34.28911209134998
            ],
            [
              -91.06499481156129,
              34.29541015605389
            ],
            [
              -91.0688934328856,
              34.29801177961997
            ],
            [
              -91.07289886489065,
              34.29591369636006
            ],
            [
              -91.07419586174956,
              34.28661346443988
            ],
            [
              -91.07759857171669,
              34.281513213963706
            ],
            [
              -91.07429504438073,
              34.27961349506677
            ],
            [
              -91.07349395797974,
              34.27621078509969
            ],
            [
              -91.07539367687667,
              34.26911163309546
            ],
            [
              -91.07359313971159,
              34.266113280803324
            ],
            [
              -91.06489562982944,
              34.26421356190639
            ],
            [
              -91.06839752242769,
              34.260410309188444
            ],
            [
              -91.06279754656947,
              34.255512237999426
            ],
            [
              -91.07009887696154,
              34.249713897778236
            ],
            [
              -91.07849883984954,
              34.25111389219245
            ],
            [
              -91.07809448217455,
              34.24731063767587
            ],
            [
              -91.07429504438073,
              34.24331283641834
            ],
            [
              -91.06759643602669,
              34.24121093733493
            ],
            [
              -91.06559753359926,
              34.23901367234316
            ],
            [
              -91.06709289572052,
              34.228610992103654
            ],
            [
              -91.06589508059346,
              34.223712920914636
            ],
            [
              -91.06079864504142,
              34.217811584037406
            ],
            [
              -91.06949615492357,
              34.21121215831448
            ],
            [
              -91.07180023239476,
              34.199211121096425
            ],
            [
              -91.07460022032387,
              34.197212218668994
            ],
            [
              -91.07909393293863,
              34.196811675918184
            ],
            [
              -91.0846939087968,
              34.20151138274417
            ],
            [
              -91.08769989003787,
              34.20121383664929
            ],
            [
              -91.0942993157608,
              34.18771362328516
            ],
            [
              -91.08759307935708,
              34.18091201827508
            ],
            [
              -91.09379577635394,
              34.17671203593176
            ],
            [
              -91.092300415132,
              34.17361068698369
            ],
            [
              -91.08759307935708,
              34.17021179194069
            ],
            [
              -91.08359527630091,
              34.16211319007169
            ],
            [
              -91.08439636180265,
              34.159111022855484
            ],
            [
              -91.09019470202384,
              34.15561294608062
            ],
            [
              -91.08439636180265,
              34.1463127141605
            ],
            [
              -91.07879638684375,
              34.144412994364245
            ],
            [
              -91.08409881570776,
              34.14111328105315
            ],
            [
              -91.09559631441834,
              34.140712738302284
            ],
            [
              -91.09790039099022,
              34.13881301940535
            ],
            [
              -91.09839630144813,
              34.13221359278316
            ],
            [
              -91.10049438470804,
              34.129512786585906
            ],
            [
              -91.10719299306214,
              34.13211059612718
            ],
            [
              -91.11029815693433,
              34.131610869845815
            ],
            [
              -91.11769866905831,
              34.11951065089585
            ],
            [
              -90.95539855989557,
              34.11951065089585
            ],
            [
              -90.94629669233842,
              34.10941314659948
            ],
            [
              -90.91839599657794,
              34.09301376267507
            ],
            [
              -90.90110015944475,
              34.09471130408349
            ],
            [
              -90.89159393331335,
              34.09801101739458
            ],
            [
              -90.88349914636848,
              34.09691238399938
            ],
            [
              -90.87659454290377,
              34.09291076691841
            ],
            [
              -90.87069702095073,
              34.08361053499823
            ],
            [
              -90.87209320134014,
              34.07611084024313
            ],
            [
              -90.88779449641885,
              34.055412292243545
            ],
            [
              -90.88899993959552,
              34.047611237368756
            ],
            [
              -90.88710021979927,
              34.03371048035444
            ],
            [
              -90.89039611818629,
              34.02821350115221
            ],
            [
              -90.89329534900111,
              34.02641293880612
            ],
            [
              -90.89819335903627,
              34.024211884071235
            ],
            [
              -90.91209411605058,
              34.02201080325602
            ],
            [
              -90.9227981573091,
              34.02321243330721
            ],
            [
              -90.94269561800832,
              34.01801300019986
            ],
            [
              -90.95029449539459,
              34.01781082181202
            ],
            [
              -90.97069549640003,
              34.021614075429284
            ],
            [
              -90.98799896158278,
              34.019012450963885
            ],
            [
              -90.97989654478965,
              33.99871063169036
            ],
            [
              -90.9681930545658,
              33.988513946561454
            ],
            [
              -90.96139526358053,
              33.97901153625344
            ],
            [
              -90.96259307870758,
              33.97041320810314
            ],
            [
              -90.96769714410789,
              33.96341323873003
            ],
            [
              -90.97579956090095,
              33.96061325080092
            ],
            [
              -90.98339843828728,
              33.96021270805011
            ],
            [
              -90.99839782689816,
              33.96501159660795
            ],
            [
              -91.00259399431735,
              33.97041320810314
            ],
            [
              -91.01889801143403,
              34.00311279332078
            ],
            [
              -91.03419494613979,
              33.99481201216469
            ],
            [
              -91.04279327429015,
              33.98681259202755
            ],
            [
              -91.04839325014837,
              33.98511123659432
            ],
            [
              -91.07539367687667,
              33.98361206134763
            ],
            [
              -91.08319854757485,
              33.97991180438629
            ],
            [
              -91.08909607042727,
              33.97261047399422
            ],
            [
              -91.08950042720289,
              33.96391296411207
            ],
            [
              -91.0881958013951,
              33.96021270805011
            ],
            [
              -91.08359527630091,
              33.956012725706785
            ],
            [
              -91.03909301822819,
              33.944911956621524
            ],
            [
              -91.02119445815771,
              33.93771362288544
            ],
            [
              -91.01099395810462,
              33.93021392813034
            ],
            [
              -91.01089477457413,
              33.925510406380226
            ],
            [
              -91.02639770528981,
              33.90801238995988
            ],
            [
              -91.05529785181437,
              33.88301086386031
            ],
            [
              -91.07089996336259,
              33.86671066256707
            ],
            [
              -91.07279968315879,
              33.862411499391214
            ],
            [
              -91.07279968315879,
              33.85621261641916
            ],
            [
              -91.06689453135749,
              33.839710235838766
            ],
            [
              -91.04679870629525,
              33.815513611064375
            ],
            [
              -91.02379608172373,
              33.80561065710617
            ],
            [
              -91.00849914611865,
              33.80281066917712
            ],
            [
              -91.00039672932559,
              33.799610137597824
            ],
            [
              -90.99129486086912,
              33.79171371501599
            ],
            [
              -90.98849487294001,
              33.784511566355775
            ],
            [
              -90.98939514197218,
              33.780612945930784
            ],
            [
              -90.99379730180402,
              33.77361297565835
            ],
            [
              -91.00009918233138,
              33.76921081492719
            ],
            [
              -91.02239990223364,
              33.76311111458631
            ],
            [
              -91.02679443401587,
              33.76361083996835
            ],
            [
              -91.0526962282483,
              33.77811050409656
            ],
            [
              -91.08549499519785,
              33.77641296358746
            ],
            [
              -91.10729980644089,
              33.770610809341406
            ],
            [
              -91.11769866905831,
              33.77891159139688
            ],
            [
              -91.12469482440656,
              33.78241348309581
            ],
            [
              -91.13219451916171,
              33.783412932960516
            ],
            [
              -91.14019775422292,
              33.77661132795049
            ],
            [
              -91.14409637644656,
              33.76961135857738
            ],
            [
              -91.14499664278082,
              33.76571273815239
            ],
            [
              -91.14099883972466,
              33.759811401275215
            ],
            [
              -91.14469909758526,
              33.750011443972994
            ],
            [
              -91.14339446997877,
              33.747211456043885
            ],
            [
              -91.14640045211911,
              33.73721313527801
            ],
            [
              -91.14609527617603,
              33.72981262225477
            ],
            [
              -91.13229370089357,
              33.714111328075376
            ],
            [
              -91.1257934569025,
              33.7090110775992
            ],
            [
              -91.11719512875214,
              33.70531082243656
            ],
            [
              -91.09679412774676,
              33.70561218255625
            ],
            [
              -91.06869506942189,
              33.71641159062244
            ],
            [
              -91.05729675334243,
              33.713512420961536
            ],
            [
              -91.04759979179693,
              33.707012176970466
            ],
            [
              -91.0412979130682,
              33.69991302496618
            ],
            [
              -91.03589630157302,
              33.68911361689993
            ],
            [
              -91.03089904775283,
              33.687911986848746
            ],
            [
              -91.03089904775283,
              33.67971038832383
            ],
            [
              -91.03569793720999,
              33.672111510937555
            ],
            [
              -91.04469299318703,
              33.668613434162694
            ],
            [
              -91.05919647223936,
              33.6664123542468
            ],
            [
              -91.07849883984954,
              33.65831375057917
            ],
            [
              -91.09109497105601,
              33.65771102944052
            ],
            [
              -91.10099792501421,
              33.66051101736963
            ],
            [
              -91.12960052544383,
              33.674011229834434
            ],
            [
              -91.1605987552283,
              33.706813811708116
            ],
            [
              -91.17569732736973,
              33.703113555646155
            ],
            [
              -91.20659637542235,
              33.700511932080076
            ],
            [
              -91.21949767897468,
              33.69361114443882
            ],
            [
              -91.22509765573221,
              33.6880111685806
            ],
            [
              -91.22899627705652,
              33.677513123332005
            ],
            [
              -91.22819518975615,
              33.67131042543582
            ],
            [
              -91.22369384819251,
              33.66571044867834
            ],
            [
              -91.21599578907438,
              33.66011047371944
            ],
            [
              -91.18239593482451,
              33.65271377562033
            ],
            [
              -91.16419982955847,
              33.643310547044166
            ],
            [
              -91.13719940193084,
              33.62321090705774
            ],
            [
              -91.13129425012949,
              33.61201095624068
            ],
            [
              -91.13049316372849,
              33.60481262160528
            ],
            [
              -91.13399505632674,
              33.59451293892107
            ],
            [
              -91.1533966065681,
              33.58231353823925
            ],
            [
              -91.16079711959134,
              33.58131027165177
            ],
            [
              -91.1770935059605,
              33.58281326272197
            ],
            [
              -91.19829559336688,
              33.572010039731595
            ],
            [
              -91.22409820586745,
              33.56741332956159
            ],
            [
              -91.23130035542704,
              33.561012268201694
            ],
            [
              -91.24299621580269,
              33.56121063166535
            ],
            [
              -91.24469757123586,
              33.55871200565457
            ],
            [
              -91.2457962037318,
              33.517112732166936
            ],
            [
              -91.32449340824417,
              33.51861190831295
            ],
            [
              -91.32429504388114,
              33.52601242133625
            ],
            [
              -91.33319854707526,
              33.5263137823552
            ],
            [
              -91.33319854707526,
              33.5336112978232
            ],
            [
              -91.34619903595672,
              33.5336112978232
            ],
            [
              -91.3464965820516,
              33.52071380559772
            ],
            [
              -91.35079956105085,
              33.51951217734518
            ],
            [
              -91.34989929201868,
              33.563610076843645
            ],
            [
              -91.45349883999944,
              33.563613891767716
            ],
            [
              -91.45759582478746,
              33.38901138256932
            ],
            [
              -91.98959350613535,
              33.39811325102579
            ],
            [
              -91.9868926999381,
              33.38751220732257
            ],
            [
              -91.97349548322995,
              33.384712219393464
            ],
            [
              -91.96069335871152,
              33.37921142616642
            ],
            [
              -91.96129608344745,
              33.37591171285533
            ],
            [
              -91.96999359243028,
              33.367610930799856
            ],
            [
              -91.96719360540055,
              33.35671234100181
            ],
            [
              -91.97200012200801,
              33.35001373264771
            ],
            [
              -91.97929382255182,
              33.34631347658575
            ],
            [
              -91.9836959841823,
              33.34601211466742
            ],
            [
              -91.98919677740929,
              33.34841155984566
            ],
            [
              -91.98679351820624,
              33.34111404437772
            ],
            [
              -91.976295471159,
              33.32681274371322
            ],
            [
              -91.97429657142959,
              33.320613860741105
            ],
            [
              -91.97589874333232,
              33.31731414832933
            ],
            [
              -91.9749984743001,
              33.31381225573108
            ],
            [
              -91.97809600832409,
              33.31081390433826
            ],
            [
              -91.97609710679603,
              33.30801391640915
            ],
            [
              -91.9777984622292,
              33.302612304913964
            ],
            [
              -91.98099517798505,
              33.299213408971696
            ],
            [
              -91.98600006075418,
              33.29861068693373
            ],
            [
              -91.98849487274015,
              33.30001068134794
            ],
            [
              -91.99409484859837,
              33.29861068693373
            ],
            [
              -91.99259948737642,
              33.30171203588179
            ],
            [
              -91.99469757243497,
              33.30381393406583
            ],
            [
              -92.00090026943184,
              33.30411148106003
            ],
            [
              -92.00859832944928,
              33.29671096803679
            ],
            [
              -92.00109863289555,
              33.28661346374042
            ],
            [
              -92.0022964480226,
              33.284912109206516
            ],
            [
              -92.0068969731168,
              33.2835121147923
            ],
            [
              -92.01009368887259,
              33.28501129183769
            ],
            [
              -92.02289581339102,
              33.27831268258427
            ],
            [
              -92.02369689889275,
              33.27571105991751
            ],
            [
              -92.02729797412218,
              33.27481079088534
            ],
            [
              -92.02789306631195,
              33.279911041361515
            ],
            [
              -92.03079986582111,
              33.28241348319574
            ],
            [
              -92.04149627723137,
              33.27761077881445
            ],
            [
              -92.03730010981218,
              33.26711273176721
            ],
            [
              -92.04329681439646,
              33.2675132754174
            ],
            [
              -92.04609680232551,
              33.265411377233306
            ],
            [
              -92.0483932499485,
              33.262413024941225
            ],
            [
              -92.04539489675705,
              33.25681304908301
            ],
            [
              -92.04859924326041,
              33.25641250633214
            ],
            [
              -92.05309295677449,
              33.25301361128919
            ],
            [
              -92.06019592280353,
              33.25701141434536
            ],
            [
              -92.06389617886555,
              33.2543106081481
            ],
            [
              -92.06539916993569,
              33.25041198682379
            ],
            [
              -92.0681991578648,
              33.25271225027018
            ],
            [
              -92.07319641078567,
              33.25031280509194
            ],
            [
              -92.06959533735488,
              33.24191284220393
            ],
            [
              -92.07209777828979,
              33.23821258524265
            ],
            [
              -92.07349395777987,
              33.240711212152746
            ],
            [
              -92.07759857241615,
              33.238113402611475
            ],
            [
              -92.081596374573,
              33.237911224223694
            ],
            [
              -92.0851974489031,
              33.240711212152746
            ],
            [
              -92.08860015887018,
              33.238311767873824
            ],
            [
              -92.08950042700309,
              33.2348136901997
            ],
            [
              -92.0859985353041,
              33.23351287931598
            ],
            [
              -92.08809661856407,
              33.23131179760145
            ],
            [
              -92.08779907156986,
              33.22761154243881
            ],
            [
              -92.08089446990385,
              33.22651290904355
            ],
            [
              -92.08099365343435,
              33.2120132449154
            ],
            [
              -92.11269378698864,
              33.21221160927837
            ],
            [
              -92.11459350588558,
              33.20731353808935
            ],
            [
              -92.11829376194754,
              33.20571136528736
            ],
            [
              -92.12739563040401,
              33.20901107769913
            ],
            [
              -92.13599395855431,
              33.19561386099093
            ],
            [
              -92.13599395855431,
              33.1910133358968
            ],
            [
              -92.13789367655187,
              33.18801116868053
            ],
            [
              -92.1337966917639,
              33.18671035779681
            ],
            [
              -92.1309967038348,
              33.18911361699986
            ],
            [
              -92.1294937127646,
              33.18691253708397
            ],
            [
              -92.1287002562118,
              33.18301010083553
            ],
            [
              -92.13369751003205,
              33.18371200640405
            ],
            [
              -92.1300964366012,
              33.18001174944271
            ],
            [
              -92.13289642273168,
              33.177711486895646
            ],
            [
              -92.13309478799403,
              33.175312041717405
            ],
            [
              -92.1309967038348,
              33.1729125983378
            ],
            [
              -92.13240051317308,
              33.16991043112154
            ],
            [
              -92.13779449482007,
              33.163414001155274
            ],
            [
              -92.14409637534743,
              33.16181182925254
            ],
            [
              -92.14779663140939,
              33.162311553735265
            ],
            [
              -92.14529418957517,
              33.16821289061244
            ],
            [
              -92.14719390937137,
              33.16971206675851
            ],
            [
              -92.16109466638574,
              33.16851043670732
            ],
            [
              -92.15989685125862,
              33.16221237200341
            ],
            [
              -92.16349792558879,
              33.16121292123938
            ],
            [
              -92.17070007334968,
              33.16281127911731
            ],
            [
              -92.17189788757742,
              33.16501235993252
            ],
            [
              -92.16559600794938,
              33.168613434262625
            ],
            [
              -92.16299438528262,
              33.171913146674456
            ],
            [
              -92.16579437321172,
              33.177410125876634
            ],
            [
              -92.16869354197337,
              33.17941284232887
            ],
            [
              -92.1680984497836,
              33.18381118813585
            ],
            [
              -92.17179870584556,
              33.18211364672749
            ],
            [
              -92.17419433609967,
              33.18301391575966
            ],
            [
              -92.17309570270447,
              33.18931198136289
            ],
            [
              -92.17999267632092,
              33.18651199343378
            ],
            [
              -92.18169403085483,
              33.18911361699986
            ],
            [
              -92.17979431195789,
              33.19261169377472
            ],
            [
              -92.17469787640584,
              33.19471359285808
            ],
            [
              -92.17839813156849,
              33.197113037137
            ],
            [
              -92.17929840060066,
              33.200012206797965
            ],
            [
              -92.17799377389349,
              33.20691299443922
            ],
            [
              -92.17949676496369,
              33.213211060042454
            ],
            [
              -92.18169403085483,
              33.213611602793264
            ],
            [
              -92.1861953742171,
              33.205810547019155
            ],
            [
              -92.19499969478005,
              33.20181274396299
            ],
            [
              -92.19770050007799,
              33.201911925694844
            ],
            [
              -92.2015991214023,
              33.20491027798698
            ],
            [
              -92.20889282194616,
              33.20201110832602
            ],
            [
              -92.21539306593723,
              33.20921325698629
            ],
            [
              -92.22189331082757,
              33.20931243871814
            ],
            [
              -92.22389984130461,
              33.21071243313236
            ],
            [
              -92.22469329785736,
              33.215412139958346
            ],
            [
              -92.22279357896048,
              33.221412658567374
            ],
            [
              -92.2149963381105,
              33.22261047369443
            ],
            [
              -92.21169280987522,
              33.224910736241554
            ],
            [
              -92.21529388420538,
              33.22691345179442
            ],
            [
              -92.22329711926659,
              33.22771072417066
            ],
            [
              -92.23320007322474,
              33.23211288490177
            ],
            [
              -92.23399352977754,
              33.2348136901997
            ],
            [
              -92.22549438515773,
              33.24261093104968
            ],
            [
              -92.22449493439365,
              33.252811432002034
            ],
            [
              -92.22639465329058,
              33.25401306205322
            ],
            [
              -92.23789978005078,
              33.25771331811518
            ],
            [
              -92.2402954103049,
              33.25161361687498
            ],
            [
              -92.24599456789497,
              33.25051116855565
            ],
            [
              -92.25589752185311,
              33.25691223081486
            ],
            [
              -92.26579284686238,
              33.25451278743526
            ],
            [
              -92.26849365216026,
              33.256111145313184
            ],
            [
              -92.26829528779723,
              33.26291275032321
            ],
            [
              -92.27289581289142,
              33.26701355003536
            ],
            [
              -92.28179931608554,
              33.2675132754174
            ],
            [
              -92.28669738817388,
              33.263713836724264
            ],
            [
              -92.2896957395667,
              33.26351165833643
            ],
            [
              -92.29369354172354,
              33.26581191998417
            ],
            [
              -92.29129791326807,
              33.27361297575828
            ],
            [
              -92.29359435999169,
              33.279312134247675
            ],
            [
              -92.29699706995876,
              33.28081131039369
            ],
            [
              -92.30069732692004,
              33.27891159059749
            ],
            [
              -92.30369567921218,
              33.27291107198846
            ],
            [
              -92.30929565417108,
              33.27371215838946
            ],
            [
              -92.31239318819502,
              33.2718124385932
            ],
            [
              -92.3089981080762,
              33.26591110171603
            ],
            [
              -92.3134002688073,
              33.262413024941225
            ],
            [
              -92.3244934080443,
              33.26221084565407
            ],
            [
              -92.32649993942061,
              33.26361084006828
            ],
            [
              -92.32519531271345,
              33.26661300728449
            ],
            [
              -92.32740020755352,
              33.27201080295623
            ],
            [
              -92.3274993901847,
              33.279113769884646
            ],
            [
              -92.33669281142409,
              33.27581024164937
            ],
            [
              -92.34559631281957,
              33.28131103487641
            ],
            [
              -92.35769653356812,
              33.28181076025845
            ],
            [
              -92.35859680260035,
              33.286411285352585
            ],
            [
              -92.357192993262,
              33.28981399531966
            ],
            [
              -92.35209655770996,
              33.2934112547257
            ],
            [
              -92.3501968379137,
              33.29691314732395
            ],
            [
              -92.3504943849079,
              33.29931259160287
            ],
            [
              -92.35649871844106,
              33.30181121761365
            ],
            [
              -92.35959625156573,
              33.29911041321503
            ],
            [
              -92.3612976069989,
              33.291610717560616
            ],
            [
              -92.37079620418143,
              33.28801345815464
            ],
            [
              -92.3746948237071,
              33.28221130390858
            ],
            [
              -92.38059997640772,
              33.27871322623446
            ],
            [
              -92.3947982804163,
              33.27761077881445
            ],
            [
              -92.40449523926384,
              33.27461242742163
            ],
            [
              -92.41919708357852,
              33.27371215838946
            ],
            [
              -92.43139648426029,
              33.27061080944134
            ],
            [
              -92.43190002456646,
              33.27491378844064
            ],
            [
              -92.43389892609451,
              33.27701187080123
            ],
            [
              -92.44259643597672,
              33.27371215838946
            ],
            [
              -92.44519806044212,
              33.27561187728634
            ],
            [
              -92.4452972412746,
              33.2800140380175
            ],
            [
              -92.45299530039279,
              33.28731155438476
            ],
            [
              -92.45589447005369,
              33.2870101933658
            ],
            [
              -92.45959472701503,
              33.283813476710634
            ],
            [
              -92.47279357936014,
              33.29371261574465
            ],
            [
              -92.47309875530328,
              33.29581069900462
            ],
            [
              -92.45899963392594,
              33.30341339131502
            ],
            [
              -92.45889282234583,
              33.30551147457493
            ],
            [
              -92.46479797414713,
              33.303913115797684
            ],
            [
              -92.47059631256974,
              33.30631256097598
            ],
            [
              -92.45889282234583,
              33.31551361116425
            ],
            [
              -92.46069336041023,
              33.32001113870314
            ],
            [
              -92.46799468990298,
              33.31471252386393
            ],
            [
              -92.47159576423309,
              33.315410613609004
            ],
            [
              -92.47709655835945,
              33.32571029719253
            ],
            [
              -92.47979736275806,
              33.32741165172638
            ],
            [
              -92.48579406734228,
              33.32161331240451
            ],
            [
              -92.48499298094129,
              33.31731414832933
            ],
            [
              -92.48749542187619,
              33.315612792896104
            ],
            [
              -92.49099731357512,
              33.31681060802322
            ],
            [
              -92.49709320079057,
              33.32621383659932
            ],
            [
              -92.50019836376345,
              33.327510834357554
            ],
            [
              -92.50459289644499,
              33.32661056532538
            ],
            [
              -92.5103988647158,
              33.322311401250204
            ],
            [
              -92.52349853532911,
              33.31671142629136
            ],
            [
              -92.52649688672193,
              33.31921386722627
            ],
            [
              -92.52589416558322,
              33.322113036887174
            ],
            [
              -92.52330017096608,
              33.32791137710842
            ],
            [
              -92.51949310332401,
              33.33111190778834
            ],
            [
              -92.52199554425891,
              33.33331298770429
            ],
            [
              -92.52579498295205,
              33.3322105411836
            ],
            [
              -92.52890014592498,
              33.338413239079784
            ],
            [
              -92.52879333524419,
              33.342510222968485
            ],
            [
              -92.53499603314037,
              33.347911835362936
            ],
            [
              -92.53269958641675,
              33.35521316485574
            ],
            [
              -92.5426940922585,
              33.35731124901497
            ],
            [
              -92.54689788772731,
              33.360313416231236
            ],
            [
              -92.54729461735269,
              33.36541366580809
            ],
            [
              -92.56129455609886,
              33.362010955841015
            ],
            [
              -92.56799316355364,
              33.36781311008701
            ],
            [
              -92.57589721688299,
              33.3700103759781
            ],
            [
              -92.5778961184111,
              33.36771392835516
            ],
            [
              -92.58559417842855,
              33.36861038156388
            ],
            [
              -92.58709716859943,
              33.37101364076693
            ],
            [
              -92.59389495778606,
              33.373313904213376
            ],
            [
              -92.59679412834629,
              33.372211455894046
            ],
            [
              -92.59589386021344,
              33.36971282988327
            ],
            [
              -92.59909820581748,
              33.36861038156388
            ],
            [
              -92.60249328593636,
              33.36441040011994
            ],
            [
              -92.59949493544286,
              33.36131286609594
            ],
            [
              -92.61079406709251,
              33.363910674737895
            ],
            [
              -92.61329650892674,
              33.36041259796309
            ],
            [
              -92.622497559115,
              33.359210967911906
            ],
            [
              -92.62959289619516,
              33.361812592377305
            ],
            [
              -92.63269805916804,
              33.36531066915211
            ],
            [
              -92.643997191717,
              33.36791229181887
            ],
            [
              -92.65379333499436,
              33.3640136722932
            ],
            [
              -92.6540985109375,
              33.3614120478278
            ],
            [
              -92.65809631309435,
              33.35751342830213
            ],
            [
              -92.66179657005563,
              33.35621261561977
            ],
            [
              -92.6816940307549,
              33.36041259796309
            ],
            [
              -92.68409728995795,
              33.36301040570572
            ],
            [
              -92.68239593542404,
              33.365211487420254
            ],
            [
              -92.68909454287882,
              33.367412567336146
            ],
            [
              -92.70179748476608,
              33.36691284195416
            ],
            [
              -92.7144927977044,
              33.370910645010326
            ],
            [
              -92.71709442127047,
              33.378211975402394
            ],
            [
              -92.72629547055948,
              33.38381195126061
            ],
            [
              -92.74779510496006,
              33.383911132992466
            ],
            [
              -92.75899505577718,
              33.38791275007338
            ],
            [
              -92.76279449536963,
              33.38381195126061
            ],
            [
              -92.7677001964069,
              33.38091278070033
            ],
            [
              -92.77059936516855,
              33.381313324350515
            ],
            [
              -92.77959442114559,
              33.37461090107229
            ],
            [
              -92.78540039121503,
              33.37701034535121
            ],
            [
              -92.7965927121839,
              33.372512816913
            ],
            [
              -93.11899566731614,
              33.38031387268711
            ],
            [
              -93.10489654503948,
              33.77741241525081
            ],
            [
              -93.1119995119679,
              33.779510497611454
            ],
            [
              -93.1108932514224,
              33.78181076015852
            ],
            [
              -93.11739349541347,
              33.787513732672664
            ],
            [
              -93.12709808320994,
              33.79191207937902
            ],
            [
              -93.128700256012,
              33.79391098000775
            ],
            [
              -93.12719726584112,
              33.79541397107795
            ],
            [
              -93.127494811936,
              33.7980117797199
            ],
            [
              -93.13339996283798,
              33.808311462404106
            ],
            [
              -93.13979339614826,
              33.81541061440839
            ],
            [
              -93.14909362806844,
              33.81251144384811
            ],
            [
              -93.14709472743971,
              33.809711455919
            ],
            [
              -93.1553955085958,
              33.81061172495117
            ],
            [
              -93.15699768139785,
              33.81321334761793
            ],
            [
              -93.16589355474372,
              33.80581283639333
            ],
            [
              -93.16829681394677,
              33.80521392838017
            ],
            [
              -93.17109680187588,
              33.80711364727705
            ],
            [
              -93.17929840130012,
              33.800712585017834
            ],
            [
              -93.18539428671693,
              33.804611206342145
            ],
            [
              -93.18429565422105,
              33.80711364727705
            ],
            [
              -93.18739318824498,
              33.81181335410304
            ],
            [
              -93.19109344520632,
              33.81321334761793
            ],
            [
              -93.19099426257515,
              33.81531143177722
            ],
            [
              -93.19409942644734,
              33.81621169991007
            ],
            [
              -93.1955947885686,
              33.81861114508831
            ],
            [
              -93.1996002205737,
              33.817413329961255
            ],
            [
              -93.19919586199939,
              33.820011138603206
            ],
            [
              -93.20899963422568,
              33.822612762169285
            ],
            [
              -93.20909881595753,
              33.819610595852396
            ],
            [
              -93.2126998902877,
              33.82171249403643
            ],
            [
              -93.21469879181575,
              33.82581329284926
            ],
            [
              -93.21779632583974,
              33.82161331230458
            ],
            [
              -93.2197952273678,
              33.82231140115027
            ],
            [
              -93.21829986614586,
              33.826313019130566
            ],
            [
              -93.22079467813188,
              33.8290138244285
            ],
            [
              -93.22579956090095,
              33.82961273244172
            ],
            [
              -93.22589874443145,
              33.82661056522545
            ],
            [
              -93.22889709492495,
              33.82611083984341
            ],
            [
              -93.22889709492495,
              33.82881164604066
            ],
            [
              -93.23489380040854,
              33.827812195276636
            ],
            [
              -93.23559570327905,
              33.8307113649376
            ],
            [
              -93.24139404439961,
              33.829113009757634
            ],
            [
              -93.23989868227835,
              33.82531356836654
            ],
            [
              -93.24379730180402,
              33.829311371422705
            ],
            [
              -93.24689483492864,
              33.830211643152836
            ],
            [
              -93.2585983278505,
              33.82921218879153
            ],
            [
              -93.26039886501559,
              33.83181381235761
            ],
            [
              -93.26449584980361,
              33.83361053459856
            ],
            [
              -93.26079559284227,
              33.8368110661778
            ],
            [
              -93.26719665240353,
              33.839012140697776
            ],
            [
              -93.27689361574772,
              33.8368110661778
            ],
            [
              -93.27469634985664,
              33.84051132223976
            ],
            [
              -93.28389740004496,
              33.843811034651594
            ],
            [
              -93.2882003781449,
              33.843612671187884
            ],
            [
              -93.29809570315416,
              33.85581207276897
            ],
            [
              -93.29719543502125,
              33.859210967811975
            ],
            [
              -93.29889678955516,
              33.863712311174254
            ],
            [
              -93.30389404337535,
              33.86991119414637
            ],
            [
              -93.30429840105035,
              33.878513336321475
            ],
            [
              -93.30619811994723,
              33.881713867001395
            ],
            [
              -93.30379486074418,
              33.88471221929353
            ],
            [
              -93.29929351828122,
              33.88591384934472
            ],
            [
              -93.29839325014837,
              33.89161300693479
            ],
            [
              -93.30089569108321,
              33.89611053537294
            ],
            [
              -93.31389617906535,
              33.906810759908694
            ],
            [
              -93.31849670415954,
              33.90591049177584
            ],
            [
              -93.32229614285268,
              33.907913208228024
            ],
            [
              -93.32299804842114,
              33.91071319615713
            ],
            [
              -93.32089996336259,
              33.91351318408624
            ],
            [
              -93.32619476327767,
              33.91801071162507
            ],
            [
              -93.3296966549766,
              33.91661071811018
            ],
            [
              -93.33809661876393,
              33.917011260861045
            ],
            [
              -93.33659362859305,
              33.92131042493622
            ],
            [
              -93.34109497105601,
              33.92881393371613
            ],
            [
              -93.34179687482589,
              33.931510924989254
            ],
            [
              -93.34019470202384,
              33.933910370167496
            ],
            [
              -93.34339904942658,
              33.936710358096605
            ],
            [
              -93.34999847425013,
              33.93411254855533
            ],
            [
              -93.35579681357206,
              33.941013336196534
            ],
            [
              -93.35609436056626,
              33.9450111392527
            ],
            [
              -93.3592987061703,
              33.94711303743679
            ],
            [
              -93.3613967903296,
              33.9450111392527
            ],
            [
              -93.36329650922647,
              33.94611358577339
            ],
            [
              -93.36759948732646,
              33.94881057704657
            ],
            [
              -93.36729431228264,
              33.95191192599464
            ],
            [
              -93.37609863284558,
              33.957412720121
            ],
            [
              -93.38909912082772,
              33.95851135261688
            ],
            [
              -93.39099883972466,
              33.95771408114001
            ],
            [
              -93.38829803532605,
              33.95641326935697
            ],
            [
              -93.39149475108184,
              33.952110291256986
            ],
            [
              -93.39270019515783,
              33.95411300680985
            ],
            [
              -93.39550018308694,
              33.95371246315972
            ],
            [
              -93.39769744897808,
              33.95531082193696
            ],
            [
              -93.39999389660102,
              33.95201110772649
            ],
            [
              -93.41419982955847,
              33.953411102140706
            ],
            [
              -93.41859436044132,
              33.9499130253659
            ],
            [
              -93.42009735241083,
              33.95361328142786
            ],
            [
              -93.42489624006942,
              33.95311355604582
            ],
            [
              -93.42619323692833,
              33.95551300032474
            ],
            [
              -93.43509674102177,
              33.95581054731895
            ],
            [
              -93.437995911582,
              33.958110808966694
            ],
            [
              -93.44429779121003,
              33.956611632820625
            ],
            [
              -93.44579315243197,
              33.95931243901788
            ],
            [
              -93.4480972290039,
              33.958110808966694
            ],
            [
              -93.45259857236618,
              33.961013793551786
            ],
            [
              -93.45579528812203,
              33.95981216439992
            ],
            [
              -93.46019744885314,
              33.96191406168464
            ],
            [
              -93.46579742381203,
              33.95961380003689
            ],
            [
              -93.46689605720724,
              33.9635124213612
            ],
            [
              -93.46959686340449,
              33.96361160309306
            ],
            [
              -93.47149658230137,
              33.96161270066568
            ],
            [
              -93.47699737642773,
              33.96071243343209
            ],
            [
              -93.47859954833046,
              33.95591354397493
            ],
            [
              -93.4914932247325,
              33.956012725706785
            ],
            [
              -93.49799346872356,
              33.95351409879669
            ],
            [
              -93.49419403092975,
              33.94911193806553
            ],
            [
              -93.49689483622768,
              33.94781112718181
            ],
            [
              -93.5277938842803,
              33.94371414239379
            ],
            [
              -93.53159332297344,
              33.95441055290473
            ],
            [
              -93.53549957324668,
              33.954513549560716
            ],
            [
              -93.5380935669645,
              33.95181274426278
            ],
            [
              -93.5420989989696,
              33.95111083959364
            ],
            [
              -93.54719543542097,
              33.952110291256986
            ],
            [
              -93.55319976805481,
              33.95571136468777
            ],
            [
              -93.56839752192803,
              33.957710266215884
            ],
            [
              -93.56749725289586,
              33.95981216439992
            ],
            [
              -93.57099914639343,
              33.96061325080092
            ],
            [
              -93.57509613028213,
              33.959712981768746
            ],
            [
              -93.57659912135233,
              33.957511901852854
            ],
            [
              -93.58629608199857,
              33.95960998511276
            ],
            [
              -93.58929443429065,
              33.96431350686288
            ],
            [
              -93.6039962768067,
              33.96321106034219
            ],
            [
              -93.61100006110388,
              33.95961380003689
            ],
            [
              -93.61719512915187,
              33.96001052876295
            ],
            [
              -93.6194992084217,
              33.965110779239126
            ],
            [
              -93.622200011921,
              33.96531295762696
            ],
            [
              -93.62629699670902,
              33.969810486065114
            ],
            [
              -93.62879943944256,
              33.96861267093806
            ],
            [
              -93.6284942626001,
              33.97281265328138
            ],
            [
              -93.63999939025962,
              33.97431182942745
            ],
            [
              -93.64099884012433,
              33.97691345209421
            ],
            [
              -93.64439392114252,
              33.977012633826064
            ],
            [
              -93.6462936400394,
              33.982013701671065
            ],
            [
              -93.6636962887527,
              33.98171234065205
            ],
            [
              -93.68219757086115,
              33.984111785830294
            ],
            [
              -93.6986999514416,
              33.994510651145674
            ],
            [
              -93.71309661891382,
              33.9951133731837
            ],
            [
              -93.72279357956,
              33.99721145644361
            ],
            [
              -93.73130035402806,
              34.00201034500145
            ],
            [
              -93.74479675336744,
              34.002811432301826
            ],
            [
              -93.74969482455646,
              34.006713866751625
            ],
            [
              -93.82299804742189,
              34.00891113264271
            ],
            [
              -93.82109832942433,
              34.183811187936044
            ],
            [
              -93.91639709534962,
              34.18611144958379
            ],
            [
              -93.92599487336469,
              34.18781280501702
            ],
            [
              -93.92440033041089,
              34.26261138910439
            ],
            [
              -93.93659973109266,
              34.2631111153857
            ],
            [
              -93.93539428701672,
              34.35021209231428
            ],
            [
              -94.25469970722565,
              34.35481262190501
            ],
            [
              -94.25599670408457,
              34.27071380589746
            ],
            [
              -94.24389648423534,
              34.26941299411442
            ],
            [
              -94.24329376219731,
              34.192512511843006
            ],
            [
              -94.47029876697445,
              34.18991088917625
            ],
            [
              -94.45739746072422,
              34.64231109608028
            ],
            [
              -94.44829559316707,
              34.92171096838655
            ],
            [
              -94.446495056002,
              34.93401336662362
            ],
            [
              -94.43139648386062,
              34.93101120030673
            ],
            [
              -94.4289932255569,
              34.93171310407655
            ],
            [
              -94.41909790144695,
              34.93921279883165
            ],
            [
              -94.41369628905244,
              34.946712493586745
            ],
            [
              -94.40769958536754,
              34.949813843434185
            ],
            [
              -94.39209747292,
              34.94381332392584
            ],
            [
              -94.37599945091387,
              34.94901275613387
            ],
            [
              -94.36809539758451,
              34.96181106572817
            ],
            [
              -94.36029815673453,
              34.961914062384096
            ],
            [
              -94.3504943854075,
              34.94901275613387
            ],
            [
              -94.34239959756331,
              34.9475135799878
            ],
            [
              -94.33379363956476,
              34.949813843434185
            ],
            [
              -94.32919311536995,
              34.954711913723884
            ],
            [
              -94.32289886559016,
              34.955612182756056
            ],
            [
              -94.3009948744139,
              34.95251083380799
            ],
            [
              -94.26479339659795,
              34.958011627035035
            ],
            [
              -94.25529480031474,
              34.96011352521907
            ],
            [
              -94.2496948235572,
              34.96381378218035
            ],
            [
              -94.23410034185724,
              34.967514038242314
            ],
            [
              -94.23049926842646,
              34.96981048586531
            ],
            [
              -94.22859954773088,
              35.0575141911271
            ],
            [
              -94.25000000039967,
              35.05811309824094
            ],
            [
              -94.2494964600935,
              35.06571197472789
            ],
            [
              -94.22829437358644,
              35.07181167596815
            ],
            [
              -94.22309875540321,
              35.07191085769995
            ],
            [
              -94.22289276119193,
              35.07831191995916
            ],
            [
              -94.22029876657479,
              35.07911300725954
            ],
            [
              -94.19549560483824,
              35.07851028432219
            ],
            [
              -94.19529724137453,
              35.08591079734549
            ],
            [
              -94.18169403135443,
              35.08561325125061
            ],
            [
              -94.18159484872325,
              35.089210509757265
            ],
            [
              -94.17720031694103,
              35.089210509757265
            ],
            [
              -94.17689514189726,
              35.09251403799249
            ],
            [
              -94.15889740009493,
              35.09251403799249
            ],
            [
              -94.15859985400004,
              35.0998115543598
            ],
            [
              -94.14059448234946,
              35.0998115543598
            ],
            [
              -94.13929748459122,
              35.143310546744374
            ],
            [
              -94.03149414114165,
              35.14091110156613
            ],
            [
              -94.02829742358722,
              35.230213164705845
            ],
            [
              -94.00689697271707,
              35.23111343373802
            ],
            [
              -93.93329620375675,
              35.22971344022312
            ],
            [
              -93.92009735141158,
              35.23121261636919
            ],
            [
              -93.91619873008727,
              35.31901168843871
            ],
            [
              -93.8100967411716,
              35.313110351561534
            ],
            [
              -93.80679321293638,
              35.42991256681154
            ],
            [
              -93.8020935061104,
              35.41721343984841
            ],
            [
              -93.79380035390318,
              35.401912689319204
            ],
            [
              -93.78599548320494,
              35.39361190816311
            ],
            [
              -93.76019287070437,
              35.37731170686982
            ],
            [
              -93.75449371311436,
              35.36681365982258
            ],
            [
              -93.74749755956469,
              35.36461257900737
            ],
            [
              -93.73389434774589,
              35.36911392236965
            ],
            [
              -93.7180938718347,
              35.36931228583336
            ],
            [
              -93.7141952514097,
              35.373813629195695
            ],
            [
              -93.70989990225866,
              35.375312805341764
            ],
            [
              -93.69599914614366,
              35.768512725681774
            ],
            [
              -93.51919555702932,
              35.762710571435775
            ],
            [
              -93.51709747287003,
              35.823310852413954
            ],
            [
              -93.52539825402619,
              35.823612213432966
            ],
            [
              -93.52369689859296,
              35.880813599368196
            ],
            [
              -93.50669860755465,
              35.881111144563704
            ],
            [
              -93.50489807128895,
              35.92521285988562
            ],
            [
              -93.48729705821262,
              35.92441177438394
            ],
            [
              -93.48609924308556,
              35.95331192000913
            ],
            [
              -93.46879577610417,
              35.953113555646155
            ],
            [
              -93.46689605720724,
              35.96751403804245
            ],
            [
              -93.45199585032822,
              35.96751403804245
            ],
            [
              -93.45069885256993,
              35.97051239033459
            ],
            [
              -93.4481964107357,
              36.0530128475649
            ],
            [
              -93.44579315243197,
              36.08051299967525
            ],
            [
              -93.4800949095524,
              36.081912994089464
            ],
            [
              -93.47999572782055,
              36.125213623010325
            ],
            [
              -93.3000946037829,
              36.121311187661206
            ],
            [
              -93.29619598425722,
              36.36421203605664
            ],
            [
              -93.2959976198942,
              36.498111724976184
            ],
            [
              -92.46089935282282,
              36.498710632090024
            ],
            [
              -92.37519836401327,
              36.49721145594401
            ],
            [
              -92.12030029332385,
              36.49941253675922
            ],
            [
              -91.61769866895838,
              36.499210358371386
            ]
          ]
        ]
      }
    }
  ],
  "metadata": {
    "schema_version": "0.1.0",
    "wfo": "LZK",
    "layer": "cwa",
    "source": "https://www.weather.gov/source/gis/Shapefiles/WSOM/w_16ap26.zip",
    "public_release_status": "public-source-derived"
  }
}