{
  "type": "FeatureCollection",
  "metadata": {
    "schema_version": "0.2.4",
    "year": 2026,
    "month": 9,
    "wfo": "CHS",
    "start_utc": "2026-09-01T00:00:00Z",
    "end_utc": "2026-10-01T00:00:00Z",
    "generated_utc": "2026-09-22T14:01:34Z",
    "mode": "storm_data_prep",
    "public_release_status": "public-source-derived",
    "time_note": "Storm Data entry times should be reviewed in local Standard Time (ST), not daylight time. Candidate reports include standard_time_display.",
    "tornado_track_policy": "Tornado tracks must come from DAT. NCEI begin/end coordinates are not used as a tornado track substitute.",
    "source": "https://mesonet.agron.iastate.edu/cgi-bin/request/gis/lsr.py?wfo=CHS&sts=2026-09-01T00%3A00%3A00Z&ets=2026-10-01T00%3A00%3A00Z&fmt=csv"
  },
  "features": [
    {
      "type": "Feature",
      "id": "iem-lsr-CHS-1",
      "properties": {
        "report_id": "iem-lsr-CHS-1",
        "report_type": "RIP CURRENTS",
        "event_category": "marine",
        "valid_utc": "202609021500",
        "standard_time_display": "2026-09-02 10:00 EST",
        "wfo": "CHS",
        "county_or_zone": "Beaufort",
        "city": "Forest Beach",
        "state": "SC",
        "magnitude": null,
        "magnitude_units": null,
        "source": "Lifeguard",
        "event_narrative": "Lifeguards reported a moderate strength rip current leading to 1 rescue approximately 2 miles north of Coligny Beach Park on Hilton Head Island."
      },
      "geometry": {
        "type": "Point",
        "coordinates": [
          -80.74,
          32.15
        ]
      }
    },
    {
      "type": "Feature",
      "id": "iem-lsr-CHS-2",
      "properties": {
        "report_id": "iem-lsr-CHS-2",
        "report_type": "FUNNEL CLOUD",
        "event_category": "tornado",
        "valid_utc": "202609041355",
        "standard_time_display": "2026-09-04 08:55 EST",
        "wfo": "CHS",
        "county_or_zone": "AMZ362",
        "city": "1 ENE Forest Beach",
        "state": "SC",
        "magnitude": null,
        "magnitude_units": null,
        "source": "Emergency Mngr",
        "event_narrative": "Emergency manager relayed a report of a few funnel clouds spotted offshore Shipyard Beach near beach marker 72."
      },
      "geometry": {
        "type": "Point",
        "coordinates": [
          -80.73,
          32.15
        ]
      }
    },
    {
      "type": "Feature",
      "id": "iem-lsr-CHS-3",
      "properties": {
        "report_id": "iem-lsr-CHS-3",
        "report_type": "HAIL",
        "event_category": "hail",
        "valid_utc": "202609061915",
        "standard_time_display": "2026-09-06 14:15 EST",
        "wfo": "CHS",
        "county_or_zone": "Screven",
        "city": "3 NE Rocky Ford",
        "state": "GA",
        "magnitude": 0.5,
        "magnitude_units": null,
        "source": "Public",
        "event_narrative": "Social media pictures taken off of Blueberry Road showed marble sized hail."
      },
      "geometry": {
        "type": "Point",
        "coordinates": [
          -81.8,
          32.7
        ]
      }
    },
    {
      "type": "Feature",
      "id": "iem-lsr-CHS-4",
      "properties": {
        "report_id": "iem-lsr-CHS-4",
        "report_type": "TSTM WND DMG",
        "event_category": "thunderstorm_wind",
        "valid_utc": "202609061915",
        "standard_time_display": "2026-09-06 14:15 EST",
        "wfo": "CHS",
        "county_or_zone": "Screven",
        "city": "3 ENE Rocky Ford",
        "state": "GA",
        "magnitude": null,
        "magnitude_units": null,
        "source": "Public",
        "event_narrative": "Tree down near the intersection of Blueberry Road and Rocky Ford Road."
      },
      "geometry": {
        "type": "Point",
        "coordinates": [
          -81.78,
          32.69
        ]
      }
    },
    {
      "type": "Feature",
      "id": "iem-lsr-CHS-5",
      "properties": {
        "report_id": "iem-lsr-CHS-5",
        "report_type": "TSTM WND DMG",
        "event_category": "thunderstorm_wind",
        "valid_utc": "202609061918",
        "standard_time_display": "2026-09-06 14:18 EST",
        "wfo": "CHS",
        "county_or_zone": "Screven",
        "city": "1 NE Rocky Ford",
        "state": "GA",
        "magnitude": null,
        "magnitude_units": null,
        "source": "911 Call Center",
        "event_narrative": "The Screven County 911 Call Center reported trees down along the S curve of Rocky Ford Road right before the town limit of Rocky Ford. Time estimated based on radar."
      },
      "geometry": {
        "type": "Point",
        "coordinates": [
          -81.82,
          32.67
        ]
      }
    },
    {
      "type": "Feature",
      "id": "iem-lsr-CHS-6",
      "properties": {
        "report_id": "iem-lsr-CHS-6",
        "report_type": "TSTM WND DMG",
        "event_category": "thunderstorm_wind",
        "valid_utc": "202609062122",
        "standard_time_display": "2026-09-06 16:22 EST",
        "wfo": "CHS",
        "county_or_zone": "Berkeley",
        "city": "5 S Moncks Corner",
        "state": "SC",
        "magnitude": null,
        "magnitude_units": null,
        "source": "Law Enforcement",
        "event_narrative": "The South Carolina Highway Patrol reported a tree down in the roadway at the intersection of Route 52 and Oakley Road. Time estimated by radar."
      },
      "geometry": {
        "type": "Point",
        "coordinates": [
          -80.03,
          33.13
        ]
      }
    },
    {
      "type": "Feature",
      "id": "iem-lsr-CHS-7",
      "properties": {
        "report_id": "iem-lsr-CHS-7",
        "report_type": "TSTM WND DMG",
        "event_category": "thunderstorm_wind",
        "valid_utc": "202609062134",
        "standard_time_display": "2026-09-06 16:34 EST",
        "wfo": "CHS",
        "county_or_zone": "Berkeley",
        "city": "6 NNE Sangaree",
        "state": "SC",
        "magnitude": null,
        "magnitude_units": null,
        "source": "911 Call Center",
        "event_narrative": "The Berkeley County 911 Call Center reported a tree down along the 2600 Block of South Live Oak Drive. Time estimate by radar."
      },
      "geometry": {
        "type": "Point",
        "coordinates": [
          -80.07,
          33.11
        ]
      }
    },
    {
      "type": "Feature",
      "id": "iem-lsr-CHS-8",
      "properties": {
        "report_id": "iem-lsr-CHS-8",
        "report_type": "TSTM WND DMG",
        "event_category": "thunderstorm_wind",
        "valid_utc": "202609062137",
        "standard_time_display": "2026-09-06 16:37 EST",
        "wfo": "CHS",
        "county_or_zone": "Berkeley",
        "city": "7 NNE Goose Creek",
        "state": "SC",
        "magnitude": null,
        "magnitude_units": null,
        "source": "911 Call Center",
        "event_narrative": "The Berkeley County 911 Call Center reported a tree down at the intersection of Cypress Gardens Road and Spring Grove Drive_ blocking one lane. Time estimated based on radar."
      },
      "geometry": {
        "type": "Point",
        "coordinates": [
          -79.99,
          33.08
        ]
      }
    },
    {
      "type": "Feature",
      "id": "iem-lsr-CHS-9",
      "properties": {
        "report_id": "iem-lsr-CHS-9",
        "report_type": "TSTM WND DMG",
        "event_category": "thunderstorm_wind",
        "valid_utc": "202609062157",
        "standard_time_display": "2026-09-06 16:57 EST",
        "wfo": "CHS",
        "county_or_zone": "Dorchester",
        "city": "Saint George",
        "state": "SC",
        "magnitude": null,
        "magnitude_units": null,
        "source": "911 Call Center",
        "event_narrative": "The Dorchester County 911 Call Center reported a tree down blocking the roadway along with a powerline_ along Quaker Road near the intersection of Dogwood Drive. This was due to outflow. Time estimat"
      },
      "geometry": {
        "type": "Point",
        "coordinates": [
          -80.58,
          33.18
        ]
      }
    },
    {
      "type": "Feature",
      "id": "iem-lsr-CHS-10",
      "properties": {
        "report_id": "iem-lsr-CHS-10",
        "report_type": "HAIL",
        "event_category": "hail",
        "valid_utc": "202609062200",
        "standard_time_display": "2026-09-06 17:00 EST",
        "wfo": "CHS",
        "county_or_zone": "Berkeley",
        "city": "3 NE Sangaree",
        "state": "SC",
        "magnitude": 1.0,
        "magnitude_units": null,
        "source": "Public",
        "event_narrative": "Social media pictures shows someone holding a quarter sized hail stone. Time determined from radar data."
      },
      "geometry": {
        "type": "Point",
        "coordinates": [
          -80.09,
          33.06
        ]
      }
    },
    {
      "type": "Feature",
      "id": "iem-lsr-CHS-11",
      "properties": {
        "report_id": "iem-lsr-CHS-11",
        "report_type": "TSTM WND DMG",
        "event_category": "thunderstorm_wind",
        "valid_utc": "202609062200",
        "standard_time_display": "2026-09-06 17:00 EST",
        "wfo": "CHS",
        "county_or_zone": "Berkeley",
        "city": "2 ENE Sangaree",
        "state": "SC",
        "magnitude": null,
        "magnitude_units": null,
        "source": "Public",
        "event_narrative": "Social media picture and post indicates a few uprooted trees and downed fence panels in the Berkeley Commons housing development."
      },
      "geometry": {
        "type": "Point",
        "coordinates": [
          -80.1,
          33.05
        ]
      }
    },
    {
      "type": "Feature",
      "id": "iem-lsr-CHS-12",
      "properties": {
        "report_id": "iem-lsr-CHS-12",
        "report_type": "TSTM WND DMG",
        "event_category": "thunderstorm_wind",
        "valid_utc": "202609062200",
        "standard_time_display": "2026-09-06 17:00 EST",
        "wfo": "CHS",
        "county_or_zone": "Dorchester",
        "city": "3 NE Dorchester",
        "state": "SC",
        "magnitude": null,
        "magnitude_units": null,
        "source": "Law Enforcement",
        "event_narrative": "The South Carolina Highway Patrol reported a tree down along I-26 Eastbound. This was due to outflow. Time estimated by radar."
      },
      "geometry": {
        "type": "Point",
        "coordinates": [
          -80.36,
          33.16
        ]
      }
    },
    {
      "type": "Feature",
      "id": "iem-lsr-CHS-13",
      "properties": {
        "report_id": "iem-lsr-CHS-13",
        "report_type": "HAIL",
        "event_category": "hail",
        "valid_utc": "202609062204",
        "standard_time_display": "2026-09-06 17:04 EST",
        "wfo": "CHS",
        "county_or_zone": "Berkeley",
        "city": "3 NNE Sangaree",
        "state": "SC",
        "magnitude": 1.0,
        "magnitude_units": null,
        "source": "NWS Employee",
        "event_narrative": "NWS Employee reported quarter sized hail along Smooth Stone Aly."
      },
      "geometry": {
        "type": "Point",
        "coordinates": [
          -80.12,
          33.07
        ]
      }
    },
    {
      "type": "Feature",
      "id": "iem-lsr-CHS-14",
      "properties": {
        "report_id": "iem-lsr-CHS-14",
        "report_type": "HAIL",
        "event_category": "hail",
        "valid_utc": "202609062205",
        "standard_time_display": "2026-09-06 17:05 EST",
        "wfo": "CHS",
        "county_or_zone": "Berkeley",
        "city": "College Park",
        "state": "SC",
        "magnitude": 1.0,
        "magnitude_units": null,
        "source": "Trained Spotter",
        "event_narrative": "Trained Spotter sent pictures of a tree down on a house_ another tree down and several limbs broken. They also reported quarter size hail."
      },
      "geometry": {
        "type": "Point",
        "coordinates": [
          -80.09,
          33.02
        ]
      }
    },
    {
      "type": "Feature",
      "id": "iem-lsr-CHS-15",
      "properties": {
        "report_id": "iem-lsr-CHS-15",
        "report_type": "TSTM WND DMG",
        "event_category": "thunderstorm_wind",
        "valid_utc": "202609062205",
        "standard_time_display": "2026-09-06 17:05 EST",
        "wfo": "CHS",
        "county_or_zone": "Berkeley",
        "city": "2 NE Sangaree",
        "state": "SC",
        "magnitude": null,
        "magnitude_units": null,
        "source": "Public",
        "event_narrative": "Public reported numerous trees down along Hartin Blvd due to severe wind gusts and lightning. Time determined from radar data."
      },
      "geometry": {
        "type": "Point",
        "coordinates": [
          -80.11,
          33.05
        ]
      }
    },
    {
      "type": "Feature",
      "id": "iem-lsr-CHS-16",
      "properties": {
        "report_id": "iem-lsr-CHS-16",
        "report_type": "TSTM WND DMG",
        "event_category": "thunderstorm_wind",
        "valid_utc": "202609062205",
        "standard_time_display": "2026-09-06 17:05 EST",
        "wfo": "CHS",
        "county_or_zone": "Berkeley",
        "city": "College Park",
        "state": "SC",
        "magnitude": null,
        "magnitude_units": null,
        "source": "Trained Spotter",
        "event_narrative": "Trained Spotter sent pictures of a tree down on a house_ another tree down and several limbs broken. They also reported quarter size hail."
      },
      "geometry": {
        "type": "Point",
        "coordinates": [
          -80.09,
          33.02
        ]
      }
    },
    {
      "type": "Feature",
      "id": "iem-lsr-CHS-17",
      "properties": {
        "report_id": "iem-lsr-CHS-17",
        "report_type": "TSTM WND DMG",
        "event_category": "thunderstorm_wind",
        "valid_utc": "202609062212",
        "standard_time_display": "2026-09-06 17:12 EST",
        "wfo": "CHS",
        "county_or_zone": "Berkeley",
        "city": "1 WSW College Park",
        "state": "SC",
        "magnitude": null,
        "magnitude_units": null,
        "source": "Law Enforcement",
        "event_narrative": "The South Carolina Highway Patrol reported a power line down at the intersection of Treeland Drive and Eastern White Pines Road. Time estimated by radar."
      },
      "geometry": {
        "type": "Point",
        "coordinates": [
          -80.11,
          33.01
        ]
      }
    },
    {
      "type": "Feature",
      "id": "iem-lsr-CHS-18",
      "properties": {
        "report_id": "iem-lsr-CHS-18",
        "report_type": "TSTM WND DMG",
        "event_category": "thunderstorm_wind",
        "valid_utc": "202609062212",
        "standard_time_display": "2026-09-06 17:12 EST",
        "wfo": "CHS",
        "county_or_zone": "Berkeley",
        "city": "1 WSW College Park",
        "state": "SC",
        "magnitude": null,
        "magnitude_units": null,
        "source": "Law Enforcement",
        "event_narrative": "The South Carolina Highway Patrol reported a tree down at the intersection of Treeland Drive and Eastern White Pines Road. Time estimated by radar."
      },
      "geometry": {
        "type": "Point",
        "coordinates": [
          -80.11,
          33.01
        ]
      }
    },
    {
      "type": "Feature",
      "id": "iem-lsr-CHS-19",
      "properties": {
        "report_id": "iem-lsr-CHS-19",
        "report_type": "TSTM WND DMG",
        "event_category": "thunderstorm_wind",
        "valid_utc": "202609062222",
        "standard_time_display": "2026-09-06 17:22 EST",
        "wfo": "CHS",
        "county_or_zone": "Berkeley",
        "city": "1 NE Summerville",
        "state": "SC",
        "magnitude": null,
        "magnitude_units": null,
        "source": "Public",
        "event_narrative": "Received photos of a tree down across W 9th N Street_ just off of Main Street. Time determined from radar data."
      },
      "geometry": {
        "type": "Point",
        "coordinates": [
          -80.16,
          33.03
        ]
      }
    },
    {
      "type": "Feature",
      "id": "iem-lsr-CHS-20",
      "properties": {
        "report_id": "iem-lsr-CHS-20",
        "report_type": "TSTM WND DMG",
        "event_category": "thunderstorm_wind",
        "valid_utc": "202609062238",
        "standard_time_display": "2026-09-06 17:38 EST",
        "wfo": "CHS",
        "county_or_zone": "Colleton",
        "city": "6 E Canadys",
        "state": "SC",
        "magnitude": null,
        "magnitude_units": null,
        "source": "Law Enforcement",
        "event_narrative": "The South Carolina Highway Patrol reported a tree down at the intersection of Sidneys Road and River Rest Lane. This was due to outflow. Time estimated by radar."
      },
      "geometry": {
        "type": "Point",
        "coordinates": [
          -80.52,
          33.06
        ]
      }
    },
    {
      "type": "Feature",
      "id": "iem-lsr-CHS-21",
      "properties": {
        "report_id": "iem-lsr-CHS-21",
        "report_type": "TSTM WND DMG",
        "event_category": "thunderstorm_wind",
        "valid_utc": "202609062356",
        "standard_time_display": "2026-09-06 18:56 EST",
        "wfo": "CHS",
        "county_or_zone": "Allendale",
        "city": "2 NNW Millett",
        "state": "SC",
        "magnitude": null,
        "magnitude_units": null,
        "source": "Law Enforcement",
        "event_narrative": "South Carolina Highway Patrol reported a tree down near the intersection of Augusta Highway and Millett Road. Time estimated using radar data."
      },
      "geometry": {
        "type": "Point",
        "coordinates": [
          -81.55,
          33.1
        ]
      }
    },
    {
      "type": "Feature",
      "id": "iem-lsr-CHS-22",
      "properties": {
        "report_id": "iem-lsr-CHS-22",
        "report_type": "TSTM WND DMG",
        "event_category": "thunderstorm_wind",
        "valid_utc": "202609070000",
        "standard_time_display": "2026-09-06 19:00 EST",
        "wfo": "CHS",
        "county_or_zone": "Allendale",
        "city": "2 NNW Martin",
        "state": "SC",
        "magnitude": null,
        "magnitude_units": null,
        "source": "Law Enforcement",
        "event_narrative": "South Carolina Highway Patrol reported a tree down near the intersection of Highway 125 and Patterson Mill Drive. Time estimated using radar data."
      },
      "geometry": {
        "type": "Point",
        "coordinates": [
          -81.49,
          33.09
        ]
      }
    },
    {
      "type": "Feature",
      "id": "iem-lsr-CHS-23",
      "properties": {
        "report_id": "iem-lsr-CHS-23",
        "report_type": "TSTM WND DMG",
        "event_category": "thunderstorm_wind",
        "valid_utc": "202609070000",
        "standard_time_display": "2026-09-06 19:00 EST",
        "wfo": "CHS",
        "county_or_zone": "Allendale",
        "city": "Martin",
        "state": "SC",
        "magnitude": null,
        "magnitude_units": null,
        "source": "911 Call Center",
        "event_narrative": "911 call center reported multiple trees and limbs down in the Martin_ SC area."
      },
      "geometry": {
        "type": "Point",
        "coordinates": [
          -81.48,
          33.07
        ]
      }
    },
    {
      "type": "Feature",
      "id": "iem-lsr-CHS-24",
      "properties": {
        "report_id": "iem-lsr-CHS-24",
        "report_type": "LIGHTNING",
        "event_category": "other",
        "valid_utc": "202609070040",
        "standard_time_display": "2026-09-06 19:40 EST",
        "wfo": "CHS",
        "county_or_zone": "Hampton",
        "city": "2 ESE Brunson",
        "state": "SC",
        "magnitude": null,
        "magnitude_units": null,
        "source": "911 Call Center",
        "event_narrative": "A lightning strike started a brush fire in the Brunson area. Location and time determined from lighting data."
      },
      "geometry": {
        "type": "Point",
        "coordinates": [
          -81.16,
          32.92
        ]
      }
    },
    {
      "type": "Feature",
      "id": "iem-lsr-CHS-25",
      "properties": {
        "report_id": "iem-lsr-CHS-25",
        "report_type": "TSTM WND DMG",
        "event_category": "thunderstorm_wind",
        "valid_utc": "202609070107",
        "standard_time_display": "2026-09-06 20:07 EST",
        "wfo": "CHS",
        "county_or_zone": "Hampton",
        "city": "Estill",
        "state": "SC",
        "magnitude": null,
        "magnitude_units": null,
        "source": "911 Call Center",
        "event_narrative": "911 call center reported a tree down in the Estill area. Time estimated from radar data."
      },
      "geometry": {
        "type": "Point",
        "coordinates": [
          -81.24,
          32.75
        ]
      }
    },
    {
      "type": "Feature",
      "id": "iem-lsr-CHS-26",
      "properties": {
        "report_id": "iem-lsr-CHS-26",
        "report_type": "TSTM WND DMG",
        "event_category": "thunderstorm_wind",
        "valid_utc": "202609070110",
        "standard_time_display": "2026-09-06 20:10 EST",
        "wfo": "CHS",
        "county_or_zone": "Hampton",
        "city": "4 ESE Lena",
        "state": "SC",
        "magnitude": null,
        "magnitude_units": null,
        "source": "911 Call Center",
        "event_narrative": "911 call center reported a tree down in the Nixville area. Time estimated from radar data."
      },
      "geometry": {
        "type": "Point",
        "coordinates": [
          -81.15,
          32.74
        ]
      }
    },
    {
      "type": "Feature",
      "id": "iem-lsr-CHS-27",
      "properties": {
        "report_id": "iem-lsr-CHS-27",
        "report_type": "TSTM WND DMG",
        "event_category": "thunderstorm_wind",
        "valid_utc": "202609070128",
        "standard_time_display": "2026-09-06 20:28 EST",
        "wfo": "CHS",
        "county_or_zone": "Jasper",
        "city": "1 SE Gillisonville",
        "state": "SC",
        "magnitude": null,
        "magnitude_units": null,
        "source": "Law Enforcement",
        "event_narrative": "The South Carolina Highway Patrol reported a tree down at the intersection of Grays Highway and Morgandollar Road. Time estimated by radar."
      },
      "geometry": {
        "type": "Point",
        "coordinates": [
          -80.99,
          32.6
        ]
      }
    },
    {
      "type": "Feature",
      "id": "iem-lsr-CHS-28",
      "properties": {
        "report_id": "iem-lsr-CHS-28",
        "report_type": "MARINE TSTM WIND",
        "event_category": "marine",
        "valid_utc": "202609071942",
        "standard_time_display": "2026-09-07 14:42 EST",
        "wfo": "CHS",
        "county_or_zone": "Chatham",
        "city": "4 NW Tybee Island",
        "state": "GA",
        "magnitude": 39.0,
        "magnitude_units": null,
        "source": "Other Federal",
        "event_narrative": "The Fort Pulaski Tide Gage measured a wind gust of 34 knots."
      },
      "geometry": {
        "type": "Point",
        "coordinates": [
          -80.93,
          32.03
        ]
      }
    },
    {
      "type": "Feature",
      "id": "iem-lsr-CHS-29",
      "properties": {
        "report_id": "iem-lsr-CHS-29",
        "report_type": "WATERSPOUT",
        "event_category": "tornado",
        "valid_utc": "202609071955",
        "standard_time_display": "2026-09-07 14:55 EST",
        "wfo": "CHS",
        "county_or_zone": "AMZ364",
        "city": "5 SSW Tybee Island",
        "state": "GA",
        "magnitude": null,
        "magnitude_units": null,
        "source": "Lifeguard",
        "event_narrative": "Tybee Island Ocean Rescue lifeguards reported three waterspouts ongoing south of Tybee Island."
      },
      "geometry": {
        "type": "Point",
        "coordinates": [
          -80.89,
          31.94
        ]
      }
    },
    {
      "type": "Feature",
      "id": "iem-lsr-CHS-30",
      "properties": {
        "report_id": "iem-lsr-CHS-30",
        "report_type": "FLOOD",
        "event_category": "flooding",
        "valid_utc": "202609072200",
        "standard_time_display": "2026-09-07 17:00 EST",
        "wfo": "CHS",
        "county_or_zone": "Charleston",
        "city": "1 E Charleston",
        "state": "SC",
        "magnitude": null,
        "magnitude_units": null,
        "source": "Other Federal",
        "event_narrative": "CHTS1 Moderate Coastal Flooding: A maximum tide level of 7.5 ft MLLW (1.74 ft MHHW) was observed at the Charleston Harbor tide gage. Moderate coastal flooding typically begins along the coasts of Cha"
      },
      "geometry": {
        "type": "Point",
        "coordinates": [
          -79.93,
          32.78
        ]
      }
    },
    {
      "type": "Feature",
      "id": "iem-lsr-CHS-31",
      "properties": {
        "report_id": "iem-lsr-CHS-31",
        "report_type": "FLOOD",
        "event_category": "flooding",
        "valid_utc": "202609072200",
        "standard_time_display": "2026-09-07 17:00 EST",
        "wfo": "CHS",
        "county_or_zone": "Charleston",
        "city": "1 WNW Charleston",
        "state": "SC",
        "magnitude": null,
        "magnitude_units": null,
        "source": "Public",
        "event_narrative": "Waze reports indicate the intersection of Hagood Avenue and Fisburne Street_ along with portions of Lockwood Drive are closed due to flooding."
      },
      "geometry": {
        "type": "Point",
        "coordinates": [
          -79.96,
          32.79
        ]
      }
    },
    {
      "type": "Feature",
      "id": "iem-lsr-CHS-32",
      "properties": {
        "report_id": "iem-lsr-CHS-32",
        "report_type": "COASTAL FLOOD",
        "event_category": "flooding",
        "valid_utc": "202609072200",
        "standard_time_display": "2026-09-07 17:00 EST",
        "wfo": "CHS",
        "county_or_zone": "Charleston",
        "city": "1 E Charleston",
        "state": "SC",
        "magnitude": null,
        "magnitude_units": null,
        "source": "Other Federal",
        "event_narrative": "CHTS1 Moderate Coastal Flooding: A maximum tide level of 7.5 ft MLLW (1.74 ft MHHW) was observed at the Charleston Harbor tide gage. Moderate coastal flooding typically begins along the coasts of Cha"
      },
      "geometry": {
        "type": "Point",
        "coordinates": [
          -79.93,
          32.78
        ]
      }
    },
    {
      "type": "Feature",
      "id": "iem-lsr-CHS-33",
      "properties": {
        "report_id": "iem-lsr-CHS-33",
        "report_type": "COASTAL FLOOD",
        "event_category": "flooding",
        "valid_utc": "202609072200",
        "standard_time_display": "2026-09-07 17:00 EST",
        "wfo": "CHS",
        "county_or_zone": "Charleston",
        "city": "1 WNW Charleston",
        "state": "SC",
        "magnitude": null,
        "magnitude_units": null,
        "source": "Public",
        "event_narrative": "Waze reports indicate the intersection of Hagood Avenue and Fisburne Street_ along with portions of Lockwood Drive are closed due to flooding."
      },
      "geometry": {
        "type": "Point",
        "coordinates": [
          -79.96,
          32.79
        ]
      }
    },
    {
      "type": "Feature",
      "id": "iem-lsr-CHS-34",
      "properties": {
        "report_id": "iem-lsr-CHS-34",
        "report_type": "COASTAL FLOOD",
        "event_category": "flooding",
        "valid_utc": "202609082254",
        "standard_time_display": "2026-09-08 17:54 EST",
        "wfo": "CHS",
        "county_or_zone": "Charleston",
        "city": "1 E Charleston",
        "state": "SC",
        "magnitude": null,
        "magnitude_units": null,
        "source": "Other Federal",
        "event_narrative": "A maximum tide level of 7.63 ft MLLW (1.97 ft MHHW) was observed at the Charleston Harbor tide gage. Moderate coastal flooding typically begins along the coasts of Charleston and Colleton counties wh"
      },
      "geometry": {
        "type": "Point",
        "coordinates": [
          -79.93,
          32.78
        ]
      }
    },
    {
      "type": "Feature",
      "id": "iem-lsr-CHS-35",
      "properties": {
        "report_id": "iem-lsr-CHS-35",
        "report_type": "COASTAL FLOOD",
        "event_category": "flooding",
        "valid_utc": "202609082300",
        "standard_time_display": "2026-09-08 18:00 EST",
        "wfo": "CHS",
        "county_or_zone": "Chatham",
        "city": "4 NW Tybee Island",
        "state": "GA",
        "magnitude": null,
        "magnitude_units": null,
        "source": "Other Federal",
        "event_narrative": "A maximum tide level of 9.71 ft MLLW (2.21 ft MHHW) was observed at the Fort Pulaski tide gage located near the Savannah River Entrance. Shallow coastal flooding typically begins along much of the Ge"
      },
      "geometry": {
        "type": "Point",
        "coordinates": [
          -80.93,
          32.03
        ]
      }
    },
    {
      "type": "Feature",
      "id": "iem-lsr-CHS-36",
      "properties": {
        "report_id": "iem-lsr-CHS-36",
        "report_type": "COASTAL FLOOD",
        "event_category": "flooding",
        "valid_utc": "202609092348",
        "standard_time_display": "2026-09-09 18:48 EST",
        "wfo": "CHS",
        "county_or_zone": "Charleston",
        "city": "1 E Charleston",
        "state": "SC",
        "magnitude": null,
        "magnitude_units": null,
        "source": "Other Federal",
        "event_narrative": "A maximum tide level of 7.29 ft MLLW (1.53 ft MHHW) was observed at the Charleston Harbor tide gage. Shallow Coastal Flooding typically begins along the coasts of Charleston and Colleton counties whe"
      },
      "geometry": {
        "type": "Point",
        "coordinates": [
          -79.93,
          32.78
        ]
      }
    },
    {
      "type": "Feature",
      "id": "iem-lsr-CHS-37",
      "properties": {
        "report_id": "iem-lsr-CHS-37",
        "report_type": "COASTAL FLOOD",
        "event_category": "flooding",
        "valid_utc": "202609110000",
        "standard_time_display": "2026-09-10 19:00 EST",
        "wfo": "CHS",
        "county_or_zone": "Charleston",
        "city": "1 WNW Charleston",
        "state": "SC",
        "magnitude": null,
        "magnitude_units": null,
        "source": "NWS Employee",
        "event_narrative": "NWS employee reported saltwater inundation across the intersection of Hagood Ave and Fishburne St."
      },
      "geometry": {
        "type": "Point",
        "coordinates": [
          -79.96,
          32.79
        ]
      }
    },
    {
      "type": "Feature",
      "id": "iem-lsr-CHS-38",
      "properties": {
        "report_id": "iem-lsr-CHS-38",
        "report_type": "COASTAL FLOOD",
        "event_category": "flooding",
        "valid_utc": "202609110003",
        "standard_time_display": "2026-09-10 19:03 EST",
        "wfo": "CHS",
        "county_or_zone": "Charleston",
        "city": "2 W Charleston",
        "state": "SC",
        "magnitude": null,
        "magnitude_units": null,
        "source": "NWS Employee",
        "event_narrative": "NWS employee reported saltwater inundation across the Hwy 17 exit ramp onto Hwy 61. Road was still passable."
      },
      "geometry": {
        "type": "Point",
        "coordinates": [
          -79.97,
          32.78
        ]
      }
    },
    {
      "type": "Feature",
      "id": "iem-lsr-CHS-39",
      "properties": {
        "report_id": "iem-lsr-CHS-39",
        "report_type": "COASTAL FLOOD",
        "event_category": "flooding",
        "valid_utc": "202609110012",
        "standard_time_display": "2026-09-10 19:12 EST",
        "wfo": "CHS",
        "county_or_zone": "Charleston",
        "city": "1 E Charleston",
        "state": "SC",
        "magnitude": null,
        "magnitude_units": null,
        "source": "Other Federal",
        "event_narrative": "A maximum tide level of 7.18 ft MLLW (1.42 ft MHHW) was observed at the Charleston Harbor tide gage. Shallow Coastal Flooding typically begins along the coasts of Charleston and Colleton counties whe"
      },
      "geometry": {
        "type": "Point",
        "coordinates": [
          -79.93,
          32.78
        ]
      }
    },
    {
      "type": "Feature",
      "id": "iem-lsr-CHS-40",
      "properties": {
        "report_id": "iem-lsr-CHS-40",
        "report_type": "TSTM WND DMG",
        "event_category": "thunderstorm_wind",
        "valid_utc": "202609111940",
        "standard_time_display": "2026-09-11 14:40 EST",
        "wfo": "CHS",
        "county_or_zone": "Charleston",
        "city": "1 SSW West Ashley",
        "state": "SC",
        "magnitude": null,
        "magnitude_units": null,
        "source": "Law Enforcement",
        "event_narrative": "SCDPS reports a tree down near the intersection of Pearlott St and Wappoo Rd. Time estimated from radar."
      },
      "geometry": {
        "type": "Point",
        "coordinates": [
          -80.02,
          32.79
        ]
      }
    },
    {
      "type": "Feature",
      "id": "iem-lsr-CHS-41",
      "properties": {
        "report_id": "iem-lsr-CHS-41",
        "report_type": "RAIN",
        "event_category": "other",
        "valid_utc": "202609112032",
        "standard_time_display": "2026-09-11 15:32 EST",
        "wfo": "CHS",
        "county_or_zone": "Colleton",
        "city": "1 NW Jacksonboro",
        "state": "SC",
        "magnitude": 4.34,
        "magnitude_units": null,
        "source": "Mesonet",
        "event_narrative": null
      },
      "geometry": {
        "type": "Point",
        "coordinates": [
          -80.47,
          32.78
        ]
      }
    },
    {
      "type": "Feature",
      "id": "iem-lsr-CHS-42",
      "properties": {
        "report_id": "iem-lsr-CHS-42",
        "report_type": "RAIN",
        "event_category": "other",
        "valid_utc": "202609112142",
        "standard_time_display": "2026-09-11 16:42 EST",
        "wfo": "CHS",
        "county_or_zone": "Berkeley",
        "city": "6 SW Moncks Corner",
        "state": "SC",
        "magnitude": 2.05,
        "magnitude_units": null,
        "source": "Trained Spotter",
        "event_narrative": "Former NWS employee reports 2.05 inch of rain_ which fell from 2-5 PM_ near the intersection of Tupelo Lake Dr and Magnolia House Dr"
      },
      "geometry": {
        "type": "Point",
        "coordinates": [
          -80.09,
          33.14
        ]
      }
    },
    {
      "type": "Feature",
      "id": "iem-lsr-CHS-43",
      "properties": {
        "report_id": "iem-lsr-CHS-43",
        "report_type": "FLOOD",
        "event_category": "flooding",
        "valid_utc": "202609112230",
        "standard_time_display": "2026-09-11 17:30 EST",
        "wfo": "CHS",
        "county_or_zone": "Colleton",
        "city": "Jacksonboro",
        "state": "SC",
        "magnitude": null,
        "magnitude_units": null,
        "source": "Emergency Mngr",
        "event_narrative": "Colleton County Emergency Management reported water blocking one lane at the 16300 block of Ace Basin Parkway."
      },
      "geometry": {
        "type": "Point",
        "coordinates": [
          -80.46,
          32.77
        ]
      }
    },
    {
      "type": "Feature",
      "id": "iem-lsr-CHS-44",
      "properties": {
        "report_id": "iem-lsr-CHS-44",
        "report_type": "WATERSPOUT",
        "event_category": "tornado",
        "valid_utc": "202609121230",
        "standard_time_display": "2026-09-12 07:30 EST",
        "wfo": "CHS",
        "county_or_zone": "AMZ362",
        "city": "12 S Seabrook Island",
        "state": "SC",
        "magnitude": null,
        "magnitude_units": null,
        "source": "Broadcast Media",
        "event_narrative": "Broadcast media relayed video of 2 waterspouts and also funnel clouds off the coast of Edisto."
      },
      "geometry": {
        "type": "Point",
        "coordinates": [
          -80.17,
          32.4
        ]
      }
    },
    {
      "type": "Feature",
      "id": "iem-lsr-CHS-45",
      "properties": {
        "report_id": "iem-lsr-CHS-45",
        "report_type": "FUNNEL CLOUD",
        "event_category": "tornado",
        "valid_utc": "202609121350",
        "standard_time_display": "2026-09-12 08:50 EST",
        "wfo": "CHS",
        "county_or_zone": "AMZ362",
        "city": "13 SE Folly Field",
        "state": "SC",
        "magnitude": null,
        "magnitude_units": null,
        "source": "Emergency Mngr",
        "event_narrative": "Emergency manager reported a funnel cloud off the coast of Palmetto Dunes."
      },
      "geometry": {
        "type": "Point",
        "coordinates": [
          -80.51,
          32.09
        ]
      }
    },
    {
      "type": "Feature",
      "id": "iem-lsr-CHS-46",
      "properties": {
        "report_id": "iem-lsr-CHS-46",
        "report_type": "WATERSPOUT",
        "event_category": "tornado",
        "valid_utc": "202609151305",
        "standard_time_display": "2026-09-15 08:05 EST",
        "wfo": "CHS",
        "county_or_zone": "AMZ362",
        "city": "3 SE Daufuskie Island",
        "state": "SC",
        "magnitude": null,
        "magnitude_units": null,
        "source": "Lifeguard",
        "event_narrative": "Hilton Head Shore Beach Service observed a waterspout off the south end of Hilton Head Island. Video was relayed via Hilton Head Emergency Management. Note_ this LSR is an update to the one issued at"
      },
      "geometry": {
        "type": "Point",
        "coordinates": [
          -80.84,
          32.09
        ]
      }
    },
    {
      "type": "Feature",
      "id": "iem-lsr-CHS-47",
      "properties": {
        "report_id": "iem-lsr-CHS-47",
        "report_type": "WATERSPOUT",
        "event_category": "tornado",
        "valid_utc": "202609151403",
        "standard_time_display": "2026-09-15 09:03 EST",
        "wfo": "CHS",
        "county_or_zone": "AMZ362",
        "city": "10 SE Folly Field",
        "state": "SC",
        "magnitude": null,
        "magnitude_units": null,
        "source": "Lifeguard",
        "event_narrative": "Hilton Head Shore Beach Service observed a waterspout off the south end of the island. Video was relayed via Hilton Head Emergency Management. Time estimated."
      },
      "geometry": {
        "type": "Point",
        "coordinates": [
          -80.6,
          32.09
        ]
      }
    }
  ]
}