{
  "type": "FeatureCollection",
  "metadata": {
    "schema_version": "0.2.4",
    "year": 2026,
    "month": 7,
    "wfo": "FGZ",
    "start_utc": "2026-07-01T00:00:00Z",
    "end_utc": "2026-08-01T00:00:00Z",
    "generated_utc": "2026-07-08T11:15:23Z",
    "mode": "storm_data_prep",
    "public_release_status": "public-source-derived",
    "time_note": "Storm Data entry times should be reviewed in local Standard Time (ST), not daylight time. Candidate reports include standard_time_display.",
    "tornado_track_policy": "Tornado tracks must come from DAT. NCEI begin/end coordinates are not used as a tornado track substitute.",
    "source": "https://mesonet.agron.iastate.edu/cgi-bin/request/gis/lsr.py?wfo=FGZ&sts=2026-07-01T00%3A00%3A00Z&ets=2026-08-01T00%3A00%3A00Z&fmt=csv"
  },
  "features": [
    {
      "type": "Feature",
      "id": "iem-lsr-FGZ-1",
      "properties": {
        "report_id": "iem-lsr-FGZ-1",
        "report_type": "LANDSPOUT",
        "event_category": "other",
        "valid_utc": "202607070040",
        "standard_time_display": "2026-07-06 17:40 MST",
        "wfo": "FGZ",
        "county_or_zone": "Navajo",
        "city": "1 WSW Joseph City",
        "state": "AZ",
        "magnitude": null,
        "magnitude_units": null,
        "source": "Public",
        "event_narrative": "Landspout tornado south of Joseph City. Time and location was estimated_ report was from an eastbound traveler."
      },
      "geometry": {
        "type": "Point",
        "coordinates": [
          -110.35,
          34.95
        ]
      }
    }
  ]
}