{
  "type": "FeatureCollection",
  "metadata": {
    "schema_version": "0.2.4",
    "year": 2026,
    "month": 6,
    "wfo": "KEY",
    "start_utc": "2026-06-01T00:00:00Z",
    "end_utc": "2026-07-01T00:00:00Z",
    "generated_utc": "2026-06-05T12:20:01Z",
    "mode": "storm_data_prep",
    "public_release_status": "public-source-derived",
    "time_note": "Storm Data entry times should be reviewed in local Standard Time (ST), not daylight time. Candidate reports include standard_time_display.",
    "tornado_track_policy": "Tornado tracks must come from DAT. NCEI begin/end coordinates are not used as a tornado track substitute.",
    "source": "https://mesonet.agron.iastate.edu/cgi-bin/request/gis/lsr.py?wfo=KEY&sts=2026-06-01T00%3A00%3A00Z&ets=2026-07-01T00%3A00%3A00Z&fmt=csv"
  },
  "features": [
    {
      "type": "Feature",
      "id": "iem-lsr-KEY-1",
      "properties": {
        "report_id": "iem-lsr-KEY-1",
        "report_type": "WATERSPOUT",
        "event_category": "tornado",
        "valid_utc": "202606011510",
        "standard_time_display": "2026-06-01 10:10 EST",
        "wfo": "KEY",
        "county_or_zone": "GMZ042",
        "city": "5 S Islamorada",
        "state": "FL",
        "magnitude": null,
        "magnitude_units": null,
        "source": "Public",
        "event_narrative": "A pair of waterspouts were reported by a member of the public at approximately 1110 AM EDT. The waterspouts were located east southeast of Lower Matecumbe Key. Both waterspouts developed visible spra"
      },
      "geometry": {
        "type": "Point",
        "coordinates": [
          -80.63,
          24.85
        ]
      }
    },
    {
      "type": "Feature",
      "id": "iem-lsr-KEY-2",
      "properties": {
        "report_id": "iem-lsr-KEY-2",
        "report_type": "WATERSPOUT",
        "event_category": "tornado",
        "valid_utc": "202606011617",
        "standard_time_display": "2026-06-01 11:17 EST",
        "wfo": "KEY",
        "county_or_zone": "Monroe",
        "city": "1 NE Bahia Honda Key",
        "state": "FL",
        "magnitude": null,
        "magnitude_units": null,
        "source": "Public",
        "event_narrative": "A waterspout was observed via webcam and reported by a member of the public in the area of Bahia Honda Key. The waterspout formed around 1217 PM EDT and lasted for at least 10 minutes_ appearing to d"
      },
      "geometry": {
        "type": "Point",
        "coordinates": [
          -81.26,
          24.67
        ]
      }
    },
    {
      "type": "Feature",
      "id": "iem-lsr-KEY-3",
      "properties": {
        "report_id": "iem-lsr-KEY-3",
        "report_type": "WATERSPOUT",
        "event_category": "tornado",
        "valid_utc": "202606021445",
        "standard_time_display": "2026-06-02 09:45 EST",
        "wfo": "KEY",
        "county_or_zone": "GMZ044",
        "city": "21 W Key West",
        "state": "FL",
        "magnitude": null,
        "magnitude_units": null,
        "source": "Broadcast Media",
        "event_narrative": "A member of the broadcast media relayed a report via social media of a mature waterspout near the Marquesas Keys. The condensation cloud extended most of the way from the cloud base to the surface. I"
      },
      "geometry": {
        "type": "Point",
        "coordinates": [
          -82.11,
          24.54
        ]
      }
    },
    {
      "type": "Feature",
      "id": "iem-lsr-KEY-4",
      "properties": {
        "report_id": "iem-lsr-KEY-4",
        "report_type": "WATERSPOUT",
        "event_category": "tornado",
        "valid_utc": "202606031449",
        "standard_time_display": "2026-06-03 09:49 EST",
        "wfo": "KEY",
        "county_or_zone": "GMZ044",
        "city": "5 WSW Key West",
        "state": "FL",
        "magnitude": null,
        "magnitude_units": null,
        "source": "NWS Employee",
        "event_narrative": "A waterspout was observed via webcam and verified by a NWS employee southwest of Key West. The waterspout formed at 1040 AM and lasted for at least 10 minutes. The condensation funnel was well formed"
      },
      "geometry": {
        "type": "Point",
        "coordinates": [
          -81.85,
          24.53
        ]
      }
    }
  ]
}