{
  "type": "FeatureCollection",
  "metadata": {
    "schema_version": "0.2.4",
    "year": 2026,
    "month": 6,
    "wfo": "JAN",
    "start_utc": "2026-06-01T00:00:00Z",
    "end_utc": "2026-07-01T00:00:00Z",
    "generated_utc": "2026-06-02T12:51:45Z",
    "mode": "storm_data_prep",
    "public_release_status": "public-source-derived",
    "time_note": "Storm Data entry times should be reviewed in local Standard Time (ST), not daylight time. Candidate reports include standard_time_display.",
    "tornado_track_policy": "Tornado tracks must come from DAT. NCEI begin/end coordinates are not used as a tornado track substitute.",
    "source": "https://mesonet.agron.iastate.edu/cgi-bin/request/gis/lsr.py?wfo=JAN&sts=2026-06-01T00%3A00%3A00Z&ets=2026-07-01T00%3A00%3A00Z&fmt=csv"
  },
  "features": [
    {
      "type": "Feature",
      "id": "iem-lsr-JAN-1",
      "properties": {
        "report_id": "iem-lsr-JAN-1",
        "report_type": "TSTM WND DMG",
        "event_category": "thunderstorm_wind",
        "valid_utc": "202606011850",
        "standard_time_display": "2026-06-01 12:50 CST",
        "wfo": "JAN",
        "county_or_zone": "Lowndes",
        "city": "1 S Flint Hill",
        "state": "MS",
        "magnitude": null,
        "magnitude_units": null,
        "source": "Local Official",
        "event_narrative": "Corrects previous tstm wnd dmg report from 1 S Flint Hill. Several trees blown down reported by Red Cross."
      },
      "geometry": {
        "type": "Point",
        "coordinates": [
          -88.28,
          33.7
        ]
      }
    },
    {
      "type": "Feature",
      "id": "iem-lsr-JAN-2",
      "properties": {
        "report_id": "iem-lsr-JAN-2",
        "report_type": "TSTM WND DMG",
        "event_category": "thunderstorm_wind",
        "valid_utc": "202606011912",
        "standard_time_display": "2026-06-01 13:12 CST",
        "wfo": "JAN",
        "county_or_zone": "Lowndes",
        "city": "1 N Woodlawn",
        "state": "MS",
        "magnitude": null,
        "magnitude_units": null,
        "source": "Emergency Mngr",
        "event_narrative": "Tree down along Hwy 12 at Caldwell Rd."
      },
      "geometry": {
        "type": "Point",
        "coordinates": [
          -88.31,
          33.63
        ]
      }
    },
    {
      "type": "Feature",
      "id": "iem-lsr-JAN-3",
      "properties": {
        "report_id": "iem-lsr-JAN-3",
        "report_type": "TSTM WND DMG",
        "event_category": "thunderstorm_wind",
        "valid_utc": "202606011934",
        "standard_time_display": "2026-06-01 13:34 CST",
        "wfo": "JAN",
        "county_or_zone": "Lowndes",
        "city": "1 S Flint Hill",
        "state": "MS",
        "magnitude": null,
        "magnitude_units": null,
        "source": "Local Official",
        "event_narrative": "Several trees blown down reported by Red Cross."
      },
      "geometry": {
        "type": "Point",
        "coordinates": [
          -88.28,
          33.7
        ]
      }
    },
    {
      "type": "Feature",
      "id": "iem-lsr-JAN-4",
      "properties": {
        "report_id": "iem-lsr-JAN-4",
        "report_type": "TSTM WND DMG",
        "event_category": "thunderstorm_wind",
        "valid_utc": "202606012314",
        "standard_time_display": "2026-06-01 17:14 CST",
        "wfo": "JAN",
        "county_or_zone": "Madison",
        "city": "3 E Madison",
        "state": "MS",
        "magnitude": null,
        "magnitude_units": null,
        "source": "Law Enforcement",
        "event_narrative": "Madison PD reported several trees down near the Lost Rabbit community and along Rice Road."
      },
      "geometry": {
        "type": "Point",
        "coordinates": [
          -90.06,
          32.46
        ]
      }
    },
    {
      "type": "Feature",
      "id": "iem-lsr-JAN-5",
      "properties": {
        "report_id": "iem-lsr-JAN-5",
        "report_type": "HAIL",
        "event_category": "hail",
        "valid_utc": "202606012323",
        "standard_time_display": "2026-06-01 17:23 CST",
        "wfo": "JAN",
        "county_or_zone": "Rankin",
        "city": "1 NNW Goshen Springs",
        "state": "MS",
        "magnitude": 1.0,
        "magnitude_units": null,
        "source": "Public",
        "event_narrative": null
      },
      "geometry": {
        "type": "Point",
        "coordinates": [
          -89.92,
          32.48
        ]
      }
    }
  ]
}