{
  "type": "FeatureCollection",
  "metadata": {
    "schema_version": "0.2.4",
    "year": 2026,
    "month": 7,
    "wfo": "DLH",
    "start_utc": "2026-07-01T00:00:00Z",
    "end_utc": "2026-08-01T00:00:00Z",
    "generated_utc": "2026-07-05T11:12:28Z",
    "mode": "storm_data_prep",
    "public_release_status": "public-source-derived",
    "time_note": "Storm Data entry times should be reviewed in local Standard Time (ST), not daylight time. Candidate reports include standard_time_display.",
    "tornado_track_policy": "Tornado tracks must come from DAT. NCEI begin/end coordinates are not used as a tornado track substitute.",
    "source": "https://mesonet.agron.iastate.edu/cgi-bin/request/gis/lsr.py?wfo=DLH&sts=2026-07-01T00%3A00%3A00Z&ets=2026-08-01T00%3A00%3A00Z&fmt=csv"
  },
  "features": [
    {
      "type": "Feature",
      "id": "iem-lsr-DLH-1",
      "properties": {
        "report_id": "iem-lsr-DLH-1",
        "report_type": "MARINE TSTM WIND",
        "event_category": "marine",
        "valid_utc": "202607030120",
        "standard_time_display": "2026-07-02 19:20 CST",
        "wfo": "DLH",
        "county_or_zone": "LSZ144",
        "city": "3 SSW French River",
        "state": "MN",
        "magnitude": 37.0,
        "magnitude_units": null,
        "source": "Buoy",
        "event_narrative": "McQuade Nearshore Buoy measured gust."
      },
      "geometry": {
        "type": "Point",
        "coordinates": [
          -91.91,
          46.86
        ]
      }
    },
    {
      "type": "Feature",
      "id": "iem-lsr-DLH-2",
      "properties": {
        "report_id": "iem-lsr-DLH-2",
        "report_type": "HAIL",
        "event_category": "hail",
        "valid_utc": "202607030138",
        "standard_time_display": "2026-07-02 19:38 CST",
        "wfo": "DLH",
        "county_or_zone": "Itasca",
        "city": "1 SW La Prairie",
        "state": "MN",
        "magnitude": 1.0,
        "magnitude_units": null,
        "source": "Public",
        "event_narrative": "Report from mPING: Quarter (1.00 in.)."
      },
      "geometry": {
        "type": "Point",
        "coordinates": [
          -93.5,
          47.21
        ]
      }
    },
    {
      "type": "Feature",
      "id": "iem-lsr-DLH-3",
      "properties": {
        "report_id": "iem-lsr-DLH-3",
        "report_type": "MARINE TSTM WIND",
        "event_category": "marine",
        "valid_utc": "202607030217",
        "standard_time_display": "2026-07-02 20:17 CST",
        "wfo": "DLH",
        "county_or_zone": "LSZ146",
        "city": "4 NE Herbster",
        "state": "WI",
        "magnitude": 36.0,
        "magnitude_units": null,
        "source": "Mesonet",
        "event_narrative": "Personal weather station maximum gust."
      },
      "geometry": {
        "type": "Point",
        "coordinates": [
          -91.2,
          46.87
        ]
      }
    },
    {
      "type": "Feature",
      "id": "iem-lsr-DLH-4",
      "properties": {
        "report_id": "iem-lsr-DLH-4",
        "report_type": "TSTM WND DMG",
        "event_category": "thunderstorm_wind",
        "valid_utc": "202607032123",
        "standard_time_display": "2026-07-03 15:23 CST",
        "wfo": "DLH",
        "county_or_zone": "Carlton",
        "city": "3 N Sawyer",
        "state": "MN",
        "magnitude": null,
        "magnitude_units": null,
        "source": "Law Enforcement",
        "event_narrative": "Law enforcement officers and dispatch confirms four trees down on east side of Big Lake. Noted as healthy trees. One snapped about 10 feet above base and two uprooted. Unknown damage on the fourth. D"
      },
      "geometry": {
        "type": "Point",
        "coordinates": [
          -92.63,
          46.71
        ]
      }
    },
    {
      "type": "Feature",
      "id": "iem-lsr-DLH-5",
      "properties": {
        "report_id": "iem-lsr-DLH-5",
        "report_type": "RAIN",
        "event_category": "other",
        "valid_utc": "202607032245",
        "standard_time_display": "2026-07-03 16:45 CST",
        "wfo": "DLH",
        "county_or_zone": "Washburn",
        "city": "2 E Spooner",
        "state": "WI",
        "magnitude": 2.0,
        "magnitude_units": null,
        "source": "Public",
        "event_narrative": null
      },
      "geometry": {
        "type": "Point",
        "coordinates": [
          -91.86,
          45.82
        ]
      }
    },
    {
      "type": "Feature",
      "id": "iem-lsr-DLH-6",
      "properties": {
        "report_id": "iem-lsr-DLH-6",
        "report_type": "TSTM WND DMG",
        "event_category": "thunderstorm_wind",
        "valid_utc": "202607032342",
        "standard_time_display": "2026-07-03 17:42 CST",
        "wfo": "DLH",
        "county_or_zone": "Cass",
        "city": "2 NNW Wilkinson",
        "state": "MN",
        "magnitude": null,
        "magnitude_units": null,
        "source": "Public",
        "event_narrative": "Report and photo of tree down. Uprooted tree at base of tree meeting roots. Large healthy tree that was at least 18 inch diameter if not more. Time estimated off radar and verified with their general"
      },
      "geometry": {
        "type": "Point",
        "coordinates": [
          -94.64,
          47.28
        ]
      }
    },
    {
      "type": "Feature",
      "id": "iem-lsr-DLH-7",
      "properties": {
        "report_id": "iem-lsr-DLH-7",
        "report_type": "HAIL",
        "event_category": "hail",
        "valid_utc": "202607032345",
        "standard_time_display": "2026-07-03 17:45 CST",
        "wfo": "DLH",
        "county_or_zone": "St. Louis",
        "city": "2 S Melrude",
        "state": "MN",
        "magnitude": 1.0,
        "magnitude_units": null,
        "source": "NWS Employee",
        "event_narrative": null
      },
      "geometry": {
        "type": "Point",
        "coordinates": [
          -92.41,
          47.21
        ]
      }
    },
    {
      "type": "Feature",
      "id": "iem-lsr-DLH-8",
      "properties": {
        "report_id": "iem-lsr-DLH-8",
        "report_type": "TSTM WND DMG",
        "event_category": "thunderstorm_wind",
        "valid_utc": "202607040125",
        "standard_time_display": "2026-07-03 19:25 CST",
        "wfo": "DLH",
        "county_or_zone": "Cass",
        "city": "6 SSE Days High Landing",
        "state": "MN",
        "magnitude": null,
        "magnitude_units": null,
        "source": "911 Call Center",
        "event_narrative": "Dispatch reports trees down road MN Hwy 6. Time estimated based on radar."
      },
      "geometry": {
        "type": "Point",
        "coordinates": [
          -93.78,
          47.17
        ]
      }
    },
    {
      "type": "Feature",
      "id": "iem-lsr-DLH-9",
      "properties": {
        "report_id": "iem-lsr-DLH-9",
        "report_type": "RAIN",
        "event_category": "other",
        "valid_utc": "202607040226",
        "standard_time_display": "2026-07-03 20:26 CST",
        "wfo": "DLH",
        "county_or_zone": "Itasca",
        "city": "8 S Cohasset",
        "state": "MN",
        "magnitude": 0.62,
        "magnitude_units": null,
        "source": "Public",
        "event_narrative": null
      },
      "geometry": {
        "type": "Point",
        "coordinates": [
          -93.66,
          47.15
        ]
      }
    },
    {
      "type": "Feature",
      "id": "iem-lsr-DLH-10",
      "properties": {
        "report_id": "iem-lsr-DLH-10",
        "report_type": "FLOOD",
        "event_category": "flooding",
        "valid_utc": "202607041721",
        "standard_time_display": "2026-07-04 11:21 CST",
        "wfo": "DLH",
        "county_or_zone": "Itasca",
        "city": "10 E Marcell",
        "state": "MN",
        "magnitude": null,
        "magnitude_units": null,
        "source": "Public",
        "event_narrative": "Report from mPING: River/Creek overflowing; Cropland/Yard/Basement Flooding."
      },
      "geometry": {
        "type": "Point",
        "coordinates": [
          -93.47,
          47.59
        ]
      }
    },
    {
      "type": "Feature",
      "id": "iem-lsr-DLH-11",
      "properties": {
        "report_id": "iem-lsr-DLH-11",
        "report_type": "FLOOD",
        "event_category": "flooding",
        "valid_utc": "202607041908",
        "standard_time_display": "2026-07-04 13:08 CST",
        "wfo": "DLH",
        "county_or_zone": "Itasca",
        "city": "Coleraine",
        "state": "MN",
        "magnitude": null,
        "magnitude_units": null,
        "source": "Public",
        "event_narrative": "Report from mPING: River/Creek overflowing; Cropland/Yard/Basement Flooding."
      },
      "geometry": {
        "type": "Point",
        "coordinates": [
          -93.43,
          47.29
        ]
      }
    },
    {
      "type": "Feature",
      "id": "iem-lsr-DLH-12",
      "properties": {
        "report_id": "iem-lsr-DLH-12",
        "report_type": "FLOOD",
        "event_category": "flooding",
        "valid_utc": "202607041936",
        "standard_time_display": "2026-07-04 13:36 CST",
        "wfo": "DLH",
        "county_or_zone": "Itasca",
        "city": "Coleraine",
        "state": "MN",
        "magnitude": null,
        "magnitude_units": null,
        "source": "Public",
        "event_narrative": "Basement flooding at my and my neighbors house_ Coleraine. Mn-It-38. 1.10 inches of rain since this mornings report of 1.01 inches at 7am. Moderate to heavy rain continues."
      },
      "geometry": {
        "type": "Point",
        "coordinates": [
          -93.42,
          47.29
        ]
      }
    },
    {
      "type": "Feature",
      "id": "iem-lsr-DLH-13",
      "properties": {
        "report_id": "iem-lsr-DLH-13",
        "report_type": "HAIL",
        "event_category": "hail",
        "valid_utc": "202607042046",
        "standard_time_display": "2026-07-04 14:46 CST",
        "wfo": "DLH",
        "county_or_zone": "Aitkin",
        "city": "3 ESE Aitkin",
        "state": "MN",
        "magnitude": 1.75,
        "magnitude_units": null,
        "source": "Public",
        "event_narrative": "Report of golf ball size hail 3 miles from Aitkin on Highway 47. Location is approximate. Time estimated by radar."
      },
      "geometry": {
        "type": "Point",
        "coordinates": [
          -93.66,
          46.52
        ]
      }
    },
    {
      "type": "Feature",
      "id": "iem-lsr-DLH-14",
      "properties": {
        "report_id": "iem-lsr-DLH-14",
        "report_type": "HAIL",
        "event_category": "hail",
        "valid_utc": "202607042055",
        "standard_time_display": "2026-07-04 14:55 CST",
        "wfo": "DLH",
        "county_or_zone": "Aitkin",
        "city": "3 ESE Aitkin",
        "state": "MN",
        "magnitude": 1.0,
        "magnitude_units": null,
        "source": "Public",
        "event_narrative": null
      },
      "geometry": {
        "type": "Point",
        "coordinates": [
          -93.65,
          46.52
        ]
      }
    },
    {
      "type": "Feature",
      "id": "iem-lsr-DLH-15",
      "properties": {
        "report_id": "iem-lsr-DLH-15",
        "report_type": "HAIL",
        "event_category": "hail",
        "valid_utc": "202607042057",
        "standard_time_display": "2026-07-04 14:57 CST",
        "wfo": "DLH",
        "county_or_zone": "Aitkin",
        "city": "2 E Aitkin",
        "state": "MN",
        "magnitude": 1.0,
        "magnitude_units": null,
        "source": "Public",
        "event_narrative": null
      },
      "geometry": {
        "type": "Point",
        "coordinates": [
          -93.67,
          46.53
        ]
      }
    },
    {
      "type": "Feature",
      "id": "iem-lsr-DLH-16",
      "properties": {
        "report_id": "iem-lsr-DLH-16",
        "report_type": "HAIL",
        "event_category": "hail",
        "valid_utc": "202607042057",
        "standard_time_display": "2026-07-04 14:57 CST",
        "wfo": "DLH",
        "county_or_zone": "Aitkin",
        "city": "2 E Aitkin",
        "state": "MN",
        "magnitude": 1.5,
        "magnitude_units": null,
        "source": "Public",
        "event_narrative": "Facebook video."
      },
      "geometry": {
        "type": "Point",
        "coordinates": [
          -93.67,
          46.53
        ]
      }
    },
    {
      "type": "Feature",
      "id": "iem-lsr-DLH-17",
      "properties": {
        "report_id": "iem-lsr-DLH-17",
        "report_type": "HAIL",
        "event_category": "hail",
        "valid_utc": "202607042116",
        "standard_time_display": "2026-07-04 15:16 CST",
        "wfo": "DLH",
        "county_or_zone": "Aitkin",
        "city": "7 WSW Mcgrath",
        "state": "MN",
        "magnitude": 1.25,
        "magnitude_units": null,
        "source": "Public",
        "event_narrative": "Facebook video."
      },
      "geometry": {
        "type": "Point",
        "coordinates": [
          -93.41,
          46.22
        ]
      }
    },
    {
      "type": "Feature",
      "id": "iem-lsr-DLH-18",
      "properties": {
        "report_id": "iem-lsr-DLH-18",
        "report_type": "HAIL",
        "event_category": "hail",
        "valid_utc": "202607042120",
        "standard_time_display": "2026-07-04 15:20 CST",
        "wfo": "DLH",
        "county_or_zone": "Aitkin",
        "city": "4 WSW Mcgrath",
        "state": "MN",
        "magnitude": 1.75,
        "magnitude_units": null,
        "source": "Public",
        "event_narrative": null
      },
      "geometry": {
        "type": "Point",
        "coordinates": [
          -93.35,
          46.22
        ]
      }
    },
    {
      "type": "Feature",
      "id": "iem-lsr-DLH-19",
      "properties": {
        "report_id": "iem-lsr-DLH-19",
        "report_type": "RAIN",
        "event_category": "other",
        "valid_utc": "202607042300",
        "standard_time_display": "2026-07-04 17:00 CST",
        "wfo": "DLH",
        "county_or_zone": "Itasca",
        "city": "12 N Grand Rapids",
        "state": "MN",
        "magnitude": 1.8,
        "magnitude_units": null,
        "source": "CO-OP Observer",
        "event_narrative": "Rainfall today. Time is approximate."
      },
      "geometry": {
        "type": "Point",
        "coordinates": [
          -93.49,
          47.41
        ]
      }
    },
    {
      "type": "Feature",
      "id": "iem-lsr-DLH-20",
      "properties": {
        "report_id": "iem-lsr-DLH-20",
        "report_type": "TSTM WND DMG",
        "event_category": "thunderstorm_wind",
        "valid_utc": "202607042318",
        "standard_time_display": "2026-07-04 17:18 CST",
        "wfo": "DLH",
        "county_or_zone": "Pine",
        "city": "3 W Pine City",
        "state": "MN",
        "magnitude": null,
        "magnitude_units": null,
        "source": "Public",
        "event_narrative": "Report of high winds_ treed down_ and power lines hanging on the road off Pokegama Lake. Report received via Facebook. Location is approximate. Time estimated from radar."
      },
      "geometry": {
        "type": "Point",
        "coordinates": [
          -93.03,
          45.84
        ]
      }
    },
    {
      "type": "Feature",
      "id": "iem-lsr-DLH-21",
      "properties": {
        "report_id": "iem-lsr-DLH-21",
        "report_type": "TSTM WND DMG",
        "event_category": "thunderstorm_wind",
        "valid_utc": "202607042318",
        "standard_time_display": "2026-07-04 17:18 CST",
        "wfo": "DLH",
        "county_or_zone": "Pine",
        "city": "4 W Pine City",
        "state": "MN",
        "magnitude": null,
        "magnitude_units": null,
        "source": "Public",
        "event_narrative": "Video of strong winds that blew over a large tree onto a truck. Report received via Facebook. Location is approximate on the southwest corner of Lake Pokegama in Pine City. Time estimated by radar."
      },
      "geometry": {
        "type": "Point",
        "coordinates": [
          -93.06,
          45.83
        ]
      }
    }
  ]
}