{
  "type": "FeatureCollection",
  "metadata": {
    "schema_version": "0.2.4",
    "year": 2026,
    "month": 4,
    "wfo": "GUM",
    "start_utc": "2026-04-01T00:00:00Z",
    "end_utc": "2026-05-01T00:00:00Z",
    "generated_utc": "2026-06-25T11:52:31Z",
    "mode": "storm_data_prep",
    "public_release_status": "public-source-derived",
    "time_note": "Storm Data entry times should be reviewed in local Standard Time (ST), not daylight time. Candidate reports include standard_time_display.",
    "tornado_track_policy": "Tornado tracks must come from DAT. NCEI begin/end coordinates are not used as a tornado track substitute.",
    "source": "https://mesonet.agron.iastate.edu/cgi-bin/request/gis/lsr.py?wfo=GUM&sts=2026-04-01T00%3A00%3A00Z&ets=2026-05-01T00%3A00%3A00Z&fmt=csv"
  },
  "features": [
    {
      "type": "Feature",
      "id": "iem-lsr-GUM-1",
      "properties": {
        "report_id": "iem-lsr-GUM-1",
        "report_type": "TROPICAL CYCLONE",
        "event_category": "other",
        "valid_utc": "202604132354",
        "standard_time_display": "2026-04-14 09:54 ChST",
        "wfo": "GUM",
        "county_or_zone": "Saipan",
        "city": "1 SSW Dandan",
        "state": "MP",
        "magnitude": null,
        "magnitude_units": null,
        "source": "Official NWS Obs",
        "event_narrative": null
      },
      "geometry": {
        "type": "Point",
        "coordinates": [
          145.73,
          15.12
        ]
      }
    },
    {
      "type": "Feature",
      "id": "iem-lsr-GUM-2",
      "properties": {
        "report_id": "iem-lsr-GUM-2",
        "report_type": "TROPICAL CYCLONE",
        "event_category": "other",
        "valid_utc": "202604140026",
        "standard_time_display": "2026-04-14 10:26 ChST",
        "wfo": "GUM",
        "county_or_zone": "PMZ152",
        "city": "45 E Sinapalu",
        "state": "MP",
        "magnitude": null,
        "magnitude_units": null,
        "source": "Buoy",
        "event_narrative": "SOFAR Buoy at 12:26 AM ChST on April 14th measured 12.6m (41.34 feet) at coordinates 14.175N 146.4787E."
      },
      "geometry": {
        "type": "Point",
        "coordinates": [
          145.9,
          14.18
        ]
      }
    },
    {
      "type": "Feature",
      "id": "iem-lsr-GUM-3",
      "properties": {
        "report_id": "iem-lsr-GUM-3",
        "report_type": "NON-TSTM WND GST",
        "event_category": "thunderstorm_wind",
        "valid_utc": "202604140100",
        "standard_time_display": "2026-04-14 11:00 ChST",
        "wfo": "GUM",
        "county_or_zone": "PMZ151",
        "city": "1 NNE Apra Harbor",
        "state": "GU",
        "magnitude": 67.0,
        "magnitude_units": null,
        "source": "Buoy",
        "event_narrative": "Apra Harbor."
      },
      "geometry": {
        "type": "Point",
        "coordinates": [
          144.66,
          13.44
        ]
      }
    },
    {
      "type": "Feature",
      "id": "iem-lsr-GUM-4",
      "properties": {
        "report_id": "iem-lsr-GUM-4",
        "report_type": "TROPICAL CYCLONE",
        "event_category": "other",
        "valid_utc": "202604140100",
        "standard_time_display": "2026-04-14 11:00 ChST",
        "wfo": "GUM",
        "county_or_zone": "PMZ151",
        "city": "1 NNE Apra Harbor",
        "state": "GU",
        "magnitude": null,
        "magnitude_units": null,
        "source": "Buoy",
        "event_narrative": "Corrects previous non-tstm wnd gst report from 1 NNE Apra Harbor. Apra Harbor."
      },
      "geometry": {
        "type": "Point",
        "coordinates": [
          144.66,
          13.44
        ]
      }
    },
    {
      "type": "Feature",
      "id": "iem-lsr-GUM-5",
      "properties": {
        "report_id": "iem-lsr-GUM-5",
        "report_type": "NON-TSTM WND GST",
        "event_category": "thunderstorm_wind",
        "valid_utc": "202604140542",
        "standard_time_display": "2026-04-14 15:42 ChST",
        "wfo": "GUM",
        "county_or_zone": "Guam",
        "city": "1 ENE Tiyan",
        "state": "GU",
        "magnitude": 88.0,
        "magnitude_units": null,
        "source": "Official NWS Obs",
        "event_narrative": "Peak wind gust."
      },
      "geometry": {
        "type": "Point",
        "coordinates": [
          144.8,
          13.49
        ]
      }
    },
    {
      "type": "Feature",
      "id": "iem-lsr-GUM-6",
      "properties": {
        "report_id": "iem-lsr-GUM-6",
        "report_type": "TROPICAL CYCLONE",
        "event_category": "other",
        "valid_utc": "202604140542",
        "standard_time_display": "2026-04-14 15:42 ChST",
        "wfo": "GUM",
        "county_or_zone": "Guam",
        "city": "1 ENE Tiyan",
        "state": "GU",
        "magnitude": null,
        "magnitude_units": null,
        "source": "Official NWS Obs",
        "event_narrative": "Corrects previous non-tstm wnd gst report from 1 ENE Tiyan. Peak wind gust."
      },
      "geometry": {
        "type": "Point",
        "coordinates": [
          144.8,
          13.49
        ]
      }
    },
    {
      "type": "Feature",
      "id": "iem-lsr-GUM-7",
      "properties": {
        "report_id": "iem-lsr-GUM-7",
        "report_type": "NON-TSTM WND GST",
        "event_category": "thunderstorm_wind",
        "valid_utc": "202604140605",
        "standard_time_display": "2026-04-14 16:05 ChST",
        "wfo": "GUM",
        "county_or_zone": "Guam",
        "city": "1 N Andersen Afb",
        "state": "GU",
        "magnitude": 81.0,
        "magnitude_units": null,
        "source": "Other Federal",
        "event_narrative": "Andersen AFB observation."
      },
      "geometry": {
        "type": "Point",
        "coordinates": [
          144.92,
          13.58
        ]
      }
    },
    {
      "type": "Feature",
      "id": "iem-lsr-GUM-8",
      "properties": {
        "report_id": "iem-lsr-GUM-8",
        "report_type": "TROPICAL CYCLONE",
        "event_category": "other",
        "valid_utc": "202604140605",
        "standard_time_display": "2026-04-14 16:05 ChST",
        "wfo": "GUM",
        "county_or_zone": "Guam",
        "city": "1 N Andersen Afb",
        "state": "GU",
        "magnitude": null,
        "magnitude_units": null,
        "source": "Official NWS Obs",
        "event_narrative": "Corrects previous non-tstm wnd gst report from 1 N Andersen Afb. Andersen AFB observation."
      },
      "geometry": {
        "type": "Point",
        "coordinates": [
          144.92,
          13.58
        ]
      }
    },
    {
      "type": "Feature",
      "id": "iem-lsr-GUM-9",
      "properties": {
        "report_id": "iem-lsr-GUM-9",
        "report_type": "STORM SURGE",
        "event_category": "flooding",
        "valid_utc": "202604140735",
        "standard_time_display": "2026-04-14 17:35 ChST",
        "wfo": "GUM",
        "county_or_zone": "Guam",
        "city": "Maite",
        "state": "GU",
        "magnitude": null,
        "magnitude_units": null,
        "source": "Public",
        "event_narrative": "1 to 3 feet of storm surge onto Marine Corps. Drive per NWS employee."
      },
      "geometry": {
        "type": "Point",
        "coordinates": [
          144.76,
          13.48
        ]
      }
    },
    {
      "type": "Feature",
      "id": "iem-lsr-GUM-10",
      "properties": {
        "report_id": "iem-lsr-GUM-10",
        "report_type": "STORM SURGE",
        "event_category": "flooding",
        "valid_utc": "202604140735",
        "standard_time_display": "2026-04-14 17:35 ChST",
        "wfo": "GUM",
        "county_or_zone": "Guam",
        "city": "Maite",
        "state": "GU",
        "magnitude": null,
        "magnitude_units": null,
        "source": "Public",
        "event_narrative": "1 to 3 feet of storm surge onto Marine Corps. Report via NWS employee."
      },
      "geometry": {
        "type": "Point",
        "coordinates": [
          144.76,
          13.48
        ]
      }
    },
    {
      "type": "Feature",
      "id": "iem-lsr-GUM-11",
      "properties": {
        "report_id": "iem-lsr-GUM-11",
        "report_type": "FLOOD",
        "event_category": "flooding",
        "valid_utc": "202604140745",
        "standard_time_display": "2026-04-14 17:45 ChST",
        "wfo": "GUM",
        "county_or_zone": "Guam",
        "city": "Maite",
        "state": "GU",
        "magnitude": null,
        "magnitude_units": null,
        "source": "NWS Storm Survey",
        "event_narrative": "NWS employee enroute to the office reported an ambulance traversing water estimated to be 1 foot deep in the far right lane (eastbound) of a 7 lane road (Marine Corps. Drive). Debris on the road with"
      },
      "geometry": {
        "type": "Point",
        "coordinates": [
          144.76,
          13.48
        ]
      }
    },
    {
      "type": "Feature",
      "id": "iem-lsr-GUM-12",
      "properties": {
        "report_id": "iem-lsr-GUM-12",
        "report_type": "FLOOD",
        "event_category": "flooding",
        "valid_utc": "202604140745",
        "standard_time_display": "2026-04-14 17:45 ChST",
        "wfo": "GUM",
        "county_or_zone": "Guam",
        "city": "Maite",
        "state": "GU",
        "magnitude": null,
        "magnitude_units": null,
        "source": "NWS Storm Survey",
        "event_narrative": "NWS employee enroute to the office reported an ambulance traversing water estimated to be 1 foot deep in the far right lane (eastbound) of a 7-lane road (Marine Corps. Drive). Debris on the road with"
      },
      "geometry": {
        "type": "Point",
        "coordinates": [
          144.76,
          13.48
        ]
      }
    },
    {
      "type": "Feature",
      "id": "iem-lsr-GUM-13",
      "properties": {
        "report_id": "iem-lsr-GUM-13",
        "report_type": "TROPICAL CYCLONE",
        "event_category": "other",
        "valid_utc": "202604140915",
        "standard_time_display": "2026-04-14 19:15 ChST",
        "wfo": "GUM",
        "county_or_zone": "Guam",
        "city": "1 NNE Tamuning",
        "state": "GU",
        "magnitude": null,
        "magnitude_units": null,
        "source": "Public",
        "event_narrative": "Public observation for site KGUTAMUN1."
      },
      "geometry": {
        "type": "Point",
        "coordinates": [
          144.78,
          13.5
        ]
      }
    },
    {
      "type": "Feature",
      "id": "iem-lsr-GUM-14",
      "properties": {
        "report_id": "iem-lsr-GUM-14",
        "report_type": "NON-TSTM WND GST",
        "event_category": "thunderstorm_wind",
        "valid_utc": "202604141158",
        "standard_time_display": "2026-04-14 21:58 ChST",
        "wfo": "GUM",
        "county_or_zone": "Saipan",
        "city": "1 SSW Dandan",
        "state": "MP",
        "magnitude": 130.0,
        "magnitude_units": null,
        "source": "Official NWS Obs",
        "event_narrative": "Western Eyewall made landfall on Tinian and Saipan at 09:34 ChST."
      },
      "geometry": {
        "type": "Point",
        "coordinates": [
          145.73,
          15.12
        ]
      }
    },
    {
      "type": "Feature",
      "id": "iem-lsr-GUM-15",
      "properties": {
        "report_id": "iem-lsr-GUM-15",
        "report_type": "TROPICAL CYCLONE",
        "event_category": "other",
        "valid_utc": "202604141158",
        "standard_time_display": "2026-04-14 21:58 ChST",
        "wfo": "GUM",
        "county_or_zone": "Saipan",
        "city": "1 SSW Dandan",
        "state": "MP",
        "magnitude": null,
        "magnitude_units": null,
        "source": "Official NWS Obs",
        "event_narrative": "Corrects previous non-tstm wnd gst report from 1 SSW Dandan. Western Eyewall made landfall on Tinian and Saipan at 09:34 ChST."
      },
      "geometry": {
        "type": "Point",
        "coordinates": [
          145.73,
          15.12
        ]
      }
    },
    {
      "type": "Feature",
      "id": "iem-lsr-GUM-16",
      "properties": {
        "report_id": "iem-lsr-GUM-16",
        "report_type": "FLOOD",
        "event_category": "flooding",
        "valid_utc": "202604141221",
        "standard_time_display": "2026-04-14 22:21 ChST",
        "wfo": "GUM",
        "county_or_zone": "Saipan",
        "city": "Gualo Rai",
        "state": "MP",
        "magnitude": null,
        "magnitude_units": null,
        "source": "Public",
        "event_narrative": "Flooding several feet deep."
      },
      "geometry": {
        "type": "Point",
        "coordinates": [
          145.72,
          15.19
        ]
      }
    },
    {
      "type": "Feature",
      "id": "iem-lsr-GUM-17",
      "properties": {
        "report_id": "iem-lsr-GUM-17",
        "report_type": "TROPICAL CYCLONE",
        "event_category": "other",
        "valid_utc": "202604141230",
        "standard_time_display": "2026-04-14 22:30 ChST",
        "wfo": "GUM",
        "county_or_zone": "PMZ154",
        "city": "6 NW Garapan",
        "state": "MP",
        "magnitude": null,
        "magnitude_units": null,
        "source": "Buoy",
        "event_narrative": "The Tanapag Buoy shows seas of 28.2 feet as of 10:30 PM ChST. No observations observed since then. Buoy penetrated eye wall and was in the northern part of the eye per satellite imagery and Doppler r"
      },
      "geometry": {
        "type": "Point",
        "coordinates": [
          145.66,
          15.27
        ]
      }
    },
    {
      "type": "Feature",
      "id": "iem-lsr-GUM-18",
      "properties": {
        "report_id": "iem-lsr-GUM-18",
        "report_type": "TROPICAL CYCLONE",
        "event_category": "other",
        "valid_utc": "202604141240",
        "standard_time_display": "2026-04-14 22:40 ChST",
        "wfo": "GUM",
        "county_or_zone": "Guam",
        "city": "1 NNW Toto",
        "state": "GU",
        "magnitude": null,
        "magnitude_units": null,
        "source": "Official NWS Obs",
        "event_narrative": "Corrects previous non-tstm wnd dmg report from 1 NNW Toto. Utility lines down at 125 W. Malate St."
      },
      "geometry": {
        "type": "Point",
        "coordinates": [
          144.78,
          13.47
        ]
      }
    },
    {
      "type": "Feature",
      "id": "iem-lsr-GUM-19",
      "properties": {
        "report_id": "iem-lsr-GUM-19",
        "report_type": "NON-TSTM WND DMG",
        "event_category": "thunderstorm_wind",
        "valid_utc": "202604141240",
        "standard_time_display": "2026-04-14 22:40 ChST",
        "wfo": "GUM",
        "county_or_zone": "Guam",
        "city": "1 NNW Toto",
        "state": "GU",
        "magnitude": null,
        "magnitude_units": null,
        "source": "Official NWS Obs",
        "event_narrative": "Utility lines down at 125 W. Malate St."
      },
      "geometry": {
        "type": "Point",
        "coordinates": [
          144.78,
          13.47
        ]
      }
    },
    {
      "type": "Feature",
      "id": "iem-lsr-GUM-20",
      "properties": {
        "report_id": "iem-lsr-GUM-20",
        "report_type": "FLOOD",
        "event_category": "flooding",
        "valid_utc": "202604141256",
        "standard_time_display": "2026-04-14 22:56 ChST",
        "wfo": "GUM",
        "county_or_zone": "Saipan",
        "city": "Gualo Rai",
        "state": "MP",
        "magnitude": null,
        "magnitude_units": null,
        "source": "Public",
        "event_narrative": "Flooding up to the bumpers of mid-sized cars. Video via social media."
      },
      "geometry": {
        "type": "Point",
        "coordinates": [
          145.72,
          15.19
        ]
      }
    },
    {
      "type": "Feature",
      "id": "iem-lsr-GUM-21",
      "properties": {
        "report_id": "iem-lsr-GUM-21",
        "report_type": "RAIN",
        "event_category": "other",
        "valid_utc": "202604141337",
        "standard_time_display": "2026-04-14 23:37 ChST",
        "wfo": "GUM",
        "county_or_zone": "Guam",
        "city": "1 SE Ordot",
        "state": "GU",
        "magnitude": 11.64,
        "magnitude_units": null,
        "source": "Public",
        "event_narrative": null
      },
      "geometry": {
        "type": "Point",
        "coordinates": [
          144.78,
          13.44
        ]
      }
    },
    {
      "type": "Feature",
      "id": "iem-lsr-GUM-22",
      "properties": {
        "report_id": "iem-lsr-GUM-22",
        "report_type": "RAIN",
        "event_category": "other",
        "valid_utc": "202604141359",
        "standard_time_display": "2026-04-14 23:59 ChST",
        "wfo": "GUM",
        "county_or_zone": "Guam",
        "city": "Tiyan",
        "state": "GU",
        "magnitude": 6.58,
        "magnitude_units": null,
        "source": "NWS Employee",
        "event_narrative": null
      },
      "geometry": {
        "type": "Point",
        "coordinates": [
          144.79,
          13.48
        ]
      }
    },
    {
      "type": "Feature",
      "id": "iem-lsr-GUM-23",
      "properties": {
        "report_id": "iem-lsr-GUM-23",
        "report_type": "TROPICAL CYCLONE",
        "event_category": "other",
        "valid_utc": "202604141507",
        "standard_time_display": "2026-04-15 01:07 ChST",
        "wfo": "GUM",
        "county_or_zone": "Guam",
        "city": "Andersen AFB",
        "state": "GU",
        "magnitude": null,
        "magnitude_units": null,
        "source": "Other Federal",
        "event_narrative": "PK WND 25074/07 (1:07 AM ChST)...which translates to 84 mph. wind gust from the WSW."
      },
      "geometry": {
        "type": "Point",
        "coordinates": [
          144.92,
          13.58
        ]
      }
    },
    {
      "type": "Feature",
      "id": "iem-lsr-GUM-24",
      "properties": {
        "report_id": "iem-lsr-GUM-24",
        "report_type": "TROPICAL CYCLONE",
        "event_category": "other",
        "valid_utc": "202604141715",
        "standard_time_display": "2026-04-15 03:15 ChST",
        "wfo": "GUM",
        "county_or_zone": "Saipan",
        "city": "1 S San Roque",
        "state": "MP",
        "magnitude": null,
        "magnitude_units": null,
        "source": "Public",
        "event_narrative": "Wireless Ridge pressure of 27.20 IN./921.12 mb."
      },
      "geometry": {
        "type": "Point",
        "coordinates": [
          145.77,
          15.23
        ]
      }
    }
  ]
}