{
  "type": "FeatureCollection",
  "metadata": {
    "schema_version": "0.2.4",
    "year": 2026,
    "month": 10,
    "wfo": "JAX",
    "start_utc": "2026-10-01T00:00:00Z",
    "end_utc": "2026-11-01T00:00:00Z",
    "generated_utc": "2026-10-04T14:46:53Z",
    "mode": "storm_data_prep",
    "public_release_status": "public-source-derived",
    "time_note": "Storm Data entry times should be reviewed in local Standard Time (ST), not daylight time. Candidate reports include standard_time_display.",
    "tornado_track_policy": "Tornado tracks must come from DAT. NCEI begin/end coordinates are not used as a tornado track substitute.",
    "source": "https://mesonet.agron.iastate.edu/cgi-bin/request/gis/lsr.py?wfo=JAX&sts=2026-10-01T00%3A00%3A00Z&ets=2026-11-01T00%3A00%3A00Z&fmt=csv"
  },
  "features": [
    {
      "type": "Feature",
      "id": "iem-lsr-JAX-1",
      "properties": {
        "report_id": "iem-lsr-JAX-1",
        "report_type": "FLOOD",
        "event_category": "flooding",
        "valid_utc": "202610021705",
        "standard_time_display": "2026-10-02 12:05 EST",
        "wfo": "JAX",
        "county_or_zone": "Duval",
        "city": "4 NNW Oceanway",
        "state": "FL",
        "magnitude": null,
        "magnitude_units": null,
        "source": "NWS Employee",
        "event_narrative": "Off duty NWS employee reported minor street flooding at the intersection of Pecan Park Rd and Bainbridge Dr."
      },
      "geometry": {
        "type": "Point",
        "coordinates": [
          -81.65,
          30.52
        ]
      }
    },
    {
      "type": "Feature",
      "id": "iem-lsr-JAX-2",
      "properties": {
        "report_id": "iem-lsr-JAX-2",
        "report_type": "RAIN",
        "event_category": "other",
        "valid_utc": "202610031830",
        "standard_time_display": "2026-10-03 13:30 EST",
        "wfo": "JAX",
        "county_or_zone": "Coffee",
        "city": "2 ENE Broxton",
        "state": "GA",
        "magnitude": 2.32,
        "magnitude_units": null,
        "source": "Mesonet",
        "event_narrative": "Personal weather station Deen Hill - KGABROXT7 measured 2.32 inches of rain. Rain began around 1250 PM."
      },
      "geometry": {
        "type": "Point",
        "coordinates": [
          -82.86,
          31.63
        ]
      }
    },
    {
      "type": "Feature",
      "id": "iem-lsr-JAX-3",
      "properties": {
        "report_id": "iem-lsr-JAX-3",
        "report_type": "RAIN",
        "event_category": "other",
        "valid_utc": "202610040100",
        "standard_time_display": "2026-10-03 20:00 EST",
        "wfo": "JAX",
        "county_or_zone": "Appling",
        "city": "5 SSW Surrency",
        "state": "GA",
        "magnitude": 3.92,
        "magnitude_units": null,
        "source": "Mesonet",
        "event_narrative": "Mesonet station DVI013833 BASF BGA measured 3.92 inches of rain. Rain began around 11 AM. About 3.5 inches of rain fell between 3 PM and 4 PM EDT."
      },
      "geometry": {
        "type": "Point",
        "coordinates": [
          -82.23,
          31.65
        ]
      }
    },
    {
      "type": "Feature",
      "id": "iem-lsr-JAX-4",
      "properties": {
        "report_id": "iem-lsr-JAX-4",
        "report_type": "RAIN",
        "event_category": "other",
        "valid_utc": "202610040400",
        "standard_time_display": "2026-10-03 23:00 EST",
        "wfo": "JAX",
        "county_or_zone": "Camden",
        "city": "3 WNW Colesburg",
        "state": "GA",
        "magnitude": 5.02,
        "magnitude_units": null,
        "source": "Mesonet",
        "event_narrative": "Mesonet station DVI014434 J4 Blueberries measured 5.02 inches of rain. Rain began around 2 PM EDT. About 3.74 inches fell between 800 PM to 930 PM EDT."
      },
      "geometry": {
        "type": "Point",
        "coordinates": [
          -81.77,
          30.93
        ]
      }
    },
    {
      "type": "Feature",
      "id": "iem-lsr-JAX-5",
      "properties": {
        "report_id": "iem-lsr-JAX-5",
        "report_type": "RAIN",
        "event_category": "other",
        "valid_utc": "202610040500",
        "standard_time_display": "2026-10-04 00:00 EST",
        "wfo": "JAX",
        "county_or_zone": "Brantley",
        "city": "3 N Hoboken",
        "state": "GA",
        "magnitude": 4.01,
        "magnitude_units": null,
        "source": "Mesonet",
        "event_narrative": "Mesonet station DVI021478 raysullivan measured 4.01 inches of rain. Rain began around 1 PM EDT. About 2.16 inches of rain fell between 4 PM and 5 PM EDT."
      },
      "geometry": {
        "type": "Point",
        "coordinates": [
          -82.13,
          31.23
        ]
      }
    }
  ]
}