{
  "type": "FeatureCollection",
  "metadata": {
    "schema_version": "0.2.4",
    "year": 2026,
    "month": 4,
    "wfo": "MFL",
    "start_utc": "2026-04-01T00:00:00Z",
    "end_utc": "2026-05-01T00:00:00Z",
    "generated_utc": "2026-06-15T15:28:08Z",
    "mode": "storm_data_prep",
    "public_release_status": "public-source-derived",
    "time_note": "Storm Data entry times should be reviewed in local Standard Time (ST), not daylight time. Candidate reports include standard_time_display.",
    "tornado_track_policy": "Tornado tracks must come from DAT. NCEI begin/end coordinates are not used as a tornado track substitute.",
    "source": "https://mesonet.agron.iastate.edu/cgi-bin/request/gis/lsr.py?wfo=MFL&sts=2026-04-01T00%3A00%3A00Z&ets=2026-05-01T00%3A00%3A00Z&fmt=csv"
  },
  "features": [
    {
      "type": "Feature",
      "id": "iem-lsr-MFL-1",
      "properties": {
        "report_id": "iem-lsr-MFL-1",
        "report_type": "RIP CURRENTS",
        "event_category": "marine",
        "valid_utc": "202604011900",
        "standard_time_display": "2026-04-01 14:00 EST",
        "wfo": "MFL",
        "county_or_zone": "AMZ650",
        "city": "Juno Beach",
        "state": "FL",
        "magnitude": null,
        "magnitude_units": null,
        "source": "Broadcast Media",
        "event_narrative": "*** 1 FATAL *** Broadcast Media reports that a individual passed away on Wednesday afternoon shortly after saving two children caught in a rip current. Time is approximated from news report."
      },
      "geometry": {
        "type": "Point",
        "coordinates": [
          -80.05,
          26.88
        ]
      }
    },
    {
      "type": "Feature",
      "id": "iem-lsr-MFL-2",
      "properties": {
        "report_id": "iem-lsr-MFL-2",
        "report_type": "RIP CURRENTS",
        "event_category": "marine",
        "valid_utc": "202604031900",
        "standard_time_display": "2026-04-03 14:00 EST",
        "wfo": "MFL",
        "county_or_zone": "AMZ651",
        "city": "3 ESE Fort Lauderdale",
        "state": "FL",
        "magnitude": null,
        "magnitude_units": null,
        "source": "Broadcast Media",
        "event_narrative": "*** 4 INJ *** 29 individuals were pulled from the water at Fort Lauderdale Beach on Friday. Four individuals were taken to the hospital for further treatment. Time is approximated from news report."
      },
      "geometry": {
        "type": "Point",
        "coordinates": [
          -80.1,
          26.11
        ]
      }
    },
    {
      "type": "Feature",
      "id": "iem-lsr-MFL-3",
      "properties": {
        "report_id": "iem-lsr-MFL-3",
        "report_type": "RIP CURRENTS",
        "event_category": "marine",
        "valid_utc": "202604052300",
        "standard_time_display": "2026-04-05 18:00 EST",
        "wfo": "MFL",
        "county_or_zone": "Broward",
        "city": "2 ENE Pompano Beach",
        "state": "FL",
        "magnitude": null,
        "magnitude_units": null,
        "source": "Broadcast Media",
        "event_narrative": "*** 1 FATAL *** A 50 year old man was pulled from the ocean near 10 N. Pompano Beach Blvd on Sunday night. He was transported to the hospital_ where he was pronounced dead."
      },
      "geometry": {
        "type": "Point",
        "coordinates": [
          -80.09,
          26.24
        ]
      }
    },
    {
      "type": "Feature",
      "id": "iem-lsr-MFL-4",
      "properties": {
        "report_id": "iem-lsr-MFL-4",
        "report_type": "WILDFIRE",
        "event_category": "fire_smoke",
        "valid_utc": "202604052339",
        "standard_time_display": "2026-04-05 18:39 EST",
        "wfo": "MFL",
        "county_or_zone": "Collier",
        "city": "3 SE Sunniland",
        "state": "FL",
        "magnitude": null,
        "magnitude_units": null,
        "source": "Park/Forest Srvc",
        "event_narrative": "Hilux Wildfire in Collier County has grown to 511 acres with 0% containment as of the evening update from the National Park Service."
      },
      "geometry": {
        "type": "Point",
        "coordinates": [
          -81.32,
          26.24
        ]
      }
    },
    {
      "type": "Feature",
      "id": "iem-lsr-MFL-5",
      "properties": {
        "report_id": "iem-lsr-MFL-5",
        "report_type": "MARINE TSTM WIND",
        "event_category": "marine",
        "valid_utc": "202604070051",
        "standard_time_display": "2026-04-06 19:51 EST",
        "wfo": "MFL",
        "county_or_zone": "AMZ610",
        "city": "6 ESE Lakeport",
        "state": "FL",
        "magnitude": 46.0,
        "magnitude_units": null,
        "source": "Mesonet",
        "event_narrative": "Lake Okeechobee West gusted to 40 kts or 46 mph."
      },
      "geometry": {
        "type": "Point",
        "coordinates": [
          -81.04,
          26.94
        ]
      }
    },
    {
      "type": "Feature",
      "id": "iem-lsr-MFL-6",
      "properties": {
        "report_id": "iem-lsr-MFL-6",
        "report_type": "MARINE TSTM WIND",
        "event_category": "marine",
        "valid_utc": "202604071917",
        "standard_time_display": "2026-04-07 14:17 EST",
        "wfo": "MFL",
        "county_or_zone": "AMZ651",
        "city": "5 SSE Miami Beach",
        "state": "FL",
        "magnitude": 73.0,
        "magnitude_units": null,
        "source": "Mesonet",
        "event_narrative": "Mesonet station XGVT Government Cut measured a 73 mph gust under the core of a downburst."
      },
      "geometry": {
        "type": "Point",
        "coordinates": [
          -80.1,
          25.75
        ]
      }
    },
    {
      "type": "Feature",
      "id": "iem-lsr-MFL-7",
      "properties": {
        "report_id": "iem-lsr-MFL-7",
        "report_type": "TORNADO",
        "event_category": "tornado",
        "valid_utc": "202604072045",
        "standard_time_display": "2026-04-07 15:45 EST",
        "wfo": "MFL",
        "county_or_zone": "Miami-Dade",
        "city": "3 NNW Miami Lakes",
        "state": "FL",
        "magnitude": null,
        "magnitude_units": null,
        "source": "NWS Storm Survey",
        "event_narrative": "A brief EF0 tornado move through the Palm Springs North community."
      },
      "geometry": {
        "type": "Point",
        "coordinates": [
          -80.33,
          25.94
        ]
      }
    },
    {
      "type": "Feature",
      "id": "iem-lsr-MFL-8",
      "properties": {
        "report_id": "iem-lsr-MFL-8",
        "report_type": "TSTM WND DMG",
        "event_category": "thunderstorm_wind",
        "valid_utc": "202604072057",
        "standard_time_display": "2026-04-07 15:57 EST",
        "wfo": "MFL",
        "county_or_zone": "Miami-Dade",
        "city": "2 NNW Miami Lakes",
        "state": "FL",
        "magnitude": null,
        "magnitude_units": null,
        "source": "Emergency Mngr",
        "event_narrative": "Miami-Dade County reported straight line wind damage in Hialeah as a severe thunderstorm moved through the area_ two homes were damaged."
      },
      "geometry": {
        "type": "Point",
        "coordinates": [
          -80.33,
          25.94
        ]
      }
    },
    {
      "type": "Feature",
      "id": "iem-lsr-MFL-9",
      "properties": {
        "report_id": "iem-lsr-MFL-9",
        "report_type": "MARINE TSTM WIND",
        "event_category": "marine",
        "valid_utc": "202604082043",
        "standard_time_display": "2026-04-08 15:43 EST",
        "wfo": "MFL",
        "county_or_zone": "AMZ650",
        "city": "1 N Juno Beach",
        "state": "FL",
        "magnitude": 45.0,
        "magnitude_units": null,
        "source": "Mesonet",
        "event_narrative": "A thunderstorm produced a wind gust of 45 mph or 39 kts at Mesonet station XJUP Juno Beach Pier."
      },
      "geometry": {
        "type": "Point",
        "coordinates": [
          -80.06,
          26.89
        ]
      }
    },
    {
      "type": "Feature",
      "id": "iem-lsr-MFL-10",
      "properties": {
        "report_id": "iem-lsr-MFL-10",
        "report_type": "FLOOD",
        "event_category": "flooding",
        "valid_utc": "202604082100",
        "standard_time_display": "2026-04-08 16:00 EST",
        "wfo": "MFL",
        "county_or_zone": "Palm Beach",
        "city": "1 SW Riviera Beach",
        "state": "FL",
        "magnitude": null,
        "magnitude_units": null,
        "source": "Law Enforcement",
        "event_narrative": "Video footage of street flooding was shared by Riviera Beach PD as well as reports of manhole covers floating off on President Barack Obama Highway."
      },
      "geometry": {
        "type": "Point",
        "coordinates": [
          -80.09,
          26.77
        ]
      }
    },
    {
      "type": "Feature",
      "id": "iem-lsr-MFL-11",
      "properties": {
        "report_id": "iem-lsr-MFL-11",
        "report_type": "TSTM WND GST",
        "event_category": "thunderstorm_wind",
        "valid_utc": "202604082115",
        "standard_time_display": "2026-04-08 16:15 EST",
        "wfo": "MFL",
        "county_or_zone": "AMZ650",
        "city": "3 E Riviera Beach",
        "state": "FL",
        "magnitude": 52.0,
        "magnitude_units": null,
        "source": "Mesonet",
        "event_narrative": "Mesonet station DVI08648 West Palm Beach reported a wind gust of 52 mph at 5:15pm as strong winds pushed onshore."
      },
      "geometry": {
        "type": "Point",
        "coordinates": [
          -80.03,
          26.79
        ]
      }
    },
    {
      "type": "Feature",
      "id": "iem-lsr-MFL-12",
      "properties": {
        "report_id": "iem-lsr-MFL-12",
        "report_type": "FLOOD",
        "event_category": "flooding",
        "valid_utc": "202604082130",
        "standard_time_display": "2026-04-08 16:30 EST",
        "wfo": "MFL",
        "county_or_zone": "Palm Beach",
        "city": "3 SE Lake Worth",
        "state": "FL",
        "magnitude": null,
        "magnitude_units": null,
        "source": "Broadcast Media",
        "event_narrative": "Broadcast media relayed video footage of street flooding near the intersection of Ocean Ave and S Ocean Blvd in Manalapan."
      },
      "geometry": {
        "type": "Point",
        "coordinates": [
          -80.04,
          26.59
        ]
      }
    },
    {
      "type": "Feature",
      "id": "iem-lsr-MFL-13",
      "properties": {
        "report_id": "iem-lsr-MFL-13",
        "report_type": "TSTM WND GST",
        "event_category": "thunderstorm_wind",
        "valid_utc": "202604082140",
        "standard_time_display": "2026-04-08 16:40 EST",
        "wfo": "MFL",
        "county_or_zone": "Palm Beach",
        "city": "2 ESE Riviera Beach",
        "state": "FL",
        "magnitude": 61.0,
        "magnitude_units": null,
        "source": "Public",
        "event_narrative": "Elevated Tempest Weather Station E 11 Street (Port of Palm Beach) reported a wind gust of 61mph at 5:40pm as gusty winds pushed onshore associated with a thunderstorm offshore."
      },
      "geometry": {
        "type": "Point",
        "coordinates": [
          -80.05,
          26.77
        ]
      }
    },
    {
      "type": "Feature",
      "id": "iem-lsr-MFL-14",
      "properties": {
        "report_id": "iem-lsr-MFL-14",
        "report_type": "TSTM WND GST",
        "event_category": "thunderstorm_wind",
        "valid_utc": "202604082148",
        "standard_time_display": "2026-04-08 16:48 EST",
        "wfo": "MFL",
        "county_or_zone": "AMZ650",
        "city": "2 ESE Lake Worth",
        "state": "FL",
        "magnitude": 48.0,
        "magnitude_units": null,
        "source": "Buoy",
        "event_narrative": "Buoy station LKWF1 Lake Worth Pier_ FL reported a wind gust of 48mph as gusty winds pushed onshore as a strong thunderstorm was just offshore."
      },
      "geometry": {
        "type": "Point",
        "coordinates": [
          -80.03,
          26.61
        ]
      }
    },
    {
      "type": "Feature",
      "id": "iem-lsr-MFL-15",
      "properties": {
        "report_id": "iem-lsr-MFL-15",
        "report_type": "FLOOD",
        "event_category": "flooding",
        "valid_utc": "202604082155",
        "standard_time_display": "2026-04-08 16:55 EST",
        "wfo": "MFL",
        "county_or_zone": "Palm Beach",
        "city": "1 E Lake Worth",
        "state": "FL",
        "magnitude": null,
        "magnitude_units": null,
        "source": "Broadcast Media",
        "event_narrative": "Broadcast media sent in video footage of street flooding on Lucerne Avenue near the Intercoastal Bridge in Downtown Lake Worth with water halfway up car tires."
      },
      "geometry": {
        "type": "Point",
        "coordinates": [
          -80.05,
          26.62
        ]
      }
    },
    {
      "type": "Feature",
      "id": "iem-lsr-MFL-16",
      "properties": {
        "report_id": "iem-lsr-MFL-16",
        "report_type": "MARINE TSTM WIND",
        "event_category": "marine",
        "valid_utc": "202604082210",
        "standard_time_display": "2026-04-08 17:10 EST",
        "wfo": "MFL",
        "county_or_zone": "AMZ650",
        "city": "2 E Delray Beach",
        "state": "FL",
        "magnitude": 51.0,
        "magnitude_units": null,
        "source": "Mesonet",
        "event_narrative": "Mesonet station 1847W Fswn Delray Beach North reported a wind gust of 51 mph as gusty winds pushed onshore associated with a thunderstorm complex just offshore."
      },
      "geometry": {
        "type": "Point",
        "coordinates": [
          -80.06,
          26.47
        ]
      }
    },
    {
      "type": "Feature",
      "id": "iem-lsr-MFL-17",
      "properties": {
        "report_id": "iem-lsr-MFL-17",
        "report_type": "NON-TSTM WND GST",
        "event_category": "thunderstorm_wind",
        "valid_utc": "202604082238",
        "standard_time_display": "2026-04-08 17:38 EST",
        "wfo": "MFL",
        "county_or_zone": "Palm Beach",
        "city": "2 ESE Haverhill",
        "state": "FL",
        "magnitude": 49.0,
        "magnitude_units": null,
        "source": "ASOS",
        "event_narrative": "ASOS station KPBI West Palm Beach reported a non-convective wind gust of 49mph at 6:38pm."
      },
      "geometry": {
        "type": "Point",
        "coordinates": [
          -80.1,
          26.68
        ]
      }
    },
    {
      "type": "Feature",
      "id": "iem-lsr-MFL-18",
      "properties": {
        "report_id": "iem-lsr-MFL-18",
        "report_type": "MARINE TSTM WIND",
        "event_category": "marine",
        "valid_utc": "202604082241",
        "standard_time_display": "2026-04-08 17:41 EST",
        "wfo": "MFL",
        "county_or_zone": "AMZ651",
        "city": "2 S Lighthouse Point",
        "state": "FL",
        "magnitude": 43.0,
        "magnitude_units": null,
        "source": "Mesonet",
        "event_narrative": "Mesonet station XHBI Hillsboro Inlet reported a wind gust of 43mph at 6:41pm."
      },
      "geometry": {
        "type": "Point",
        "coordinates": [
          -80.08,
          26.26
        ]
      }
    },
    {
      "type": "Feature",
      "id": "iem-lsr-MFL-19",
      "properties": {
        "report_id": "iem-lsr-MFL-19",
        "report_type": "NON-TSTM WND GST",
        "event_category": "thunderstorm_wind",
        "valid_utc": "202604082248",
        "standard_time_display": "2026-04-08 17:48 EST",
        "wfo": "MFL",
        "county_or_zone": "Broward",
        "city": "1 N Pompano Beach",
        "state": "FL",
        "magnitude": 51.0,
        "magnitude_units": null,
        "source": "ASOS",
        "event_narrative": "ASOS station KPMP Pompano Beach reported a non-convective wind gust of 51 mph at 6:48pm."
      },
      "geometry": {
        "type": "Point",
        "coordinates": [
          -80.12,
          26.25
        ]
      }
    },
    {
      "type": "Feature",
      "id": "iem-lsr-MFL-20",
      "properties": {
        "report_id": "iem-lsr-MFL-20",
        "report_type": "NON-TSTM WND GST",
        "event_category": "thunderstorm_wind",
        "valid_utc": "202604082305",
        "standard_time_display": "2026-04-08 18:05 EST",
        "wfo": "MFL",
        "county_or_zone": "AMZ651",
        "city": "2 E Dania Beach",
        "state": "FL",
        "magnitude": 55.0,
        "magnitude_units": null,
        "source": "Mesonet",
        "event_narrative": "Mesonet station XDAN Dania Pier reported a non-convective wind gust of 55 mph at 7:05pm."
      },
      "geometry": {
        "type": "Point",
        "coordinates": [
          -80.11,
          26.06
        ]
      }
    },
    {
      "type": "Feature",
      "id": "iem-lsr-MFL-21",
      "properties": {
        "report_id": "iem-lsr-MFL-21",
        "report_type": "NON-TSTM WND GST",
        "event_category": "thunderstorm_wind",
        "valid_utc": "202604082306",
        "standard_time_display": "2026-04-08 18:06 EST",
        "wfo": "MFL",
        "county_or_zone": "AMZ651",
        "city": "3 NE Dania Beach",
        "state": "FL",
        "magnitude": 53.0,
        "magnitude_units": null,
        "source": "Mesonet",
        "event_narrative": "Mesonet station XPEG Port Everglades reported a non-convective wind gust of 53 mph at 7:06pm."
      },
      "geometry": {
        "type": "Point",
        "coordinates": [
          -80.11,
          26.09
        ]
      }
    },
    {
      "type": "Feature",
      "id": "iem-lsr-MFL-22",
      "properties": {
        "report_id": "iem-lsr-MFL-22",
        "report_type": "NON-TSTM WND GST",
        "event_category": "thunderstorm_wind",
        "valid_utc": "202604082315",
        "standard_time_display": "2026-04-08 18:15 EST",
        "wfo": "MFL",
        "county_or_zone": "AMZ651",
        "city": "2 E Dania Beach",
        "state": "FL",
        "magnitude": 58.0,
        "magnitude_units": null,
        "source": "Mesonet",
        "event_narrative": "Mesonet station XDAN Dania Pier reported a non-convective wind gust of 58mph at 7:15pm."
      },
      "geometry": {
        "type": "Point",
        "coordinates": [
          -80.11,
          26.06
        ]
      }
    },
    {
      "type": "Feature",
      "id": "iem-lsr-MFL-23",
      "properties": {
        "report_id": "iem-lsr-MFL-23",
        "report_type": "NON-TSTM WND GST",
        "event_category": "thunderstorm_wind",
        "valid_utc": "202604082326",
        "standard_time_display": "2026-04-08 18:26 EST",
        "wfo": "MFL",
        "county_or_zone": "AMZ651",
        "city": "2 S Lighthouse Point",
        "state": "FL",
        "magnitude": 49.0,
        "magnitude_units": null,
        "source": "Mesonet",
        "event_narrative": "Mesonet station XHBI Hillsboro Inlet reported a wind gust of 49mph at 7:26pm."
      },
      "geometry": {
        "type": "Point",
        "coordinates": [
          -80.08,
          26.26
        ]
      }
    },
    {
      "type": "Feature",
      "id": "iem-lsr-MFL-24",
      "properties": {
        "report_id": "iem-lsr-MFL-24",
        "report_type": "NON-TSTM WND GST",
        "event_category": "thunderstorm_wind",
        "valid_utc": "202604082327",
        "standard_time_display": "2026-04-08 18:27 EST",
        "wfo": "MFL",
        "county_or_zone": "Palm Beach",
        "city": "1 NE Boca Raton",
        "state": "FL",
        "magnitude": 45.0,
        "magnitude_units": null,
        "source": "Mesonet",
        "event_narrative": "Mesonet station XBOC Boca Raton reported a non-convective wind gust of 45 mph at 7:27pm."
      },
      "geometry": {
        "type": "Point",
        "coordinates": [
          -80.09,
          26.37
        ]
      }
    },
    {
      "type": "Feature",
      "id": "iem-lsr-MFL-25",
      "properties": {
        "report_id": "iem-lsr-MFL-25",
        "report_type": "NON-TSTM WND GST",
        "event_category": "thunderstorm_wind",
        "valid_utc": "202604082328",
        "standard_time_display": "2026-04-08 18:28 EST",
        "wfo": "MFL",
        "county_or_zone": "Broward",
        "city": "1 NW Dania Beach",
        "state": "FL",
        "magnitude": 48.0,
        "magnitude_units": null,
        "source": "ASOS",
        "event_narrative": "ASOS station KFLL Fort Lauderdale/hollywood Intl Airport reported a non-convective wind gust of 48 mph."
      },
      "geometry": {
        "type": "Point",
        "coordinates": [
          -80.15,
          26.07
        ]
      }
    },
    {
      "type": "Feature",
      "id": "iem-lsr-MFL-26",
      "properties": {
        "report_id": "iem-lsr-MFL-26",
        "report_type": "NON-TSTM WND GST",
        "event_category": "thunderstorm_wind",
        "valid_utc": "202604082330",
        "standard_time_display": "2026-04-08 18:30 EST",
        "wfo": "MFL",
        "county_or_zone": "AMZ650",
        "city": "2 E Delray Beach",
        "state": "FL",
        "magnitude": 51.0,
        "magnitude_units": null,
        "source": "Mesonet",
        "event_narrative": "Mesonet station 1847W Fswn Delray Beach North reported a non-convective wind gust of 51mph at 7:30pm."
      },
      "geometry": {
        "type": "Point",
        "coordinates": [
          -80.06,
          26.47
        ]
      }
    },
    {
      "type": "Feature",
      "id": "iem-lsr-MFL-27",
      "properties": {
        "report_id": "iem-lsr-MFL-27",
        "report_type": "NON-TSTM WND GST",
        "event_category": "thunderstorm_wind",
        "valid_utc": "202604082340",
        "standard_time_display": "2026-04-08 18:40 EST",
        "wfo": "MFL",
        "county_or_zone": "AMZ651",
        "city": "2 SE Aventura",
        "state": "FL",
        "magnitude": 49.0,
        "magnitude_units": null,
        "source": "Mesonet",
        "event_narrative": "Mesonet station 1843W Fswn Sunny Isles Beach reported a non-convective wind gust of 49mph at 7:40pm."
      },
      "geometry": {
        "type": "Point",
        "coordinates": [
          -80.12,
          25.94
        ]
      }
    },
    {
      "type": "Feature",
      "id": "iem-lsr-MFL-28",
      "properties": {
        "report_id": "iem-lsr-MFL-28",
        "report_type": "NON-TSTM WND GST",
        "event_category": "thunderstorm_wind",
        "valid_utc": "202604090016",
        "standard_time_display": "2026-04-08 19:16 EST",
        "wfo": "MFL",
        "county_or_zone": "Miami-Dade",
        "city": "4 N Miami Beach",
        "state": "FL",
        "magnitude": 48.0,
        "magnitude_units": null,
        "source": "Mesonet",
        "event_narrative": "Tempest Mesonet reported a non-convective wind gust of 48 mph at 8:16pm."
      },
      "geometry": {
        "type": "Point",
        "coordinates": [
          -80.12,
          25.86
        ]
      }
    },
    {
      "type": "Feature",
      "id": "iem-lsr-MFL-29",
      "properties": {
        "report_id": "iem-lsr-MFL-29",
        "report_type": "RIP CURRENTS",
        "event_category": "marine",
        "valid_utc": "202604121800",
        "standard_time_display": "2026-04-12 13:00 EST",
        "wfo": "MFL",
        "county_or_zone": "Broward",
        "city": "2 SE Dania Beach",
        "state": "FL",
        "magnitude": null,
        "magnitude_units": null,
        "source": "Broadcast Media",
        "event_narrative": "*** 1 INJ *** A man was resuscitated on scene and rushed to the hospital after being pulled from the water on Hollywood Beach near Charleston Street on Sunday."
      },
      "geometry": {
        "type": "Point",
        "coordinates": [
          -80.11,
          26.04
        ]
      }
    },
    {
      "type": "Feature",
      "id": "iem-lsr-MFL-30",
      "properties": {
        "report_id": "iem-lsr-MFL-30",
        "report_type": "WILDFIRE",
        "event_category": "fire_smoke",
        "valid_utc": "202604132135",
        "standard_time_display": "2026-04-13 16:35 EST",
        "wfo": "MFL",
        "county_or_zone": "Collier",
        "city": "4 SE Golden Gate",
        "state": "FL",
        "magnitude": null,
        "magnitude_units": null,
        "source": "Park/Forest Srvc",
        "event_narrative": "Florida Forest Service reports that the Newman Dr Wildfire in western Collier County has expanded to 550 acres with 15% containment as of 5:35pm Monday afternoon."
      },
      "geometry": {
        "type": "Point",
        "coordinates": [
          -81.66,
          26.14
        ]
      }
    },
    {
      "type": "Feature",
      "id": "iem-lsr-MFL-31",
      "properties": {
        "report_id": "iem-lsr-MFL-31",
        "report_type": "WILDFIRE",
        "event_category": "fire_smoke",
        "valid_utc": "202604211853",
        "standard_time_display": "2026-04-21 13:53 EST",
        "wfo": "MFL",
        "county_or_zone": "Broward",
        "city": "14 W Coral Springs",
        "state": "FL",
        "magnitude": null,
        "magnitude_units": null,
        "source": "Park/Forest Srvc",
        "event_narrative": "According to the Florida Forest Service_ the MM - 45 - Broward wildfire_ just off of US 27 in the Everglades_ has grown to 900 acres as of 2:53 PM EDT."
      },
      "geometry": {
        "type": "Point",
        "coordinates": [
          -80.49,
          26.29
        ]
      }
    },
    {
      "type": "Feature",
      "id": "iem-lsr-MFL-32",
      "properties": {
        "report_id": "iem-lsr-MFL-32",
        "report_type": "WILDFIRE",
        "event_category": "fire_smoke",
        "valid_utc": "202604241311",
        "standard_time_display": "2026-04-24 08:11 EST",
        "wfo": "MFL",
        "county_or_zone": "Broward",
        "city": "14 W Coral Springs",
        "state": "FL",
        "magnitude": null,
        "magnitude_units": null,
        "source": "Park/Forest Srvc",
        "event_narrative": "The MM-45 wildfire is at 95% containment and is no longer growing in acreage. Total acreage is 9600 acres. No deaths or road closures were reported during the incident and no damage to structures occ"
      },
      "geometry": {
        "type": "Point",
        "coordinates": [
          -80.49,
          26.29
        ]
      }
    },
    {
      "type": "Feature",
      "id": "iem-lsr-MFL-33",
      "properties": {
        "report_id": "iem-lsr-MFL-33",
        "report_type": "WILDFIRE",
        "event_category": "fire_smoke",
        "valid_utc": "202604251637",
        "standard_time_display": "2026-04-25 11:37 EST",
        "wfo": "MFL",
        "county_or_zone": "Collier",
        "city": "4 SE Golden Gate",
        "state": "FL",
        "magnitude": null,
        "magnitude_units": null,
        "source": "Park/Forest Srvc",
        "event_narrative": "Florida Forest Service reports that the Newman Drive wildfire in Collier County is at 100% containment with a final total acreage burned of 1_733."
      },
      "geometry": {
        "type": "Point",
        "coordinates": [
          -81.66,
          26.14
        ]
      }
    },
    {
      "type": "Feature",
      "id": "iem-lsr-MFL-34",
      "properties": {
        "report_id": "iem-lsr-MFL-34",
        "report_type": "MARINE TSTM WIND",
        "event_category": "marine",
        "valid_utc": "202604262151",
        "standard_time_display": "2026-04-26 16:51 EST",
        "wfo": "MFL",
        "county_or_zone": "AMZ651",
        "city": "2 S Lighthouse Point",
        "state": "FL",
        "magnitude": 40.0,
        "magnitude_units": null,
        "source": "Mesonet",
        "event_narrative": "Mesonet station XHBI Hillsboro Inlet."
      },
      "geometry": {
        "type": "Point",
        "coordinates": [
          -80.08,
          26.26
        ]
      }
    },
    {
      "type": "Feature",
      "id": "iem-lsr-MFL-35",
      "properties": {
        "report_id": "iem-lsr-MFL-35",
        "report_type": "MARINE TSTM WIND",
        "event_category": "marine",
        "valid_utc": "202604262151",
        "standard_time_display": "2026-04-26 16:51 EST",
        "wfo": "MFL",
        "county_or_zone": "AMZ651",
        "city": "2 S Lighthouse Point",
        "state": "FL",
        "magnitude": 40.0,
        "magnitude_units": null,
        "source": "Mesonet",
        "event_narrative": "Mesonet station XHBI Hillsboro Inlet gusted to 40 mph as a strong storm pushed offshore."
      },
      "geometry": {
        "type": "Point",
        "coordinates": [
          -80.08,
          26.26
        ]
      }
    },
    {
      "type": "Feature",
      "id": "iem-lsr-MFL-36",
      "properties": {
        "report_id": "iem-lsr-MFL-36",
        "report_type": "WILDFIRE",
        "event_category": "fire_smoke",
        "valid_utc": "202604282338",
        "standard_time_display": "2026-04-28 18:38 EST",
        "wfo": "MFL",
        "county_or_zone": "Miami-Dade",
        "city": "10 WNW Kendale Lakes",
        "state": "FL",
        "magnitude": null,
        "magnitude_units": null,
        "source": "Park/Forest Srvc",
        "event_narrative": "From the Everglades National Park Duty Officer_ the HWY 41 Wildfire has grown to 5000 acres as of 7:38 PM EDT."
      },
      "geometry": {
        "type": "Point",
        "coordinates": [
          -80.56,
          25.77
        ]
      }
    }
  ]
}