{
  "type": "FeatureCollection",
  "metadata": {
    "schema_version": "0.2.4",
    "year": 2026,
    "month": 6,
    "wfo": "MQT",
    "start_utc": "2026-06-01T00:00:00Z",
    "end_utc": "2026-07-01T00:00:00Z",
    "generated_utc": "2026-06-06T11:00:33Z",
    "mode": "storm_data_prep",
    "public_release_status": "public-source-derived",
    "time_note": "Storm Data entry times should be reviewed in local Standard Time (ST), not daylight time. Candidate reports include standard_time_display.",
    "tornado_track_policy": "Tornado tracks must come from DAT. NCEI begin/end coordinates are not used as a tornado track substitute.",
    "source": "https://mesonet.agron.iastate.edu/cgi-bin/request/gis/lsr.py?wfo=MQT&sts=2026-06-01T00%3A00%3A00Z&ets=2026-07-01T00%3A00%3A00Z&fmt=csv"
  },
  "features": [
    {
      "type": "Feature",
      "id": "iem-lsr-MQT-1",
      "properties": {
        "report_id": "iem-lsr-MQT-1",
        "report_type": "WILDFIRE",
        "event_category": "fire_smoke",
        "valid_utc": "202606021900",
        "standard_time_display": "2026-06-02 13:00 CST",
        "wfo": "MQT",
        "county_or_zone": "Delta",
        "city": "3 WNW Chicago Lake",
        "state": "MI",
        "magnitude": null,
        "magnitude_units": null,
        "source": "Broadcast Media",
        "event_narrative": "A mile-long fire is burning on H-13 near County Road 440 in Hiawatha National Forest in Delta County."
      },
      "geometry": {
        "type": "Point",
        "coordinates": [
          -86.67,
          46.05
        ]
      }
    },
    {
      "type": "Feature",
      "id": "iem-lsr-MQT-2",
      "properties": {
        "report_id": "iem-lsr-MQT-2",
        "report_type": "HAIL",
        "event_category": "hail",
        "valid_utc": "202606052145",
        "standard_time_display": "2026-06-05 15:45 CST",
        "wfo": "MQT",
        "county_or_zone": "Marquette",
        "city": "5 S Palmer",
        "state": "MI",
        "magnitude": 1.0,
        "magnitude_units": null,
        "source": "Public",
        "event_narrative": "Hail between 3/4 to 1 inch."
      },
      "geometry": {
        "type": "Point",
        "coordinates": [
          -87.59,
          46.37
        ]
      }
    },
    {
      "type": "Feature",
      "id": "iem-lsr-MQT-3",
      "properties": {
        "report_id": "iem-lsr-MQT-3",
        "report_type": "RAIN",
        "event_category": "other",
        "valid_utc": "202606052300",
        "standard_time_display": "2026-06-05 17:00 CST",
        "wfo": "MQT",
        "county_or_zone": "Marquette",
        "city": "5 SW National Mine",
        "state": "MI",
        "magnitude": 1.07,
        "magnitude_units": null,
        "source": "NWS Employee",
        "event_narrative": "NWS Employee reported 1.07 inches of rainfall have fallen in the past 24 hours."
      },
      "geometry": {
        "type": "Point",
        "coordinates": [
          -87.76,
          46.41
        ]
      }
    },
    {
      "type": "Feature",
      "id": "iem-lsr-MQT-4",
      "properties": {
        "report_id": "iem-lsr-MQT-4",
        "report_type": "RAIN",
        "event_category": "other",
        "valid_utc": "202606060015",
        "standard_time_display": "2026-06-05 18:15 CST",
        "wfo": "MQT",
        "county_or_zone": "Marquette",
        "city": "5 SW National Mine",
        "state": "MI",
        "magnitude": 1.22,
        "magnitude_units": null,
        "source": "Mesonet",
        "event_narrative": "Mesonet station AW809 5SW National Mine. Updated amount from NWS Employee."
      },
      "geometry": {
        "type": "Point",
        "coordinates": [
          -87.76,
          46.41
        ]
      }
    },
    {
      "type": "Feature",
      "id": "iem-lsr-MQT-5",
      "properties": {
        "report_id": "iem-lsr-MQT-5",
        "report_type": "RAIN",
        "event_category": "other",
        "valid_utc": "202606060027",
        "standard_time_display": "2026-06-05 18:27 CST",
        "wfo": "MQT",
        "county_or_zone": "Delta",
        "city": "1 E Escanaba",
        "state": "MI",
        "magnitude": 1.07,
        "magnitude_units": null,
        "source": "Mesonet",
        "event_narrative": "Mesonet station AX023 ESCANABA."
      },
      "geometry": {
        "type": "Point",
        "coordinates": [
          -87.07,
          45.74
        ]
      }
    }
  ]
}