{
  "type": "FeatureCollection",
  "metadata": {
    "schema_version": "0.2.4",
    "year": 2026,
    "month": 10,
    "wfo": "SJT",
    "start_utc": "2026-10-01T00:00:00Z",
    "end_utc": "2026-11-01T00:00:00Z",
    "generated_utc": "2026-10-03T14:19:30Z",
    "mode": "storm_data_prep",
    "public_release_status": "public-source-derived",
    "time_note": "Storm Data entry times should be reviewed in local Standard Time (ST), not daylight time. Candidate reports include standard_time_display.",
    "tornado_track_policy": "Tornado tracks must come from DAT. NCEI begin/end coordinates are not used as a tornado track substitute.",
    "source": "https://mesonet.agron.iastate.edu/cgi-bin/request/gis/lsr.py?wfo=SJT&sts=2026-10-01T00%3A00%3A00Z&ets=2026-11-01T00%3A00%3A00Z&fmt=csv"
  },
  "features": [
    {
      "type": "Feature",
      "id": "iem-lsr-SJT-1",
      "properties": {
        "report_id": "iem-lsr-SJT-1",
        "report_type": "TSTM WND GST",
        "event_category": "thunderstorm_wind",
        "valid_utc": "202610010106",
        "standard_time_display": "2026-09-30 19:06 CST",
        "wfo": "SJT",
        "county_or_zone": "Crockett",
        "city": "24 S Ozona",
        "state": "TX",
        "magnitude": 60.0,
        "magnitude_units": null,
        "source": "CO-OP Observer",
        "event_narrative": "Observer reported strong wind gusts up to 60 mph."
      },
      "geometry": {
        "type": "Point",
        "coordinates": [
          -101.25,
          30.36
        ]
      }
    },
    {
      "type": "Feature",
      "id": "iem-lsr-SJT-2",
      "properties": {
        "report_id": "iem-lsr-SJT-2",
        "report_type": "TSTM WND GST",
        "event_category": "thunderstorm_wind",
        "valid_utc": "202610010250",
        "standard_time_display": "2026-09-30 20:50 CST",
        "wfo": "SJT",
        "county_or_zone": "Fisher",
        "city": "4 W Rotan",
        "state": "TX",
        "magnitude": 68.0,
        "magnitude_units": null,
        "source": "Mesonet",
        "event_narrative": null
      },
      "geometry": {
        "type": "Point",
        "coordinates": [
          -100.54,
          32.85
        ]
      }
    },
    {
      "type": "Feature",
      "id": "iem-lsr-SJT-3",
      "properties": {
        "report_id": "iem-lsr-SJT-3",
        "report_type": "TSTM WND GST",
        "event_category": "thunderstorm_wind",
        "valid_utc": "202610010250",
        "standard_time_display": "2026-09-30 20:50 CST",
        "wfo": "SJT",
        "county_or_zone": "Fisher",
        "city": "5 W Rotan",
        "state": "TX",
        "magnitude": 68.0,
        "magnitude_units": null,
        "source": "Mesonet",
        "event_narrative": null
      },
      "geometry": {
        "type": "Point",
        "coordinates": [
          -100.54,
          32.85
        ]
      }
    },
    {
      "type": "Feature",
      "id": "iem-lsr-SJT-4",
      "properties": {
        "report_id": "iem-lsr-SJT-4",
        "report_type": "FLASH FLOOD",
        "event_category": "flooding",
        "valid_utc": "202610010705",
        "standard_time_display": "2026-10-01 01:05 CST",
        "wfo": "SJT",
        "county_or_zone": "Taylor",
        "city": "1 W Abilene",
        "state": "TX",
        "magnitude": null,
        "magnitude_units": null,
        "source": "Public",
        "event_narrative": "Water rescue conducted under the S 1st Street bridge at the intersection of Mockingbird lane."
      },
      "geometry": {
        "type": "Point",
        "coordinates": [
          -99.76,
          32.45
        ]
      }
    },
    {
      "type": "Feature",
      "id": "iem-lsr-SJT-5",
      "properties": {
        "report_id": "iem-lsr-SJT-5",
        "report_type": "FLASH FLOOD",
        "event_category": "flooding",
        "valid_utc": "202610011115",
        "standard_time_display": "2026-10-01 05:15 CST",
        "wfo": "SJT",
        "county_or_zone": "Sutton",
        "city": "17 NE Juno",
        "state": "TX",
        "magnitude": null,
        "magnitude_units": null,
        "source": "Law Enforcement",
        "event_narrative": "Sutton County Sheriff's office reports impassable road due to flooding 5 miles south of the Country Road 410 and County Road 411 intersection."
      },
      "geometry": {
        "type": "Point",
        "coordinates": [
          -100.94,
          30.35
        ]
      }
    },
    {
      "type": "Feature",
      "id": "iem-lsr-SJT-6",
      "properties": {
        "report_id": "iem-lsr-SJT-6",
        "report_type": "FLASH FLOOD",
        "event_category": "flooding",
        "valid_utc": "202610011115",
        "standard_time_display": "2026-10-01 05:15 CST",
        "wfo": "SJT",
        "county_or_zone": "Brown",
        "city": "4 NE Lake Brownwood",
        "state": "TX",
        "magnitude": null,
        "magnitude_units": null,
        "source": "Law Enforcement",
        "event_narrative": "Brown County Sherriff's Office reports County Road 461 at State Park Road 15 was impassable due to flooding."
      },
      "geometry": {
        "type": "Point",
        "coordinates": [
          -99.06,
          31.86
        ]
      }
    },
    {
      "type": "Feature",
      "id": "iem-lsr-SJT-7",
      "properties": {
        "report_id": "iem-lsr-SJT-7",
        "report_type": "FLASH FLOOD",
        "event_category": "flooding",
        "valid_utc": "202610011147",
        "standard_time_display": "2026-10-01 05:47 CST",
        "wfo": "SJT",
        "county_or_zone": "Kimble",
        "city": "2 NNE Telegraph",
        "state": "TX",
        "magnitude": null,
        "magnitude_units": null,
        "source": "Dept of Highways",
        "event_narrative": "Us Highway 377 south of Junction reported closed due to flooding."
      },
      "geometry": {
        "type": "Point",
        "coordinates": [
          -99.89,
          30.36
        ]
      }
    },
    {
      "type": "Feature",
      "id": "iem-lsr-SJT-8",
      "properties": {
        "report_id": "iem-lsr-SJT-8",
        "report_type": "FLASH FLOOD",
        "event_category": "flooding",
        "valid_utc": "202610011340",
        "standard_time_display": "2026-10-01 07:40 CST",
        "wfo": "SJT",
        "county_or_zone": "Kimble",
        "city": "1 SSW Junction",
        "state": "TX",
        "magnitude": null,
        "magnitude_units": null,
        "source": "Law Enforcement",
        "event_narrative": "The Kimble County Sheriff Office reported that Flat Rock Road on the south side of Junction is closed_ due to flooding."
      },
      "geometry": {
        "type": "Point",
        "coordinates": [
          -99.78,
          30.48
        ]
      }
    },
    {
      "type": "Feature",
      "id": "iem-lsr-SJT-9",
      "properties": {
        "report_id": "iem-lsr-SJT-9",
        "report_type": "FLASH FLOOD",
        "event_category": "flooding",
        "valid_utc": "202610011340",
        "standard_time_display": "2026-10-01 07:40 CST",
        "wfo": "SJT",
        "county_or_zone": "Kimble",
        "city": "3 SW Junction",
        "state": "TX",
        "magnitude": null,
        "magnitude_units": null,
        "source": "Law Enforcement",
        "event_narrative": "The Kimble County Sheriff Office reported that Highway 377 south of Junction is closed_ due to flooding."
      },
      "geometry": {
        "type": "Point",
        "coordinates": [
          -99.8,
          30.46
        ]
      }
    },
    {
      "type": "Feature",
      "id": "iem-lsr-SJT-10",
      "properties": {
        "report_id": "iem-lsr-SJT-10",
        "report_type": "FLASH FLOOD",
        "event_category": "flooding",
        "valid_utc": "202610011340",
        "standard_time_display": "2026-10-01 07:40 CST",
        "wfo": "SJT",
        "county_or_zone": "Kimble",
        "city": "6 SSW London",
        "state": "TX",
        "magnitude": null,
        "magnitude_units": null,
        "source": "Law Enforcement",
        "event_narrative": "The Kimble County Sheriff Office reported that Ranch Road 3480 is closed_ due to flooding."
      },
      "geometry": {
        "type": "Point",
        "coordinates": [
          -99.6,
          30.59
        ]
      }
    },
    {
      "type": "Feature",
      "id": "iem-lsr-SJT-11",
      "properties": {
        "report_id": "iem-lsr-SJT-11",
        "report_type": "FLASH FLOOD",
        "event_category": "flooding",
        "valid_utc": "202610011340",
        "standard_time_display": "2026-10-01 07:40 CST",
        "wfo": "SJT",
        "county_or_zone": "Mason",
        "city": "Mason",
        "state": "TX",
        "magnitude": null,
        "magnitude_units": null,
        "source": "Law Enforcement",
        "event_narrative": "The Mason County Sheriff Office reported that low water crossings throughout the city of Mason are flooded."
      },
      "geometry": {
        "type": "Point",
        "coordinates": [
          -99.24,
          30.75
        ]
      }
    }
  ]
}