{
  "type": "FeatureCollection",
  "metadata": {
    "schema_version": "0.2.4",
    "year": 2026,
    "month": 9,
    "wfo": "LSX",
    "start_utc": "2026-09-01T00:00:00Z",
    "end_utc": "2026-10-01T00:00:00Z",
    "generated_utc": "2026-09-23T14:13:47Z",
    "mode": "storm_data_prep",
    "public_release_status": "public-source-derived",
    "time_note": "Storm Data entry times should be reviewed in local Standard Time (ST), not daylight time. Candidate reports include standard_time_display.",
    "tornado_track_policy": "Tornado tracks must come from DAT. NCEI begin/end coordinates are not used as a tornado track substitute.",
    "source": "https://mesonet.agron.iastate.edu/cgi-bin/request/gis/lsr.py?wfo=LSX&sts=2026-09-01T00%3A00%3A00Z&ets=2026-10-01T00%3A00%3A00Z&fmt=csv"
  },
  "features": [
    {
      "type": "Feature",
      "id": "iem-lsr-LSX-1",
      "properties": {
        "report_id": "iem-lsr-LSX-1",
        "report_type": "TSTM WND DMG",
        "event_category": "thunderstorm_wind",
        "valid_utc": "202609052105",
        "standard_time_display": "2026-09-05 15:05 CST",
        "wfo": "LSX",
        "county_or_zone": "St. Francois",
        "city": "Farmington",
        "state": "MO",
        "magnitude": null,
        "magnitude_units": null,
        "source": "911 Call Center",
        "event_narrative": "Reports of several trees or tree limbs and power lines down in Farmington. Time estimated by radar."
      },
      "geometry": {
        "type": "Point",
        "coordinates": [
          -90.43,
          37.78
        ]
      }
    },
    {
      "type": "Feature",
      "id": "iem-lsr-LSX-2",
      "properties": {
        "report_id": "iem-lsr-LSX-2",
        "report_type": "TSTM WND GST",
        "event_category": "thunderstorm_wind",
        "valid_utc": "202609100204",
        "standard_time_display": "2026-09-09 20:04 CST",
        "wfo": "LSX",
        "county_or_zone": "Boone",
        "city": "4 NE Ashland",
        "state": "MO",
        "magnitude": 58.0,
        "magnitude_units": null,
        "source": "ASOS/AWOS",
        "event_narrative": "Gust measured by KCOU ASOS."
      },
      "geometry": {
        "type": "Point",
        "coordinates": [
          -92.22,
          38.82
        ]
      }
    },
    {
      "type": "Feature",
      "id": "iem-lsr-LSX-3",
      "properties": {
        "report_id": "iem-lsr-LSX-3",
        "report_type": "HAIL",
        "event_category": "hail",
        "valid_utc": "202609172038",
        "standard_time_display": "2026-09-17 14:38 CST",
        "wfo": "LSX",
        "county_or_zone": "St. Charles",
        "city": "1 SW Saint Paul",
        "state": "MO",
        "magnitude": 1.0,
        "magnitude_units": null,
        "source": "NWS Employee",
        "event_narrative": null
      },
      "geometry": {
        "type": "Point",
        "coordinates": [
          -90.74,
          38.84
        ]
      }
    },
    {
      "type": "Feature",
      "id": "iem-lsr-LSX-4",
      "properties": {
        "report_id": "iem-lsr-LSX-4",
        "report_type": "TSTM WND DMG",
        "event_category": "thunderstorm_wind",
        "valid_utc": "202609172045",
        "standard_time_display": "2026-09-17 14:45 CST",
        "wfo": "LSX",
        "county_or_zone": "St. Charles",
        "city": "1 SW Saint Paul",
        "state": "MO",
        "magnitude": null,
        "magnitude_units": null,
        "source": "NWS Employee",
        "event_narrative": "Few trees and tree limbs larger than 6 inches down. A few shingles blown off roofs."
      },
      "geometry": {
        "type": "Point",
        "coordinates": [
          -90.75,
          38.85
        ]
      }
    },
    {
      "type": "Feature",
      "id": "iem-lsr-LSX-5",
      "properties": {
        "report_id": "iem-lsr-LSX-5",
        "report_type": "RAIN",
        "event_category": "other",
        "valid_utc": "202609172145",
        "standard_time_display": "2026-09-17 15:45 CST",
        "wfo": "LSX",
        "county_or_zone": "St. Charles",
        "city": "1 SW Saint Paul",
        "state": "MO",
        "magnitude": 2.35,
        "magnitude_units": null,
        "source": "NWS Employee",
        "event_narrative": "2.35 inches of rain measured by off duty NWS Employee in approximately 90 minutes."
      },
      "geometry": {
        "type": "Point",
        "coordinates": [
          -90.75,
          38.85
        ]
      }
    },
    {
      "type": "Feature",
      "id": "iem-lsr-LSX-6",
      "properties": {
        "report_id": "iem-lsr-LSX-6",
        "report_type": "TSTM WND DMG",
        "event_category": "thunderstorm_wind",
        "valid_utc": "202609202230",
        "standard_time_display": "2026-09-20 16:30 CST",
        "wfo": "LSX",
        "county_or_zone": "Montgomery",
        "city": "Witt",
        "state": "IL",
        "magnitude": null,
        "magnitude_units": null,
        "source": "Emergency Mngr",
        "event_narrative": "Power outages_ tree limbs down on lines and homes."
      },
      "geometry": {
        "type": "Point",
        "coordinates": [
          -89.35,
          39.26
        ]
      }
    },
    {
      "type": "Feature",
      "id": "iem-lsr-LSX-7",
      "properties": {
        "report_id": "iem-lsr-LSX-7",
        "report_type": "TSTM WND DMG",
        "event_category": "thunderstorm_wind",
        "valid_utc": "202609202315",
        "standard_time_display": "2026-09-20 17:15 CST",
        "wfo": "LSX",
        "county_or_zone": "Fayette",
        "city": "Ramsey",
        "state": "IL",
        "magnitude": null,
        "magnitude_units": null,
        "source": "Broadcast Media",
        "event_narrative": "Power lines reported down in Ramsey. Time estimated by RADAR."
      },
      "geometry": {
        "type": "Point",
        "coordinates": [
          -89.11,
          39.15
        ]
      }
    }
  ]
}