{
  "type": "FeatureCollection",
  "metadata": {
    "schema_version": "0.2.4",
    "year": 2026,
    "month": 6,
    "wfo": "BOI",
    "start_utc": "2026-06-01T00:00:00Z",
    "end_utc": "2026-07-01T00:00:00Z",
    "generated_utc": "2026-08-24T10:04:12Z",
    "mode": "storm_data_prep",
    "public_release_status": "public-source-derived",
    "time_note": "Storm Data entry times should be reviewed in local Standard Time (ST), not daylight time. Candidate reports include standard_time_display.",
    "tornado_track_policy": "Tornado tracks must come from DAT. NCEI begin/end coordinates are not used as a tornado track substitute.",
    "source": "https://mesonet.agron.iastate.edu/cgi-bin/request/gis/lsr.py?wfo=BOI&sts=2026-06-01T00%3A00%3A00Z&ets=2026-07-01T00%3A00%3A00Z&fmt=csv"
  },
  "features": [
    {
      "type": "Feature",
      "id": "iem-lsr-BOI-1",
      "properties": {
        "report_id": "iem-lsr-BOI-1",
        "report_type": "NON-TSTM WND GST",
        "event_category": "thunderstorm_wind",
        "valid_utc": "202606100652",
        "standard_time_display": "2026-06-09 22:52 PST",
        "wfo": "BOI",
        "county_or_zone": "Washington",
        "city": "11 WNW Weiser",
        "state": "ID",
        "magnitude": 43.0,
        "magnitude_units": null,
        "source": "Mesonet",
        "event_narrative": "Mesonet station DEAI1 Catfish."
      },
      "geometry": {
        "type": "Point",
        "coordinates": [
          -117.17,
          44.33
        ]
      }
    },
    {
      "type": "Feature",
      "id": "iem-lsr-BOI-2",
      "properties": {
        "report_id": "iem-lsr-BOI-2",
        "report_type": "NON-TSTM WND GST",
        "event_category": "thunderstorm_wind",
        "valid_utc": "202606101755",
        "standard_time_display": "2026-06-10 09:55 PST",
        "wfo": "BOI",
        "county_or_zone": "Baker",
        "city": "6 ENE Baker",
        "state": "OR",
        "magnitude": 43.0,
        "magnitude_units": null,
        "source": "Mesonet",
        "event_narrative": "Mesonet station FAFO3 Flagstaff Hill."
      },
      "geometry": {
        "type": "Point",
        "coordinates": [
          -117.73,
          44.81
        ]
      }
    },
    {
      "type": "Feature",
      "id": "iem-lsr-BOI-3",
      "properties": {
        "report_id": "iem-lsr-BOI-3",
        "report_type": "NON-TSTM WND GST",
        "event_category": "thunderstorm_wind",
        "valid_utc": "202606102045",
        "standard_time_display": "2026-06-10 12:45 PST",
        "wfo": "BOI",
        "county_or_zone": "Camas",
        "city": "3 SSW Fairfield",
        "state": "ID",
        "magnitude": 41.0,
        "magnitude_units": null,
        "source": "Mesonet",
        "event_narrative": "Mesonet station FAFI 3.1 SW Fairfield (AGRIMET)."
      },
      "geometry": {
        "type": "Point",
        "coordinates": [
          -114.83,
          43.31
        ]
      }
    },
    {
      "type": "Feature",
      "id": "iem-lsr-BOI-4",
      "properties": {
        "report_id": "iem-lsr-BOI-4",
        "report_type": "NON-TSTM WND GST",
        "event_category": "thunderstorm_wind",
        "valid_utc": "202606102100",
        "standard_time_display": "2026-06-10 13:00 PST",
        "wfo": "BOI",
        "county_or_zone": "Elmore",
        "city": "10 ESE Anderson Dam",
        "state": "ID",
        "magnitude": 45.0,
        "magnitude_units": null,
        "source": "Mesonet",
        "event_narrative": "Mesonet station 3013 D4 - Pine Turnoff."
      },
      "geometry": {
        "type": "Point",
        "coordinates": [
          -115.27,
          43.31
        ]
      }
    },
    {
      "type": "Feature",
      "id": "iem-lsr-BOI-5",
      "properties": {
        "report_id": "iem-lsr-BOI-5",
        "report_type": "NON-TSTM WND GST",
        "event_category": "thunderstorm_wind",
        "valid_utc": "202606102115",
        "standard_time_display": "2026-06-10 13:15 PST",
        "wfo": "BOI",
        "county_or_zone": "Jerome",
        "city": "4 E Jerome",
        "state": "ID",
        "magnitude": 51.0,
        "magnitude_units": null,
        "source": "Mesonet",
        "event_narrative": "Mesonet station 8408 D4 - Jerome Butte."
      },
      "geometry": {
        "type": "Point",
        "coordinates": [
          -114.44,
          42.73
        ]
      }
    },
    {
      "type": "Feature",
      "id": "iem-lsr-BOI-6",
      "properties": {
        "report_id": "iem-lsr-BOI-6",
        "report_type": "NON-TSTM WND GST",
        "event_category": "thunderstorm_wind",
        "valid_utc": "202606102121",
        "standard_time_display": "2026-06-10 13:21 PST",
        "wfo": "BOI",
        "county_or_zone": "Gooding",
        "city": "4 ENE Gooding",
        "state": "ID",
        "magnitude": 50.0,
        "magnitude_units": null,
        "source": "Mesonet",
        "event_narrative": "Mesonet station UP241 4.1 E Gooding (UPR)."
      },
      "geometry": {
        "type": "Point",
        "coordinates": [
          -114.63,
          42.95
        ]
      }
    },
    {
      "type": "Feature",
      "id": "iem-lsr-BOI-7",
      "properties": {
        "report_id": "iem-lsr-BOI-7",
        "report_type": "NON-TSTM WND GST",
        "event_category": "thunderstorm_wind",
        "valid_utc": "202606102130",
        "standard_time_display": "2026-06-10 13:30 PST",
        "wfo": "BOI",
        "county_or_zone": "Washington",
        "city": "4 WSW Midvale",
        "state": "ID",
        "magnitude": 43.0,
        "magnitude_units": null,
        "source": "Mesonet",
        "event_narrative": "Mesonet station 3011 D3 - Midvale Hill."
      },
      "geometry": {
        "type": "Point",
        "coordinates": [
          -116.8,
          44.44
        ]
      }
    },
    {
      "type": "Feature",
      "id": "iem-lsr-BOI-8",
      "properties": {
        "report_id": "iem-lsr-BOI-8",
        "report_type": "NON-TSTM WND GST",
        "event_category": "thunderstorm_wind",
        "valid_utc": "202606102130",
        "standard_time_display": "2026-06-10 13:30 PST",
        "wfo": "BOI",
        "county_or_zone": "Gooding",
        "city": "13 NNE Gooding",
        "state": "ID",
        "magnitude": 44.0,
        "magnitude_units": null,
        "source": "Mesonet",
        "event_narrative": "Mesonet station 2995 D4 - Gwynn Ranch Hill."
      },
      "geometry": {
        "type": "Point",
        "coordinates": [
          -114.66,
          43.12
        ]
      }
    },
    {
      "type": "Feature",
      "id": "iem-lsr-BOI-9",
      "properties": {
        "report_id": "iem-lsr-BOI-9",
        "report_type": "NON-TSTM WND GST",
        "event_category": "thunderstorm_wind",
        "valid_utc": "202606102137",
        "standard_time_display": "2026-06-10 13:37 PST",
        "wfo": "BOI",
        "county_or_zone": "Elmore",
        "city": "3 SW Pine",
        "state": "ID",
        "magnitude": 44.0,
        "magnitude_units": null,
        "source": "Mesonet",
        "event_narrative": "Mesonet station LCRI1 Nraws 13."
      },
      "geometry": {
        "type": "Point",
        "coordinates": [
          -115.36,
          43.45
        ]
      }
    },
    {
      "type": "Feature",
      "id": "iem-lsr-BOI-10",
      "properties": {
        "report_id": "iem-lsr-BOI-10",
        "report_type": "NON-TSTM WND GST",
        "event_category": "thunderstorm_wind",
        "valid_utc": "202606102144",
        "standard_time_display": "2026-06-10 13:44 PST",
        "wfo": "BOI",
        "county_or_zone": "Elmore",
        "city": "10 SSW Hill City",
        "state": "ID",
        "magnitude": 51.0,
        "magnitude_units": null,
        "source": "Mesonet",
        "event_narrative": "Mesonet station DEHI1 Deer Haven."
      },
      "geometry": {
        "type": "Point",
        "coordinates": [
          -115.15,
          43.17
        ]
      }
    },
    {
      "type": "Feature",
      "id": "iem-lsr-BOI-11",
      "properties": {
        "report_id": "iem-lsr-BOI-11",
        "report_type": "NON-TSTM WND GST",
        "event_category": "thunderstorm_wind",
        "valid_utc": "202606102200",
        "standard_time_display": "2026-06-10 14:00 PST",
        "wfo": "BOI",
        "county_or_zone": "Twin Falls",
        "city": "14 SSW Rogerson",
        "state": "ID",
        "magnitude": 47.0,
        "magnitude_units": null,
        "source": "Mesonet",
        "event_narrative": "Mesonet station 8442 D4 - Jackpot."
      },
      "geometry": {
        "type": "Point",
        "coordinates": [
          -114.67,
          42.02
        ]
      }
    },
    {
      "type": "Feature",
      "id": "iem-lsr-BOI-12",
      "properties": {
        "report_id": "iem-lsr-BOI-12",
        "report_type": "NON-TSTM WND GST",
        "event_category": "thunderstorm_wind",
        "valid_utc": "202606102211",
        "standard_time_display": "2026-06-10 14:11 PST",
        "wfo": "BOI",
        "county_or_zone": "Gooding",
        "city": "3 W Bliss",
        "state": "ID",
        "magnitude": 41.0,
        "magnitude_units": null,
        "source": "Mesonet",
        "event_narrative": "Mesonet station UP160 3.0 W Bliss (UPR)."
      },
      "geometry": {
        "type": "Point",
        "coordinates": [
          -115.01,
          42.93
        ]
      }
    },
    {
      "type": "Feature",
      "id": "iem-lsr-BOI-13",
      "properties": {
        "report_id": "iem-lsr-BOI-13",
        "report_type": "NON-TSTM WND GST",
        "event_category": "thunderstorm_wind",
        "valid_utc": "202606102228",
        "standard_time_display": "2026-06-10 14:28 PST",
        "wfo": "BOI",
        "county_or_zone": "Ada",
        "city": "2 NE Boise",
        "state": "ID",
        "magnitude": 41.0,
        "magnitude_units": null,
        "source": "Mesonet",
        "event_narrative": "Mesonet station TT289 Crestline Trail."
      },
      "geometry": {
        "type": "Point",
        "coordinates": [
          -116.17,
          43.63
        ]
      }
    },
    {
      "type": "Feature",
      "id": "iem-lsr-BOI-14",
      "properties": {
        "report_id": "iem-lsr-BOI-14",
        "report_type": "NON-TSTM WND GST",
        "event_category": "thunderstorm_wind",
        "valid_utc": "202606102230",
        "standard_time_display": "2026-06-10 14:30 PST",
        "wfo": "BOI",
        "county_or_zone": "Jerome",
        "city": "3 N Hansen",
        "state": "ID",
        "magnitude": 49.0,
        "magnitude_units": null,
        "source": "Mesonet",
        "event_narrative": "Mesonet station 3251 D4 - Hansen Bridge."
      },
      "geometry": {
        "type": "Point",
        "coordinates": [
          -114.3,
          42.57
        ]
      }
    },
    {
      "type": "Feature",
      "id": "iem-lsr-BOI-15",
      "properties": {
        "report_id": "iem-lsr-BOI-15",
        "report_type": "NON-TSTM WND GST",
        "event_category": "thunderstorm_wind",
        "valid_utc": "202606102230",
        "standard_time_display": "2026-06-10 14:30 PST",
        "wfo": "BOI",
        "county_or_zone": "Elmore",
        "city": "8 SE Mountain Home",
        "state": "ID",
        "magnitude": 49.0,
        "magnitude_units": null,
        "source": "Mesonet",
        "event_narrative": "Mesonet station 2996 D3 - Hammett Hill."
      },
      "geometry": {
        "type": "Point",
        "coordinates": [
          -115.58,
          43.05
        ]
      }
    },
    {
      "type": "Feature",
      "id": "iem-lsr-BOI-16",
      "properties": {
        "report_id": "iem-lsr-BOI-16",
        "report_type": "NON-TSTM WND GST",
        "event_category": "thunderstorm_wind",
        "valid_utc": "202606102239",
        "standard_time_display": "2026-06-10 14:39 PST",
        "wfo": "BOI",
        "county_or_zone": "Camas",
        "city": "17 SE Atlanta",
        "state": "ID",
        "magnitude": 44.0,
        "magnitude_units": null,
        "source": "Mesonet",
        "event_narrative": "Mesonet station FLEI1 Fleck Summit."
      },
      "geometry": {
        "type": "Point",
        "coordinates": [
          -114.9,
          43.62
        ]
      }
    },
    {
      "type": "Feature",
      "id": "iem-lsr-BOI-17",
      "properties": {
        "report_id": "iem-lsr-BOI-17",
        "report_type": "NON-TSTM WND GST",
        "event_category": "thunderstorm_wind",
        "valid_utc": "202606102300",
        "standard_time_display": "2026-06-10 15:00 PST",
        "wfo": "BOI",
        "county_or_zone": "Owyhee",
        "city": "4 WSW Grasmere",
        "state": "ID",
        "magnitude": 43.0,
        "magnitude_units": null,
        "source": "Mesonet",
        "event_narrative": "Mesonet station ITDB8 D3 - Simco Road."
      },
      "geometry": {
        "type": "Point",
        "coordinates": [
          -115.95,
          42.34
        ]
      }
    },
    {
      "type": "Feature",
      "id": "iem-lsr-BOI-18",
      "properties": {
        "report_id": "iem-lsr-BOI-18",
        "report_type": "NON-TSTM WND GST",
        "event_category": "thunderstorm_wind",
        "valid_utc": "202606102315",
        "standard_time_display": "2026-06-10 15:15 PST",
        "wfo": "BOI",
        "county_or_zone": "Gooding",
        "city": "4 ENE Hagerman",
        "state": "ID",
        "magnitude": 48.0,
        "magnitude_units": null,
        "source": "Mesonet",
        "event_narrative": "Mesonet station 8399 D4 - Tuttle."
      },
      "geometry": {
        "type": "Point",
        "coordinates": [
          -114.82,
          42.83
        ]
      }
    },
    {
      "type": "Feature",
      "id": "iem-lsr-BOI-19",
      "properties": {
        "report_id": "iem-lsr-BOI-19",
        "report_type": "NON-TSTM WND GST",
        "event_category": "thunderstorm_wind",
        "valid_utc": "202606102319",
        "standard_time_display": "2026-06-10 15:19 PST",
        "wfo": "BOI",
        "county_or_zone": "Malheur",
        "city": "13 S Burns Junction",
        "state": "OR",
        "magnitude": 41.0,
        "magnitude_units": null,
        "source": "ASOS",
        "event_narrative": "ASOS station KREO Rome."
      },
      "geometry": {
        "type": "Point",
        "coordinates": [
          -117.87,
          42.58
        ]
      }
    },
    {
      "type": "Feature",
      "id": "iem-lsr-BOI-20",
      "properties": {
        "report_id": "iem-lsr-BOI-20",
        "report_type": "NON-TSTM WND GST",
        "event_category": "thunderstorm_wind",
        "valid_utc": "202606102324",
        "standard_time_display": "2026-06-10 15:24 PST",
        "wfo": "BOI",
        "county_or_zone": "Malheur",
        "city": "19 SE Rome",
        "state": "OR",
        "magnitude": 40.0,
        "magnitude_units": null,
        "source": "Mesonet",
        "event_narrative": "Mesonet station GSFO3 Grassy Mountain."
      },
      "geometry": {
        "type": "Point",
        "coordinates": [
          -117.4,
          42.63
        ]
      }
    },
    {
      "type": "Feature",
      "id": "iem-lsr-BOI-21",
      "properties": {
        "report_id": "iem-lsr-BOI-21",
        "report_type": "NON-TSTM WND GST",
        "event_category": "thunderstorm_wind",
        "valid_utc": "202606102335",
        "standard_time_display": "2026-06-10 15:35 PST",
        "wfo": "BOI",
        "county_or_zone": "Gooding",
        "city": "3 WSW Gooding",
        "state": "ID",
        "magnitude": 47.0,
        "magnitude_units": null,
        "source": "AWOS",
        "event_narrative": "AWOS station KGNG 3 WSW Gooding."
      },
      "geometry": {
        "type": "Point",
        "coordinates": [
          -114.77,
          42.92
        ]
      }
    },
    {
      "type": "Feature",
      "id": "iem-lsr-BOI-22",
      "properties": {
        "report_id": "iem-lsr-BOI-22",
        "report_type": "NON-TSTM WND GST",
        "event_category": "thunderstorm_wind",
        "valid_utc": "202606102351",
        "standard_time_display": "2026-06-10 15:51 PST",
        "wfo": "BOI",
        "county_or_zone": "Jerome",
        "city": "3 E Jerome",
        "state": "ID",
        "magnitude": 55.0,
        "magnitude_units": null,
        "source": "AWOS",
        "event_narrative": "AWOS station KJER Jerome County."
      },
      "geometry": {
        "type": "Point",
        "coordinates": [
          -114.45,
          42.72
        ]
      }
    },
    {
      "type": "Feature",
      "id": "iem-lsr-BOI-23",
      "properties": {
        "report_id": "iem-lsr-BOI-23",
        "report_type": "NON-TSTM WND GST",
        "event_category": "thunderstorm_wind",
        "valid_utc": "202606102353",
        "standard_time_display": "2026-06-10 15:53 PST",
        "wfo": "BOI",
        "county_or_zone": "Ada",
        "city": "1 SE Boise",
        "state": "ID",
        "magnitude": 41.0,
        "magnitude_units": null,
        "source": "Mesonet",
        "event_narrative": "Mesonet station BSUI1 Nws Iwos 4."
      },
      "geometry": {
        "type": "Point",
        "coordinates": [
          -116.2,
          43.6
        ]
      }
    },
    {
      "type": "Feature",
      "id": "iem-lsr-BOI-24",
      "properties": {
        "report_id": "iem-lsr-BOI-24",
        "report_type": "NON-TSTM WND GST",
        "event_category": "thunderstorm_wind",
        "valid_utc": "202606102357",
        "standard_time_display": "2026-06-10 15:57 PST",
        "wfo": "BOI",
        "county_or_zone": "Elmore",
        "city": "5 SSE Mountain Home",
        "state": "ID",
        "magnitude": 42.0,
        "magnitude_units": null,
        "source": "Mesonet",
        "event_narrative": "Mesonet station UP078 4.6 SE Mountain Home (UPR)."
      },
      "geometry": {
        "type": "Point",
        "coordinates": [
          -115.65,
          43.07
        ]
      }
    },
    {
      "type": "Feature",
      "id": "iem-lsr-BOI-25",
      "properties": {
        "report_id": "iem-lsr-BOI-25",
        "report_type": "NON-TSTM WND GST",
        "event_category": "thunderstorm_wind",
        "valid_utc": "202606110009",
        "standard_time_display": "2026-06-10 16:09 PST",
        "wfo": "BOI",
        "county_or_zone": "Elmore",
        "city": "1 S Mountain Home Afb",
        "state": "ID",
        "magnitude": 44.0,
        "magnitude_units": null,
        "source": "AWOS",
        "event_narrative": "AWOS station KMUO Mountain Home AFB."
      },
      "geometry": {
        "type": "Point",
        "coordinates": [
          -115.87,
          43.03
        ]
      }
    },
    {
      "type": "Feature",
      "id": "iem-lsr-BOI-26",
      "properties": {
        "report_id": "iem-lsr-BOI-26",
        "report_type": "NON-TSTM WND GST",
        "event_category": "thunderstorm_wind",
        "valid_utc": "202606110015",
        "standard_time_display": "2026-06-10 16:15 PST",
        "wfo": "BOI",
        "county_or_zone": "Elmore",
        "city": "7 SSW Glenns Ferry",
        "state": "ID",
        "magnitude": 40.0,
        "magnitude_units": null,
        "source": "Mesonet",
        "event_narrative": "Mesonet station GFRI 6.7 SW Glenns Ferry (AGRIMET)."
      },
      "geometry": {
        "type": "Point",
        "coordinates": [
          -115.36,
          42.87
        ]
      }
    },
    {
      "type": "Feature",
      "id": "iem-lsr-BOI-27",
      "properties": {
        "report_id": "iem-lsr-BOI-27",
        "report_type": "NON-TSTM WND GST",
        "event_category": "thunderstorm_wind",
        "valid_utc": "202606110025",
        "standard_time_display": "2026-06-10 16:25 PST",
        "wfo": "BOI",
        "county_or_zone": "Elmore",
        "city": "8 WNW Mountain Home Afb",
        "state": "ID",
        "magnitude": 40.0,
        "magnitude_units": null,
        "source": "Mesonet",
        "event_narrative": "Mesonet station TS962 7 WNW Mountain Home AFB."
      },
      "geometry": {
        "type": "Point",
        "coordinates": [
          -116.0,
          43.11
        ]
      }
    },
    {
      "type": "Feature",
      "id": "iem-lsr-BOI-28",
      "properties": {
        "report_id": "iem-lsr-BOI-28",
        "report_type": "NON-TSTM WND GST",
        "event_category": "thunderstorm_wind",
        "valid_utc": "202606110030",
        "standard_time_display": "2026-06-10 16:30 PST",
        "wfo": "BOI",
        "county_or_zone": "Twin Falls",
        "city": "1 NE Kimberly",
        "state": "ID",
        "magnitude": 40.0,
        "magnitude_units": null,
        "source": "Mesonet",
        "event_narrative": "Mesonet station TWFI 1.3 NE Kimberly (AGRIMET)."
      },
      "geometry": {
        "type": "Point",
        "coordinates": [
          -114.35,
          42.55
        ]
      }
    },
    {
      "type": "Feature",
      "id": "iem-lsr-BOI-29",
      "properties": {
        "report_id": "iem-lsr-BOI-29",
        "report_type": "NON-TSTM WND GST",
        "event_category": "thunderstorm_wind",
        "valid_utc": "202606110045",
        "standard_time_display": "2026-06-10 16:45 PST",
        "wfo": "BOI",
        "county_or_zone": "Twin Falls",
        "city": "3 N Twin Falls",
        "state": "ID",
        "magnitude": 40.0,
        "magnitude_units": null,
        "source": "Mesonet",
        "event_narrative": "Mesonet station 3117 D4 - Perrine Bridge."
      },
      "geometry": {
        "type": "Point",
        "coordinates": [
          -114.45,
          42.6
        ]
      }
    },
    {
      "type": "Feature",
      "id": "iem-lsr-BOI-30",
      "properties": {
        "report_id": "iem-lsr-BOI-30",
        "report_type": "NON-TSTM WND GST",
        "event_category": "thunderstorm_wind",
        "valid_utc": "202606110052",
        "standard_time_display": "2026-06-10 16:52 PST",
        "wfo": "BOI",
        "county_or_zone": "Elmore",
        "city": "1 S Mountain Home Afb",
        "state": "ID",
        "magnitude": 45.0,
        "magnitude_units": null,
        "source": "Mesonet",
        "event_narrative": "Mesonet station MTHI1 Mountain Home AFB RAWS."
      },
      "geometry": {
        "type": "Point",
        "coordinates": [
          -115.87,
          43.03
        ]
      }
    },
    {
      "type": "Feature",
      "id": "iem-lsr-BOI-31",
      "properties": {
        "report_id": "iem-lsr-BOI-31",
        "report_type": "NON-TSTM WND GST",
        "event_category": "thunderstorm_wind",
        "valid_utc": "202606110055",
        "standard_time_display": "2026-06-10 16:55 PST",
        "wfo": "BOI",
        "county_or_zone": "Owyhee",
        "city": "17 WSW Hagerman",
        "state": "ID",
        "magnitude": 51.0,
        "magnitude_units": null,
        "source": "Mesonet",
        "event_narrative": "Mesonet station TWBI1 Twin Buttes."
      },
      "geometry": {
        "type": "Point",
        "coordinates": [
          -115.2,
          42.69
        ]
      }
    },
    {
      "type": "Feature",
      "id": "iem-lsr-BOI-32",
      "properties": {
        "report_id": "iem-lsr-BOI-32",
        "report_type": "NON-TSTM WND GST",
        "event_category": "thunderstorm_wind",
        "valid_utc": "202606110109",
        "standard_time_display": "2026-06-10 17:09 PST",
        "wfo": "BOI",
        "county_or_zone": "Twin Falls",
        "city": "6 S Twin Falls",
        "state": "ID",
        "magnitude": 47.0,
        "magnitude_units": null,
        "source": "ASOS",
        "event_narrative": "ASOS station KTWF Twin Falls."
      },
      "geometry": {
        "type": "Point",
        "coordinates": [
          -114.48,
          42.48
        ]
      }
    },
    {
      "type": "Feature",
      "id": "iem-lsr-BOI-33",
      "properties": {
        "report_id": "iem-lsr-BOI-33",
        "report_type": "NON-TSTM WND GST",
        "event_category": "thunderstorm_wind",
        "valid_utc": "202606110115",
        "standard_time_display": "2026-06-10 17:15 PST",
        "wfo": "BOI",
        "county_or_zone": "Jerome",
        "city": "2 SSW Hazelton",
        "state": "ID",
        "magnitude": 47.0,
        "magnitude_units": null,
        "source": "Mesonet",
        "event_narrative": "Mesonet station 8401 D4 - Valley Interchange."
      },
      "geometry": {
        "type": "Point",
        "coordinates": [
          -114.15,
          42.57
        ]
      }
    },
    {
      "type": "Feature",
      "id": "iem-lsr-BOI-34",
      "properties": {
        "report_id": "iem-lsr-BOI-34",
        "report_type": "NON-TSTM WND GST",
        "event_category": "thunderstorm_wind",
        "valid_utc": "202606110152",
        "standard_time_display": "2026-06-10 17:52 PST",
        "wfo": "BOI",
        "county_or_zone": "Owyhee",
        "city": "20 WSW Castleford",
        "state": "ID",
        "magnitude": 42.0,
        "magnitude_units": null,
        "source": "Mesonet",
        "event_narrative": "Mesonet station HBFI1 Horse Butte."
      },
      "geometry": {
        "type": "Point",
        "coordinates": [
          -115.23,
          42.42
        ]
      }
    },
    {
      "type": "Feature",
      "id": "iem-lsr-BOI-35",
      "properties": {
        "report_id": "iem-lsr-BOI-35",
        "report_type": "TSTM WND GST",
        "event_category": "thunderstorm_wind",
        "valid_utc": "202606270232",
        "standard_time_display": "2026-06-26 18:32 PST",
        "wfo": "BOI",
        "county_or_zone": "Canyon",
        "city": "4 NW Nampa",
        "state": "ID",
        "magnitude": 53.0,
        "magnitude_units": null,
        "source": "AWOS",
        "event_narrative": "Delayed report: AWOS station KEUL Caldwell."
      },
      "geometry": {
        "type": "Point",
        "coordinates": [
          -116.62,
          43.62
        ]
      }
    },
    {
      "type": "Feature",
      "id": "iem-lsr-BOI-36",
      "properties": {
        "report_id": "iem-lsr-BOI-36",
        "report_type": "TSTM WND GST",
        "event_category": "thunderstorm_wind",
        "valid_utc": "202606270305",
        "standard_time_display": "2026-06-26 19:05 PST",
        "wfo": "BOI",
        "county_or_zone": "Ada",
        "city": "4 SSW Boise",
        "state": "ID",
        "magnitude": 55.0,
        "magnitude_units": null,
        "source": "ASOS",
        "event_narrative": "Delayed report: ASOS station KBOI Boise."
      },
      "geometry": {
        "type": "Point",
        "coordinates": [
          -116.23,
          43.57
        ]
      }
    },
    {
      "type": "Feature",
      "id": "iem-lsr-BOI-37",
      "properties": {
        "report_id": "iem-lsr-BOI-37",
        "report_type": "FLOOD",
        "event_category": "flooding",
        "valid_utc": "202606270319",
        "standard_time_display": "2026-06-26 19:19 PST",
        "wfo": "BOI",
        "county_or_zone": "Ada",
        "city": "2 WNW Meridian",
        "state": "ID",
        "magnitude": null,
        "magnitude_units": null,
        "source": "Broadcast Media",
        "event_narrative": "Delayed report: Roof cave in."
      },
      "geometry": {
        "type": "Point",
        "coordinates": [
          -116.43,
          43.62
        ]
      }
    },
    {
      "type": "Feature",
      "id": "iem-lsr-BOI-38",
      "properties": {
        "report_id": "iem-lsr-BOI-38",
        "report_type": "TSTM WND DMG",
        "event_category": "thunderstorm_wind",
        "valid_utc": "202606270330",
        "standard_time_display": "2026-06-26 19:30 PST",
        "wfo": "BOI",
        "county_or_zone": "Ada",
        "city": "2 NNW Meridian",
        "state": "ID",
        "magnitude": null,
        "magnitude_units": null,
        "source": "Public",
        "event_narrative": "DELAYED REPORT: Trees down near Linder and Ustick Road from last nights storm."
      },
      "geometry": {
        "type": "Point",
        "coordinates": [
          -116.42,
          43.63
        ]
      }
    },
    {
      "type": "Feature",
      "id": "iem-lsr-BOI-39",
      "properties": {
        "report_id": "iem-lsr-BOI-39",
        "report_type": "FLOOD",
        "event_category": "flooding",
        "valid_utc": "202606270617",
        "standard_time_display": "2026-06-26 22:17 PST",
        "wfo": "BOI",
        "county_or_zone": "Canyon",
        "city": "1 NW Caldwell",
        "state": "ID",
        "magnitude": null,
        "magnitude_units": null,
        "source": "Other Federal",
        "event_narrative": "Corrects previous flood report from 1 NW Caldwell missing a word in remarks. Delayed report. IOEM Field Officer reporting 1 inch of water surrounding Caldwell Courthouse."
      },
      "geometry": {
        "type": "Point",
        "coordinates": [
          -116.68,
          43.67
        ]
      }
    },
    {
      "type": "Feature",
      "id": "iem-lsr-BOI-40",
      "properties": {
        "report_id": "iem-lsr-BOI-40",
        "report_type": "FLOOD",
        "event_category": "flooding",
        "valid_utc": "202606270617",
        "standard_time_display": "2026-06-26 22:17 PST",
        "wfo": "BOI",
        "county_or_zone": "Canyon",
        "city": "1 NW Caldwell",
        "state": "ID",
        "magnitude": null,
        "magnitude_units": null,
        "source": "Other Federal",
        "event_narrative": "Delayed report: IOEM Field Officer reporting 1 of water surrounding Caldwell Courthouse."
      },
      "geometry": {
        "type": "Point",
        "coordinates": [
          -116.68,
          43.67
        ]
      }
    }
  ]
}