{
  "type": "FeatureCollection",
  "metadata": {
    "schema_version": "0.2.0",
    "year": 2026,
    "month": 4,
    "wfo": "GID",
    "start_utc": "2026-04-01T00:00:00Z",
    "end_utc": "2026-05-01T00:00:00Z",
    "generated_utc": "2026-05-27T21:20:52Z",
    "mode": "storm_data_prep",
    "public_release_status": "public-source-derived",
    "source": "https://mesonet.agron.iastate.edu/cgi-bin/request/gis/lsr.py?wfo=GID&sts=2026-04-01T00%3A00%3A00Z&ets=2026-05-01T00%3A00%3A00Z&fmt=csv"
  },
  "features": [
    {
      "type": "Feature",
      "id": "iem-lsr-GID-1",
      "properties": {
        "report_id": "iem-lsr-GID-1",
        "report_type": "HAIL",
        "event_category": "hail",
        "valid_utc": "202604092247",
        "county_or_zone": "Jewell",
        "city": "3 E Webber",
        "state": "KS",
        "magnitude": 1.0,
        "magnitude_units": null,
        "source": "Broadcast Media",
        "event_narrative": "Relayed by Wichita media outlet."
      },
      "geometry": {
        "type": "Point",
        "coordinates": [
          -97.98,
          39.94
        ]
      }
    },
    {
      "type": "Feature",
      "id": "iem-lsr-GID-2",
      "properties": {
        "report_id": "iem-lsr-GID-2",
        "report_type": "HAIL",
        "event_category": "hail",
        "valid_utc": "202604092250",
        "county_or_zone": "Thayer",
        "city": "4 SSE Deshler",
        "state": "NE",
        "magnitude": 0.7,
        "magnitude_units": null,
        "source": "Public",
        "event_narrative": "phone report."
      },
      "geometry": {
        "type": "Point",
        "coordinates": [
          -97.71,
          40.09
        ]
      }
    },
    {
      "type": "Feature",
      "id": "iem-lsr-GID-3",
      "properties": {
        "report_id": "iem-lsr-GID-3",
        "report_type": "HAIL",
        "event_category": "hail",
        "valid_utc": "202604092259",
        "county_or_zone": "Thayer",
        "city": "Byron",
        "state": "NE",
        "magnitude": 1.5,
        "magnitude_units": null,
        "source": "Trained Spotter",
        "event_narrative": "Trained spotter report."
      },
      "geometry": {
        "type": "Point",
        "coordinates": [
          -97.77,
          40.0
        ]
      }
    },
    {
      "type": "Feature",
      "id": "iem-lsr-GID-4",
      "properties": {
        "report_id": "iem-lsr-GID-4",
        "report_type": "HAIL",
        "event_category": "hail",
        "valid_utc": "202604092340",
        "county_or_zone": "Osborne",
        "city": "6 WSW Hunter",
        "state": "KS",
        "magnitude": 1.0,
        "magnitude_units": null,
        "source": "Trained Spotter",
        "event_narrative": "Drifts of hail up to quarter size covering Road 412."
      },
      "geometry": {
        "type": "Point",
        "coordinates": [
          -98.49,
          39.21
        ]
      }
    },
    {
      "type": "Feature",
      "id": "iem-lsr-GID-5",
      "properties": {
        "report_id": "iem-lsr-GID-5",
        "report_type": "HAIL",
        "event_category": "hail",
        "valid_utc": "202604092348",
        "county_or_zone": "Mitchell",
        "city": "4 W Hunter",
        "state": "KS",
        "magnitude": 1.75,
        "magnitude_units": null,
        "source": "Trained Spotter",
        "event_narrative": null
      },
      "geometry": {
        "type": "Point",
        "coordinates": [
          -98.47,
          39.24
        ]
      }
    },
    {
      "type": "Feature",
      "id": "iem-lsr-GID-6",
      "properties": {
        "report_id": "iem-lsr-GID-6",
        "report_type": "HAIL",
        "event_category": "hail",
        "valid_utc": "202604092355",
        "county_or_zone": "Mitchell",
        "city": "Hunter",
        "state": "KS",
        "magnitude": 0.7,
        "magnitude_units": null,
        "source": "Trained Spotter",
        "event_narrative": "Hail in Hunter only up to around dime size."
      },
      "geometry": {
        "type": "Point",
        "coordinates": [
          -98.39,
          39.23
        ]
      }
    },
    {
      "type": "Feature",
      "id": "iem-lsr-GID-7",
      "properties": {
        "report_id": "iem-lsr-GID-7",
        "report_type": "TORNADO",
        "event_category": "tornado",
        "valid_utc": "202604112204",
        "county_or_zone": "Thayer",
        "city": "4 NE Chester",
        "state": "NE",
        "magnitude": null,
        "magnitude_units": null,
        "source": "Storm Chaser",
        "event_narrative": "Received video via X of a tornado approximately 4NE of Chester."
      },
      "geometry": {
        "type": "Point",
        "coordinates": [
          -97.56,
          40.05
        ]
      }
    },
    {
      "type": "Feature",
      "id": "iem-lsr-GID-8",
      "properties": {
        "report_id": "iem-lsr-GID-8",
        "report_type": "HAIL",
        "event_category": "hail",
        "valid_utc": "202604140005",
        "county_or_zone": "Greeley",
        "city": "3 ESE Spalding",
        "state": "NE",
        "magnitude": 0.88,
        "magnitude_units": null,
        "source": "Trained Spotter",
        "event_narrative": "Spotter reports penny to nickel sized hail southeast of Spalding."
      },
      "geometry": {
        "type": "Point",
        "coordinates": [
          -98.32,
          41.67
        ]
      }
    },
    {
      "type": "Feature",
      "id": "iem-lsr-GID-9",
      "properties": {
        "report_id": "iem-lsr-GID-9",
        "report_type": "HAIL",
        "event_category": "hail",
        "valid_utc": "202604142311",
        "county_or_zone": "Hamilton",
        "city": "Hordville",
        "state": "NE",
        "magnitude": 0.88,
        "magnitude_units": null,
        "source": "Public",
        "event_narrative": null
      },
      "geometry": {
        "type": "Point",
        "coordinates": [
          -97.89,
          41.08
        ]
      }
    },
    {
      "type": "Feature",
      "id": "iem-lsr-GID-10",
      "properties": {
        "report_id": "iem-lsr-GID-10",
        "report_type": "HAIL",
        "event_category": "hail",
        "valid_utc": "202604151350",
        "county_or_zone": "Nance",
        "city": "Fullerton",
        "state": "NE",
        "magnitude": 0.88,
        "magnitude_units": null,
        "source": "Public",
        "event_narrative": null
      },
      "geometry": {
        "type": "Point",
        "coordinates": [
          -97.98,
          41.36
        ]
      }
    },
    {
      "type": "Feature",
      "id": "iem-lsr-GID-11",
      "properties": {
        "report_id": "iem-lsr-GID-11",
        "report_type": "HAIL",
        "event_category": "hail",
        "valid_utc": "202604151407",
        "county_or_zone": "Nance",
        "city": "Genoa",
        "state": "NE",
        "magnitude": 0.88,
        "magnitude_units": null,
        "source": "Trained Spotter",
        "event_narrative": "About an inch of dime to nickel size hail on the deck."
      },
      "geometry": {
        "type": "Point",
        "coordinates": [
          -97.73,
          41.45
        ]
      }
    },
    {
      "type": "Feature",
      "id": "iem-lsr-GID-12",
      "properties": {
        "report_id": "iem-lsr-GID-12",
        "report_type": "HAIL",
        "event_category": "hail",
        "valid_utc": "202604151710",
        "county_or_zone": "Hamilton",
        "city": "4 W Henderson",
        "state": "NE",
        "magnitude": 1.5,
        "magnitude_units": null,
        "source": "Public",
        "event_narrative": "Picture from Facebook. Time estimated from radar."
      },
      "geometry": {
        "type": "Point",
        "coordinates": [
          -97.88,
          40.78
        ]
      }
    },
    {
      "type": "Feature",
      "id": "iem-lsr-GID-13",
      "properties": {
        "report_id": "iem-lsr-GID-13",
        "report_type": "HAIL",
        "event_category": "hail",
        "valid_utc": "202604151735",
        "county_or_zone": "York",
        "city": "3 N York",
        "state": "NE",
        "magnitude": 1.5,
        "magnitude_units": null,
        "source": "CO-OP Observer",
        "event_narrative": "Mostly 1/2 to 3/4 inch hail with a few up to 1.5 inches. Ground was almost white for a few minutes but rapidly melted."
      },
      "geometry": {
        "type": "Point",
        "coordinates": [
          -97.6,
          40.92
        ]
      }
    },
    {
      "type": "Feature",
      "id": "iem-lsr-GID-14",
      "properties": {
        "report_id": "iem-lsr-GID-14",
        "report_type": "HAIL",
        "event_category": "hail",
        "valid_utc": "202604151737",
        "county_or_zone": "York",
        "city": "2 N York",
        "state": "NE",
        "magnitude": 0.75,
        "magnitude_units": null,
        "source": "Public",
        "event_narrative": "Report from mPING: Dime (0.75 in.)."
      },
      "geometry": {
        "type": "Point",
        "coordinates": [
          -97.6,
          40.91
        ]
      }
    },
    {
      "type": "Feature",
      "id": "iem-lsr-GID-15",
      "properties": {
        "report_id": "iem-lsr-GID-15",
        "report_type": "HAIL",
        "event_category": "hail",
        "valid_utc": "202604251930",
        "county_or_zone": "Clay",
        "city": "2 WSW Inland",
        "state": "NE",
        "magnitude": 0.75,
        "magnitude_units": null,
        "source": "Public",
        "event_narrative": null
      },
      "geometry": {
        "type": "Point",
        "coordinates": [
          -98.27,
          40.58
        ]
      }
    },
    {
      "type": "Feature",
      "id": "iem-lsr-GID-16",
      "properties": {
        "report_id": "iem-lsr-GID-16",
        "report_type": "HAIL",
        "event_category": "hail",
        "valid_utc": "202604252020",
        "county_or_zone": "Smith",
        "city": "Gaylord",
        "state": "KS",
        "magnitude": 0.25,
        "magnitude_units": null,
        "source": "Trained Spotter",
        "event_narrative": null
      },
      "geometry": {
        "type": "Point",
        "coordinates": [
          -98.85,
          39.64
        ]
      }
    },
    {
      "type": "Feature",
      "id": "iem-lsr-GID-17",
      "properties": {
        "report_id": "iem-lsr-GID-17",
        "report_type": "HAIL",
        "event_category": "hail",
        "valid_utc": "202604252025",
        "county_or_zone": "Smith",
        "city": "Gaylord",
        "state": "KS",
        "magnitude": 0.75,
        "magnitude_units": null,
        "source": "Emergency Mngr",
        "event_narrative": null
      },
      "geometry": {
        "type": "Point",
        "coordinates": [
          -98.85,
          39.65
        ]
      }
    },
    {
      "type": "Feature",
      "id": "iem-lsr-GID-18",
      "properties": {
        "report_id": "iem-lsr-GID-18",
        "report_type": "TSTM WND GST",
        "event_category": "thunderstorm_wind",
        "valid_utc": "202604252030",
        "county_or_zone": "Smith",
        "city": "1 SE Harlan",
        "state": "KS",
        "magnitude": 49.0,
        "magnitude_units": null,
        "source": "Mesonet",
        "event_narrative": "Ambient Weather Station."
      },
      "geometry": {
        "type": "Point",
        "coordinates": [
          -98.76,
          39.6
        ]
      }
    },
    {
      "type": "Feature",
      "id": "iem-lsr-GID-19",
      "properties": {
        "report_id": "iem-lsr-GID-19",
        "report_type": "LANDSPOUT",
        "event_category": "other",
        "valid_utc": "202604252034",
        "county_or_zone": "York",
        "city": "3 SW Bradshaw",
        "state": "NE",
        "magnitude": null,
        "magnitude_units": null,
        "source": "Public",
        "event_narrative": "Social media video of a brief landspout in open field SW of Bradshaw."
      },
      "geometry": {
        "type": "Point",
        "coordinates": [
          -97.78,
          40.86
        ]
      }
    },
    {
      "type": "Feature",
      "id": "iem-lsr-GID-20",
      "properties": {
        "report_id": "iem-lsr-GID-20",
        "report_type": "HAIL",
        "event_category": "hail",
        "valid_utc": "202604252038",
        "county_or_zone": "Smith",
        "city": "5 NE Harlan",
        "state": "KS",
        "magnitude": 1.0,
        "magnitude_units": null,
        "source": "Trained Spotter",
        "event_narrative": "Hail covering the ground. Reported nickel size or slightly larger. Time estimated from radar."
      },
      "geometry": {
        "type": "Point",
        "coordinates": [
          -98.7,
          39.65
        ]
      }
    },
    {
      "type": "Feature",
      "id": "iem-lsr-GID-21",
      "properties": {
        "report_id": "iem-lsr-GID-21",
        "report_type": "TSTM WND GST",
        "event_category": "thunderstorm_wind",
        "valid_utc": "202604252045",
        "county_or_zone": "Hamilton",
        "city": "3 SW Henderson",
        "state": "NE",
        "magnitude": 55.0,
        "magnitude_units": null,
        "source": "Mesonet",
        "event_narrative": "Wunderground station KNEHENDE4."
      },
      "geometry": {
        "type": "Point",
        "coordinates": [
          -97.85,
          40.75
        ]
      }
    },
    {
      "type": "Feature",
      "id": "iem-lsr-GID-22",
      "properties": {
        "report_id": "iem-lsr-GID-22",
        "report_type": "TSTM WND GST",
        "event_category": "thunderstorm_wind",
        "valid_utc": "202604252046",
        "county_or_zone": "Hamilton",
        "city": "1 WNW Henderson",
        "state": "NE",
        "magnitude": 54.0,
        "magnitude_units": null,
        "source": "Mesonet",
        "event_narrative": "KNEHENDE5."
      },
      "geometry": {
        "type": "Point",
        "coordinates": [
          -97.84,
          40.79
        ]
      }
    },
    {
      "type": "Feature",
      "id": "iem-lsr-GID-23",
      "properties": {
        "report_id": "iem-lsr-GID-23",
        "report_type": "TSTM WND GST",
        "event_category": "thunderstorm_wind",
        "valid_utc": "202604252131",
        "county_or_zone": "York",
        "city": "York Airport",
        "state": "NE",
        "magnitude": 68.0,
        "magnitude_units": null,
        "source": "AWOS",
        "event_narrative": "Corrects previous non-tstm wnd gst report from York Airport. Report from York Airport. Exact time estimated from radar."
      },
      "geometry": {
        "type": "Point",
        "coordinates": [
          -97.62,
          40.89
        ]
      }
    },
    {
      "type": "Feature",
      "id": "iem-lsr-GID-24",
      "properties": {
        "report_id": "iem-lsr-GID-24",
        "report_type": "NON-TSTM WND GST",
        "event_category": "thunderstorm_wind",
        "valid_utc": "202604252131",
        "county_or_zone": "York",
        "city": "York Airport",
        "state": "NE",
        "magnitude": 68.0,
        "magnitude_units": null,
        "source": "AWOS",
        "event_narrative": "Report from York Airport. Exact time estimated from radar."
      },
      "geometry": {
        "type": "Point",
        "coordinates": [
          -97.62,
          40.89
        ]
      }
    },
    {
      "type": "Feature",
      "id": "iem-lsr-GID-25",
      "properties": {
        "report_id": "iem-lsr-GID-25",
        "report_type": "TSTM WND DMG",
        "event_category": "thunderstorm_wind",
        "valid_utc": "202604252131",
        "county_or_zone": "York",
        "city": "2 WNW York",
        "state": "NE",
        "magnitude": null,
        "magnitude_units": null,
        "source": "Law Enforcement",
        "event_narrative": "Highway 34 was closed from Highway 81 west to Road J due to downed power lines. Time matched up with time of AWOS report of 68 MPH."
      },
      "geometry": {
        "type": "Point",
        "coordinates": [
          -97.64,
          40.89
        ]
      }
    },
    {
      "type": "Feature",
      "id": "iem-lsr-GID-26",
      "properties": {
        "report_id": "iem-lsr-GID-26",
        "report_type": "HAIL",
        "event_category": "hail",
        "valid_utc": "202604252247",
        "county_or_zone": "Fillmore",
        "city": "Strang",
        "state": "NE",
        "magnitude": 0.75,
        "magnitude_units": null,
        "source": "Public",
        "event_narrative": null
      },
      "geometry": {
        "type": "Point",
        "coordinates": [
          -97.59,
          40.42
        ]
      }
    },
    {
      "type": "Feature",
      "id": "iem-lsr-GID-27",
      "properties": {
        "report_id": "iem-lsr-GID-27",
        "report_type": "RAIN",
        "event_category": "other",
        "valid_utc": "202604271200",
        "county_or_zone": "Hamilton",
        "city": "1 SW Hampton",
        "state": "NE",
        "magnitude": 1.78,
        "magnitude_units": null,
        "source": "Cocorahs",
        "event_narrative": "One of highest known 48 hour rain totals in NWS Hastings area."
      },
      "geometry": {
        "type": "Point",
        "coordinates": [
          -97.9,
          40.87
        ]
      }
    },
    {
      "type": "Feature",
      "id": "iem-lsr-GID-28",
      "properties": {
        "report_id": "iem-lsr-GID-28",
        "report_type": "RAIN",
        "event_category": "other",
        "valid_utc": "202604271200",
        "county_or_zone": "Smith",
        "city": "5 S Smith Center",
        "state": "KS",
        "magnitude": 2.11,
        "magnitude_units": null,
        "source": "Cocorahs",
        "event_narrative": "One of highest known 48 hour rain totals in NWS Hastings area."
      },
      "geometry": {
        "type": "Point",
        "coordinates": [
          -98.78,
          39.71
        ]
      }
    },
    {
      "type": "Feature",
      "id": "iem-lsr-GID-29",
      "properties": {
        "report_id": "iem-lsr-GID-29",
        "report_type": "RAIN",
        "event_category": "other",
        "valid_utc": "202604271200",
        "county_or_zone": "Hamilton",
        "city": "1 ENE Aurora",
        "state": "NE",
        "magnitude": 2.47,
        "magnitude_units": null,
        "source": "Cocorahs",
        "event_narrative": "One of the highest known 48 hour rain totals in NWS Hastings area."
      },
      "geometry": {
        "type": "Point",
        "coordinates": [
          -97.99,
          40.87
        ]
      }
    },
    {
      "type": "Feature",
      "id": "iem-lsr-GID-30",
      "properties": {
        "report_id": "iem-lsr-GID-30",
        "report_type": "RAIN",
        "event_category": "other",
        "valid_utc": "202604271200",
        "county_or_zone": "Osborne",
        "city": "9 S Alton",
        "state": "KS",
        "magnitude": 2.56,
        "magnitude_units": null,
        "source": "Mesonet",
        "event_narrative": "One of highest known 48 hour rain totals in NWS Hastings area. Unofficial personal weather station."
      },
      "geometry": {
        "type": "Point",
        "coordinates": [
          -98.94,
          39.34
        ]
      }
    },
    {
      "type": "Feature",
      "id": "iem-lsr-GID-31",
      "properties": {
        "report_id": "iem-lsr-GID-31",
        "report_type": "RAIN",
        "event_category": "other",
        "valid_utc": "202604271200",
        "county_or_zone": "Hamilton",
        "city": "Giltner",
        "state": "NE",
        "magnitude": 3.35,
        "magnitude_units": null,
        "source": "Cocorahs",
        "event_narrative": "Corrects source of previous rain report from Giltner. Highest known rain total in NWS Hastings forecast area over past 48 hours."
      },
      "geometry": {
        "type": "Point",
        "coordinates": [
          -98.16,
          40.78
        ]
      }
    },
    {
      "type": "Feature",
      "id": "iem-lsr-GID-32",
      "properties": {
        "report_id": "iem-lsr-GID-32",
        "report_type": "RAIN",
        "event_category": "other",
        "valid_utc": "202604271200",
        "county_or_zone": "Hamilton",
        "city": "Giltner",
        "state": "NE",
        "magnitude": 3.35,
        "magnitude_units": null,
        "source": "Public",
        "event_narrative": "Highest known rain total in NWS Hastings forecast area over past 48 hours."
      },
      "geometry": {
        "type": "Point",
        "coordinates": [
          -98.16,
          40.78
        ]
      }
    }
  ]
}