{
  "type": "FeatureCollection",
  "metadata": {
    "schema_version": "0.2.4",
    "year": 2026,
    "month": 6,
    "wfo": "VEF",
    "start_utc": "2026-06-01T00:00:00Z",
    "end_utc": "2026-07-01T00:00:00Z",
    "generated_utc": "2026-08-19T09:51:12Z",
    "mode": "storm_data_prep",
    "public_release_status": "public-source-derived",
    "time_note": "Storm Data entry times should be reviewed in local Standard Time (ST), not daylight time. Candidate reports include standard_time_display.",
    "tornado_track_policy": "Tornado tracks must come from DAT. NCEI begin/end coordinates are not used as a tornado track substitute.",
    "source": "https://mesonet.agron.iastate.edu/cgi-bin/request/gis/lsr.py?wfo=VEF&sts=2026-06-01T00%3A00%3A00Z&ets=2026-07-01T00%3A00%3A00Z&fmt=csv"
  },
  "features": [
    {
      "type": "Feature",
      "id": "iem-lsr-VEF-1",
      "properties": {
        "report_id": "iem-lsr-VEF-1",
        "report_type": "NON-TSTM WND GST",
        "event_category": "thunderstorm_wind",
        "valid_utc": "202606062233",
        "standard_time_display": "2026-06-06 15:33 MST",
        "wfo": "VEF",
        "county_or_zone": "Mohave",
        "city": "24 SSE Littlefield",
        "state": "AZ",
        "magnitude": 62.0,
        "magnitude_units": null,
        "source": "Mesonet",
        "event_narrative": "The Tweeds Point RAWS site (QTWA3) recorded wind gusts in excess of 58 mph between 1533 and 1833 MST. The peak gust measured during this time was 62 mph_ which occurred at 1533 and 1633."
      },
      "geometry": {
        "type": "Point",
        "coordinates": [
          -113.73,
          36.58
        ]
      }
    },
    {
      "type": "Feature",
      "id": "iem-lsr-VEF-2",
      "properties": {
        "report_id": "iem-lsr-VEF-2",
        "report_type": "LANDSPOUT",
        "event_category": "other",
        "valid_utc": "202606140005",
        "standard_time_display": "2026-06-13 17:05 MST",
        "wfo": "VEF",
        "county_or_zone": "Mohave",
        "city": "10 SW Colorado City",
        "state": "AZ",
        "magnitude": null,
        "magnitude_units": null,
        "source": "Public",
        "event_narrative": "Trained spotter reported multiple landspouts southwest of Colorado City at 1705 on Saturday. Exact location estimated by radar."
      },
      "geometry": {
        "type": "Point",
        "coordinates": [
          -113.11,
          36.89
        ]
      }
    },
    {
      "type": "Feature",
      "id": "iem-lsr-VEF-3",
      "properties": {
        "report_id": "iem-lsr-VEF-3",
        "report_type": "NON-TSTM WND GST",
        "event_category": "thunderstorm_wind",
        "valid_utc": "202606261939",
        "standard_time_display": "2026-06-26 11:39 PST",
        "wfo": "VEF",
        "county_or_zone": "Clark",
        "city": "Hoover Dam",
        "state": "NV",
        "magnitude": 68.0,
        "magnitude_units": null,
        "source": "Dept of Highways",
        "event_narrative": "Gusts at or above 58 mph started at 1103 and occurred intermittently through 1531. Peak gust was 68 mph at 1239."
      },
      "geometry": {
        "type": "Point",
        "coordinates": [
          -114.74,
          36.01
        ]
      }
    },
    {
      "type": "Feature",
      "id": "iem-lsr-VEF-4",
      "properties": {
        "report_id": "iem-lsr-VEF-4",
        "report_type": "NON-TSTM WND GST",
        "event_category": "thunderstorm_wind",
        "valid_utc": "202606262151",
        "standard_time_display": "2026-06-26 14:51 MST",
        "wfo": "VEF",
        "county_or_zone": "Mohave",
        "city": "5 E New Kingman-Butler",
        "state": "AZ",
        "magnitude": 59.0,
        "magnitude_units": null,
        "source": "ASOS",
        "event_narrative": "At 1451 MST_ the KIGM ASOS measured a non-thunderstorm wind gust of 59 mph."
      },
      "geometry": {
        "type": "Point",
        "coordinates": [
          -113.93,
          35.26
        ]
      }
    },
    {
      "type": "Feature",
      "id": "iem-lsr-VEF-5",
      "properties": {
        "report_id": "iem-lsr-VEF-5",
        "report_type": "NON-TSTM WND GST",
        "event_category": "thunderstorm_wind",
        "valid_utc": "202606262333",
        "standard_time_display": "2026-06-26 16:33 MST",
        "wfo": "VEF",
        "county_or_zone": "Mohave",
        "city": "24 SSE Littlefield",
        "state": "AZ",
        "magnitude": 62.0,
        "magnitude_units": null,
        "source": "Mesonet",
        "event_narrative": "The QTWA3 RAWS recorded gusts in excess of 58 mph from 1633 MST to 2033 MST. The peak gust observed during this time was 62 mph and occurred at 1633 MST."
      },
      "geometry": {
        "type": "Point",
        "coordinates": [
          -113.73,
          36.58
        ]
      }
    },
    {
      "type": "Feature",
      "id": "iem-lsr-VEF-6",
      "properties": {
        "report_id": "iem-lsr-VEF-6",
        "report_type": "NON-TSTM WND GST",
        "event_category": "thunderstorm_wind",
        "valid_utc": "202606270126",
        "standard_time_display": "2026-06-26 17:26 PST",
        "wfo": "VEF",
        "county_or_zone": "Inyo",
        "city": "19 S Haiwee",
        "state": "CA",
        "magnitude": 76.0,
        "magnitude_units": null,
        "source": "Mesonet",
        "event_narrative": "Five Mile sensor observed gusts at or above 58 mph from 1826 on June 26th through 2026 on June 27th. FMRC1."
      },
      "geometry": {
        "type": "Point",
        "coordinates": [
          -117.92,
          35.87
        ]
      }
    },
    {
      "type": "Feature",
      "id": "iem-lsr-VEF-7",
      "properties": {
        "report_id": "iem-lsr-VEF-7",
        "report_type": "NON-TSTM WND GST",
        "event_category": "thunderstorm_wind",
        "valid_utc": "202606272333",
        "standard_time_display": "2026-06-27 16:33 MST",
        "wfo": "VEF",
        "county_or_zone": "Mohave",
        "city": "24 SSE Littlefield",
        "state": "AZ",
        "magnitude": 61.0,
        "magnitude_units": null,
        "source": "Mesonet",
        "event_narrative": "Tweeds Point sensor observed gusts at or above 58 mph from 1633 to 1733. Peak gust 61 mph at 1733. QTWA3."
      },
      "geometry": {
        "type": "Point",
        "coordinates": [
          -113.73,
          36.58
        ]
      }
    },
    {
      "type": "Feature",
      "id": "iem-lsr-VEF-8",
      "properties": {
        "report_id": "iem-lsr-VEF-8",
        "report_type": "NON-TSTM WND GST",
        "event_category": "thunderstorm_wind",
        "valid_utc": "202606280626",
        "standard_time_display": "2026-06-27 22:26 PST",
        "wfo": "VEF",
        "county_or_zone": "Inyo",
        "city": "19 S Haiwee",
        "state": "CA",
        "magnitude": 59.0,
        "magnitude_units": null,
        "source": "Mesonet",
        "event_narrative": "Five Mile sensor measured wind gusts at or above 58 mph from 2326 on June 27th through 0226 on June 28th. Peak gust 59 mph at 0226. FMRC1."
      },
      "geometry": {
        "type": "Point",
        "coordinates": [
          -117.92,
          35.87
        ]
      }
    }
  ]
}