{
  "type": "FeatureCollection",
  "metadata": {
    "schema_version": "0.2.4",
    "year": 2026,
    "month": 5,
    "wfo": "BOX",
    "start_utc": "2026-05-01T00:00:00Z",
    "end_utc": "2026-06-01T00:00:00Z",
    "generated_utc": "2026-06-08T13:18:12Z",
    "mode": "storm_data_prep",
    "public_release_status": "public-source-derived",
    "time_note": "Storm Data entry times should be reviewed in local Standard Time (ST), not daylight time. Candidate reports include standard_time_display.",
    "tornado_track_policy": "Tornado tracks must come from DAT. NCEI begin/end coordinates are not used as a tornado track substitute.",
    "source": "https://mesonet.agron.iastate.edu/cgi-bin/request/gis/lsr.py?wfo=BOX&sts=2026-05-01T00%3A00%3A00Z&ets=2026-06-01T00%3A00%3A00Z&fmt=csv"
  },
  "features": [
    {
      "type": "Feature",
      "id": "iem-lsr-BOX-1",
      "properties": {
        "report_id": "iem-lsr-BOX-1",
        "report_type": "TSTM WND DMG",
        "event_category": "thunderstorm_wind",
        "valid_utc": "202605192050",
        "standard_time_display": "2026-05-19 15:50 EST",
        "wfo": "BOX",
        "county_or_zone": "Hartford",
        "city": "2 SW Burlington",
        "state": "CT",
        "magnitude": null,
        "magnitude_units": null,
        "source": "Trained Spotter",
        "event_narrative": "In Burlington tree and wires reported down on Johnnycake mountain road. Relayed by amateur radio."
      },
      "geometry": {
        "type": "Point",
        "coordinates": [
          -72.99,
          41.75
        ]
      }
    },
    {
      "type": "Feature",
      "id": "iem-lsr-BOX-2",
      "properties": {
        "report_id": "iem-lsr-BOX-2",
        "report_type": "TSTM WND DMG",
        "event_category": "thunderstorm_wind",
        "valid_utc": "202605192050",
        "standard_time_display": "2026-05-19 15:50 EST",
        "wfo": "BOX",
        "county_or_zone": "Hartford",
        "city": "2 WSW Burlington",
        "state": "CT",
        "magnitude": null,
        "magnitude_units": null,
        "source": "Trained Spotter",
        "event_narrative": "In Burlington tree and wires reported down on Johnnycake mountain road. Relayed by amateur radio."
      },
      "geometry": {
        "type": "Point",
        "coordinates": [
          -73.0,
          41.75
        ]
      }
    },
    {
      "type": "Feature",
      "id": "iem-lsr-BOX-3",
      "properties": {
        "report_id": "iem-lsr-BOX-3",
        "report_type": "TSTM WND DMG",
        "event_category": "thunderstorm_wind",
        "valid_utc": "202605192111",
        "standard_time_display": "2026-05-19 16:11 EST",
        "wfo": "BOX",
        "county_or_zone": "Hampshire",
        "city": "3 SE Belchertown",
        "state": "MA",
        "magnitude": null,
        "magnitude_units": null,
        "source": "Amateur Radio",
        "event_narrative": "In Belchertown_ a large tree and wires were down on Michael Sears Rd and North Liberty St."
      },
      "geometry": {
        "type": "Point",
        "coordinates": [
          -72.36,
          42.24
        ]
      }
    },
    {
      "type": "Feature",
      "id": "iem-lsr-BOX-4",
      "properties": {
        "report_id": "iem-lsr-BOX-4",
        "report_type": "TSTM WND DMG",
        "event_category": "thunderstorm_wind",
        "valid_utc": "202605192115",
        "standard_time_display": "2026-05-19 16:15 EST",
        "wfo": "BOX",
        "county_or_zone": "Worcester",
        "city": "Leicester",
        "state": "MA",
        "magnitude": null,
        "magnitude_units": null,
        "source": "Trained Spotter",
        "event_narrative": "In Leicester a large tree was reported down."
      },
      "geometry": {
        "type": "Point",
        "coordinates": [
          -71.9,
          42.25
        ]
      }
    },
    {
      "type": "Feature",
      "id": "iem-lsr-BOX-5",
      "properties": {
        "report_id": "iem-lsr-BOX-5",
        "report_type": "TSTM WND DMG",
        "event_category": "thunderstorm_wind",
        "valid_utc": "202605192117",
        "standard_time_display": "2026-05-19 16:17 EST",
        "wfo": "BOX",
        "county_or_zone": "Worcester",
        "city": "1 NNW Lancaster",
        "state": "MA",
        "magnitude": null,
        "magnitude_units": null,
        "source": "Law Enforcement",
        "event_narrative": "In Lancaster tree and wires were reported down near Havard Road. Relayed by amateur radio."
      },
      "geometry": {
        "type": "Point",
        "coordinates": [
          -71.67,
          42.46
        ]
      }
    },
    {
      "type": "Feature",
      "id": "iem-lsr-BOX-6",
      "properties": {
        "report_id": "iem-lsr-BOX-6",
        "report_type": "TSTM WND DMG",
        "event_category": "thunderstorm_wind",
        "valid_utc": "202605192120",
        "standard_time_display": "2026-05-19 16:20 EST",
        "wfo": "BOX",
        "county_or_zone": "Worcester",
        "city": "Leicester",
        "state": "MA",
        "magnitude": null,
        "magnitude_units": null,
        "source": "Trained Spotter",
        "event_narrative": "Corrects previous tstm wnd dmg report from Leicester. In Leicester a large tree was reported down."
      },
      "geometry": {
        "type": "Point",
        "coordinates": [
          -71.9,
          42.25
        ]
      }
    },
    {
      "type": "Feature",
      "id": "iem-lsr-BOX-7",
      "properties": {
        "report_id": "iem-lsr-BOX-7",
        "report_type": "TSTM WND DMG",
        "event_category": "thunderstorm_wind",
        "valid_utc": "202605192124",
        "standard_time_display": "2026-05-19 16:24 EST",
        "wfo": "BOX",
        "county_or_zone": "Middlesex",
        "city": "2 ENE Maynard",
        "state": "MA",
        "magnitude": null,
        "magnitude_units": null,
        "source": "Law Enforcement",
        "event_narrative": "Near Maynard tree reported down on Sudbury road. Relayed by amateur radio."
      },
      "geometry": {
        "type": "Point",
        "coordinates": [
          -71.43,
          42.44
        ]
      }
    },
    {
      "type": "Feature",
      "id": "iem-lsr-BOX-8",
      "properties": {
        "report_id": "iem-lsr-BOX-8",
        "report_type": "TSTM WND DMG",
        "event_category": "thunderstorm_wind",
        "valid_utc": "202605192126",
        "standard_time_display": "2026-05-19 16:26 EST",
        "wfo": "BOX",
        "county_or_zone": "Middlesex",
        "city": "3 SSE Maynard",
        "state": "MA",
        "magnitude": null,
        "magnitude_units": null,
        "source": "Trained Spotter",
        "event_narrative": "In Sudbury_ a tree was down blocking half the road on Hudson Rd."
      },
      "geometry": {
        "type": "Point",
        "coordinates": [
          -71.44,
          42.39
        ]
      }
    },
    {
      "type": "Feature",
      "id": "iem-lsr-BOX-9",
      "properties": {
        "report_id": "iem-lsr-BOX-9",
        "report_type": "TSTM WND DMG",
        "event_category": "thunderstorm_wind",
        "valid_utc": "202605192128",
        "standard_time_display": "2026-05-19 16:28 EST",
        "wfo": "BOX",
        "county_or_zone": "Middlesex",
        "city": "2 W Concord",
        "state": "MA",
        "magnitude": null,
        "magnitude_units": null,
        "source": "Law Enforcement",
        "event_narrative": "*** 2 INJ *** In Concord a tree was reported down on a car. 2 minor injuries reported. Relayed by amateur radio."
      },
      "geometry": {
        "type": "Point",
        "coordinates": [
          -71.39,
          42.46
        ]
      }
    },
    {
      "type": "Feature",
      "id": "iem-lsr-BOX-10",
      "properties": {
        "report_id": "iem-lsr-BOX-10",
        "report_type": "TSTM WND DMG",
        "event_category": "thunderstorm_wind",
        "valid_utc": "202605192130",
        "standard_time_display": "2026-05-19 16:30 EST",
        "wfo": "BOX",
        "county_or_zone": "Tolland",
        "city": "2 NE Vernon",
        "state": "CT",
        "magnitude": null,
        "magnitude_units": null,
        "source": "Law Enforcement",
        "event_narrative": "In Vernon_ a tree and power lines were down. Relayed by amateur radio."
      },
      "geometry": {
        "type": "Point",
        "coordinates": [
          -72.46,
          41.84
        ]
      }
    },
    {
      "type": "Feature",
      "id": "iem-lsr-BOX-11",
      "properties": {
        "report_id": "iem-lsr-BOX-11",
        "report_type": "TSTM WND DMG",
        "event_category": "thunderstorm_wind",
        "valid_utc": "202605192132",
        "standard_time_display": "2026-05-19 16:32 EST",
        "wfo": "BOX",
        "county_or_zone": "Middlesex",
        "city": "1 NE Hudson",
        "state": "MA",
        "magnitude": null,
        "magnitude_units": null,
        "source": "Law Enforcement",
        "event_narrative": "In Hudson_ a tree and wires were down on Bertha St. Relayed by amateur radio."
      },
      "geometry": {
        "type": "Point",
        "coordinates": [
          -71.55,
          42.41
        ]
      }
    },
    {
      "type": "Feature",
      "id": "iem-lsr-BOX-12",
      "properties": {
        "report_id": "iem-lsr-BOX-12",
        "report_type": "TSTM WND DMG",
        "event_category": "thunderstorm_wind",
        "valid_utc": "202605192134",
        "standard_time_display": "2026-05-19 16:34 EST",
        "wfo": "BOX",
        "county_or_zone": "Worcester",
        "city": "Worcester AP",
        "state": "MA",
        "magnitude": null,
        "magnitude_units": null,
        "source": "ASOS",
        "event_narrative": "Peak gust of 59 kts or 68 mph reported at Worcester airport."
      },
      "geometry": {
        "type": "Point",
        "coordinates": [
          -71.87,
          42.28
        ]
      }
    },
    {
      "type": "Feature",
      "id": "iem-lsr-BOX-13",
      "properties": {
        "report_id": "iem-lsr-BOX-13",
        "report_type": "TSTM WND DMG",
        "event_category": "thunderstorm_wind",
        "valid_utc": "202605192135",
        "standard_time_display": "2026-05-19 16:35 EST",
        "wfo": "BOX",
        "county_or_zone": "Tolland",
        "city": "2 NNW Willington",
        "state": "CT",
        "magnitude": null,
        "magnitude_units": null,
        "source": "Law Enforcement",
        "event_narrative": "In Willington_ a tree was down. Relayed by amateur radio."
      },
      "geometry": {
        "type": "Point",
        "coordinates": [
          -72.29,
          41.9
        ]
      }
    },
    {
      "type": "Feature",
      "id": "iem-lsr-BOX-14",
      "properties": {
        "report_id": "iem-lsr-BOX-14",
        "report_type": "TSTM WND DMG",
        "event_category": "thunderstorm_wind",
        "valid_utc": "202605192140",
        "standard_time_display": "2026-05-19 16:40 EST",
        "wfo": "BOX",
        "county_or_zone": "Worcester",
        "city": "2 W Shrewsbury",
        "state": "MA",
        "magnitude": null,
        "magnitude_units": null,
        "source": "Law Enforcement",
        "event_narrative": "Near Worcester a part of a rubber roof on Amory building blew off. Relayed by amateur radio."
      },
      "geometry": {
        "type": "Point",
        "coordinates": [
          -71.76,
          42.3
        ]
      }
    },
    {
      "type": "Feature",
      "id": "iem-lsr-BOX-15",
      "properties": {
        "report_id": "iem-lsr-BOX-15",
        "report_type": "TSTM WND DMG",
        "event_category": "thunderstorm_wind",
        "valid_utc": "202605192145",
        "standard_time_display": "2026-05-19 16:45 EST",
        "wfo": "BOX",
        "county_or_zone": "Worcester",
        "city": "1 SSW Paxton",
        "state": "MA",
        "magnitude": null,
        "magnitude_units": null,
        "source": "Amateur Radio",
        "event_narrative": "In Paxton_ trees and wires were down on multiple streets including Holbrook Ln and West St."
      },
      "geometry": {
        "type": "Point",
        "coordinates": [
          -71.94,
          42.31
        ]
      }
    },
    {
      "type": "Feature",
      "id": "iem-lsr-BOX-16",
      "properties": {
        "report_id": "iem-lsr-BOX-16",
        "report_type": "TSTM WND DMG",
        "event_category": "thunderstorm_wind",
        "valid_utc": "202605192158",
        "standard_time_display": "2026-05-19 16:58 EST",
        "wfo": "BOX",
        "county_or_zone": "Windham",
        "city": "2 ENE Killingly",
        "state": "CT",
        "magnitude": null,
        "magnitude_units": null,
        "source": "Fire Dept/Rescue",
        "event_narrative": "In Killingly_ there was a tree and wires down on Valley rd. Relayed by amateur radio."
      },
      "geometry": {
        "type": "Point",
        "coordinates": [
          -71.83,
          41.85
        ]
      }
    },
    {
      "type": "Feature",
      "id": "iem-lsr-BOX-17",
      "properties": {
        "report_id": "iem-lsr-BOX-17",
        "report_type": "TSTM WND DMG",
        "event_category": "thunderstorm_wind",
        "valid_utc": "202605192200",
        "standard_time_display": "2026-05-19 17:00 EST",
        "wfo": "BOX",
        "county_or_zone": "Worcester",
        "city": "1 SE Northborough",
        "state": "MA",
        "magnitude": null,
        "magnitude_units": null,
        "source": "Amateur Radio",
        "event_narrative": "In Northborough on west street trees and wires were reported down. Relayed by amateur radio."
      },
      "geometry": {
        "type": "Point",
        "coordinates": [
          -71.64,
          42.31
        ]
      }
    },
    {
      "type": "Feature",
      "id": "iem-lsr-BOX-18",
      "properties": {
        "report_id": "iem-lsr-BOX-18",
        "report_type": "TSTM WND DMG",
        "event_category": "thunderstorm_wind",
        "valid_utc": "202605192200",
        "standard_time_display": "2026-05-19 17:00 EST",
        "wfo": "BOX",
        "county_or_zone": "Worcester",
        "city": "Oxford",
        "state": "MA",
        "magnitude": null,
        "magnitude_units": null,
        "source": "Law Enforcement",
        "event_narrative": "Corrects previous tstm wnd dmg report from Oxford. In Oxford trees and wires were reported down in multiple locations including on cars. Relayed by amateur radio."
      },
      "geometry": {
        "type": "Point",
        "coordinates": [
          -71.87,
          42.12
        ]
      }
    },
    {
      "type": "Feature",
      "id": "iem-lsr-BOX-19",
      "properties": {
        "report_id": "iem-lsr-BOX-19",
        "report_type": "TSTM WND DMG",
        "event_category": "thunderstorm_wind",
        "valid_utc": "202605192200",
        "standard_time_display": "2026-05-19 17:00 EST",
        "wfo": "BOX",
        "county_or_zone": "Worcester",
        "city": "Oxford",
        "state": "MA",
        "magnitude": null,
        "magnitude_units": null,
        "source": "Law Enforcement",
        "event_narrative": "In Oxford trees and wires were reported down in multiple locations. Relayed by amateur radio."
      },
      "geometry": {
        "type": "Point",
        "coordinates": [
          -71.87,
          42.12
        ]
      }
    },
    {
      "type": "Feature",
      "id": "iem-lsr-BOX-20",
      "properties": {
        "report_id": "iem-lsr-BOX-20",
        "report_type": "TSTM WND DMG",
        "event_category": "thunderstorm_wind",
        "valid_utc": "202605192205",
        "standard_time_display": "2026-05-19 17:05 EST",
        "wfo": "BOX",
        "county_or_zone": "Worcester",
        "city": "2 SSW Sutton",
        "state": "MA",
        "magnitude": null,
        "magnitude_units": null,
        "source": "Amateur Radio",
        "event_narrative": "In Sutton_ a tree was down on wires causing them to catch on fire."
      },
      "geometry": {
        "type": "Point",
        "coordinates": [
          -71.79,
          42.12
        ]
      }
    },
    {
      "type": "Feature",
      "id": "iem-lsr-BOX-21",
      "properties": {
        "report_id": "iem-lsr-BOX-21",
        "report_type": "TSTM WND DMG",
        "event_category": "thunderstorm_wind",
        "valid_utc": "202605192215",
        "standard_time_display": "2026-05-19 17:15 EST",
        "wfo": "BOX",
        "county_or_zone": "Norfolk",
        "city": "Needham",
        "state": "MA",
        "magnitude": null,
        "magnitude_units": null,
        "source": "Amateur Radio",
        "event_narrative": "In Needham on Great Plain Avenue near the Golf course a large tree branch was reported down. Relayed by amateur radio."
      },
      "geometry": {
        "type": "Point",
        "coordinates": [
          -71.23,
          42.28
        ]
      }
    },
    {
      "type": "Feature",
      "id": "iem-lsr-BOX-22",
      "properties": {
        "report_id": "iem-lsr-BOX-22",
        "report_type": "TSTM WND DMG",
        "event_category": "thunderstorm_wind",
        "valid_utc": "202605192224",
        "standard_time_display": "2026-05-19 17:24 EST",
        "wfo": "BOX",
        "county_or_zone": "Norfolk",
        "city": "1 SSE Milton",
        "state": "MA",
        "magnitude": null,
        "magnitude_units": null,
        "source": "Law Enforcement",
        "event_narrative": "In Milton_ a tree was down on a car on Ford Ranch Rd."
      },
      "geometry": {
        "type": "Point",
        "coordinates": [
          -71.08,
          42.23
        ]
      }
    },
    {
      "type": "Feature",
      "id": "iem-lsr-BOX-23",
      "properties": {
        "report_id": "iem-lsr-BOX-23",
        "report_type": "TSTM WND DMG",
        "event_category": "thunderstorm_wind",
        "valid_utc": "202605192225",
        "standard_time_display": "2026-05-19 17:25 EST",
        "wfo": "BOX",
        "county_or_zone": "Norfolk",
        "city": "1 NNW Norfolk",
        "state": "MA",
        "magnitude": null,
        "magnitude_units": null,
        "source": "Law Enforcement",
        "event_narrative": "In Norfolk_ wires were down on Cleveland St. Relayed by amateur radio."
      },
      "geometry": {
        "type": "Point",
        "coordinates": [
          -71.33,
          42.14
        ]
      }
    },
    {
      "type": "Feature",
      "id": "iem-lsr-BOX-24",
      "properties": {
        "report_id": "iem-lsr-BOX-24",
        "report_type": "NON-TSTM WND GST",
        "event_category": "thunderstorm_wind",
        "valid_utc": "202605300744",
        "standard_time_display": "2026-05-30 02:44 EST",
        "wfo": "BOX",
        "county_or_zone": "Essex",
        "city": "3 S Salisbury",
        "state": "MA",
        "magnitude": 47.0,
        "magnitude_units": null,
        "source": "Mesonet",
        "event_narrative": null
      },
      "geometry": {
        "type": "Point",
        "coordinates": [
          -70.84,
          42.8
        ]
      }
    },
    {
      "type": "Feature",
      "id": "iem-lsr-BOX-25",
      "properties": {
        "report_id": "iem-lsr-BOX-25",
        "report_type": "NON-TSTM WND GST",
        "event_category": "thunderstorm_wind",
        "valid_utc": "202605301307",
        "standard_time_display": "2026-05-30 08:07 EST",
        "wfo": "BOX",
        "county_or_zone": "ANZ230",
        "city": "2 E South Boston",
        "state": "MA",
        "magnitude": 58.0,
        "magnitude_units": null,
        "source": "Mesonet",
        "event_narrative": "Mesonet station XPLB Pleasure Bay."
      },
      "geometry": {
        "type": "Point",
        "coordinates": [
          -71.02,
          42.33
        ]
      }
    },
    {
      "type": "Feature",
      "id": "iem-lsr-BOX-26",
      "properties": {
        "report_id": "iem-lsr-BOX-26",
        "report_type": "NON-TSTM WND GST",
        "event_category": "thunderstorm_wind",
        "valid_utc": "202605301310",
        "standard_time_display": "2026-05-30 08:10 EST",
        "wfo": "BOX",
        "county_or_zone": "Essex",
        "city": "2 E Rockport",
        "state": "MA",
        "magnitude": 54.0,
        "magnitude_units": null,
        "source": "Mesonet",
        "event_narrative": null
      },
      "geometry": {
        "type": "Point",
        "coordinates": [
          -70.58,
          42.64
        ]
      }
    },
    {
      "type": "Feature",
      "id": "iem-lsr-BOX-27",
      "properties": {
        "report_id": "iem-lsr-BOX-27",
        "report_type": "NON-TSTM WND GST",
        "event_category": "thunderstorm_wind",
        "valid_utc": "202605301403",
        "standard_time_display": "2026-05-30 09:03 EST",
        "wfo": "BOX",
        "county_or_zone": "Plymouth",
        "city": "1 E Hull",
        "state": "MA",
        "magnitude": 60.0,
        "magnitude_units": null,
        "source": "Mesonet",
        "event_narrative": "Mesonet station XHUL Hull YC."
      },
      "geometry": {
        "type": "Point",
        "coordinates": [
          -70.89,
          42.31
        ]
      }
    },
    {
      "type": "Feature",
      "id": "iem-lsr-BOX-28",
      "properties": {
        "report_id": "iem-lsr-BOX-28",
        "report_type": "NON-TSTM WND GST",
        "event_category": "thunderstorm_wind",
        "valid_utc": "202605301714",
        "standard_time_display": "2026-05-30 12:14 EST",
        "wfo": "BOX",
        "county_or_zone": "ANZ231",
        "city": "2 NNE Sandwich",
        "state": "MA",
        "magnitude": 58.0,
        "magnitude_units": null,
        "source": "Mesonet",
        "event_narrative": "Mesonet station XSBC Scusset Beach."
      },
      "geometry": {
        "type": "Point",
        "coordinates": [
          -70.49,
          41.78
        ]
      }
    },
    {
      "type": "Feature",
      "id": "iem-lsr-BOX-29",
      "properties": {
        "report_id": "iem-lsr-BOX-29",
        "report_type": "NON-TSTM WND GST",
        "event_category": "thunderstorm_wind",
        "valid_utc": "202605301753",
        "standard_time_display": "2026-05-30 12:53 EST",
        "wfo": "BOX",
        "county_or_zone": "Washington",
        "city": "2 N Block Island",
        "state": "RI",
        "magnitude": 58.0,
        "magnitude_units": null,
        "source": "Mesonet",
        "event_narrative": "Mesonet station XBLK Block Island Jetty."
      },
      "geometry": {
        "type": "Point",
        "coordinates": [
          -71.59,
          41.19
        ]
      }
    },
    {
      "type": "Feature",
      "id": "iem-lsr-BOX-30",
      "properties": {
        "report_id": "iem-lsr-BOX-30",
        "report_type": "NON-TSTM WND GST",
        "event_category": "thunderstorm_wind",
        "valid_utc": "202605301804",
        "standard_time_display": "2026-05-30 13:04 EST",
        "wfo": "BOX",
        "county_or_zone": "ANZ231",
        "city": "2 NNE Sandwich",
        "state": "MA",
        "magnitude": 58.0,
        "magnitude_units": null,
        "source": "Mesonet",
        "event_narrative": "Mesonet station XSBC Scusset Beach."
      },
      "geometry": {
        "type": "Point",
        "coordinates": [
          -70.49,
          41.78
        ]
      }
    },
    {
      "type": "Feature",
      "id": "iem-lsr-BOX-31",
      "properties": {
        "report_id": "iem-lsr-BOX-31",
        "report_type": "NON-TSTM WND GST",
        "event_category": "thunderstorm_wind",
        "valid_utc": "202605301904",
        "standard_time_display": "2026-05-30 14:04 EST",
        "wfo": "BOX",
        "county_or_zone": "Nantucket",
        "city": "Nantucket AP",
        "state": "MA",
        "magnitude": 59.0,
        "magnitude_units": null,
        "source": "ASOS",
        "event_narrative": "ASOS station KACK Nantucket AP."
      },
      "geometry": {
        "type": "Point",
        "coordinates": [
          -70.07,
          41.25
        ]
      }
    }
  ]
}