{
  "type": "FeatureCollection",
  "metadata": {
    "schema_version": "0.2.0",
    "year": 2026,
    "month": 4,
    "wfo": "CAR",
    "start_utc": "2026-04-01T00:00:00Z",
    "end_utc": "2026-05-01T00:00:00Z",
    "generated_utc": "2026-05-27T21:20:34Z",
    "mode": "storm_data_prep",
    "public_release_status": "public-source-derived",
    "source": "https://mesonet.agron.iastate.edu/cgi-bin/request/gis/lsr.py?wfo=CAR&sts=2026-04-01T00%3A00%3A00Z&ets=2026-05-01T00%3A00%3A00Z&fmt=csv"
  },
  "features": [
    {
      "type": "Feature",
      "id": "iem-lsr-CAR-1",
      "properties": {
        "report_id": "iem-lsr-CAR-1",
        "report_type": "SNOW",
        "event_category": "winter",
        "valid_utc": "202604010600",
        "county_or_zone": "Aroostook",
        "city": "1 N Caribou",
        "state": "ME",
        "magnitude": 1.3,
        "magnitude_units": null,
        "source": "Official NWS Obs",
        "event_narrative": "Mix of snow and sleet."
      },
      "geometry": {
        "type": "Point",
        "coordinates": [
          -68.01,
          46.87
        ]
      }
    },
    {
      "type": "Feature",
      "id": "iem-lsr-CAR-2",
      "properties": {
        "report_id": "iem-lsr-CAR-2",
        "report_type": "SNOW",
        "event_category": "winter",
        "valid_utc": "202604010920",
        "county_or_zone": "Aroostook",
        "city": "1 WSW Madawaska",
        "state": "ME",
        "magnitude": 3.0,
        "magnitude_units": null,
        "source": "Trained Spotter",
        "event_narrative": null
      },
      "geometry": {
        "type": "Point",
        "coordinates": [
          -68.35,
          47.35
        ]
      }
    },
    {
      "type": "Feature",
      "id": "iem-lsr-CAR-3",
      "properties": {
        "report_id": "iem-lsr-CAR-3",
        "report_type": "SNOW",
        "event_category": "winter",
        "valid_utc": "202604011000",
        "county_or_zone": "Aroostook",
        "city": "1 NNW Van Buren",
        "state": "ME",
        "magnitude": 2.0,
        "magnitude_units": null,
        "source": "CO-OP Observer",
        "event_narrative": "CO-OP Observer station VANM1 Van Buren 1 NNE."
      },
      "geometry": {
        "type": "Point",
        "coordinates": [
          -67.94,
          47.17
        ]
      }
    },
    {
      "type": "Feature",
      "id": "iem-lsr-CAR-4",
      "properties": {
        "report_id": "iem-lsr-CAR-4",
        "report_type": "SLEET",
        "event_category": "winter",
        "valid_utc": "202604011100",
        "county_or_zone": "Aroostook",
        "city": "2 SSE Castle Hill",
        "state": "ME",
        "magnitude": 0.8,
        "magnitude_units": null,
        "source": "Cocorahs",
        "event_narrative": null
      },
      "geometry": {
        "type": "Point",
        "coordinates": [
          -68.22,
          46.7
        ]
      }
    },
    {
      "type": "Feature",
      "id": "iem-lsr-CAR-5",
      "properties": {
        "report_id": "iem-lsr-CAR-5",
        "report_type": "SNOW",
        "event_category": "winter",
        "valid_utc": "202604011100",
        "county_or_zone": "Aroostook",
        "city": "Presque Isle",
        "state": "ME",
        "magnitude": 1.0,
        "magnitude_units": null,
        "source": "Cocorahs",
        "event_narrative": "Cocorahs station ME-AR-15 Presque Isle 1.3 WSW."
      },
      "geometry": {
        "type": "Point",
        "coordinates": [
          -68.01,
          46.68
        ]
      }
    },
    {
      "type": "Feature",
      "id": "iem-lsr-CAR-6",
      "properties": {
        "report_id": "iem-lsr-CAR-6",
        "report_type": "SNOW",
        "event_category": "winter",
        "valid_utc": "202604011100",
        "county_or_zone": "Aroostook",
        "city": "2 S Stockholm",
        "state": "ME",
        "magnitude": 2.1,
        "magnitude_units": null,
        "source": "Cocorahs",
        "event_narrative": "Cocorahs station ME-AR-18 New Sweden 4.9 NNW."
      },
      "geometry": {
        "type": "Point",
        "coordinates": [
          -68.14,
          47.01
        ]
      }
    },
    {
      "type": "Feature",
      "id": "iem-lsr-CAR-7",
      "properties": {
        "report_id": "iem-lsr-CAR-7",
        "report_type": "FREEZING RAIN",
        "event_category": "other",
        "valid_utc": "202604011153",
        "county_or_zone": "Aroostook",
        "city": "3 NNE Saint Agatha",
        "state": "ME",
        "magnitude": 0.0,
        "magnitude_units": null,
        "source": "ASOS",
        "event_narrative": "ASOS station KFVE Frenchville Airport."
      },
      "geometry": {
        "type": "Point",
        "coordinates": [
          -68.3,
          47.28
        ]
      }
    },
    {
      "type": "Feature",
      "id": "iem-lsr-CAR-8",
      "properties": {
        "report_id": "iem-lsr-CAR-8",
        "report_type": "FREEZING RAIN",
        "event_category": "other",
        "valid_utc": "202604011153",
        "county_or_zone": "Aroostook",
        "city": "2 ESE Houlton",
        "state": "ME",
        "magnitude": 0.11,
        "magnitude_units": null,
        "source": "ASOS",
        "event_narrative": "ASOS station KHUL 1 E Houlton."
      },
      "geometry": {
        "type": "Point",
        "coordinates": [
          -67.8,
          46.12
        ]
      }
    },
    {
      "type": "Feature",
      "id": "iem-lsr-CAR-9",
      "properties": {
        "report_id": "iem-lsr-CAR-9",
        "report_type": "FREEZING RAIN",
        "event_category": "other",
        "valid_utc": "202604011153",
        "county_or_zone": "Penobscot",
        "city": "1 SE Millinocket",
        "state": "ME",
        "magnitude": 0.24,
        "magnitude_units": null,
        "source": "ASOS",
        "event_narrative": "ASOS station KMLT Millinocket."
      },
      "geometry": {
        "type": "Point",
        "coordinates": [
          -68.7,
          45.65
        ]
      }
    },
    {
      "type": "Feature",
      "id": "iem-lsr-CAR-10",
      "properties": {
        "report_id": "iem-lsr-CAR-10",
        "report_type": "FREEZING RAIN",
        "event_category": "other",
        "valid_utc": "202604011154",
        "county_or_zone": "Aroostook",
        "city": "Caribou",
        "state": "ME",
        "magnitude": 0.04,
        "magnitude_units": null,
        "source": "ASOS",
        "event_narrative": "ASOS station KCAR Caribou."
      },
      "geometry": {
        "type": "Point",
        "coordinates": [
          -68.02,
          46.87
        ]
      }
    },
    {
      "type": "Feature",
      "id": "iem-lsr-CAR-11",
      "properties": {
        "report_id": "iem-lsr-CAR-11",
        "report_type": "SLEET",
        "event_category": "winter",
        "valid_utc": "202604011200",
        "county_or_zone": "Aroostook",
        "city": "2 NE Fort Fairfield",
        "state": "ME",
        "magnitude": 0.4,
        "magnitude_units": null,
        "source": "NWS Employee",
        "event_narrative": null
      },
      "geometry": {
        "type": "Point",
        "coordinates": [
          -67.8,
          46.79
        ]
      }
    },
    {
      "type": "Feature",
      "id": "iem-lsr-CAR-12",
      "properties": {
        "report_id": "iem-lsr-CAR-12",
        "report_type": "SLEET",
        "event_category": "winter",
        "valid_utc": "202604011200",
        "county_or_zone": "Aroostook",
        "city": "1 W Presque Isle",
        "state": "ME",
        "magnitude": 0.7,
        "magnitude_units": null,
        "source": "NWS Employee",
        "event_narrative": null
      },
      "geometry": {
        "type": "Point",
        "coordinates": [
          -68.03,
          46.68
        ]
      }
    },
    {
      "type": "Feature",
      "id": "iem-lsr-CAR-13",
      "properties": {
        "report_id": "iem-lsr-CAR-13",
        "report_type": "SNOW",
        "event_category": "winter",
        "valid_utc": "202604011200",
        "county_or_zone": "Aroostook",
        "city": "1 SSW Van Buren",
        "state": "ME",
        "magnitude": 2.5,
        "magnitude_units": null,
        "source": "Public",
        "event_narrative": null
      },
      "geometry": {
        "type": "Point",
        "coordinates": [
          -67.94,
          47.15
        ]
      }
    },
    {
      "type": "Feature",
      "id": "iem-lsr-CAR-14",
      "properties": {
        "report_id": "iem-lsr-CAR-14",
        "report_type": "SNOW",
        "event_category": "winter",
        "valid_utc": "202604011200",
        "county_or_zone": "Aroostook",
        "city": "4 SW Stockholm",
        "state": "ME",
        "magnitude": 2.5,
        "magnitude_units": null,
        "source": "Public",
        "event_narrative": null
      },
      "geometry": {
        "type": "Point",
        "coordinates": [
          -68.21,
          47.0
        ]
      }
    },
    {
      "type": "Feature",
      "id": "iem-lsr-CAR-15",
      "properties": {
        "report_id": "iem-lsr-CAR-15",
        "report_type": "SNOW",
        "event_category": "winter",
        "valid_utc": "202604011200",
        "county_or_zone": "Aroostook",
        "city": "Grand Isle",
        "state": "ME",
        "magnitude": 2.5,
        "magnitude_units": null,
        "source": "Public",
        "event_narrative": null
      },
      "geometry": {
        "type": "Point",
        "coordinates": [
          -68.15,
          47.31
        ]
      }
    },
    {
      "type": "Feature",
      "id": "iem-lsr-CAR-16",
      "properties": {
        "report_id": "iem-lsr-CAR-16",
        "report_type": "SNOW",
        "event_category": "winter",
        "valid_utc": "202604011200",
        "county_or_zone": "Aroostook",
        "city": "Frenchville",
        "state": "ME",
        "magnitude": 3.0,
        "magnitude_units": null,
        "source": "Public",
        "event_narrative": null
      },
      "geometry": {
        "type": "Point",
        "coordinates": [
          -68.38,
          47.28
        ]
      }
    },
    {
      "type": "Feature",
      "id": "iem-lsr-CAR-17",
      "properties": {
        "report_id": "iem-lsr-CAR-17",
        "report_type": "SNOW",
        "event_category": "winter",
        "valid_utc": "202604011221",
        "county_or_zone": "Aroostook",
        "city": "1 SE Fort Kent",
        "state": "ME",
        "magnitude": 3.0,
        "magnitude_units": null,
        "source": "Trained Spotter",
        "event_narrative": null
      },
      "geometry": {
        "type": "Point",
        "coordinates": [
          -68.58,
          47.25
        ]
      }
    },
    {
      "type": "Feature",
      "id": "iem-lsr-CAR-18",
      "properties": {
        "report_id": "iem-lsr-CAR-18",
        "report_type": "SNOW",
        "event_category": "winter",
        "valid_utc": "202604011222",
        "county_or_zone": "Aroostook",
        "city": "3 NNE Caribou",
        "state": "ME",
        "magnitude": 1.9,
        "magnitude_units": null,
        "source": "NWS Employee",
        "event_narrative": "Mix of snow and sleet."
      },
      "geometry": {
        "type": "Point",
        "coordinates": [
          -67.99,
          46.9
        ]
      }
    },
    {
      "type": "Feature",
      "id": "iem-lsr-CAR-19",
      "properties": {
        "report_id": "iem-lsr-CAR-19",
        "report_type": "FREEZING RAIN",
        "event_category": "other",
        "valid_utc": "202604011225",
        "county_or_zone": "Piscataquis",
        "city": "4 E Greenville",
        "state": "ME",
        "magnitude": 0.2,
        "magnitude_units": null,
        "source": "Trained Spotter",
        "event_narrative": null
      },
      "geometry": {
        "type": "Point",
        "coordinates": [
          -69.51,
          45.47
        ]
      }
    },
    {
      "type": "Feature",
      "id": "iem-lsr-CAR-20",
      "properties": {
        "report_id": "iem-lsr-CAR-20",
        "report_type": "SNOW",
        "event_category": "winter",
        "valid_utc": "202604030830",
        "county_or_zone": "Aroostook",
        "city": "2 NNW Westfield",
        "state": "ME",
        "magnitude": 2.0,
        "magnitude_units": null,
        "source": "NWS Employee",
        "event_narrative": null
      },
      "geometry": {
        "type": "Point",
        "coordinates": [
          -67.93,
          46.6
        ]
      }
    },
    {
      "type": "Feature",
      "id": "iem-lsr-CAR-21",
      "properties": {
        "report_id": "iem-lsr-CAR-21",
        "report_type": "SNOW",
        "event_category": "winter",
        "valid_utc": "202604030948",
        "county_or_zone": "Aroostook",
        "city": "NWS Caribou",
        "state": "ME",
        "magnitude": 1.5,
        "magnitude_units": null,
        "source": "Official NWS Obs",
        "event_narrative": null
      },
      "geometry": {
        "type": "Point",
        "coordinates": [
          -68.01,
          46.87
        ]
      }
    },
    {
      "type": "Feature",
      "id": "iem-lsr-CAR-22",
      "properties": {
        "report_id": "iem-lsr-CAR-22",
        "report_type": "SNOW",
        "event_category": "winter",
        "valid_utc": "202604031000",
        "county_or_zone": "Aroostook",
        "city": "Fort Kent",
        "state": "ME",
        "magnitude": 3.0,
        "magnitude_units": null,
        "source": "Public",
        "event_narrative": null
      },
      "geometry": {
        "type": "Point",
        "coordinates": [
          -68.59,
          47.26
        ]
      }
    },
    {
      "type": "Feature",
      "id": "iem-lsr-CAR-23",
      "properties": {
        "report_id": "iem-lsr-CAR-23",
        "report_type": "SNOW",
        "event_category": "winter",
        "valid_utc": "202604031018",
        "county_or_zone": "Aroostook",
        "city": "2 SSE Castle Hill",
        "state": "ME",
        "magnitude": 2.7,
        "magnitude_units": null,
        "source": "NWS Employee",
        "event_narrative": null
      },
      "geometry": {
        "type": "Point",
        "coordinates": [
          -68.22,
          46.7
        ]
      }
    },
    {
      "type": "Feature",
      "id": "iem-lsr-CAR-24",
      "properties": {
        "report_id": "iem-lsr-CAR-24",
        "report_type": "SLEET",
        "event_category": "winter",
        "valid_utc": "202604031020",
        "county_or_zone": "Penobscot",
        "city": "1 NE Enfield",
        "state": "ME",
        "magnitude": 0.5,
        "magnitude_units": null,
        "source": "Trained Spotter",
        "event_narrative": null
      },
      "geometry": {
        "type": "Point",
        "coordinates": [
          -68.56,
          45.26
        ]
      }
    },
    {
      "type": "Feature",
      "id": "iem-lsr-CAR-25",
      "properties": {
        "report_id": "iem-lsr-CAR-25",
        "report_type": "SLEET",
        "event_category": "winter",
        "valid_utc": "202604031045",
        "county_or_zone": "Penobscot",
        "city": "2 SE Millinocket",
        "state": "ME",
        "magnitude": 0.5,
        "magnitude_units": null,
        "source": "CO-OP Observer",
        "event_narrative": null
      },
      "geometry": {
        "type": "Point",
        "coordinates": [
          -68.67,
          45.64
        ]
      }
    },
    {
      "type": "Feature",
      "id": "iem-lsr-CAR-26",
      "properties": {
        "report_id": "iem-lsr-CAR-26",
        "report_type": "FREEZING RAIN",
        "event_category": "other",
        "valid_utc": "202604031053",
        "county_or_zone": "Penobscot",
        "city": "2 W Bangor",
        "state": "ME",
        "magnitude": 0.04,
        "magnitude_units": null,
        "source": "ASOS",
        "event_narrative": null
      },
      "geometry": {
        "type": "Point",
        "coordinates": [
          -68.83,
          44.81
        ]
      }
    },
    {
      "type": "Feature",
      "id": "iem-lsr-CAR-27",
      "properties": {
        "report_id": "iem-lsr-CAR-27",
        "report_type": "SLEET",
        "event_category": "winter",
        "valid_utc": "202604031100",
        "county_or_zone": "Washington",
        "city": "Eastport",
        "state": "ME",
        "magnitude": 0.0,
        "magnitude_units": null,
        "source": "Trained Spotter",
        "event_narrative": null
      },
      "geometry": {
        "type": "Point",
        "coordinates": [
          -66.99,
          44.91
        ]
      }
    },
    {
      "type": "Feature",
      "id": "iem-lsr-CAR-28",
      "properties": {
        "report_id": "iem-lsr-CAR-28",
        "report_type": "SNOW",
        "event_category": "winter",
        "valid_utc": "202604031100",
        "county_or_zone": "Aroostook",
        "city": "NWS Caribou",
        "state": "ME",
        "magnitude": 2.2,
        "magnitude_units": null,
        "source": "Official NWS Obs",
        "event_narrative": "Just changed to sleet/ice pellets. 0.21 inch liquid."
      },
      "geometry": {
        "type": "Point",
        "coordinates": [
          -68.01,
          46.87
        ]
      }
    },
    {
      "type": "Feature",
      "id": "iem-lsr-CAR-29",
      "properties": {
        "report_id": "iem-lsr-CAR-29",
        "report_type": "SNOW",
        "event_category": "winter",
        "valid_utc": "202604031100",
        "county_or_zone": "Aroostook",
        "city": "Frenchville",
        "state": "ME",
        "magnitude": 3.0,
        "magnitude_units": null,
        "source": "Public",
        "event_narrative": null
      },
      "geometry": {
        "type": "Point",
        "coordinates": [
          -68.38,
          47.28
        ]
      }
    },
    {
      "type": "Feature",
      "id": "iem-lsr-CAR-30",
      "properties": {
        "report_id": "iem-lsr-CAR-30",
        "report_type": "SNOW",
        "event_category": "winter",
        "valid_utc": "202604031115",
        "county_or_zone": "Aroostook",
        "city": "1 WSW Madawaska",
        "state": "ME",
        "magnitude": 2.9,
        "magnitude_units": null,
        "source": "Trained Spotter",
        "event_narrative": null
      },
      "geometry": {
        "type": "Point",
        "coordinates": [
          -68.35,
          47.35
        ]
      }
    },
    {
      "type": "Feature",
      "id": "iem-lsr-CAR-31",
      "properties": {
        "report_id": "iem-lsr-CAR-31",
        "report_type": "SLEET",
        "event_category": "winter",
        "valid_utc": "202604031130",
        "county_or_zone": "Piscataquis",
        "city": "4 SW Dover-Foxcroft",
        "state": "ME",
        "magnitude": 0.4,
        "magnitude_units": null,
        "source": "CO-OP Observer",
        "event_narrative": null
      },
      "geometry": {
        "type": "Point",
        "coordinates": [
          -69.28,
          45.14
        ]
      }
    },
    {
      "type": "Feature",
      "id": "iem-lsr-CAR-32",
      "properties": {
        "report_id": "iem-lsr-CAR-32",
        "report_type": "SNOW",
        "event_category": "winter",
        "valid_utc": "202604031130",
        "county_or_zone": "Aroostook",
        "city": "Westfield",
        "state": "ME",
        "magnitude": 2.5,
        "magnitude_units": null,
        "source": "Public",
        "event_narrative": null
      },
      "geometry": {
        "type": "Point",
        "coordinates": [
          -67.92,
          46.57
        ]
      }
    },
    {
      "type": "Feature",
      "id": "iem-lsr-CAR-33",
      "properties": {
        "report_id": "iem-lsr-CAR-33",
        "report_type": "SNOW",
        "event_category": "winter",
        "valid_utc": "202604031134",
        "county_or_zone": "Aroostook",
        "city": "1 E Portage",
        "state": "ME",
        "magnitude": 2.6,
        "magnitude_units": null,
        "source": "Trained Spotter",
        "event_narrative": "Changed to sleet at 7 AM."
      },
      "geometry": {
        "type": "Point",
        "coordinates": [
          -68.47,
          46.76
        ]
      }
    },
    {
      "type": "Feature",
      "id": "iem-lsr-CAR-34",
      "properties": {
        "report_id": "iem-lsr-CAR-34",
        "report_type": "SNOW",
        "event_category": "winter",
        "valid_utc": "202604031145",
        "county_or_zone": "Aroostook",
        "city": "1 S Caribou",
        "state": "ME",
        "magnitude": 2.8,
        "magnitude_units": null,
        "source": "Public",
        "event_narrative": null
      },
      "geometry": {
        "type": "Point",
        "coordinates": [
          -68.01,
          46.85
        ]
      }
    },
    {
      "type": "Feature",
      "id": "iem-lsr-CAR-35",
      "properties": {
        "report_id": "iem-lsr-CAR-35",
        "report_type": "SLEET",
        "event_category": "winter",
        "valid_utc": "202604031147",
        "county_or_zone": "Penobscot",
        "city": "5 SW Lincoln",
        "state": "ME",
        "magnitude": 0.7,
        "magnitude_units": null,
        "source": "CO-OP Observer",
        "event_narrative": null
      },
      "geometry": {
        "type": "Point",
        "coordinates": [
          -68.58,
          45.32
        ]
      }
    },
    {
      "type": "Feature",
      "id": "iem-lsr-CAR-36",
      "properties": {
        "report_id": "iem-lsr-CAR-36",
        "report_type": "FREEZING RAIN",
        "event_category": "other",
        "valid_utc": "202604031148",
        "county_or_zone": "Penobscot",
        "city": "2 W Bangor",
        "state": "ME",
        "magnitude": 0.05,
        "magnitude_units": null,
        "source": "ASOS",
        "event_narrative": null
      },
      "geometry": {
        "type": "Point",
        "coordinates": [
          -68.83,
          44.81
        ]
      }
    },
    {
      "type": "Feature",
      "id": "iem-lsr-CAR-37",
      "properties": {
        "report_id": "iem-lsr-CAR-37",
        "report_type": "SNOW",
        "event_category": "winter",
        "valid_utc": "202604031150",
        "county_or_zone": "Piscataquis",
        "city": "Greenville",
        "state": "ME",
        "magnitude": 1.0,
        "magnitude_units": null,
        "source": "Public",
        "event_narrative": "Mostly sleet. Some freezing rain and snow."
      },
      "geometry": {
        "type": "Point",
        "coordinates": [
          -69.59,
          45.46
        ]
      }
    },
    {
      "type": "Feature",
      "id": "iem-lsr-CAR-38",
      "properties": {
        "report_id": "iem-lsr-CAR-38",
        "report_type": "SNOW",
        "event_category": "winter",
        "valid_utc": "202604031200",
        "county_or_zone": "Aroostook",
        "city": "NWS Caribou",
        "state": "ME",
        "magnitude": 2.5,
        "magnitude_units": null,
        "source": "Official NWS Obs",
        "event_narrative": "Mix of snow and sleet over the last hour. 0.28 inches liquid. 8.9:1 SLR."
      },
      "geometry": {
        "type": "Point",
        "coordinates": [
          -68.01,
          46.87
        ]
      }
    },
    {
      "type": "Feature",
      "id": "iem-lsr-CAR-39",
      "properties": {
        "report_id": "iem-lsr-CAR-39",
        "report_type": "SNOW",
        "event_category": "winter",
        "valid_utc": "202604031200",
        "county_or_zone": "Aroostook",
        "city": "3 NNE Caribou",
        "state": "ME",
        "magnitude": 3.2,
        "magnitude_units": null,
        "source": "NWS Employee",
        "event_narrative": "Snow and sleet."
      },
      "geometry": {
        "type": "Point",
        "coordinates": [
          -67.99,
          46.9
        ]
      }
    },
    {
      "type": "Feature",
      "id": "iem-lsr-CAR-40",
      "properties": {
        "report_id": "iem-lsr-CAR-40",
        "report_type": "SNOW",
        "event_category": "winter",
        "valid_utc": "202604031230",
        "county_or_zone": "Aroostook",
        "city": "1 SE Fort Kent",
        "state": "ME",
        "magnitude": 4.0,
        "magnitude_units": null,
        "source": "Trained Spotter",
        "event_narrative": "snow/sleet."
      },
      "geometry": {
        "type": "Point",
        "coordinates": [
          -68.58,
          47.25
        ]
      }
    },
    {
      "type": "Feature",
      "id": "iem-lsr-CAR-41",
      "properties": {
        "report_id": "iem-lsr-CAR-41",
        "report_type": "FREEZING RAIN",
        "event_category": "other",
        "valid_utc": "202604031240",
        "county_or_zone": "Washington",
        "city": "Eastport",
        "state": "ME",
        "magnitude": 0.12,
        "magnitude_units": null,
        "source": "Trained Spotter",
        "event_narrative": "Flat ice conversion from radial. Photo received via social media."
      },
      "geometry": {
        "type": "Point",
        "coordinates": [
          -66.99,
          44.91
        ]
      }
    },
    {
      "type": "Feature",
      "id": "iem-lsr-CAR-42",
      "properties": {
        "report_id": "iem-lsr-CAR-42",
        "report_type": "SNOW",
        "event_category": "winter",
        "valid_utc": "202604031253",
        "county_or_zone": "Aroostook",
        "city": "4 SSW Saint Francis",
        "state": "ME",
        "magnitude": 2.5,
        "magnitude_units": null,
        "source": "Public",
        "event_narrative": null
      },
      "geometry": {
        "type": "Point",
        "coordinates": [
          -68.93,
          47.12
        ]
      }
    },
    {
      "type": "Feature",
      "id": "iem-lsr-CAR-43",
      "properties": {
        "report_id": "iem-lsr-CAR-43",
        "report_type": "SLEET",
        "event_category": "winter",
        "valid_utc": "202604031351",
        "county_or_zone": "Aroostook",
        "city": "2 SSE Castle Hill",
        "state": "ME",
        "magnitude": 0.6,
        "magnitude_units": null,
        "source": "NWS Employee",
        "event_narrative": "still sleeting."
      },
      "geometry": {
        "type": "Point",
        "coordinates": [
          -68.22,
          46.7
        ]
      }
    },
    {
      "type": "Feature",
      "id": "iem-lsr-CAR-44",
      "properties": {
        "report_id": "iem-lsr-CAR-44",
        "report_type": "SNOW",
        "event_category": "winter",
        "valid_utc": "202604031400",
        "county_or_zone": "Aroostook",
        "city": "Van Buren",
        "state": "ME",
        "magnitude": 4.0,
        "magnitude_units": null,
        "source": "Public",
        "event_narrative": null
      },
      "geometry": {
        "type": "Point",
        "coordinates": [
          -67.93,
          47.16
        ]
      }
    },
    {
      "type": "Feature",
      "id": "iem-lsr-CAR-45",
      "properties": {
        "report_id": "iem-lsr-CAR-45",
        "report_type": "FREEZING RAIN",
        "event_category": "other",
        "valid_utc": "202604031453",
        "county_or_zone": "Penobscot",
        "city": "1 SE Millinocket",
        "state": "ME",
        "magnitude": 0.03,
        "magnitude_units": null,
        "source": "ASOS",
        "event_narrative": "ASOS station KMLT Millinocket."
      },
      "geometry": {
        "type": "Point",
        "coordinates": [
          -68.7,
          45.65
        ]
      }
    },
    {
      "type": "Feature",
      "id": "iem-lsr-CAR-46",
      "properties": {
        "report_id": "iem-lsr-CAR-46",
        "report_type": "FREEZING RAIN",
        "event_category": "other",
        "valid_utc": "202604031512",
        "county_or_zone": "Aroostook",
        "city": "2 ESE Houlton",
        "state": "ME",
        "magnitude": 0.01,
        "magnitude_units": null,
        "source": "ASOS",
        "event_narrative": "ASOS station KHUL 1 E Houlton."
      },
      "geometry": {
        "type": "Point",
        "coordinates": [
          -67.8,
          46.12
        ]
      }
    },
    {
      "type": "Feature",
      "id": "iem-lsr-CAR-47",
      "properties": {
        "report_id": "iem-lsr-CAR-47",
        "report_type": "SLEET",
        "event_category": "winter",
        "valid_utc": "202604031607",
        "county_or_zone": "Aroostook",
        "city": "2 SSE Castle Hill",
        "state": "ME",
        "magnitude": 1.2,
        "magnitude_units": null,
        "source": "NWS Employee",
        "event_narrative": "still sleeting."
      },
      "geometry": {
        "type": "Point",
        "coordinates": [
          -68.22,
          46.7
        ]
      }
    },
    {
      "type": "Feature",
      "id": "iem-lsr-CAR-48",
      "properties": {
        "report_id": "iem-lsr-CAR-48",
        "report_type": "SNOW",
        "event_category": "winter",
        "valid_utc": "202604031929",
        "county_or_zone": "Aroostook",
        "city": "1 W Presque Isle",
        "state": "ME",
        "magnitude": 3.3,
        "magnitude_units": null,
        "source": "NWS Employee",
        "event_narrative": "snow/sleet."
      },
      "geometry": {
        "type": "Point",
        "coordinates": [
          -68.03,
          46.68
        ]
      }
    },
    {
      "type": "Feature",
      "id": "iem-lsr-CAR-49",
      "properties": {
        "report_id": "iem-lsr-CAR-49",
        "report_type": "SNOW",
        "event_category": "winter",
        "valid_utc": "202604040000",
        "county_or_zone": "Aroostook",
        "city": "NWS Caribou",
        "state": "ME",
        "magnitude": 3.6,
        "magnitude_units": null,
        "source": "Official NWS Obs",
        "event_narrative": null
      },
      "geometry": {
        "type": "Point",
        "coordinates": [
          -68.01,
          46.87
        ]
      }
    },
    {
      "type": "Feature",
      "id": "iem-lsr-CAR-50",
      "properties": {
        "report_id": "iem-lsr-CAR-50",
        "report_type": "FREEZING RAIN",
        "event_category": "other",
        "valid_utc": "202604040253",
        "county_or_zone": "Aroostook",
        "city": "3 NNE Saint Agatha",
        "state": "ME",
        "magnitude": 0.24,
        "magnitude_units": null,
        "source": "ASOS",
        "event_narrative": "ASOS station KFVE Frenchville Airport."
      },
      "geometry": {
        "type": "Point",
        "coordinates": [
          -68.3,
          47.28
        ]
      }
    },
    {
      "type": "Feature",
      "id": "iem-lsr-CAR-51",
      "properties": {
        "report_id": "iem-lsr-CAR-51",
        "report_type": "SLEET",
        "event_category": "winter",
        "valid_utc": "202604050859",
        "county_or_zone": "Aroostook",
        "city": "1 WSW Madawaska",
        "state": "ME",
        "magnitude": 0.5,
        "magnitude_units": null,
        "source": "Trained Spotter",
        "event_narrative": "All sleet so far."
      },
      "geometry": {
        "type": "Point",
        "coordinates": [
          -68.35,
          47.35
        ]
      }
    },
    {
      "type": "Feature",
      "id": "iem-lsr-CAR-52",
      "properties": {
        "report_id": "iem-lsr-CAR-52",
        "report_type": "SLEET",
        "event_category": "winter",
        "valid_utc": "202604051030",
        "county_or_zone": "Aroostook",
        "city": "1 NW Presque Isle",
        "state": "ME",
        "magnitude": 0.4,
        "magnitude_units": null,
        "source": "NWS Employee",
        "event_narrative": null
      },
      "geometry": {
        "type": "Point",
        "coordinates": [
          -68.03,
          46.69
        ]
      }
    },
    {
      "type": "Feature",
      "id": "iem-lsr-CAR-53",
      "properties": {
        "report_id": "iem-lsr-CAR-53",
        "report_type": "SLEET",
        "event_category": "winter",
        "valid_utc": "202604051100",
        "county_or_zone": "Aroostook",
        "city": "Frenchville",
        "state": "ME",
        "magnitude": 0.5,
        "magnitude_units": null,
        "source": "Public",
        "event_narrative": null
      },
      "geometry": {
        "type": "Point",
        "coordinates": [
          -68.38,
          47.28
        ]
      }
    },
    {
      "type": "Feature",
      "id": "iem-lsr-CAR-54",
      "properties": {
        "report_id": "iem-lsr-CAR-54",
        "report_type": "SNOW",
        "event_category": "winter",
        "valid_utc": "202604051100",
        "county_or_zone": "Aroostook",
        "city": "2 SW Fort Kent",
        "state": "ME",
        "magnitude": 1.0,
        "magnitude_units": null,
        "source": "CO-OP Observer",
        "event_narrative": "CO-OP Observer station FISM1 Fort Kent 1 SE."
      },
      "geometry": {
        "type": "Point",
        "coordinates": [
          -68.61,
          47.24
        ]
      }
    },
    {
      "type": "Feature",
      "id": "iem-lsr-CAR-55",
      "properties": {
        "report_id": "iem-lsr-CAR-55",
        "report_type": "SLEET",
        "event_category": "winter",
        "valid_utc": "202604051106",
        "county_or_zone": "Aroostook",
        "city": "1 WSW Madawaska",
        "state": "ME",
        "magnitude": 1.0,
        "magnitude_units": null,
        "source": "Trained Spotter",
        "event_narrative": null
      },
      "geometry": {
        "type": "Point",
        "coordinates": [
          -68.35,
          47.35
        ]
      }
    },
    {
      "type": "Feature",
      "id": "iem-lsr-CAR-56",
      "properties": {
        "report_id": "iem-lsr-CAR-56",
        "report_type": "SLEET",
        "event_category": "winter",
        "valid_utc": "202604051106",
        "county_or_zone": "Aroostook",
        "city": "1 WSW Madawaska",
        "state": "ME",
        "magnitude": 1.5,
        "magnitude_units": null,
        "source": "Trained Spotter",
        "event_narrative": null
      },
      "geometry": {
        "type": "Point",
        "coordinates": [
          -68.35,
          47.35
        ]
      }
    },
    {
      "type": "Feature",
      "id": "iem-lsr-CAR-57",
      "properties": {
        "report_id": "iem-lsr-CAR-57",
        "report_type": "SLEET",
        "event_category": "winter",
        "valid_utc": "202604051140",
        "county_or_zone": "Aroostook",
        "city": "2 SSE Castle Hill",
        "state": "ME",
        "magnitude": 0.6,
        "magnitude_units": null,
        "source": "NWS Employee",
        "event_narrative": "Fell with 0.4 inches of snow."
      },
      "geometry": {
        "type": "Point",
        "coordinates": [
          -68.22,
          46.71
        ]
      }
    },
    {
      "type": "Feature",
      "id": "iem-lsr-CAR-58",
      "properties": {
        "report_id": "iem-lsr-CAR-58",
        "report_type": "SLEET",
        "event_category": "winter",
        "valid_utc": "202604051200",
        "county_or_zone": "Aroostook",
        "city": "1 N Caribou",
        "state": "ME",
        "magnitude": 0.8,
        "magnitude_units": null,
        "source": "Official NWS Obs",
        "event_narrative": null
      },
      "geometry": {
        "type": "Point",
        "coordinates": [
          -68.01,
          46.88
        ]
      }
    },
    {
      "type": "Feature",
      "id": "iem-lsr-CAR-59",
      "properties": {
        "report_id": "iem-lsr-CAR-59",
        "report_type": "SLEET",
        "event_category": "winter",
        "valid_utc": "202604051300",
        "county_or_zone": "Aroostook",
        "city": "1 NW Presque Isle",
        "state": "ME",
        "magnitude": 1.1,
        "magnitude_units": null,
        "source": "NWS Employee",
        "event_narrative": null
      },
      "geometry": {
        "type": "Point",
        "coordinates": [
          -68.03,
          46.69
        ]
      }
    },
    {
      "type": "Feature",
      "id": "iem-lsr-CAR-60",
      "properties": {
        "report_id": "iem-lsr-CAR-60",
        "report_type": "SLEET",
        "event_category": "winter",
        "valid_utc": "202604051400",
        "county_or_zone": "Aroostook",
        "city": "2 SSE Castle Hill",
        "state": "ME",
        "magnitude": 1.0,
        "magnitude_units": null,
        "source": "NWS Employee",
        "event_narrative": "Fell with 0.4 inches of snow."
      },
      "geometry": {
        "type": "Point",
        "coordinates": [
          -68.22,
          46.71
        ]
      }
    },
    {
      "type": "Feature",
      "id": "iem-lsr-CAR-61",
      "properties": {
        "report_id": "iem-lsr-CAR-61",
        "report_type": "SLEET",
        "event_category": "winter",
        "valid_utc": "202604051600",
        "county_or_zone": "Aroostook",
        "city": "3 NNE Caribou",
        "state": "ME",
        "magnitude": 1.0,
        "magnitude_units": null,
        "source": "NWS Employee",
        "event_narrative": null
      },
      "geometry": {
        "type": "Point",
        "coordinates": [
          -67.99,
          46.9
        ]
      }
    },
    {
      "type": "Feature",
      "id": "iem-lsr-CAR-62",
      "properties": {
        "report_id": "iem-lsr-CAR-62",
        "report_type": "SLEET",
        "event_category": "winter",
        "valid_utc": "202604051640",
        "county_or_zone": "Aroostook",
        "city": "1 NW Presque Isle",
        "state": "ME",
        "magnitude": 1.2,
        "magnitude_units": null,
        "source": "NWS Employee",
        "event_narrative": null
      },
      "geometry": {
        "type": "Point",
        "coordinates": [
          -68.03,
          46.69
        ]
      }
    },
    {
      "type": "Feature",
      "id": "iem-lsr-CAR-63",
      "properties": {
        "report_id": "iem-lsr-CAR-63",
        "report_type": "SNOW",
        "event_category": "winter",
        "valid_utc": "202604051730",
        "county_or_zone": "Aroostook",
        "city": "New Sweden",
        "state": "ME",
        "magnitude": 1.0,
        "magnitude_units": null,
        "source": "Public",
        "event_narrative": null
      },
      "geometry": {
        "type": "Point",
        "coordinates": [
          -68.12,
          46.94
        ]
      }
    },
    {
      "type": "Feature",
      "id": "iem-lsr-CAR-64",
      "properties": {
        "report_id": "iem-lsr-CAR-64",
        "report_type": "ICE JAM",
        "event_category": "winter",
        "valid_utc": "202604150245",
        "county_or_zone": "Aroostook",
        "city": "4 WSW Fort Kent",
        "state": "ME",
        "magnitude": null,
        "magnitude_units": null,
        "source": "Dept of Highways",
        "event_narrative": "Delayed Report. An ice jam approx 1mi long located near the Fort Kent / St. John Plantation town line broke free late Tuesday evening per Fort Kent Public Works. No flooding reported."
      },
      "geometry": {
        "type": "Point",
        "coordinates": [
          -68.67,
          47.24
        ]
      }
    }
  ]
}