{
  "type": "FeatureCollection",
  "metadata": {
    "schema_version": "0.2.4",
    "year": 2026,
    "month": 9,
    "wfo": "TOP",
    "start_utc": "2026-09-01T00:00:00Z",
    "end_utc": "2026-10-01T00:00:00Z",
    "generated_utc": "2026-09-12T12:51:13Z",
    "mode": "storm_data_prep",
    "public_release_status": "public-source-derived",
    "time_note": "Storm Data entry times should be reviewed in local Standard Time (ST), not daylight time. Candidate reports include standard_time_display.",
    "tornado_track_policy": "Tornado tracks must come from DAT. NCEI begin/end coordinates are not used as a tornado track substitute.",
    "source": "https://mesonet.agron.iastate.edu/cgi-bin/request/gis/lsr.py?wfo=TOP&sts=2026-09-01T00%3A00%3A00Z&ets=2026-10-01T00%3A00%3A00Z&fmt=csv"
  },
  "features": [
    {
      "type": "Feature",
      "id": "iem-lsr-TOP-1",
      "properties": {
        "report_id": "iem-lsr-TOP-1",
        "report_type": "HAIL",
        "event_category": "hail",
        "valid_utc": "202609062310",
        "standard_time_display": "2026-09-06 17:10 CST",
        "wfo": "TOP",
        "county_or_zone": "Jefferson",
        "city": "5 SE Winchester",
        "state": "KS",
        "magnitude": 1.0,
        "magnitude_units": null,
        "source": "Emergency Mngr",
        "event_narrative": null
      },
      "geometry": {
        "type": "Point",
        "coordinates": [
          -95.19,
          39.27
        ]
      }
    },
    {
      "type": "Feature",
      "id": "iem-lsr-TOP-2",
      "properties": {
        "report_id": "iem-lsr-TOP-2",
        "report_type": "TSTM WND GST",
        "event_category": "thunderstorm_wind",
        "valid_utc": "202609062310",
        "standard_time_display": "2026-09-06 17:10 CST",
        "wfo": "TOP",
        "county_or_zone": "Jefferson",
        "city": "5 SE Winchester",
        "state": "KS",
        "magnitude": 60.0,
        "magnitude_units": null,
        "source": "Emergency Mngr",
        "event_narrative": "Occurred with the same storm that produced 1 in hail and at the same time."
      },
      "geometry": {
        "type": "Point",
        "coordinates": [
          -95.19,
          39.27
        ]
      }
    },
    {
      "type": "Feature",
      "id": "iem-lsr-TOP-3",
      "properties": {
        "report_id": "iem-lsr-TOP-3",
        "report_type": "TSTM WND DMG",
        "event_category": "thunderstorm_wind",
        "valid_utc": "202609092115",
        "standard_time_display": "2026-09-09 15:15 CST",
        "wfo": "TOP",
        "county_or_zone": "Douglas",
        "city": "Baldwin City",
        "state": "KS",
        "magnitude": null,
        "magnitude_units": null,
        "source": "Emergency Mngr",
        "event_narrative": "DGCO EM send several images of downed trees around the town of Baldwin City. Consistent with very localized winds of 60-70 mph. Time estimated by Radar."
      },
      "geometry": {
        "type": "Point",
        "coordinates": [
          -95.19,
          38.78
        ]
      }
    },
    {
      "type": "Feature",
      "id": "iem-lsr-TOP-4",
      "properties": {
        "report_id": "iem-lsr-TOP-4",
        "report_type": "RAIN",
        "event_category": "other",
        "valid_utc": "202609101025",
        "standard_time_display": "2026-09-10 04:25 CST",
        "wfo": "TOP",
        "county_or_zone": "Lyon",
        "city": "1 NW Emporia",
        "state": "KS",
        "magnitude": 1.5,
        "magnitude_units": null,
        "source": "Broadcast Media",
        "event_narrative": "Still raining."
      },
      "geometry": {
        "type": "Point",
        "coordinates": [
          -96.2,
          38.41
        ]
      }
    },
    {
      "type": "Feature",
      "id": "iem-lsr-TOP-5",
      "properties": {
        "report_id": "iem-lsr-TOP-5",
        "report_type": "RAIN",
        "event_category": "other",
        "valid_utc": "202609101200",
        "standard_time_display": "2026-09-10 06:00 CST",
        "wfo": "TOP",
        "county_or_zone": "Shawnee",
        "city": "2 ESE Pauline",
        "state": "KS",
        "magnitude": 1.24,
        "magnitude_units": null,
        "source": "ASOS",
        "event_narrative": "24 hour rainfall at KFOE ASOS."
      },
      "geometry": {
        "type": "Point",
        "coordinates": [
          -95.67,
          38.95
        ]
      }
    },
    {
      "type": "Feature",
      "id": "iem-lsr-TOP-6",
      "properties": {
        "report_id": "iem-lsr-TOP-6",
        "report_type": "RAIN",
        "event_category": "other",
        "valid_utc": "202609101200",
        "standard_time_display": "2026-09-10 06:00 CST",
        "wfo": "TOP",
        "county_or_zone": "Douglas",
        "city": "4 NNE Lawrence",
        "state": "KS",
        "magnitude": 1.44,
        "magnitude_units": null,
        "source": "ASOS",
        "event_narrative": "24 hour rainfall at KLWC ASOS."
      },
      "geometry": {
        "type": "Point",
        "coordinates": [
          -95.22,
          39.01
        ]
      }
    },
    {
      "type": "Feature",
      "id": "iem-lsr-TOP-7",
      "properties": {
        "report_id": "iem-lsr-TOP-7",
        "report_type": "RAIN",
        "event_category": "other",
        "valid_utc": "202609101200",
        "standard_time_display": "2026-09-10 06:00 CST",
        "wfo": "TOP",
        "county_or_zone": "Lyon",
        "city": "5 NNW Olpe",
        "state": "KS",
        "magnitude": 2.0,
        "magnitude_units": null,
        "source": "ASOS",
        "event_narrative": "24 hour rainfall at KEMP ASOS."
      },
      "geometry": {
        "type": "Point",
        "coordinates": [
          -96.19,
          38.33
        ]
      }
    },
    {
      "type": "Feature",
      "id": "iem-lsr-TOP-8",
      "properties": {
        "report_id": "iem-lsr-TOP-8",
        "report_type": "RAIN",
        "event_category": "other",
        "valid_utc": "202609101300",
        "standard_time_display": "2026-09-10 07:00 CST",
        "wfo": "TOP",
        "county_or_zone": "Coffey",
        "city": "Gridley",
        "state": "KS",
        "magnitude": 2.58,
        "magnitude_units": null,
        "source": "CO-OP Observer",
        "event_narrative": "24 hour rainfall."
      },
      "geometry": {
        "type": "Point",
        "coordinates": [
          -95.88,
          38.1
        ]
      }
    },
    {
      "type": "Feature",
      "id": "iem-lsr-TOP-9",
      "properties": {
        "report_id": "iem-lsr-TOP-9",
        "report_type": "RAIN",
        "event_category": "other",
        "valid_utc": "202609101300",
        "standard_time_display": "2026-09-10 07:00 CST",
        "wfo": "TOP",
        "county_or_zone": "Anderson",
        "city": "Colony",
        "state": "KS",
        "magnitude": 2.65,
        "magnitude_units": null,
        "source": "CO-OP Observer",
        "event_narrative": "24 hour rainfall."
      },
      "geometry": {
        "type": "Point",
        "coordinates": [
          -95.36,
          38.07
        ]
      }
    },
    {
      "type": "Feature",
      "id": "iem-lsr-TOP-10",
      "properties": {
        "report_id": "iem-lsr-TOP-10",
        "report_type": "RAIN",
        "event_category": "other",
        "valid_utc": "202609101500",
        "standard_time_display": "2026-09-10 09:00 CST",
        "wfo": "TOP",
        "county_or_zone": "Anderson",
        "city": "5 N Westphalia",
        "state": "KS",
        "magnitude": 3.15,
        "magnitude_units": null,
        "source": "CO-OP Observer",
        "event_narrative": "24 hour rainfall."
      },
      "geometry": {
        "type": "Point",
        "coordinates": [
          -95.5,
          38.26
        ]
      }
    }
  ]
}