{
  "type": "FeatureCollection",
  "name": "cwa",
  "crs": {
    "type": "name",
    "properties": {
      "name": "urn:ogc:def:crs:OGC:1.3:CRS84"
    }
  },
  "features": [
    {
      "type": "Feature",
      "properties": {
        "WFO": "ALY",
        "CWA": "ALY",
        "STATE": "New York",
        "ST": "NY",
        "CITYSTATE": "Albany NY"
      },
      "geometry": {
        "type": "Polygon",
        "coordinates": [
          [
            [
              -74.28189849871671,
              44.1205139163842
            ],
            [
              -74.25609588621614,
              43.97031402617142
            ],
            [
              -74.33659362789359,
              43.92501068079832
            ],
            [
              -74.21399688734641,
              43.81111145013335
            ],
            [
              -74.20299529999306,
              43.81931304865833
            ],
            [
              -74.18930053718998,
              43.82391357375246
            ],
            [
              -74.17669677703458,
              43.82371139536468
            ],
            [
              -74.1688995361846,
              43.826313018930705
            ],
            [
              -74.16289520355076,
              43.825912476179894
            ],
            [
              -74.15689849896654,
              43.82901382422864
            ],
            [
              -74.1490936282683,
              43.8294105529547
            ],
            [
              -74.1390991224265,
              43.82601165791175
            ],
            [
              -74.13819885339433,
              43.81821060213764
            ],
            [
              -74.12400054938581,
              43.81341171268048
            ],
            [
              -74.1174926764458,
              43.80931091296833
            ],
            [
              -74.10859680220062,
              43.807910918554114
            ],
            [
              -74.10249328603629,
              43.805110930625005
            ],
            [
              -74.09169769289417,
              43.80441284177925
            ],
            [
              -74.08639526403016,
              43.80841064483542
            ],
            [
              -74.06959533735488,
              43.8016128538502
            ],
            [
              -74.0469970695591,
              43.79581069870483
            ],
            [
              -74.05030059779432,
              43.78901290861887
            ],
            [
              -74.04649353015225,
              43.78111267111291
            ],
            [
              -74.05469512957654,
              43.76821136486268
            ],
            [
              -74.05799865691245,
              43.74481201156516
            ],
            [
              -73.49549865713726,
              43.7993125922024
            ],
            [
              -73.3792953490011,
              43.80841064483542
            ],
            [
              -73.3767929080662,
              43.799713134953265
            ],
            [
              -73.3575973511368,
              43.78591155967081
            ],
            [
              -73.35419464116973,
              43.77611160326791
            ],
            [
              -73.35119628887759,
              43.772613524694464
            ],
            [
              -73.35139465324062,
              43.76951217664566
            ],
            [
              -73.36959838925424,
              43.74441146881429
            ],
            [
              -73.37079620438129,
              43.725410461323804
            ],
            [
              -73.38559723042778,
              43.71161270096542
            ],
            [
              -73.39550018258734,
              43.69691085844943
            ],
            [
              -73.4033966060685,
              43.69191360462918
            ],
            [
              -73.40499877887049,
              43.6885108946621
            ],
            [
              -73.40409851073764,
              43.681812286308
            ],
            [
              -73.41539764418587,
              43.653110504146525
            ],
            [
              -73.41919708287901,
              43.647712707575465
            ],
            [
              -73.42399597233623,
              43.64531326329654
            ],
            [
              -73.42659759500299,
              43.641811370698235
            ],
            [
              -73.42839813216801,
              43.63561248772618
            ],
            [
              -73.41790008512078,
              43.62251281711286
            ],
            [
              -73.42379760707388,
              43.611713409046615
            ],
            [
              -73.42159271223386,
              43.60381317064139
            ],
            [
              -73.4223938004335,
              43.601512908993584
            ],
            [
              -73.43109893836527,
              43.588111877361314
            ],
            [
              -73.42669677673484,
              43.58301162688514
            ],
            [
              -73.41979980491703,
              43.58091354362517
            ],
            [
              -73.40519714413284,
              43.571010589667026
            ],
            [
              -73.39579772958149,
              43.56871414204409
            ],
            [
              -73.3917999274247,
              43.570510864284984
            ],
            [
              -73.39049529981821,
              43.57391357425212
            ],
            [
              -73.38419342019017,
              43.575813293149
            ],
            [
              -73.38269805896823,
              43.578613281078106
            ],
            [
              -73.38459777786511,
              43.583312987904094
            ],
            [
              -73.38269805896823,
              43.58621215756506
            ],
            [
              -73.38639831503019,
              43.590312958176526
            ],
            [
              -73.38179779083532,
              43.59241104143649
            ],
            [
              -73.38299560506306,
              43.59621048012963
            ],
            [
              -73.37739563010422,
              43.59951400836485
            ],
            [
              -73.3725967424457,
              43.604812622304735
            ],
            [
              -73.37579345730217,
              43.61251068142286
            ],
            [
              -73.36999511708098,
              43.61961364655258
            ],
            [
              -73.37189483597786,
              43.624313354277945
            ],
            [
              -73.36639404275081,
              43.62351226787689
            ],
            [
              -73.35389709507484,
              43.62591171305519
            ],
            [
              -73.34959411607554,
              43.621711730711866
            ],
            [
              -73.3449935909814,
              43.62591171305519
            ],
            [
              -73.33799743743174,
              43.62571334779284
            ],
            [
              -73.33399963437557,
              43.62761306758904
            ],
            [
              -73.32679748481604,
              43.626213074074144
            ],
            [
              -73.31759643642636,
              43.62781143195207
            ],
            [
              -73.31189727793696,
              43.624511718640974
            ],
            [
              -73.30729675284283,
              43.62761306758904
            ],
            [
              -73.30469512927675,
              43.62731170657008
            ],
            [
              -73.30220031729078,
              43.62411117589011
            ],
            [
              -73.30289459211167,
              43.620410918928826
            ],
            [
              -73.30079650885176,
              43.61691284215402
            ],
            [
              -73.30159759525276,
              43.6103134164311
            ],
            [
              -73.29719543542097,
              43.60901260374874
            ],
            [
              -73.29189300475832,
              43.59991073619159
            ],
            [
              -73.29599762029392,
              43.587913512998284
            ],
            [
              -73.29249572859499,
              43.58461379968713
            ],
            [
              -73.29719543542097,
              43.57941055255503
            ],
            [
              -73.29509735126169,
              43.57781219467711
            ],
            [
              -73.28450012158328,
              43.57871246280996
            ],
            [
              -73.28169250470529,
              43.57791137730828
            ],
            [
              -73.28089904815249,
              43.57471084572899
            ],
            [
              -73.27069854720014,
              43.57221221881889
            ],
            [
              -73.2584991474177,
              43.564113616949896
            ],
            [
              -73.24889373775574,
              43.55231094409487
            ],
            [
              -73.24989318941914,
              43.54361343421266
            ],
            [
              -73.24779510525985,
              43.54281234691234
            ],
            [
              -73.24199676503866,
              43.534214019661306
            ],
            [
              -73.24239349376467,
              43.5298118589302
            ],
            [
              -73.24739837743311,
              43.522712707825235
            ],
            [
              -73.25459289624513,
              43.314212799181405
            ],
            [
              -73.09320068416423,
              43.30711364717712
            ],
            [
              -73.04819488488602,
              43.30721282980829
            ],
            [
              -72.98609924358516,
              43.30481338463005
            ],
            [
              -72.99129486086912,
              43.291610718260074
            ],
            [
              -72.97619628872769,
              43.291610718260074
            ],
            [
              -72.97589874443145,
              43.304412841879184
            ],
            [
              -72.8447952267183,
              43.30001068114808
            ],
            [
              -72.81990051309816,
              43.297912597888114
            ],
            [
              -72.81939697459069,
              43.25551223260351
            ],
            [
              -72.6851959228535,
              43.2224121091316
            ],
            [
              -72.5524978639852,
              43.23571395903201
            ],
            [
              -72.43379974386306,
              43.23371124257983
            ],
            [
              -72.44039916958599,
              43.21951293857131
            ],
            [
              -72.43809509301411,
              43.202011108126214
            ],
            [
              -72.45019531286334,
              43.192012787360284
            ],
            [
              -72.4435958862411,
              43.17981338487988
            ],
            [
              -72.45240020770336,
              43.1716117863549
            ],
            [
              -72.45179748476608,
              43.15391159064745
            ],
            [
              -72.45669555685441,
              43.14901351855906
            ],
            [
              -72.45669555685441,
              43.1463127141605
            ],
            [
              -72.45279693642942,
              43.139911651901286
            ],
            [
              -72.44089508094316,
              43.13521194507524
            ],
            [
              -72.44209289607028,
              43.13061141998111
            ],
            [
              -72.44049835221716,
              43.12711334230693
            ],
            [
              -72.43339538618807,
              43.12011337293387
            ],
            [
              -72.43389892559492,
              43.11121368376456
            ],
            [
              -72.44289398157196,
              43.10201263357624
            ],
            [
              -72.43509674072197,
              43.08471298241824
            ],
            [
              -72.44519805904315,
              43.07131195078597
            ],
            [
              -72.46699524043794,
              43.053611755078464
            ],
            [
              -72.46599578877459,
              43.047611237368756
            ],
            [
              -72.46089935322254,
              43.042213439898376
            ],
            [
              -72.46219635008146,
              43.02521133393594
            ],
            [
              -72.45559692435853,
              43.01671218931614
            ],
            [
              -72.44499969557944,
              43.01091384909489
            ],
            [
              -72.44419860827912,
              43.00571441688686
            ],
            [
              -72.4486923217932,
              43.0012130744239
            ],
            [
              -72.45579528782224,
              43.00131225615576
            ],
            [
              -72.46149444631163,
              42.99831390386362
            ],
            [
              -72.46529388410545,
              42.989311218038324
            ],
            [
              -72.46159362804349,
              42.98381042481128
            ],
            [
              -72.46499633801056,
              42.979412079004305
            ],
            [
              -72.47489929196871,
              42.97191238424921
            ],
            [
              -72.48099517828479,
              42.974014282433245
            ],
            [
              -72.49209594737005,
              42.967910767168235
            ],
            [
              -72.51799774340111,
              42.96321106034219
            ],
            [
              -72.53379821841298,
              42.95261383066378
            ],
            [
              -72.53429412797158,
              42.9499130253659
            ],
            [
              -72.52880096459279,
              42.94531250027171
            ],
            [
              -72.52659606885345,
              42.939613341782376
            ],
            [
              -72.52689361584765,
              42.927913665583276
            ],
            [
              -72.52420043859934,
              42.918510437007114
            ],
            [
              -72.52489471431954,
              42.915111541964166
            ],
            [
              -72.529098511587,
              42.91261291505401
            ],
            [
              -72.53089904785276,
              42.90951156610595
            ],
            [
              -72.53279876674964,
              42.896011352741766
            ],
            [
              -72.53999328556165,
              42.89001083413274
            ],
            [
              -72.55239868225334,
              42.88471221929353
            ],
            [
              -72.5553970354448,
              42.875213623010325
            ],
            [
              -72.55579376237222,
              42.86651229910336
            ],
            [
              -72.55419921941842,
              42.860511779595015
            ],
            [
              -72.55680084208518,
              42.852313995094846
            ],
            [
              -72.54850006092903,
              42.84141159127199
            ],
            [
              -72.54619598435715,
              42.82401275568418
            ],
            [
              -72.54019927977288,
              42.80551147537432
            ],
            [
              -72.51839447032853,
              42.79061126669666
            ],
            [
              -72.5091934201402,
              42.780612945930784
            ],
            [
              -72.50819397027544,
              42.776313781855606
            ],
            [
              -72.51519775457268,
              42.770812987729244
            ],
            [
              -72.51659393316345,
              42.76831054679434
            ],
            [
              -72.5158996583425,
              42.76581191988424
            ],
            [
              -72.51319885304457,
              42.76391220098736
            ],
            [
              -72.51009368917238,
              42.76401138271922
            ],
            [
              -72.50109863319534,
              42.767414092686295
            ],
            [
              -72.4981994644337,
              42.772613524894325
            ],
            [
              -72.49139404360017,
              42.772613524894325
            ],
            [
              -72.47739410395468,
              42.76071167030739
            ],
            [
              -72.47259521539684,
              42.74541091887886
            ],
            [
              -72.46339416520851,
              42.736213683614665
            ],
            [
              -72.45759582498732,
              42.726913451694486
            ],
            [
              -72.81309509316395,
              42.73671340899671
            ],
            [
              -73.02339935299773,
              42.74071121205287
            ],
            [
              -73.02349853472958,
              42.70261383116343
            ],
            [
              -72.99869537389236,
              42.70131301938039
            ],
            [
              -72.94929504373124,
              42.70431137077321
            ],
            [
              -72.95339965836752,
              42.6980133060693
            ],
            [
              -72.95169830293429,
              42.695510864235075
            ],
            [
              -72.95319366505555,
              42.69131088279107
            ],
            [
              -72.96589660604349,
              42.68781280511689
            ],
            [
              -72.97219848657085,
              42.689010620244005
            ],
            [
              -72.97519683796367,
              42.68761062582979
            ],
            [
              -72.97679901076572,
              42.68471145616883
            ],
            [
              -72.97609710699584,
              42.680313110361794
            ],
            [
              -72.97769927979789,
              42.67911148120993
            ],
            [
              -72.989295959341,
              42.6781120304459
            ],
            [
              -72.98909759497798,
              42.674510956115796
            ],
            [
              -72.99519348129411,
              42.673412322720594
            ],
            [
              -72.98769378743827,
              42.666713715265814
            ],
            [
              -72.97549438495787,
              42.661010741852294
            ],
            [
              -72.97029876677465,
              42.6638107297814
            ],
            [
              -72.96579742431163,
              42.66401290906856
            ],
            [
              -72.9614944462117,
              42.666912078729524
            ],
            [
              -72.95629882802848,
              42.66611099232847
            ],
            [
              -72.95499420222063,
              42.66191101088452
            ],
            [
              -72.95579528772231,
              42.65471267714838
            ],
            [
              -72.95339202941858,
              42.650913239354566
            ],
            [
              -72.95099639916447,
              42.64111328115308
            ],
            [
              -72.97899627755612,
              42.542110443342324
            ],
            [
              -72.96889495833562,
              42.5386123656682
            ],
            [
              -72.98559570327905,
              42.47101211531691
            ],
            [
              -72.98909759497798,
              42.463912964212
            ],
            [
              -73.0116958618745,
              42.37981033328032
            ],
            [
              -73.06589508059346,
              42.38901138256932
            ],
            [
              -73.0685958858914,
              42.380611419681316
            ],
            [
              -73.06289672920065,
              42.32901382362911
            ],
            [
              -73.0459976198942,
              42.32011032133431
            ],
            [
              -73.03989410372986,
              42.318912506207255
            ],
            [
              -73.03929901243941,
              42.31511306841344
            ],
            [
              -73.0298995969888,
              42.30861282262373
            ],
            [
              -73.01949310272448,
              42.308712006154224
            ],
            [
              -73.01689910900666,
              42.3106117250511
            ],
            [
              -73.01039886501559,
              42.3051109309248
            ],
            [
              -73.00629425037931,
              42.305912018225115
            ],
            [
              -73.0008010861012,
              42.312213897853155
            ],
            [
              -73.00099945136355,
              42.283611298322796
            ],
            [
              -73.00179290791635,
              42.251113892392254
            ],
            [
              -73.00449371321423,
              42.250713347842805
            ],
            [
              -73.00569915818954,
              42.24691391004899
            ],
            [
              -73.03489685080899,
              42.14441299366479
            ],
            [
              -73.07099914599377,
              42.14791107223823
            ],
            [
              -73.06879425025443,
              42.130512238449114
            ],
            [
              -73.0612945563986,
              42.11781310968729
            ],
            [
              -73.07209777759033,
              42.11181259197758
            ],
            [
              -73.0721969602215,
              42.10781097399729
            ],
            [
              -73.07469940205573,
              42.10571289073738
            ],
            [
              -73.07299804842114,
              42.094112396270134
            ],
            [
              -73.05949401923357,
              42.06841278132487
            ],
            [
              -73.05870056178145,
              42.06611251787842
            ],
            [
              -73.06029510473525,
              42.06201171906565
            ],
            [
              -73.05479431240758,
              42.058410644735545
            ],
            [
              -73.05379486074418,
              42.05571365436174
            ],
            [
              -73.05649566694143,
              42.04751205403812
            ],
            [
              -73.05239868215341,
              42.03991317665185
            ],
            [
              -73.00869750958236,
              42.03881073013116
            ],
            [
              -73.0294952393138,
              41.96661376960981
            ],
            [
              -72.88710021979927,
              41.97311401360088
            ],
            [
              -72.91529846255395,
              41.89681243934268
            ],
            [
              -72.9398956300792,
              41.89531326319661
            ],
            [
              -72.94259643627646,
              41.88931274368821
            ],
            [
              -72.95349884009937,
              41.85421371509091
            ],
            [
              -72.95379638709358,
              41.848613739232746
            ],
            [
              -72.95189666729732,
              41.843612671387746
            ],
            [
              -72.94319915831448,
              41.84321212773756
            ],
            [
              -72.93649292011213,
              41.84011077878944
            ],
            [
              -72.948997499435,
              41.80641174280771
            ],
            [
              -73.01669311479537,
              41.79821014428279
            ],
            [
              -72.98309326234414,
              41.639610291182066
            ],
            [
              -73.00349426334952,
              41.62891387887248
            ],
            [
              -73.02149963410079,
              41.6271133417074
            ],
            [
              -73.01869964617168,
              41.61411285372526
            ],
            [
              -73.03549957284696,
              41.61521148712046
            ],
            [
              -73.05889892614448,
              41.60651016231418
            ],
            [
              -73.06039428736642,
              41.60041046107398
            ],
            [
              -73.05769348116917,
              41.589111327625744
            ],
            [
              -73.0825958264362,
              41.58621215796478
            ],
            [
              -73.09309387258412,
              41.57041168205353
            ],
            [
              -73.1451950071438,
              41.55781173682226
            ],
            [
              -73.16419982955847,
              41.55711364707719
            ],
            [
              -73.15579986577114,
              41.515312195201716
            ],
            [
              -73.15829467775711,
              41.5139122007875
            ],
            [
              -73.20420074516824,
              41.508510590191634
            ],
            [
              -73.24279785233898,
              41.51301193175527
            ],
            [
              -73.31900024396606,
              41.505111694249365
            ],
            [
              -73.32669830308419,
              41.4929122917689
            ],
            [
              -73.32519531291331,
              41.489913940376084
            ],
            [
              -73.32659912135233,
              41.48591232329511
            ],
            [
              -73.31279754606987,
              41.468711852969705
            ],
            [
              -73.32679748481604,
              41.4695129393707
            ],
            [
              -73.33669280982525,
              41.47571182324208
            ],
            [
              -73.34769439717866,
              41.47811126662174
            ],
            [
              -73.37489318827,
              41.48911285397509
            ],
            [
              -73.3767929080662,
              41.499011993009105
            ],
            [
              -73.37899780290621,
              41.50191116267007
            ],
            [
              -73.3877944954196,
              41.50591278065036
            ],
            [
              -73.3874969484254,
              41.5091133122296
            ],
            [
              -73.38499450659117,
              41.51181030260341
            ],
            [
              -73.38769531278842,
              41.51451110790134
            ],
            [
              -73.43009948760124,
              41.49821090660811
            ],
            [
              -73.44149780278133,
              41.49131393389098
            ],
            [
              -73.4448928829002,
              41.509212493961456
            ],
            [
              -73.44279480143888,
              41.51411056515053
            ],
            [
              -73.44539642320632,
              41.523712158089666
            ],
            [
              -73.49729919430234,
              41.63821411079266
            ],
            [
              -73.4953994754054,
              41.64341354390001
            ],
            [
              -73.48509979182188,
              41.647212981693826
            ],
            [
              -73.49439239479312,
              41.661010742052156
            ],
            [
              -73.49959564192528,
              41.65951156590609
            ],
            [
              -73.51020050055263,
              41.66641235444666
            ],
            [
              -73.51739502026396,
              41.66641235444666
            ],
            [
              -73.53019714388307,
              41.52621078499976
            ],
            [
              -73.57969665487667,
              41.52641296428692
            ],
            [
              -73.6923980713139,
              41.51231384290958
            ],
            [
              -73.93379974356327,
              41.48831176757409
            ],
            [
              -73.98119354234808,
              41.4385108946621
            ],
            [
              -73.98659515384321,
              41.44491195692132
            ],
            [
              -73.99779510555965,
              41.452213287313384
            ],
            [
              -73.99979400618838,
              41.45581054671942
            ],
            [
              -73.99759674119662,
              41.47511291522892
            ],
            [
              -73.99839782759761,
              41.4820137019708
            ],
            [
              -73.99499511673122,
              41.497310637575936
            ],
            [
              -73.9978942872915,
              41.505710602262525
            ],
            [
              -73.9968948374268,
              41.5206108091416
            ],
            [
              -73.98759460370798,
              41.543212890962195
            ],
            [
              -73.97589874333232,
              41.55721282970836
            ],
            [
              -73.96479797424706,
              41.565311431577356
            ],
            [
              -73.95939636185255,
              41.571510315448734
            ],
            [
              -73.95439910893168,
              41.582611083634674
            ],
            [
              -73.9533004764358,
              41.59011077928909
            ],
            [
              -74.05349731444949,
              41.58061218300588
            ],
            [
              -74.05500030641895,
              41.58771133411085
            ],
            [
              -74.0691986077295,
              41.6054115298183
            ],
            [
              -74.09059906039829,
              41.599510192941125
            ],
            [
              -74.09349823005925,
              41.60411071803526
            ],
            [
              -74.09739685138356,
              41.60671234070202
            ],
            [
              -74.13449859643305,
              41.615711211603184
            ],
            [
              -74.12739563040395,
              41.58271026626585
            ],
            [
              -74.18499755909005,
              41.59401321373889
            ],
            [
              -74.18759918175681,
              41.59091186479077
            ],
            [
              -74.25159454285381,
              41.6054115298183
            ],
            [
              -74.25019836426304,
              41.62931060759854
            ],
            [
              -74.26419830300927,
              41.632610320909635
            ],
            [
              -74.26799774260172,
              41.629013062402976
            ],
            [
              -74.27939605688249,
              41.62561035243584
            ],
            [
              -74.29039764423584,
              41.61911392157026
            ],
            [
              -74.29570007309985,
              41.619213104201435
            ],
            [
              -74.30419922041767,
              41.615112305388664
            ],
            [
              -74.30679321323618,
              41.60911178588026
            ],
            [
              -74.31079864524122,
              41.611213684064296
            ],
            [
              -74.31999969542954,
              41.60311126727123
            ],
            [
              -74.32959747344461,
              41.60141372676213
            ],
            [
              -74.33079528857166,
              41.59741210878184
            ],
            [
              -74.34129333471958,
              41.59521102886595
            ],
            [
              -74.34479522731783,
              41.59761047404419
            ],
            [
              -74.3502960214442,
              41.59831237781401
            ],
            [
              -74.35319519020584,
              41.592811583687705
            ],
            [
              -74.35519409173389,
              41.591911315554796
            ],
            [
              -74.36709594722015,
              41.59141159107213
            ],
            [
              -74.3646926880171,
              41.59481048611508
            ],
            [
              -74.37399291993728,
              41.59631347718528
            ],
            [
              -74.37549591100748,
              41.59881210319605
            ],
            [
              -74.37549591100748,
              41.60351181002204
            ],
            [
              -74.3783950815677,
              41.60631179795115
            ],
            [
              -74.38079833987143,
              41.61321258469309
            ],
            [
              -74.38589477542348,
              41.61871337881945
            ],
            [
              -74.38689422618756,
              41.627212524338574
            ],
            [
              -74.39089965819261,
              41.632610320909635
            ],
            [
              -74.39450073342209,
              41.64351272563181
            ],
            [
              -74.57509612958268,
              41.74521255471569
            ],
            [
              -74.5438995363345,
              41.77851104704723
            ],
            [
              -74.48729705841248,
              41.83481216395023
            ],
            [
              -74.45369720506193,
              41.875411986673896
            ],
            [
              -74.62549591140714,
              41.95151138344363
            ],
            [
              -74.78069305544011,
              42.01641082759767
            ],
            [
              -74.55359649698073,
              42.12151336664863
            ],
            [
              -74.53099823008421,
              42.146511077824016
            ],
            [
              -74.50439453118264,
              42.14501190167795
            ],
            [
              -74.45079803540096,
              42.168811797726335
            ],
            [
              -74.53729247986399,
              42.20141220121218
            ],
            [
              -74.42819976940382,
              42.34911346361548
            ],
            [
              -74.6180953983839,
              42.42411041296526
            ],
            [
              -74.71169280977529,
              42.517211913898734
            ],
            [
              -74.67199707010866,
              42.564910888626684
            ],
            [
              -74.63079834027116,
              42.627712250420075
            ],
            [
              -74.63459777806497,
              42.647811890406444
            ],
            [
              -74.66739654321583,
              42.75041198762318
            ],
            [
              -74.66809845058299,
              42.76441192636935
            ],
            [
              -74.6651992800227,
              42.79241180386174
            ],
            [
              -74.651100160444,
              42.82331085191436
            ],
            [
              -74.64959716757517,
              42.82981109590543
            ],
            [
              -74.87879943824345,
              42.89831161528889
            ],
            [
              -74.89229583758282,
              42.83311080921652
            ],
            [
              -74.90670013400393,
              42.82511138907938
            ],
            [
              -74.98419952428856,
              42.85981368984994
            ],
            [
              -75.10099792641313,
              42.908412932710746
            ],
            [
              -75.13889312711609,
              42.86071395888217
            ],
            [
              -75.21019744935279,
              42.85671234090188
            ],
            [
              -75.21219634998153,
              42.87991332983637
            ],
            [
              -75.20229339602338,
              42.880611419581385
            ],
            [
              -75.20189666729732,
              42.88361358589833
            ],
            [
              -75.21909332359797,
              43.05251312258258
            ],
            [
              -75.1586990359317,
              43.11751174936779
            ],
            [
              -75.06979370241737,
              43.22721099858876
            ],
            [
              -75.07299804712216,
              43.2285118103718
            ],
            [
              -75.07319641058587,
              43.23111343393788
            ],
            [
              -75.07069397055028,
              43.233413695585625
            ],
            [
              -75.07279968275913,
              43.23481368999984
            ],
            [
              -75.08519744870324,
              43.23051071189991
            ],
            [
              -75.09469604498645,
              43.23131179830091
            ],
            [
              -75.10579681407165,
              43.23631286614591
            ],
            [
              -75.11979675281788,
              43.240112304839045
            ],
            [
              -75.12309265120484,
              43.24231338475494
            ],
            [
              -75.12399292023701,
              43.24621200607925
            ],
            [
              -75.1372985841623,
              43.24961090112225
            ],
            [
              -75.14389800988522,
              43.25481033333028
            ],
            [
              -75.15079498440099,
              43.24721145594401
            ],
            [
              -75.15359497143072,
              43.258312225029215
            ],
            [
              -75.15899658202659,
              43.255710602362456
            ],
            [
              -75.16209411605058,
              43.25791168227835
            ],
            [
              -75.16220092942933,
              43.26121139469018
            ],
            [
              -75.15819549742423,
              43.2662124634345
            ],
            [
              -75.15839385998862,
              43.27331161543873
            ],
            [
              -75.15459442129549,
              43.27811050399663
            ],
            [
              -75.15189361599755,
              43.286712646171736
            ],
            [
              -75.14769744857836,
              43.29111099197877
            ],
            [
              -75.1460952757763,
              43.30011367780406
            ],
            [
              -75.14749908421533,
              43.30431366014733
            ],
            [
              -75.13079834017122,
              43.30711364717712
            ],
            [
              -75.1241989144483,
              43.30661392179513
            ],
            [
              -75.1204986565877,
              43.304412841879184
            ],
            [
              -75.1171951292518,
              43.311111450233284
            ],
            [
              -75.10699462919877,
              43.31261062637935
            ],
            [
              -75.09949493444361,
              43.324813842884566
            ],
            [
              -75.09249877909537,
              43.32401275558425
            ],
            [
              -75.0922927857834,
              43.32771301344485
            ],
            [
              -75.09009551989232,
              43.3292121886916
            ],
            [
              -75.07659912055294,
              43.33071136483767
            ],
            [
              -75.0970993041895,
              43.493511200281716
            ],
            [
              -75.1112976072987,
              43.625110625754814
            ],
            [
              -75.14159393331335,
              43.87511062615454
            ],
            [
              -75.16999816938,
              44.09671402033581
            ],
            [
              -75.0627975461698,
              44.05041122419868
            ],
            [
              -74.52499389655105,
              44.10021209711067
            ],
            [
              -74.28189849871671,
              44.1205139163842
            ]
          ]
        ]
      }
    }
  ],
  "metadata": {
    "schema_version": "0.1.0",
    "wfo": "ALY",
    "layer": "cwa",
    "source": "https://www.weather.gov/source/gis/Shapefiles/WSOM/w_16ap26.zip",
    "public_release_status": "public-source-derived"
  }
}