{
  "type": "FeatureCollection",
  "metadata": {
    "schema_version": "0.2.4",
    "year": 2026,
    "month": 9,
    "wfo": "MQT",
    "start_utc": "2026-09-01T00:00:00Z",
    "end_utc": "2026-10-01T00:00:00Z",
    "generated_utc": "2026-09-26T13:45:02Z",
    "mode": "storm_data_prep",
    "public_release_status": "public-source-derived",
    "time_note": "Storm Data entry times should be reviewed in local Standard Time (ST), not daylight time. Candidate reports include standard_time_display.",
    "tornado_track_policy": "Tornado tracks must come from DAT. NCEI begin/end coordinates are not used as a tornado track substitute.",
    "source": "https://mesonet.agron.iastate.edu/cgi-bin/request/gis/lsr.py?wfo=MQT&sts=2026-09-01T00%3A00%3A00Z&ets=2026-10-01T00%3A00%3A00Z&fmt=csv"
  },
  "features": [
    {
      "type": "Feature",
      "id": "iem-lsr-MQT-1",
      "properties": {
        "report_id": "iem-lsr-MQT-1",
        "report_type": "RAIN",
        "event_category": "other",
        "valid_utc": "202609041032",
        "standard_time_display": "2026-09-04 04:32 CST",
        "wfo": "MQT",
        "county_or_zone": "Alger",
        "city": "7 N Round Lake",
        "state": "MI",
        "magnitude": 1.18,
        "magnitude_units": null,
        "source": "Mesonet",
        "event_narrative": "The period of the Rain report was 24 hours."
      },
      "geometry": {
        "type": "Point",
        "coordinates": [
          -86.71,
          46.25
        ]
      }
    },
    {
      "type": "Feature",
      "id": "iem-lsr-MQT-2",
      "properties": {
        "report_id": "iem-lsr-MQT-2",
        "report_type": "RAIN",
        "event_category": "other",
        "valid_utc": "202609041125",
        "standard_time_display": "2026-09-04 05:25 CST",
        "wfo": "MQT",
        "county_or_zone": "Gogebic",
        "city": "Wakefield",
        "state": "MI",
        "magnitude": 0.98,
        "magnitude_units": null,
        "source": "Mesonet",
        "event_narrative": "The period of the Rain report was 25 hours."
      },
      "geometry": {
        "type": "Point",
        "coordinates": [
          -89.94,
          46.47
        ]
      }
    },
    {
      "type": "Feature",
      "id": "iem-lsr-MQT-3",
      "properties": {
        "report_id": "iem-lsr-MQT-3",
        "report_type": "RAIN",
        "event_category": "other",
        "valid_utc": "202609041125",
        "standard_time_display": "2026-09-04 05:25 CST",
        "wfo": "MQT",
        "county_or_zone": "Baraga",
        "city": "1 SE L'Anse",
        "state": "MI",
        "magnitude": 1.11,
        "magnitude_units": null,
        "source": "Mesonet",
        "event_narrative": "The period of the Rain report was 25 hours."
      },
      "geometry": {
        "type": "Point",
        "coordinates": [
          -88.43,
          46.75
        ]
      }
    },
    {
      "type": "Feature",
      "id": "iem-lsr-MQT-4",
      "properties": {
        "report_id": "iem-lsr-MQT-4",
        "report_type": "RAIN",
        "event_category": "other",
        "valid_utc": "202609041125",
        "standard_time_display": "2026-09-04 05:25 CST",
        "wfo": "MQT",
        "county_or_zone": "Baraga",
        "city": "2 S Baraga",
        "state": "MI",
        "magnitude": 1.39,
        "magnitude_units": null,
        "source": "Mesonet",
        "event_narrative": "The period of the Rain report was 25 hours."
      },
      "geometry": {
        "type": "Point",
        "coordinates": [
          -88.5,
          46.74
        ]
      }
    },
    {
      "type": "Feature",
      "id": "iem-lsr-MQT-5",
      "properties": {
        "report_id": "iem-lsr-MQT-5",
        "report_type": "RAIN",
        "event_category": "other",
        "valid_utc": "202609041125",
        "standard_time_display": "2026-09-04 05:25 CST",
        "wfo": "MQT",
        "county_or_zone": "Marquette",
        "city": "4 SW Shot Point",
        "state": "MI",
        "magnitude": 2.25,
        "magnitude_units": null,
        "source": "Mesonet",
        "event_narrative": "The period of the Rain report was 25 hours."
      },
      "geometry": {
        "type": "Point",
        "coordinates": [
          -87.24,
          46.47
        ]
      }
    },
    {
      "type": "Feature",
      "id": "iem-lsr-MQT-6",
      "properties": {
        "report_id": "iem-lsr-MQT-6",
        "report_type": "RAIN",
        "event_category": "other",
        "valid_utc": "202609041127",
        "standard_time_display": "2026-09-04 05:27 CST",
        "wfo": "MQT",
        "county_or_zone": "Marquette",
        "city": "3 W Shot Point",
        "state": "MI",
        "magnitude": 1.6,
        "magnitude_units": null,
        "source": "Mesonet",
        "event_narrative": "The period of the Rain report was 25 hours."
      },
      "geometry": {
        "type": "Point",
        "coordinates": [
          -87.23,
          46.49
        ]
      }
    },
    {
      "type": "Feature",
      "id": "iem-lsr-MQT-7",
      "properties": {
        "report_id": "iem-lsr-MQT-7",
        "report_type": "RAIN",
        "event_category": "other",
        "valid_utc": "202609041128",
        "standard_time_display": "2026-09-04 05:28 CST",
        "wfo": "MQT",
        "county_or_zone": "Marquette",
        "city": "1 SE Trowbridge Park",
        "state": "MI",
        "magnitude": 1.1,
        "magnitude_units": null,
        "source": "Mesonet",
        "event_narrative": "The period of the Rain report was 25 hours."
      },
      "geometry": {
        "type": "Point",
        "coordinates": [
          -87.42,
          46.54
        ]
      }
    },
    {
      "type": "Feature",
      "id": "iem-lsr-MQT-8",
      "properties": {
        "report_id": "iem-lsr-MQT-8",
        "report_type": "RAIN",
        "event_category": "other",
        "valid_utc": "202609041130",
        "standard_time_display": "2026-09-04 05:30 CST",
        "wfo": "MQT",
        "county_or_zone": "Baraga",
        "city": "0 NE Baraga",
        "state": "MI",
        "magnitude": 1.02,
        "magnitude_units": null,
        "source": "Mesonet",
        "event_narrative": "The period of the Rain report was 25 hours."
      },
      "geometry": {
        "type": "Point",
        "coordinates": [
          -88.49,
          46.78
        ]
      }
    },
    {
      "type": "Feature",
      "id": "iem-lsr-MQT-9",
      "properties": {
        "report_id": "iem-lsr-MQT-9",
        "report_type": "RAIN",
        "event_category": "other",
        "valid_utc": "202609041130",
        "standard_time_display": "2026-09-04 05:30 CST",
        "wfo": "MQT",
        "county_or_zone": "Marquette",
        "city": "2 S Marquette",
        "state": "MI",
        "magnitude": 1.23,
        "magnitude_units": null,
        "source": "Mesonet",
        "event_narrative": "The period of the Rain report was 25 hours."
      },
      "geometry": {
        "type": "Point",
        "coordinates": [
          -87.4,
          46.52
        ]
      }
    },
    {
      "type": "Feature",
      "id": "iem-lsr-MQT-10",
      "properties": {
        "report_id": "iem-lsr-MQT-10",
        "report_type": "RAIN",
        "event_category": "other",
        "valid_utc": "202609041132",
        "standard_time_display": "2026-09-04 05:32 CST",
        "wfo": "MQT",
        "county_or_zone": "Marquette",
        "city": "0 N Harvey",
        "state": "MI",
        "magnitude": 2.1,
        "magnitude_units": null,
        "source": "Mesonet",
        "event_narrative": "The period of the Rain report was 25 hours."
      },
      "geometry": {
        "type": "Point",
        "coordinates": [
          -87.35,
          46.49
        ]
      }
    },
    {
      "type": "Feature",
      "id": "iem-lsr-MQT-11",
      "properties": {
        "report_id": "iem-lsr-MQT-11",
        "report_type": "RAIN",
        "event_category": "other",
        "valid_utc": "202609041200",
        "standard_time_display": "2026-09-04 06:00 CST",
        "wfo": "MQT",
        "county_or_zone": "Gogebic",
        "city": "6 N Hurley",
        "state": "MI",
        "magnitude": 1.17,
        "magnitude_units": null,
        "source": "Mesonet",
        "event_narrative": "The period of the Rain report was 24 hours."
      },
      "geometry": {
        "type": "Point",
        "coordinates": [
          -90.19,
          46.53
        ]
      }
    },
    {
      "type": "Feature",
      "id": "iem-lsr-MQT-12",
      "properties": {
        "report_id": "iem-lsr-MQT-12",
        "report_type": "RAIN",
        "event_category": "other",
        "valid_utc": "202609041213",
        "standard_time_display": "2026-09-04 06:13 CST",
        "wfo": "MQT",
        "county_or_zone": "Baraga",
        "city": "3 SW Pelkie",
        "state": "MI",
        "magnitude": 1.13,
        "magnitude_units": null,
        "source": "Mesonet",
        "event_narrative": "The period of the Rain report was 26 hours."
      },
      "geometry": {
        "type": "Point",
        "coordinates": [
          -88.66,
          46.78
        ]
      }
    },
    {
      "type": "Feature",
      "id": "iem-lsr-MQT-13",
      "properties": {
        "report_id": "iem-lsr-MQT-13",
        "report_type": "RAIN",
        "event_category": "other",
        "valid_utc": "202609041219",
        "standard_time_display": "2026-09-04 06:19 CST",
        "wfo": "MQT",
        "county_or_zone": "Marquette",
        "city": "3 W Shot Point",
        "state": "MI",
        "magnitude": 1.62,
        "magnitude_units": null,
        "source": "Mesonet",
        "event_narrative": "The period of the Rain report was 26 hours."
      },
      "geometry": {
        "type": "Point",
        "coordinates": [
          -87.23,
          46.49
        ]
      }
    },
    {
      "type": "Feature",
      "id": "iem-lsr-MQT-14",
      "properties": {
        "report_id": "iem-lsr-MQT-14",
        "report_type": "RAIN",
        "event_category": "other",
        "valid_utc": "202609041232",
        "standard_time_display": "2026-09-04 06:32 CST",
        "wfo": "MQT",
        "county_or_zone": "Alger",
        "city": "7 N Round Lake",
        "state": "MI",
        "magnitude": 1.18,
        "magnitude_units": null,
        "source": "Mesonet",
        "event_narrative": "The period of the Rain report was 26 hours."
      },
      "geometry": {
        "type": "Point",
        "coordinates": [
          -86.71,
          46.25
        ]
      }
    },
    {
      "type": "Feature",
      "id": "iem-lsr-MQT-15",
      "properties": {
        "report_id": "iem-lsr-MQT-15",
        "report_type": "RAIN",
        "event_category": "other",
        "valid_utc": "202609041257",
        "standard_time_display": "2026-09-04 06:57 CST",
        "wfo": "MQT",
        "county_or_zone": "Marquette",
        "city": "1 N Trowbridge Park",
        "state": "MI",
        "magnitude": 1.06,
        "magnitude_units": null,
        "source": "Mesonet",
        "event_narrative": "The period of the Rain report was 26 hours."
      },
      "geometry": {
        "type": "Point",
        "coordinates": [
          -87.43,
          46.56
        ]
      }
    },
    {
      "type": "Feature",
      "id": "iem-lsr-MQT-16",
      "properties": {
        "report_id": "iem-lsr-MQT-16",
        "report_type": "RAIN",
        "event_category": "other",
        "valid_utc": "202609041300",
        "standard_time_display": "2026-09-04 07:00 CST",
        "wfo": "MQT",
        "county_or_zone": "Baraga",
        "city": "0 NE Baraga",
        "state": "MI",
        "magnitude": 1.12,
        "magnitude_units": null,
        "source": "Mesonet",
        "event_narrative": "The period of the Rain report was 26 hours."
      },
      "geometry": {
        "type": "Point",
        "coordinates": [
          -88.49,
          46.78
        ]
      }
    },
    {
      "type": "Feature",
      "id": "iem-lsr-MQT-17",
      "properties": {
        "report_id": "iem-lsr-MQT-17",
        "report_type": "RAIN",
        "event_category": "other",
        "valid_utc": "202609041300",
        "standard_time_display": "2026-09-04 07:00 CST",
        "wfo": "MQT",
        "county_or_zone": "Baraga",
        "city": "Baraga",
        "state": "MI",
        "magnitude": 1.12,
        "magnitude_units": null,
        "source": "Mesonet",
        "event_narrative": "The period of the Rain report was 26 hours."
      },
      "geometry": {
        "type": "Point",
        "coordinates": [
          -88.49,
          46.78
        ]
      }
    },
    {
      "type": "Feature",
      "id": "iem-lsr-MQT-18",
      "properties": {
        "report_id": "iem-lsr-MQT-18",
        "report_type": "RAIN",
        "event_category": "other",
        "valid_utc": "202609041304",
        "standard_time_display": "2026-09-04 07:04 CST",
        "wfo": "MQT",
        "county_or_zone": "Marquette",
        "city": "1 SE Trowbridge Park",
        "state": "MI",
        "magnitude": 1.22,
        "magnitude_units": null,
        "source": "Mesonet",
        "event_narrative": "The period of the Rain report was 27 hours."
      },
      "geometry": {
        "type": "Point",
        "coordinates": [
          -87.42,
          46.54
        ]
      }
    },
    {
      "type": "Feature",
      "id": "iem-lsr-MQT-19",
      "properties": {
        "report_id": "iem-lsr-MQT-19",
        "report_type": "RAIN",
        "event_category": "other",
        "valid_utc": "202609041305",
        "standard_time_display": "2026-09-04 07:05 CST",
        "wfo": "MQT",
        "county_or_zone": "Gogebic",
        "city": "0 SW Wakefield",
        "state": "MI",
        "magnitude": 0.98,
        "magnitude_units": null,
        "source": "Mesonet",
        "event_narrative": "The period of the Rain report was 27 hours."
      },
      "geometry": {
        "type": "Point",
        "coordinates": [
          -89.94,
          46.47
        ]
      }
    },
    {
      "type": "Feature",
      "id": "iem-lsr-MQT-20",
      "properties": {
        "report_id": "iem-lsr-MQT-20",
        "report_type": "RAIN",
        "event_category": "other",
        "valid_utc": "202609041305",
        "standard_time_display": "2026-09-04 07:05 CST",
        "wfo": "MQT",
        "county_or_zone": "Marquette",
        "city": "0 W Trowbridge Park",
        "state": "MI",
        "magnitude": 1.08,
        "magnitude_units": null,
        "source": "Mesonet",
        "event_narrative": "The period of the Rain report was 27 hours."
      },
      "geometry": {
        "type": "Point",
        "coordinates": [
          -87.44,
          46.55
        ]
      }
    },
    {
      "type": "Feature",
      "id": "iem-lsr-MQT-21",
      "properties": {
        "report_id": "iem-lsr-MQT-21",
        "report_type": "RAIN",
        "event_category": "other",
        "valid_utc": "202609041305",
        "standard_time_display": "2026-09-04 07:05 CST",
        "wfo": "MQT",
        "county_or_zone": "Marquette",
        "city": "Trowbridge Park",
        "state": "MI",
        "magnitude": 1.08,
        "magnitude_units": null,
        "source": "Mesonet",
        "event_narrative": "The period of the Rain report was 27 hours."
      },
      "geometry": {
        "type": "Point",
        "coordinates": [
          -87.44,
          46.55
        ]
      }
    },
    {
      "type": "Feature",
      "id": "iem-lsr-MQT-22",
      "properties": {
        "report_id": "iem-lsr-MQT-22",
        "report_type": "RAIN",
        "event_category": "other",
        "valid_utc": "202609041305",
        "standard_time_display": "2026-09-04 07:05 CST",
        "wfo": "MQT",
        "county_or_zone": "Baraga",
        "city": "1 SE L'Anse",
        "state": "MI",
        "magnitude": 1.25,
        "magnitude_units": null,
        "source": "Mesonet",
        "event_narrative": "The period of the Rain report was 27 hours."
      },
      "geometry": {
        "type": "Point",
        "coordinates": [
          -88.43,
          46.75
        ]
      }
    },
    {
      "type": "Feature",
      "id": "iem-lsr-MQT-23",
      "properties": {
        "report_id": "iem-lsr-MQT-23",
        "report_type": "RAIN",
        "event_category": "other",
        "valid_utc": "202609041305",
        "standard_time_display": "2026-09-04 07:05 CST",
        "wfo": "MQT",
        "county_or_zone": "Marquette",
        "city": "2 S Marquette",
        "state": "MI",
        "magnitude": 1.37,
        "magnitude_units": null,
        "source": "Mesonet",
        "event_narrative": "The period of the Rain report was 27 hours."
      },
      "geometry": {
        "type": "Point",
        "coordinates": [
          -87.4,
          46.52
        ]
      }
    },
    {
      "type": "Feature",
      "id": "iem-lsr-MQT-24",
      "properties": {
        "report_id": "iem-lsr-MQT-24",
        "report_type": "RAIN",
        "event_category": "other",
        "valid_utc": "202609041308",
        "standard_time_display": "2026-09-04 07:08 CST",
        "wfo": "MQT",
        "county_or_zone": "Marquette",
        "city": "0 N Harvey",
        "state": "MI",
        "magnitude": 2.26,
        "magnitude_units": null,
        "source": "Mesonet",
        "event_narrative": "The period of the Rain report was 27 hours."
      },
      "geometry": {
        "type": "Point",
        "coordinates": [
          -87.35,
          46.49
        ]
      }
    },
    {
      "type": "Feature",
      "id": "iem-lsr-MQT-25",
      "properties": {
        "report_id": "iem-lsr-MQT-25",
        "report_type": "RAIN",
        "event_category": "other",
        "valid_utc": "202609041308",
        "standard_time_display": "2026-09-04 07:08 CST",
        "wfo": "MQT",
        "county_or_zone": "Marquette",
        "city": "Harvey",
        "state": "MI",
        "magnitude": 2.26,
        "magnitude_units": null,
        "source": "Mesonet",
        "event_narrative": "The period of the Rain report was 27 hours."
      },
      "geometry": {
        "type": "Point",
        "coordinates": [
          -87.35,
          46.49
        ]
      }
    },
    {
      "type": "Feature",
      "id": "iem-lsr-MQT-26",
      "properties": {
        "report_id": "iem-lsr-MQT-26",
        "report_type": "RAIN",
        "event_category": "other",
        "valid_utc": "202609041310",
        "standard_time_display": "2026-09-04 07:10 CST",
        "wfo": "MQT",
        "county_or_zone": "Marquette",
        "city": "4 SW Shot Point",
        "state": "MI",
        "magnitude": 2.39,
        "magnitude_units": null,
        "source": "Mesonet",
        "event_narrative": "The period of the Rain report was 27 hours."
      },
      "geometry": {
        "type": "Point",
        "coordinates": [
          -87.24,
          46.47
        ]
      }
    },
    {
      "type": "Feature",
      "id": "iem-lsr-MQT-27",
      "properties": {
        "report_id": "iem-lsr-MQT-27",
        "report_type": "RAIN",
        "event_category": "other",
        "valid_utc": "202609041311",
        "standard_time_display": "2026-09-04 07:11 CST",
        "wfo": "MQT",
        "county_or_zone": "Baraga",
        "city": "2 S Baraga",
        "state": "MI",
        "magnitude": 1.53,
        "magnitude_units": null,
        "source": "Mesonet",
        "event_narrative": "The period of the Rain report was 27 hours."
      },
      "geometry": {
        "type": "Point",
        "coordinates": [
          -88.5,
          46.74
        ]
      }
    },
    {
      "type": "Feature",
      "id": "iem-lsr-MQT-28",
      "properties": {
        "report_id": "iem-lsr-MQT-28",
        "report_type": "RAIN",
        "event_category": "other",
        "valid_utc": "202609041312",
        "standard_time_display": "2026-09-04 07:12 CST",
        "wfo": "MQT",
        "county_or_zone": "Marquette",
        "city": "1 N Trowbridge Park",
        "state": "MI",
        "magnitude": 1.08,
        "magnitude_units": null,
        "source": "Mesonet",
        "event_narrative": "The period of the Rain report was 27 hours."
      },
      "geometry": {
        "type": "Point",
        "coordinates": [
          -87.43,
          46.56
        ]
      }
    },
    {
      "type": "Feature",
      "id": "iem-lsr-MQT-29",
      "properties": {
        "report_id": "iem-lsr-MQT-29",
        "report_type": "NON-TSTM WND GST",
        "event_category": "thunderstorm_wind",
        "valid_utc": "202609091611",
        "standard_time_display": "2026-09-09 10:11 CST",
        "wfo": "MQT",
        "county_or_zone": "Gogebic",
        "city": "4 NW Bessemer",
        "state": "MI",
        "magnitude": 37.0,
        "magnitude_units": null,
        "source": "AWOS",
        "event_narrative": "AWOS station KIWD Ironwood Airport."
      },
      "geometry": {
        "type": "Point",
        "coordinates": [
          -90.12,
          46.52
        ]
      }
    },
    {
      "type": "Feature",
      "id": "iem-lsr-MQT-30",
      "properties": {
        "report_id": "iem-lsr-MQT-30",
        "report_type": "NON-TSTM WND GST",
        "event_category": "thunderstorm_wind",
        "valid_utc": "202609091640",
        "standard_time_display": "2026-09-09 10:40 CST",
        "wfo": "MQT",
        "county_or_zone": "LSZ246",
        "city": "5 NE Arnheim",
        "state": "MI",
        "magnitude": 40.0,
        "magnitude_units": null,
        "source": "Buoy",
        "event_narrative": "Buoy 45025 5 ENE Arnheim."
      },
      "geometry": {
        "type": "Point",
        "coordinates": [
          -88.4,
          46.97
        ]
      }
    },
    {
      "type": "Feature",
      "id": "iem-lsr-MQT-31",
      "properties": {
        "report_id": "iem-lsr-MQT-31",
        "report_type": "NON-TSTM WND GST",
        "event_category": "thunderstorm_wind",
        "valid_utc": "202609091712",
        "standard_time_display": "2026-09-09 11:12 CST",
        "wfo": "MQT",
        "county_or_zone": "Marquette",
        "city": "1 ESE Marquette",
        "state": "MI",
        "magnitude": 41.0,
        "magnitude_units": null,
        "source": "Buoy",
        "event_narrative": "Buoy station MCGM4 Marquette Coast Guard."
      },
      "geometry": {
        "type": "Point",
        "coordinates": [
          -87.38,
          46.55
        ]
      }
    },
    {
      "type": "Feature",
      "id": "iem-lsr-MQT-32",
      "properties": {
        "report_id": "iem-lsr-MQT-32",
        "report_type": "NON-TSTM WND GST",
        "event_category": "thunderstorm_wind",
        "valid_utc": "202609091719",
        "standard_time_display": "2026-09-09 11:19 CST",
        "wfo": "MQT",
        "county_or_zone": "Houghton",
        "city": "Houghton Co Airport",
        "state": "MI",
        "magnitude": 56.0,
        "magnitude_units": null,
        "source": "ASOS",
        "event_narrative": "ASOS station KCMX Houghton Co. Airport."
      },
      "geometry": {
        "type": "Point",
        "coordinates": [
          -88.48,
          47.17
        ]
      }
    },
    {
      "type": "Feature",
      "id": "iem-lsr-MQT-33",
      "properties": {
        "report_id": "iem-lsr-MQT-33",
        "report_type": "NON-TSTM WND GST",
        "event_category": "thunderstorm_wind",
        "valid_utc": "202609091740",
        "standard_time_display": "2026-09-09 11:40 CST",
        "wfo": "MQT",
        "county_or_zone": "LSZ243",
        "city": "4 W Portage Canal",
        "state": "MI",
        "magnitude": 40.0,
        "magnitude_units": null,
        "source": "Buoy",
        "event_narrative": "Mesonet station 45023 3 W Portage Canal."
      },
      "geometry": {
        "type": "Point",
        "coordinates": [
          -88.61,
          47.27
        ]
      }
    },
    {
      "type": "Feature",
      "id": "iem-lsr-MQT-34",
      "properties": {
        "report_id": "iem-lsr-MQT-34",
        "report_type": "NON-TSTM WND GST",
        "event_category": "thunderstorm_wind",
        "valid_utc": "202609091818",
        "standard_time_display": "2026-09-09 12:18 CST",
        "wfo": "MQT",
        "county_or_zone": "Keweenaw",
        "city": "Copper Harbor",
        "state": "MI",
        "magnitude": 46.0,
        "magnitude_units": null,
        "source": "ASOS",
        "event_narrative": "ASOS station KP59 Copper Harbor."
      },
      "geometry": {
        "type": "Point",
        "coordinates": [
          -87.88,
          47.47
        ]
      }
    },
    {
      "type": "Feature",
      "id": "iem-lsr-MQT-35",
      "properties": {
        "report_id": "iem-lsr-MQT-35",
        "report_type": "NON-TSTM WND GST",
        "event_category": "thunderstorm_wind",
        "valid_utc": "202609091847",
        "standard_time_display": "2026-09-09 12:47 CST",
        "wfo": "MQT",
        "county_or_zone": "Marquette",
        "city": "5 S Sands",
        "state": "MI",
        "magnitude": 35.0,
        "magnitude_units": null,
        "source": "AWOS",
        "event_narrative": "AWOS station KSAW Sawyer Airport."
      },
      "geometry": {
        "type": "Point",
        "coordinates": [
          -87.4,
          46.35
        ]
      }
    },
    {
      "type": "Feature",
      "id": "iem-lsr-MQT-36",
      "properties": {
        "report_id": "iem-lsr-MQT-36",
        "report_type": "NON-TSTM WND GST",
        "event_category": "thunderstorm_wind",
        "valid_utc": "202609091900",
        "standard_time_display": "2026-09-09 13:00 CST",
        "wfo": "MQT",
        "county_or_zone": "LSZ263",
        "city": "3 W Rock of Ages",
        "state": "MI",
        "magnitude": 37.0,
        "magnitude_units": null,
        "source": "C-Man Station",
        "event_narrative": "Mesonet station ROAM4 Rock of Ages Lighthouse."
      },
      "geometry": {
        "type": "Point",
        "coordinates": [
          -89.31,
          47.87
        ]
      }
    },
    {
      "type": "Feature",
      "id": "iem-lsr-MQT-37",
      "properties": {
        "report_id": "iem-lsr-MQT-37",
        "report_type": "NON-TSTM WND GST",
        "event_category": "thunderstorm_wind",
        "valid_utc": "202609091913",
        "standard_time_display": "2026-09-09 13:13 CST",
        "wfo": "MQT",
        "county_or_zone": "Marquette",
        "city": "8 S Mountain Lake",
        "state": "MI",
        "magnitude": 37.0,
        "magnitude_units": null,
        "source": "Mesonet",
        "event_narrative": "Mesonet station YDPM4 Yellow Dog."
      },
      "geometry": {
        "type": "Point",
        "coordinates": [
          -87.89,
          46.75
        ]
      }
    },
    {
      "type": "Feature",
      "id": "iem-lsr-MQT-38",
      "properties": {
        "report_id": "iem-lsr-MQT-38",
        "report_type": "NON-TSTM WND GST",
        "event_category": "thunderstorm_wind",
        "valid_utc": "202609091922",
        "standard_time_display": "2026-09-09 13:22 CST",
        "wfo": "MQT",
        "county_or_zone": "Dickinson",
        "city": "1 NW Kingsford",
        "state": "MI",
        "magnitude": 39.0,
        "magnitude_units": null,
        "source": "ASOS",
        "event_narrative": "ASOS station KIMT Ford Airport."
      },
      "geometry": {
        "type": "Point",
        "coordinates": [
          -88.12,
          45.82
        ]
      }
    },
    {
      "type": "Feature",
      "id": "iem-lsr-MQT-39",
      "properties": {
        "report_id": "iem-lsr-MQT-39",
        "report_type": "NON-TSTM WND GST",
        "event_category": "thunderstorm_wind",
        "valid_utc": "202609091924",
        "standard_time_display": "2026-09-09 13:24 CST",
        "wfo": "MQT",
        "county_or_zone": "Keweenaw",
        "city": "34 ENE Rock of Ages",
        "state": "MI",
        "magnitude": 42.0,
        "magnitude_units": null,
        "source": "Mesonet",
        "event_narrative": "Mesonet station OJIM4 Ojibway - Isle Royale."
      },
      "geometry": {
        "type": "Point",
        "coordinates": [
          -88.61,
          48.11
        ]
      }
    },
    {
      "type": "Feature",
      "id": "iem-lsr-MQT-40",
      "properties": {
        "report_id": "iem-lsr-MQT-40",
        "report_type": "NON-TSTM WND GST",
        "event_category": "thunderstorm_wind",
        "valid_utc": "202609092000",
        "standard_time_display": "2026-09-09 14:00 CST",
        "wfo": "MQT",
        "county_or_zone": "LSZ264",
        "city": "48 ENE Rock of Ages",
        "state": "MI",
        "magnitude": 39.0,
        "magnitude_units": null,
        "source": "C-Man Station",
        "event_narrative": "Mesonet station PILM4 Passage Island Lighthouse."
      },
      "geometry": {
        "type": "Point",
        "coordinates": [
          -88.37,
          48.22
        ]
      }
    },
    {
      "type": "Feature",
      "id": "iem-lsr-MQT-41",
      "properties": {
        "report_id": "iem-lsr-MQT-41",
        "report_type": "NON-TSTM WND GST",
        "event_category": "thunderstorm_wind",
        "valid_utc": "202609092015",
        "standard_time_display": "2026-09-09 14:15 CST",
        "wfo": "MQT",
        "county_or_zone": "Delta",
        "city": "Escanaba",
        "state": "MI",
        "magnitude": 38.0,
        "magnitude_units": null,
        "source": "AWOS",
        "event_narrative": "AWOS station KESC Delta Co. Airport."
      },
      "geometry": {
        "type": "Point",
        "coordinates": [
          -87.08,
          45.75
        ]
      }
    },
    {
      "type": "Feature",
      "id": "iem-lsr-MQT-42",
      "properties": {
        "report_id": "iem-lsr-MQT-42",
        "report_type": "NON-TSTM WND GST",
        "event_category": "thunderstorm_wind",
        "valid_utc": "202609092020",
        "standard_time_display": "2026-09-09 14:20 CST",
        "wfo": "MQT",
        "county_or_zone": "LSZ266",
        "city": "54 ENE Keweenaw Point",
        "state": "MI",
        "magnitude": 43.0,
        "magnitude_units": null,
        "source": "Buoy",
        "event_narrative": "Mesonet station 45004 East Superior Buoy."
      },
      "geometry": {
        "type": "Point",
        "coordinates": [
          -86.58,
          47.59
        ]
      }
    },
    {
      "type": "Feature",
      "id": "iem-lsr-MQT-43",
      "properties": {
        "report_id": "iem-lsr-MQT-43",
        "report_type": "NON-TSTM WND GST",
        "event_category": "thunderstorm_wind",
        "valid_utc": "202609092033",
        "standard_time_display": "2026-09-09 14:33 CST",
        "wfo": "MQT",
        "county_or_zone": "Houghton",
        "city": "5 ESE Chassell",
        "state": "MI",
        "magnitude": 35.0,
        "magnitude_units": null,
        "source": "Mesonet",
        "event_narrative": "Mesonet station AX462 LAKE LINDEN."
      },
      "geometry": {
        "type": "Point",
        "coordinates": [
          -88.43,
          47.01
        ]
      }
    },
    {
      "type": "Feature",
      "id": "iem-lsr-MQT-44",
      "properties": {
        "report_id": "iem-lsr-MQT-44",
        "report_type": "NON-TSTM WND GST",
        "event_category": "thunderstorm_wind",
        "valid_utc": "202609092050",
        "standard_time_display": "2026-09-09 14:50 CST",
        "wfo": "MQT",
        "county_or_zone": "LSZ266",
        "city": "28 ESE Keweenaw Point",
        "state": "MI",
        "magnitude": 47.0,
        "magnitude_units": null,
        "source": "C-Man Station",
        "event_narrative": "Mesonet station STDM4 33 NNE Granite Island."
      },
      "geometry": {
        "type": "Point",
        "coordinates": [
          -87.22,
          47.18
        ]
      }
    },
    {
      "type": "Feature",
      "id": "iem-lsr-MQT-45",
      "properties": {
        "report_id": "iem-lsr-MQT-45",
        "report_type": "NON-TSTM WND GST",
        "event_category": "thunderstorm_wind",
        "valid_utc": "202609092100",
        "standard_time_display": "2026-09-09 15:00 CST",
        "wfo": "MQT",
        "county_or_zone": "Marquette",
        "city": "Granite Island",
        "state": "MI",
        "magnitude": 54.0,
        "magnitude_units": null,
        "source": "Mesonet",
        "event_narrative": "54 MPH gust measured at Granite Island."
      },
      "geometry": {
        "type": "Point",
        "coordinates": [
          -87.41,
          46.72
        ]
      }
    },
    {
      "type": "Feature",
      "id": "iem-lsr-MQT-46",
      "properties": {
        "report_id": "iem-lsr-MQT-46",
        "report_type": "NON-TSTM WND GST",
        "event_category": "thunderstorm_wind",
        "valid_utc": "202609092150",
        "standard_time_display": "2026-09-09 15:50 CST",
        "wfo": "MQT",
        "county_or_zone": "LSZ251",
        "city": "1 NNE Grand Marais",
        "state": "MI",
        "magnitude": 49.0,
        "magnitude_units": null,
        "source": "C-Man Station",
        "event_narrative": "Mesonet station GRMM4 Grand Marais."
      },
      "geometry": {
        "type": "Point",
        "coordinates": [
          -85.97,
          46.68
        ]
      }
    },
    {
      "type": "Feature",
      "id": "iem-lsr-MQT-47",
      "properties": {
        "report_id": "iem-lsr-MQT-47",
        "report_type": "NON-TSTM WND GST",
        "event_category": "thunderstorm_wind",
        "valid_utc": "202609100030",
        "standard_time_display": "2026-09-09 18:30 CST",
        "wfo": "MQT",
        "county_or_zone": "LSZ264",
        "city": "41 N Copper Harbor",
        "state": "MI",
        "magnitude": 36.0,
        "magnitude_units": null,
        "source": "C-Man Station",
        "event_narrative": "Mesonet station 45001 41 N Copper Harbor."
      },
      "geometry": {
        "type": "Point",
        "coordinates": [
          -87.79,
          48.06
        ]
      }
    },
    {
      "type": "Feature",
      "id": "iem-lsr-MQT-48",
      "properties": {
        "report_id": "iem-lsr-MQT-48",
        "report_type": "NON-TSTM WND GST",
        "event_category": "thunderstorm_wind",
        "valid_utc": "202609131604",
        "standard_time_display": "2026-09-13 10:04 CST",
        "wfo": "MQT",
        "county_or_zone": "Gogebic",
        "city": "1 W Wakefield",
        "state": "MI",
        "magnitude": 39.0,
        "magnitude_units": null,
        "source": "Department of Hig",
        "event_narrative": "Wakefield MDOT Station MC026."
      },
      "geometry": {
        "type": "Point",
        "coordinates": [
          -89.95,
          46.48
        ]
      }
    },
    {
      "type": "Feature",
      "id": "iem-lsr-MQT-49",
      "properties": {
        "report_id": "iem-lsr-MQT-49",
        "report_type": "NON-TSTM WND GST",
        "event_category": "thunderstorm_wind",
        "valid_utc": "202609131610",
        "standard_time_display": "2026-09-13 10:10 CST",
        "wfo": "MQT",
        "county_or_zone": null,
        "city": "Stannard Rock",
        "state": "La",
        "magnitude": 40.0,
        "magnitude_units": null,
        "source": "Mesonet",
        "event_narrative": "Mesonet Station STDM4 33 NNE Granite Island."
      },
      "geometry": {
        "type": "Point",
        "coordinates": [
          -87.22,
          47.18
        ]
      }
    },
    {
      "type": "Feature",
      "id": "iem-lsr-MQT-50",
      "properties": {
        "report_id": "iem-lsr-MQT-50",
        "report_type": "NON-TSTM WND GST",
        "event_category": "thunderstorm_wind",
        "valid_utc": "202609131700",
        "standard_time_display": "2026-09-13 11:00 CST",
        "wfo": "MQT",
        "county_or_zone": null,
        "city": "1 N Grand Marais",
        "state": "La",
        "magnitude": 40.0,
        "magnitude_units": null,
        "source": "Mesonet",
        "event_narrative": "Mesonet Station GRMM4 Grand Marais."
      },
      "geometry": {
        "type": "Point",
        "coordinates": [
          -85.98,
          46.68
        ]
      }
    },
    {
      "type": "Feature",
      "id": "iem-lsr-MQT-51",
      "properties": {
        "report_id": "iem-lsr-MQT-51",
        "report_type": "NON-TSTM WND GST",
        "event_category": "thunderstorm_wind",
        "valid_utc": "202609131710",
        "standard_time_display": "2026-09-13 11:10 CST",
        "wfo": "MQT",
        "county_or_zone": "Marquette",
        "city": "Granite Island",
        "state": "MI",
        "magnitude": 46.0,
        "magnitude_units": null,
        "source": "Mesonet",
        "event_narrative": null
      },
      "geometry": {
        "type": "Point",
        "coordinates": [
          -87.41,
          46.72
        ]
      }
    },
    {
      "type": "Feature",
      "id": "iem-lsr-MQT-52",
      "properties": {
        "report_id": "iem-lsr-MQT-52",
        "report_type": "NON-TSTM WND GST",
        "event_category": "thunderstorm_wind",
        "valid_utc": "202609131724",
        "standard_time_display": "2026-09-13 11:24 CST",
        "wfo": "MQT",
        "county_or_zone": "Keweenaw",
        "city": "34 NE Rock of Ages",
        "state": "MI",
        "magnitude": 38.0,
        "magnitude_units": null,
        "source": "Mesonet",
        "event_narrative": "Mesonet Station OJIM4 Ojibway - Isle Royale."
      },
      "geometry": {
        "type": "Point",
        "coordinates": [
          -88.61,
          48.11
        ]
      }
    },
    {
      "type": "Feature",
      "id": "iem-lsr-MQT-53",
      "properties": {
        "report_id": "iem-lsr-MQT-53",
        "report_type": "NON-TSTM WND GST",
        "event_category": "thunderstorm_wind",
        "valid_utc": "202609131754",
        "standard_time_display": "2026-09-13 11:54 CST",
        "wfo": "MQT",
        "county_or_zone": "Dickinson",
        "city": "1 NW Kingsford",
        "state": "MI",
        "magnitude": 38.0,
        "magnitude_units": null,
        "source": "ASOS/AWOS",
        "event_narrative": "ASOS Station KIMT Ford Airport."
      },
      "geometry": {
        "type": "Point",
        "coordinates": [
          -88.11,
          45.81
        ]
      }
    },
    {
      "type": "Feature",
      "id": "iem-lsr-MQT-54",
      "properties": {
        "report_id": "iem-lsr-MQT-54",
        "report_type": "NON-TSTM WND GST",
        "event_category": "thunderstorm_wind",
        "valid_utc": "202609131844",
        "standard_time_display": "2026-09-13 12:44 CST",
        "wfo": "MQT",
        "county_or_zone": "Marquette",
        "city": "Harvey",
        "state": "MI",
        "magnitude": 38.0,
        "magnitude_units": null,
        "source": "Department of Hig",
        "event_narrative": "Harvey MDOT Station MC001 - 3 W Shot Point."
      },
      "geometry": {
        "type": "Point",
        "coordinates": [
          -87.23,
          46.49
        ]
      }
    },
    {
      "type": "Feature",
      "id": "iem-lsr-MQT-55",
      "properties": {
        "report_id": "iem-lsr-MQT-55",
        "report_type": "NON-TSTM WND GST",
        "event_category": "thunderstorm_wind",
        "valid_utc": "202609132240",
        "standard_time_display": "2026-09-13 16:40 CST",
        "wfo": "MQT",
        "county_or_zone": null,
        "city": "Stannard Rock",
        "state": "La",
        "magnitude": 46.0,
        "magnitude_units": null,
        "source": "Mesonet",
        "event_narrative": "Mesonet Station STDM4 33 NNE Granite Island."
      },
      "geometry": {
        "type": "Point",
        "coordinates": [
          -87.22,
          47.18
        ]
      }
    },
    {
      "type": "Feature",
      "id": "iem-lsr-MQT-56",
      "properties": {
        "report_id": "iem-lsr-MQT-56",
        "report_type": "NON-TSTM WND GST",
        "event_category": "thunderstorm_wind",
        "valid_utc": "202609150445",
        "standard_time_display": "2026-09-14 22:45 CST",
        "wfo": "MQT",
        "county_or_zone": null,
        "city": "10 S Stonington",
        "state": "La",
        "magnitude": 48.0,
        "magnitude_units": null,
        "source": "Mesonet",
        "event_narrative": null
      },
      "geometry": {
        "type": "Point",
        "coordinates": [
          -87.0,
          45.58
        ]
      }
    },
    {
      "type": "Feature",
      "id": "iem-lsr-MQT-57",
      "properties": {
        "report_id": "iem-lsr-MQT-57",
        "report_type": "NON-TSTM WND GST",
        "event_category": "thunderstorm_wind",
        "valid_utc": "202609150450",
        "standard_time_display": "2026-09-14 22:50 CST",
        "wfo": "MQT",
        "county_or_zone": null,
        "city": "41 N Copper Harbor",
        "state": "La",
        "magnitude": 42.0,
        "magnitude_units": null,
        "source": "Mesonet",
        "event_narrative": null
      },
      "geometry": {
        "type": "Point",
        "coordinates": [
          -87.79,
          48.06
        ]
      }
    },
    {
      "type": "Feature",
      "id": "iem-lsr-MQT-58",
      "properties": {
        "report_id": "iem-lsr-MQT-58",
        "report_type": "NON-TSTM WND GST",
        "event_category": "thunderstorm_wind",
        "valid_utc": "202609150451",
        "standard_time_display": "2026-09-14 22:51 CST",
        "wfo": "MQT",
        "county_or_zone": "Keweenaw",
        "city": "1 E Copper Harbor",
        "state": "MI",
        "magnitude": 37.0,
        "magnitude_units": null,
        "source": "ASOS/AWOS",
        "event_narrative": null
      },
      "geometry": {
        "type": "Point",
        "coordinates": [
          -87.88,
          47.47
        ]
      }
    },
    {
      "type": "Feature",
      "id": "iem-lsr-MQT-59",
      "properties": {
        "report_id": "iem-lsr-MQT-59",
        "report_type": "NON-TSTM WND GST",
        "event_category": "thunderstorm_wind",
        "valid_utc": "202609150451",
        "standard_time_display": "2026-09-14 22:51 CST",
        "wfo": "MQT",
        "county_or_zone": "Keweenaw",
        "city": "Copper Harbor",
        "state": "MI",
        "magnitude": 37.0,
        "magnitude_units": null,
        "source": "Mesonet",
        "event_narrative": null
      },
      "geometry": {
        "type": "Point",
        "coordinates": [
          -87.88,
          47.47
        ]
      }
    },
    {
      "type": "Feature",
      "id": "iem-lsr-MQT-60",
      "properties": {
        "report_id": "iem-lsr-MQT-60",
        "report_type": "NON-TSTM WND GST",
        "event_category": "thunderstorm_wind",
        "valid_utc": "202609150455",
        "standard_time_display": "2026-09-14 22:55 CST",
        "wfo": "MQT",
        "county_or_zone": "Schoolcraft",
        "city": "4 E Manistique",
        "state": "MI",
        "magnitude": 36.0,
        "magnitude_units": null,
        "source": "ASOS/AWOS",
        "event_narrative": null
      },
      "geometry": {
        "type": "Point",
        "coordinates": [
          -86.17,
          45.97
        ]
      }
    },
    {
      "type": "Feature",
      "id": "iem-lsr-MQT-61",
      "properties": {
        "report_id": "iem-lsr-MQT-61",
        "report_type": "NON-TSTM WND GST",
        "event_category": "thunderstorm_wind",
        "valid_utc": "202609150500",
        "standard_time_display": "2026-09-14 23:00 CST",
        "wfo": "MQT",
        "county_or_zone": null,
        "city": "7 S Fayette",
        "state": "La",
        "magnitude": 41.0,
        "magnitude_units": null,
        "source": "Mesonet",
        "event_narrative": null
      },
      "geometry": {
        "type": "Point",
        "coordinates": [
          -86.66,
          45.62
        ]
      }
    },
    {
      "type": "Feature",
      "id": "iem-lsr-MQT-62",
      "properties": {
        "report_id": "iem-lsr-MQT-62",
        "report_type": "NON-TSTM WND GST",
        "event_category": "thunderstorm_wind",
        "valid_utc": "202609150530",
        "standard_time_display": "2026-09-14 23:30 CST",
        "wfo": "MQT",
        "county_or_zone": null,
        "city": "66 N Au Sable Point",
        "state": "La",
        "magnitude": 36.0,
        "magnitude_units": null,
        "source": "Mesonet",
        "event_narrative": null
      },
      "geometry": {
        "type": "Point",
        "coordinates": [
          -86.58,
          47.59
        ]
      }
    },
    {
      "type": "Feature",
      "id": "iem-lsr-MQT-63",
      "properties": {
        "report_id": "iem-lsr-MQT-63",
        "report_type": "NON-TSTM WND GST",
        "event_category": "thunderstorm_wind",
        "valid_utc": "202609150554",
        "standard_time_display": "2026-09-14 23:54 CST",
        "wfo": "MQT",
        "county_or_zone": "Schoolcraft",
        "city": "Port Inland",
        "state": "MI",
        "magnitude": 40.0,
        "magnitude_units": null,
        "source": "Mesonet",
        "event_narrative": null
      },
      "geometry": {
        "type": "Point",
        "coordinates": [
          -85.87,
          45.97
        ]
      }
    },
    {
      "type": "Feature",
      "id": "iem-lsr-MQT-64",
      "properties": {
        "report_id": "iem-lsr-MQT-64",
        "report_type": "NON-TSTM WND GST",
        "event_category": "thunderstorm_wind",
        "valid_utc": "202609150554",
        "standard_time_display": "2026-09-14 23:54 CST",
        "wfo": "MQT",
        "county_or_zone": "Schoolcraft",
        "city": "Port Inland",
        "state": "MI",
        "magnitude": 41.0,
        "magnitude_units": null,
        "source": "Mesonet",
        "event_narrative": null
      },
      "geometry": {
        "type": "Point",
        "coordinates": [
          -85.87,
          45.97
        ]
      }
    },
    {
      "type": "Feature",
      "id": "iem-lsr-MQT-65",
      "properties": {
        "report_id": "iem-lsr-MQT-65",
        "report_type": "NON-TSTM WND GST",
        "event_category": "thunderstorm_wind",
        "valid_utc": "202609150648",
        "standard_time_display": "2026-09-15 00:48 CST",
        "wfo": "MQT",
        "county_or_zone": "Schoolcraft",
        "city": "2 E Manistique",
        "state": "MI",
        "magnitude": 35.0,
        "magnitude_units": null,
        "source": "Mesonet",
        "event_narrative": null
      },
      "geometry": {
        "type": "Point",
        "coordinates": [
          -86.2,
          45.97
        ]
      }
    },
    {
      "type": "Feature",
      "id": "iem-lsr-MQT-66",
      "properties": {
        "report_id": "iem-lsr-MQT-66",
        "report_type": "NON-TSTM WND GST",
        "event_category": "thunderstorm_wind",
        "valid_utc": "202609150650",
        "standard_time_display": "2026-09-15 00:50 CST",
        "wfo": "MQT",
        "county_or_zone": "Marquette",
        "city": "Granite Island",
        "state": "MI",
        "magnitude": 42.0,
        "magnitude_units": null,
        "source": "Mesonet",
        "event_narrative": null
      },
      "geometry": {
        "type": "Point",
        "coordinates": [
          -87.41,
          46.72
        ]
      }
    },
    {
      "type": "Feature",
      "id": "iem-lsr-MQT-67",
      "properties": {
        "report_id": "iem-lsr-MQT-67",
        "report_type": "NON-TSTM WND GST",
        "event_category": "thunderstorm_wind",
        "valid_utc": "202609151340",
        "standard_time_display": "2026-09-15 07:40 CST",
        "wfo": "MQT",
        "county_or_zone": null,
        "city": "37 N Lake of the Clouds",
        "state": "La",
        "magnitude": 40.0,
        "magnitude_units": null,
        "source": "Mesonet",
        "event_narrative": null
      },
      "geometry": {
        "type": "Point",
        "coordinates": [
          -89.79,
          47.34
        ]
      }
    },
    {
      "type": "Feature",
      "id": "iem-lsr-MQT-68",
      "properties": {
        "report_id": "iem-lsr-MQT-68",
        "report_type": "NON-TSTM WND GST",
        "event_category": "thunderstorm_wind",
        "valid_utc": "202609151436",
        "standard_time_display": "2026-09-15 08:36 CST",
        "wfo": "MQT",
        "county_or_zone": null,
        "city": "3 W Rock of Ages",
        "state": "La",
        "magnitude": 39.0,
        "magnitude_units": null,
        "source": "Mesonet",
        "event_narrative": null
      },
      "geometry": {
        "type": "Point",
        "coordinates": [
          -89.31,
          47.87
        ]
      }
    },
    {
      "type": "Feature",
      "id": "iem-lsr-MQT-69",
      "properties": {
        "report_id": "iem-lsr-MQT-69",
        "report_type": "NON-TSTM WND GST",
        "event_category": "thunderstorm_wind",
        "valid_utc": "202609151520",
        "standard_time_display": "2026-09-15 09:20 CST",
        "wfo": "MQT",
        "county_or_zone": "Ontonagon",
        "city": "1 SW Bruce Crossing",
        "state": "MI",
        "magnitude": 40.0,
        "magnitude_units": null,
        "source": "Mesonet",
        "event_narrative": null
      },
      "geometry": {
        "type": "Point",
        "coordinates": [
          -89.19,
          46.52
        ]
      }
    },
    {
      "type": "Feature",
      "id": "iem-lsr-MQT-70",
      "properties": {
        "report_id": "iem-lsr-MQT-70",
        "report_type": "NON-TSTM WND GST",
        "event_category": "thunderstorm_wind",
        "valid_utc": "202609151520",
        "standard_time_display": "2026-09-15 09:20 CST",
        "wfo": "MQT",
        "county_or_zone": "Ontonagon",
        "city": "1 W Ontonagon",
        "state": "MI",
        "magnitude": 40.0,
        "magnitude_units": null,
        "source": "Mesonet",
        "event_narrative": null
      },
      "geometry": {
        "type": "Point",
        "coordinates": [
          -89.33,
          46.87
        ]
      }
    },
    {
      "type": "Feature",
      "id": "iem-lsr-MQT-71",
      "properties": {
        "report_id": "iem-lsr-MQT-71",
        "report_type": "NON-TSTM WND GST",
        "event_category": "thunderstorm_wind",
        "valid_utc": "202609151604",
        "standard_time_display": "2026-09-15 10:04 CST",
        "wfo": "MQT",
        "county_or_zone": "Ontonagon",
        "city": "Silver City",
        "state": "MI",
        "magnitude": 35.0,
        "magnitude_units": null,
        "source": "Mesonet",
        "event_narrative": null
      },
      "geometry": {
        "type": "Point",
        "coordinates": [
          -89.57,
          46.83
        ]
      }
    },
    {
      "type": "Feature",
      "id": "iem-lsr-MQT-72",
      "properties": {
        "report_id": "iem-lsr-MQT-72",
        "report_type": "NON-TSTM WND GST",
        "event_category": "thunderstorm_wind",
        "valid_utc": "202609151714",
        "standard_time_display": "2026-09-15 11:14 CST",
        "wfo": "MQT",
        "county_or_zone": "Gogebic",
        "city": "1 W Wakefield",
        "state": "MI",
        "magnitude": 35.0,
        "magnitude_units": null,
        "source": "Mesonet",
        "event_narrative": null
      },
      "geometry": {
        "type": "Point",
        "coordinates": [
          -89.95,
          46.48
        ]
      }
    },
    {
      "type": "Feature",
      "id": "iem-lsr-MQT-73",
      "properties": {
        "report_id": "iem-lsr-MQT-73",
        "report_type": "NON-TSTM WND GST",
        "event_category": "thunderstorm_wind",
        "valid_utc": "202609151718",
        "standard_time_display": "2026-09-15 11:18 CST",
        "wfo": "MQT",
        "county_or_zone": "Houghton",
        "city": "5 E Chassell",
        "state": "MI",
        "magnitude": 36.0,
        "magnitude_units": null,
        "source": "Mesonet",
        "event_narrative": null
      },
      "geometry": {
        "type": "Point",
        "coordinates": [
          -88.43,
          47.01
        ]
      }
    },
    {
      "type": "Feature",
      "id": "iem-lsr-MQT-74",
      "properties": {
        "report_id": "iem-lsr-MQT-74",
        "report_type": "NON-TSTM WND GST",
        "event_category": "thunderstorm_wind",
        "valid_utc": "202609151718",
        "standard_time_display": "2026-09-15 11:18 CST",
        "wfo": "MQT",
        "county_or_zone": "Marquette",
        "city": "1 SE Marquette",
        "state": "MI",
        "magnitude": 39.0,
        "magnitude_units": null,
        "source": "Mesonet",
        "event_narrative": null
      },
      "geometry": {
        "type": "Point",
        "coordinates": [
          -87.38,
          46.55
        ]
      }
    },
    {
      "type": "Feature",
      "id": "iem-lsr-MQT-75",
      "properties": {
        "report_id": "iem-lsr-MQT-75",
        "report_type": "NON-TSTM WND GST",
        "event_category": "thunderstorm_wind",
        "valid_utc": "202609151720",
        "standard_time_display": "2026-09-15 11:20 CST",
        "wfo": "MQT",
        "county_or_zone": null,
        "city": "33 N Granite Island",
        "state": "La",
        "magnitude": 47.0,
        "magnitude_units": null,
        "source": "Mesonet",
        "event_narrative": null
      },
      "geometry": {
        "type": "Point",
        "coordinates": [
          -87.22,
          47.18
        ]
      }
    },
    {
      "type": "Feature",
      "id": "iem-lsr-MQT-76",
      "properties": {
        "report_id": "iem-lsr-MQT-76",
        "report_type": "NON-TSTM WND GST",
        "event_category": "thunderstorm_wind",
        "valid_utc": "202609151720",
        "standard_time_display": "2026-09-15 11:20 CST",
        "wfo": "MQT",
        "county_or_zone": "Keweenaw",
        "city": "5 SW Delaware",
        "state": "MI",
        "magnitude": 50.0,
        "magnitude_units": null,
        "source": "Mesonet",
        "event_narrative": null
      },
      "geometry": {
        "type": "Point",
        "coordinates": [
          -88.17,
          47.37
        ]
      }
    },
    {
      "type": "Feature",
      "id": "iem-lsr-MQT-77",
      "properties": {
        "report_id": "iem-lsr-MQT-77",
        "report_type": "NON-TSTM WND GST",
        "event_category": "thunderstorm_wind",
        "valid_utc": "202609151721",
        "standard_time_display": "2026-09-15 11:21 CST",
        "wfo": "MQT",
        "county_or_zone": null,
        "city": "54 N Eagle Harbor",
        "state": "La",
        "magnitude": 47.0,
        "magnitude_units": null,
        "source": "Mesonet",
        "event_narrative": null
      },
      "geometry": {
        "type": "Point",
        "coordinates": [
          -88.37,
          48.22
        ]
      }
    },
    {
      "type": "Feature",
      "id": "iem-lsr-MQT-78",
      "properties": {
        "report_id": "iem-lsr-MQT-78",
        "report_type": "NON-TSTM WND GST",
        "event_category": "thunderstorm_wind",
        "valid_utc": "202609151746",
        "standard_time_display": "2026-09-15 11:46 CST",
        "wfo": "MQT",
        "county_or_zone": "Marquette",
        "city": "5 S Sands",
        "state": "MI",
        "magnitude": 35.0,
        "magnitude_units": null,
        "source": "ASOS/AWOS",
        "event_narrative": null
      },
      "geometry": {
        "type": "Point",
        "coordinates": [
          -87.4,
          46.35
        ]
      }
    },
    {
      "type": "Feature",
      "id": "iem-lsr-MQT-79",
      "properties": {
        "report_id": "iem-lsr-MQT-79",
        "report_type": "NON-TSTM WND GST",
        "event_category": "thunderstorm_wind",
        "valid_utc": "202609151800",
        "standard_time_display": "2026-09-15 12:00 CST",
        "wfo": "MQT",
        "county_or_zone": "LSZ263",
        "city": "19 N Freda",
        "state": "MI",
        "magnitude": 41.0,
        "magnitude_units": null,
        "source": "Ship",
        "event_narrative": "Ship Observation."
      },
      "geometry": {
        "type": "Point",
        "coordinates": [
          -88.9,
          47.4
        ]
      }
    },
    {
      "type": "Feature",
      "id": "iem-lsr-MQT-80",
      "properties": {
        "report_id": "iem-lsr-MQT-80",
        "report_type": "NON-TSTM WND GST",
        "event_category": "thunderstorm_wind",
        "valid_utc": "202609151805",
        "standard_time_display": "2026-09-15 12:05 CST",
        "wfo": "MQT",
        "county_or_zone": "Ontonagon",
        "city": "Ontonagon",
        "state": "MI",
        "magnitude": 45.0,
        "magnitude_units": null,
        "source": "Mesonet",
        "event_narrative": null
      },
      "geometry": {
        "type": "Point",
        "coordinates": [
          -89.31,
          46.87
        ]
      }
    },
    {
      "type": "Feature",
      "id": "iem-lsr-MQT-81",
      "properties": {
        "report_id": "iem-lsr-MQT-81",
        "report_type": "NON-TSTM WND GST",
        "event_category": "thunderstorm_wind",
        "valid_utc": "202609151830",
        "standard_time_display": "2026-09-15 12:30 CST",
        "wfo": "MQT",
        "county_or_zone": "Houghton",
        "city": "Superior Grand Traverse",
        "state": "MI",
        "magnitude": 41.0,
        "magnitude_units": null,
        "source": "Mesonet",
        "event_narrative": null
      },
      "geometry": {
        "type": "Point",
        "coordinates": [
          -88.24,
          47.18
        ]
      }
    },
    {
      "type": "Feature",
      "id": "iem-lsr-MQT-82",
      "properties": {
        "report_id": "iem-lsr-MQT-82",
        "report_type": "NON-TSTM WND GST",
        "event_category": "thunderstorm_wind",
        "valid_utc": "202609151853",
        "standard_time_display": "2026-09-15 12:53 CST",
        "wfo": "MQT",
        "county_or_zone": "Houghton",
        "city": "Houghton Co Airport",
        "state": "MI",
        "magnitude": 60.0,
        "magnitude_units": null,
        "source": "ASOS/AWOS",
        "event_narrative": null
      },
      "geometry": {
        "type": "Point",
        "coordinates": [
          -88.48,
          47.17
        ]
      }
    },
    {
      "type": "Feature",
      "id": "iem-lsr-MQT-83",
      "properties": {
        "report_id": "iem-lsr-MQT-83",
        "report_type": "NON-TSTM WND GST",
        "event_category": "thunderstorm_wind",
        "valid_utc": "202609151910",
        "standard_time_display": "2026-09-15 13:10 CST",
        "wfo": "MQT",
        "county_or_zone": null,
        "city": "1 N Grand Marais",
        "state": "La",
        "magnitude": 44.0,
        "magnitude_units": null,
        "source": "Mesonet",
        "event_narrative": null
      },
      "geometry": {
        "type": "Point",
        "coordinates": [
          -85.98,
          46.68
        ]
      }
    },
    {
      "type": "Feature",
      "id": "iem-lsr-MQT-84",
      "properties": {
        "report_id": "iem-lsr-MQT-84",
        "report_type": "NON-TSTM WND GST",
        "event_category": "thunderstorm_wind",
        "valid_utc": "202609152003",
        "standard_time_display": "2026-09-15 14:03 CST",
        "wfo": "MQT",
        "county_or_zone": "Keweenaw",
        "city": "Phoenix",
        "state": "MI",
        "magnitude": 41.0,
        "magnitude_units": null,
        "source": "Mesonet",
        "event_narrative": null
      },
      "geometry": {
        "type": "Point",
        "coordinates": [
          -88.28,
          47.39
        ]
      }
    },
    {
      "type": "Feature",
      "id": "iem-lsr-MQT-85",
      "properties": {
        "report_id": "iem-lsr-MQT-85",
        "report_type": "NON-TSTM WND GST",
        "event_category": "thunderstorm_wind",
        "valid_utc": "202609152103",
        "standard_time_display": "2026-09-15 15:03 CST",
        "wfo": "MQT",
        "county_or_zone": "Houghton",
        "city": "3 NE Arnheim",
        "state": "MI",
        "magnitude": 35.0,
        "magnitude_units": null,
        "source": "Mesonet",
        "event_narrative": null
      },
      "geometry": {
        "type": "Point",
        "coordinates": [
          -88.45,
          46.95
        ]
      }
    }
  ]
}