{
  "type": "FeatureCollection",
  "metadata": {
    "schema_version": "0.2.4",
    "year": 2026,
    "month": 6,
    "wfo": "LCH",
    "start_utc": "2026-06-01T00:00:00Z",
    "end_utc": "2026-07-01T00:00:00Z",
    "generated_utc": "2026-06-18T12:32:34Z",
    "mode": "storm_data_prep",
    "public_release_status": "public-source-derived",
    "time_note": "Storm Data entry times should be reviewed in local Standard Time (ST), not daylight time. Candidate reports include standard_time_display.",
    "tornado_track_policy": "Tornado tracks must come from DAT. NCEI begin/end coordinates are not used as a tornado track substitute.",
    "source": "https://mesonet.agron.iastate.edu/cgi-bin/request/gis/lsr.py?wfo=LCH&sts=2026-06-01T00%3A00%3A00Z&ets=2026-07-01T00%3A00%3A00Z&fmt=csv"
  },
  "features": [
    {
      "type": "Feature",
      "id": "iem-lsr-LCH-1",
      "properties": {
        "report_id": "iem-lsr-LCH-1",
        "report_type": "TSTM WND DMG",
        "event_category": "thunderstorm_wind",
        "valid_utc": "202606022231",
        "standard_time_display": "2026-06-02 16:31 CST",
        "wfo": "LCH",
        "county_or_zone": "Jasper",
        "city": "12 NNW Jasper",
        "state": "TX",
        "magnitude": null,
        "magnitude_units": null,
        "source": "Public",
        "event_narrative": "Good size trees down and power out near CR32 in the Ebenezer Community."
      },
      "geometry": {
        "type": "Point",
        "coordinates": [
          -94.07,
          31.08
        ]
      }
    },
    {
      "type": "Feature",
      "id": "iem-lsr-LCH-2",
      "properties": {
        "report_id": "iem-lsr-LCH-2",
        "report_type": "TSTM WND DMG",
        "event_category": "thunderstorm_wind",
        "valid_utc": "202606022344",
        "standard_time_display": "2026-06-02 17:44 CST",
        "wfo": "LCH",
        "county_or_zone": "Newton",
        "city": "Bon Weir",
        "state": "TX",
        "magnitude": null,
        "magnitude_units": null,
        "source": "Public",
        "event_narrative": "Huge limbs blown down on some back roads."
      },
      "geometry": {
        "type": "Point",
        "coordinates": [
          -93.66,
          30.74
        ]
      }
    },
    {
      "type": "Feature",
      "id": "iem-lsr-LCH-3",
      "properties": {
        "report_id": "iem-lsr-LCH-3",
        "report_type": "TSTM WND DMG",
        "event_category": "thunderstorm_wind",
        "valid_utc": "202606030010",
        "standard_time_display": "2026-06-02 18:10 CST",
        "wfo": "LCH",
        "county_or_zone": "Beauregard",
        "city": "3 SSW Longville",
        "state": "LA",
        "magnitude": null,
        "magnitude_units": null,
        "source": "Law Enforcement",
        "event_narrative": "Report from Beauregard Parish Sheriffs office of a tree down on Longville Church Road."
      },
      "geometry": {
        "type": "Point",
        "coordinates": [
          -93.25,
          30.57
        ]
      }
    },
    {
      "type": "Feature",
      "id": "iem-lsr-LCH-4",
      "properties": {
        "report_id": "iem-lsr-LCH-4",
        "report_type": "FLASH FLOOD",
        "event_category": "flooding",
        "valid_utc": "202606041845",
        "standard_time_display": "2026-06-04 12:45 CST",
        "wfo": "LCH",
        "county_or_zone": "Jefferson",
        "city": "2 NNW Beaumont",
        "state": "TX",
        "magnitude": null,
        "magnitude_units": null,
        "source": "Local Official",
        "event_narrative": "Picture of significant street flooding and gages in the area did indicate water out of banks."
      },
      "geometry": {
        "type": "Point",
        "coordinates": [
          -94.16,
          30.12
        ]
      }
    },
    {
      "type": "Feature",
      "id": "iem-lsr-LCH-5",
      "properties": {
        "report_id": "iem-lsr-LCH-5",
        "report_type": "FLASH FLOOD",
        "event_category": "flooding",
        "valid_utc": "202606070144",
        "standard_time_display": "2026-06-06 19:44 CST",
        "wfo": "LCH",
        "county_or_zone": "Jefferson",
        "city": "4 SSE China",
        "state": "TX",
        "magnitude": null,
        "magnitude_units": null,
        "source": "Mesonet",
        "event_narrative": "Gauge site on Lawhon Road indicates the creek out of its bank and rising slowly."
      },
      "geometry": {
        "type": "Point",
        "coordinates": [
          -94.3,
          30.0
        ]
      }
    },
    {
      "type": "Feature",
      "id": "iem-lsr-LCH-6",
      "properties": {
        "report_id": "iem-lsr-LCH-6",
        "report_type": "FLASH FLOOD",
        "event_category": "flooding",
        "valid_utc": "202606150042",
        "standard_time_display": "2026-06-14 18:42 CST",
        "wfo": "LCH",
        "county_or_zone": "Calcasieu",
        "city": "4 S Topsy",
        "state": "LA",
        "magnitude": null,
        "magnitude_units": null,
        "source": "Mesonet",
        "event_narrative": "Local mesonet site indicates Blackmon Bayou left its banks and inundated Deer Run Road."
      },
      "geometry": {
        "type": "Point",
        "coordinates": [
          -93.13,
          30.35
        ]
      }
    },
    {
      "type": "Feature",
      "id": "iem-lsr-LCH-7",
      "properties": {
        "report_id": "iem-lsr-LCH-7",
        "report_type": "FLASH FLOOD",
        "event_category": "flooding",
        "valid_utc": "202606151245",
        "standard_time_display": "2026-06-15 06:45 CST",
        "wfo": "LCH",
        "county_or_zone": "Avoyelles",
        "city": "Mansura",
        "state": "LA",
        "magnitude": null,
        "magnitude_units": null,
        "source": "Public",
        "event_narrative": "Report of water over several roadways in and around Mansura."
      },
      "geometry": {
        "type": "Point",
        "coordinates": [
          -92.04,
          31.06
        ]
      }
    },
    {
      "type": "Feature",
      "id": "iem-lsr-LCH-8",
      "properties": {
        "report_id": "iem-lsr-LCH-8",
        "report_type": "FLASH FLOOD",
        "event_category": "flooding",
        "valid_utc": "202606152054",
        "standard_time_display": "2026-06-15 14:54 CST",
        "wfo": "LCH",
        "county_or_zone": "Jefferson",
        "city": "4 S Bevil Oaks",
        "state": "TX",
        "magnitude": null,
        "magnitude_units": null,
        "source": "Public",
        "event_narrative": "Water level station shows water out of the banks."
      },
      "geometry": {
        "type": "Point",
        "coordinates": [
          -94.27,
          30.1
        ]
      }
    },
    {
      "type": "Feature",
      "id": "iem-lsr-LCH-9",
      "properties": {
        "report_id": "iem-lsr-LCH-9",
        "report_type": "FLASH FLOOD",
        "event_category": "flooding",
        "valid_utc": "202606152058",
        "standard_time_display": "2026-06-15 14:58 CST",
        "wfo": "LCH",
        "county_or_zone": "Rapides",
        "city": "2 WSW Alexandria",
        "state": "LA",
        "magnitude": null,
        "magnitude_units": null,
        "source": "Broadcast Media",
        "event_narrative": "Minor street flooding reported."
      },
      "geometry": {
        "type": "Point",
        "coordinates": [
          -92.49,
          31.28
        ]
      }
    },
    {
      "type": "Feature",
      "id": "iem-lsr-LCH-10",
      "properties": {
        "report_id": "iem-lsr-LCH-10",
        "report_type": "FLASH FLOOD",
        "event_category": "flooding",
        "valid_utc": "202606161539",
        "standard_time_display": "2026-06-16 09:39 CST",
        "wfo": "LCH",
        "county_or_zone": "Beauregard",
        "city": "3 NW De Ridder",
        "state": "LA",
        "magnitude": null,
        "magnitude_units": null,
        "source": "Law Enforcement",
        "event_narrative": "Planner Mill Road is flooded."
      },
      "geometry": {
        "type": "Point",
        "coordinates": [
          -93.32,
          30.88
        ]
      }
    },
    {
      "type": "Feature",
      "id": "iem-lsr-LCH-11",
      "properties": {
        "report_id": "iem-lsr-LCH-11",
        "report_type": "FLASH FLOOD",
        "event_category": "flooding",
        "valid_utc": "202606161642",
        "standard_time_display": "2026-06-16 10:42 CST",
        "wfo": "LCH",
        "county_or_zone": "Hardin",
        "city": "4 N Silsbee",
        "state": "TX",
        "magnitude": null,
        "magnitude_units": null,
        "source": "Mesonet",
        "event_narrative": "Stream gage indicates water above flood stage."
      },
      "geometry": {
        "type": "Point",
        "coordinates": [
          -94.19,
          30.41
        ]
      }
    },
    {
      "type": "Feature",
      "id": "iem-lsr-LCH-12",
      "properties": {
        "report_id": "iem-lsr-LCH-12",
        "report_type": "FLASH FLOOD",
        "event_category": "flooding",
        "valid_utc": "202606161647",
        "standard_time_display": "2026-06-16 10:47 CST",
        "wfo": "LCH",
        "county_or_zone": "Rapides",
        "city": "3 E Union Hill",
        "state": "LA",
        "magnitude": null,
        "magnitude_units": null,
        "source": "Official NWS Obs",
        "event_narrative": "Stream gage rose quickly to above 1.5 feet above flood stage."
      },
      "geometry": {
        "type": "Point",
        "coordinates": [
          -92.67,
          31.0
        ]
      }
    },
    {
      "type": "Feature",
      "id": "iem-lsr-LCH-13",
      "properties": {
        "report_id": "iem-lsr-LCH-13",
        "report_type": "FLASH FLOOD",
        "event_category": "flooding",
        "valid_utc": "202606161700",
        "standard_time_display": "2026-06-16 11:00 CST",
        "wfo": "LCH",
        "county_or_zone": "Beauregard",
        "city": "1 SW De Ridder",
        "state": "LA",
        "magnitude": null,
        "magnitude_units": null,
        "source": "Law Enforcement",
        "event_narrative": "Graybow Road closed."
      },
      "geometry": {
        "type": "Point",
        "coordinates": [
          -93.31,
          30.83
        ]
      }
    },
    {
      "type": "Feature",
      "id": "iem-lsr-LCH-14",
      "properties": {
        "report_id": "iem-lsr-LCH-14",
        "report_type": "FLASH FLOOD",
        "event_category": "flooding",
        "valid_utc": "202606161703",
        "standard_time_display": "2026-06-16 11:03 CST",
        "wfo": "LCH",
        "county_or_zone": "Beauregard",
        "city": "2 W De Ridder",
        "state": "LA",
        "magnitude": null,
        "magnitude_units": null,
        "source": "Law Enforcement",
        "event_narrative": "Tara Drive Closed with houses flooded."
      },
      "geometry": {
        "type": "Point",
        "coordinates": [
          -93.32,
          30.85
        ]
      }
    },
    {
      "type": "Feature",
      "id": "iem-lsr-LCH-15",
      "properties": {
        "report_id": "iem-lsr-LCH-15",
        "report_type": "FLASH FLOOD",
        "event_category": "flooding",
        "valid_utc": "202606161711",
        "standard_time_display": "2026-06-16 11:11 CST",
        "wfo": "LCH",
        "county_or_zone": "Beauregard",
        "city": "1 W De Ridder",
        "state": "LA",
        "magnitude": null,
        "magnitude_units": null,
        "source": "Law Enforcement",
        "event_narrative": "Flooding reported on Honeysuckle St in DeRidder."
      },
      "geometry": {
        "type": "Point",
        "coordinates": [
          -93.31,
          30.84
        ]
      }
    },
    {
      "type": "Feature",
      "id": "iem-lsr-LCH-16",
      "properties": {
        "report_id": "iem-lsr-LCH-16",
        "report_type": "FLASH FLOOD",
        "event_category": "flooding",
        "valid_utc": "202606161716",
        "standard_time_display": "2026-06-16 11:16 CST",
        "wfo": "LCH",
        "county_or_zone": "Rapides",
        "city": "Mcnary",
        "state": "LA",
        "magnitude": null,
        "magnitude_units": null,
        "source": "Public",
        "event_narrative": "Report from mPING: Street/road flooding; Street/road closed; Vehicles stranded."
      },
      "geometry": {
        "type": "Point",
        "coordinates": [
          -92.58,
          30.99
        ]
      }
    },
    {
      "type": "Feature",
      "id": "iem-lsr-LCH-17",
      "properties": {
        "report_id": "iem-lsr-LCH-17",
        "report_type": "FLASH FLOOD",
        "event_category": "flooding",
        "valid_utc": "202606161718",
        "standard_time_display": "2026-06-16 11:18 CST",
        "wfo": "LCH",
        "county_or_zone": "Beauregard",
        "city": "3 ENE De Ridder",
        "state": "LA",
        "magnitude": null,
        "magnitude_units": null,
        "source": "Law Enforcement",
        "event_narrative": "Water covering Ingallwood Park Rd at LA 112."
      },
      "geometry": {
        "type": "Point",
        "coordinates": [
          -93.23,
          30.86
        ]
      }
    },
    {
      "type": "Feature",
      "id": "iem-lsr-LCH-18",
      "properties": {
        "report_id": "iem-lsr-LCH-18",
        "report_type": "FLASH FLOOD",
        "event_category": "flooding",
        "valid_utc": "202606161726",
        "standard_time_display": "2026-06-16 11:26 CST",
        "wfo": "LCH",
        "county_or_zone": "Beauregard",
        "city": "1 W De Ridder",
        "state": "LA",
        "magnitude": null,
        "magnitude_units": null,
        "source": "Law Enforcement",
        "event_narrative": "Blankenship Road Flooded at Palmetto Creek."
      },
      "geometry": {
        "type": "Point",
        "coordinates": [
          -93.31,
          30.84
        ]
      }
    },
    {
      "type": "Feature",
      "id": "iem-lsr-LCH-19",
      "properties": {
        "report_id": "iem-lsr-LCH-19",
        "report_type": "FLASH FLOOD",
        "event_category": "flooding",
        "valid_utc": "202606161730",
        "standard_time_display": "2026-06-16 11:30 CST",
        "wfo": "LCH",
        "county_or_zone": "Rapides",
        "city": "4 WNW Glenmora",
        "state": "LA",
        "magnitude": null,
        "magnitude_units": null,
        "source": "Broadcast Media",
        "event_narrative": "Several areas of water covering HWY113."
      },
      "geometry": {
        "type": "Point",
        "coordinates": [
          -92.64,
          31.0
        ]
      }
    },
    {
      "type": "Feature",
      "id": "iem-lsr-LCH-20",
      "properties": {
        "report_id": "iem-lsr-LCH-20",
        "report_type": "FLASH FLOOD",
        "event_category": "flooding",
        "valid_utc": "202606161803",
        "standard_time_display": "2026-06-16 12:03 CST",
        "wfo": "LCH",
        "county_or_zone": "Hardin",
        "city": "Wildwood",
        "state": "TX",
        "magnitude": null,
        "magnitude_units": null,
        "source": "Emergency Mngr",
        "event_narrative": "Water entering homes near Wildwood."
      },
      "geometry": {
        "type": "Point",
        "coordinates": [
          -94.45,
          30.51
        ]
      }
    },
    {
      "type": "Feature",
      "id": "iem-lsr-LCH-21",
      "properties": {
        "report_id": "iem-lsr-LCH-21",
        "report_type": "FLASH FLOOD",
        "event_category": "flooding",
        "valid_utc": "202606161806",
        "standard_time_display": "2026-06-16 12:06 CST",
        "wfo": "LCH",
        "county_or_zone": "Rapides",
        "city": "3 WSW Union Hill",
        "state": "LA",
        "magnitude": null,
        "magnitude_units": null,
        "source": "Emergency Mngr",
        "event_narrative": "LA 113 closed at Thunder Valley Speedway due to flash flooding."
      },
      "geometry": {
        "type": "Point",
        "coordinates": [
          -92.77,
          30.99
        ]
      }
    },
    {
      "type": "Feature",
      "id": "iem-lsr-LCH-22",
      "properties": {
        "report_id": "iem-lsr-LCH-22",
        "report_type": "FLASH FLOOD",
        "event_category": "flooding",
        "valid_utc": "202606161807",
        "standard_time_display": "2026-06-16 12:07 CST",
        "wfo": "LCH",
        "county_or_zone": "Avoyelles",
        "city": "Bordelonville",
        "state": "LA",
        "magnitude": null,
        "magnitude_units": null,
        "source": "Broadcast Media",
        "event_narrative": "Picture of flooded roads."
      },
      "geometry": {
        "type": "Point",
        "coordinates": [
          -91.91,
          31.11
        ]
      }
    },
    {
      "type": "Feature",
      "id": "iem-lsr-LCH-23",
      "properties": {
        "report_id": "iem-lsr-LCH-23",
        "report_type": "FLASH FLOOD",
        "event_category": "flooding",
        "valid_utc": "202606161815",
        "standard_time_display": "2026-06-16 12:15 CST",
        "wfo": "LCH",
        "county_or_zone": "Hardin",
        "city": "1 SSE Village Mills",
        "state": "TX",
        "magnitude": null,
        "magnitude_units": null,
        "source": "Mesonet",
        "event_narrative": "Stream gage indicates Village Creek is above flood stage."
      },
      "geometry": {
        "type": "Point",
        "coordinates": [
          -94.39,
          30.48
        ]
      }
    },
    {
      "type": "Feature",
      "id": "iem-lsr-LCH-24",
      "properties": {
        "report_id": "iem-lsr-LCH-24",
        "report_type": "FLASH FLOOD",
        "event_category": "flooding",
        "valid_utc": "202606161824",
        "standard_time_display": "2026-06-16 12:24 CST",
        "wfo": "LCH",
        "county_or_zone": "St. Landry",
        "city": "6 SE Saint Landry",
        "state": "LA",
        "magnitude": null,
        "magnitude_units": null,
        "source": "Mesonet",
        "event_narrative": "Stream gage shows Bayou Cocodrie is above flood."
      },
      "geometry": {
        "type": "Point",
        "coordinates": [
          -92.19,
          30.78
        ]
      }
    },
    {
      "type": "Feature",
      "id": "iem-lsr-LCH-25",
      "properties": {
        "report_id": "iem-lsr-LCH-25",
        "report_type": "FLASH FLOOD",
        "event_category": "flooding",
        "valid_utc": "202606162215",
        "standard_time_display": "2026-06-16 16:15 CST",
        "wfo": "LCH",
        "county_or_zone": "Rapides",
        "city": "Lecompte",
        "state": "LA",
        "magnitude": null,
        "magnitude_units": null,
        "source": "Broadcast Media",
        "event_narrative": "Picture of flooded road and intersection in Lecompte."
      },
      "geometry": {
        "type": "Point",
        "coordinates": [
          -92.4,
          31.09
        ]
      }
    },
    {
      "type": "Feature",
      "id": "iem-lsr-LCH-26",
      "properties": {
        "report_id": "iem-lsr-LCH-26",
        "report_type": "FLASH FLOOD",
        "event_category": "flooding",
        "valid_utc": "202606162215",
        "standard_time_display": "2026-06-16 16:15 CST",
        "wfo": "LCH",
        "county_or_zone": "Avoyelles",
        "city": "Plaucheville",
        "state": "LA",
        "magnitude": null,
        "magnitude_units": null,
        "source": "Public",
        "event_narrative": "Report from mPING: Street/road flooding; Street/road closed; Vehicles stranded."
      },
      "geometry": {
        "type": "Point",
        "coordinates": [
          -91.98,
          30.96
        ]
      }
    },
    {
      "type": "Feature",
      "id": "iem-lsr-LCH-27",
      "properties": {
        "report_id": "iem-lsr-LCH-27",
        "report_type": "COASTAL FLOOD",
        "event_category": "flooding",
        "valid_utc": "202606172032",
        "standard_time_display": "2026-06-17 14:32 CST",
        "wfo": "LCH",
        "county_or_zone": "Cameron",
        "city": "5 W Holly Beach",
        "state": "LA",
        "magnitude": null,
        "magnitude_units": null,
        "source": "Public",
        "event_narrative": "Overwash has deposited debris onto Highway 82 between Constance Beach and Holly Beach."
      },
      "geometry": {
        "type": "Point",
        "coordinates": [
          -93.54,
          29.78
        ]
      }
    },
    {
      "type": "Feature",
      "id": "iem-lsr-LCH-28",
      "properties": {
        "report_id": "iem-lsr-LCH-28",
        "report_type": "COASTAL FLOOD",
        "event_category": "flooding",
        "valid_utc": "202606172200",
        "standard_time_display": "2026-06-17 16:00 CST",
        "wfo": "LCH",
        "county_or_zone": "Cameron",
        "city": "Holly Beach",
        "state": "LA",
        "magnitude": null,
        "magnitude_units": null,
        "source": "Amateur Radio",
        "event_narrative": "Water reported across portions of Highway 82 between Holly Beach and Johnson Bayou. Calcasieu Pass Tide Gage was reporting tide level at 2.0 feet MHHW at the time of the reported flooding_ near 2 fee"
      },
      "geometry": {
        "type": "Point",
        "coordinates": [
          -93.46,
          29.79
        ]
      }
    },
    {
      "type": "Feature",
      "id": "iem-lsr-LCH-29",
      "properties": {
        "report_id": "iem-lsr-LCH-29",
        "report_type": "FLASH FLOOD",
        "event_category": "flooding",
        "valid_utc": "202606181143",
        "standard_time_display": "2026-06-18 05:43 CST",
        "wfo": "LCH",
        "county_or_zone": "Avoyelles",
        "city": "Plaucheville",
        "state": "LA",
        "magnitude": null,
        "magnitude_units": null,
        "source": "Public",
        "event_narrative": "Video of streets flooded."
      },
      "geometry": {
        "type": "Point",
        "coordinates": [
          -91.98,
          30.97
        ]
      }
    }
  ]
}