{
  "type": "FeatureCollection",
  "metadata": {
    "schema_version": "0.2.4",
    "year": 2026,
    "month": 6,
    "wfo": "LOT",
    "start_utc": "2026-06-01T00:00:00Z",
    "end_utc": "2026-07-01T00:00:00Z",
    "generated_utc": "2026-06-06T11:00:19Z",
    "mode": "storm_data_prep",
    "public_release_status": "public-source-derived",
    "time_note": "Storm Data entry times should be reviewed in local Standard Time (ST), not daylight time. Candidate reports include standard_time_display.",
    "tornado_track_policy": "Tornado tracks must come from DAT. NCEI begin/end coordinates are not used as a tornado track substitute.",
    "source": "https://mesonet.agron.iastate.edu/cgi-bin/request/gis/lsr.py?wfo=LOT&sts=2026-06-01T00%3A00%3A00Z&ets=2026-07-01T00%3A00%3A00Z&fmt=csv"
  },
  "features": [
    {
      "type": "Feature",
      "id": "iem-lsr-LOT-1",
      "properties": {
        "report_id": "iem-lsr-LOT-1",
        "report_type": "TSTM WND GST",
        "event_category": "thunderstorm_wind",
        "valid_utc": "202606061000",
        "standard_time_display": "2026-06-06 04:00 CST",
        "wfo": "LOT",
        "county_or_zone": "Livingston",
        "city": "Pontiac",
        "state": "IL",
        "magnitude": 54.0,
        "magnitude_units": null,
        "source": "Public",
        "event_narrative": "Measured wind gust of 54.1 on a personal weather station."
      },
      "geometry": {
        "type": "Point",
        "coordinates": [
          -88.62,
          40.88
        ]
      }
    },
    {
      "type": "Feature",
      "id": "iem-lsr-LOT-2",
      "properties": {
        "report_id": "iem-lsr-LOT-2",
        "report_type": "TSTM WND GST",
        "event_category": "thunderstorm_wind",
        "valid_utc": "202606061004",
        "standard_time_display": "2026-06-06 04:04 CST",
        "wfo": "LOT",
        "county_or_zone": "Livingston",
        "city": "Pontiac",
        "state": "IL",
        "magnitude": 57.0,
        "magnitude_units": null,
        "source": "Public",
        "event_narrative": "Personal weather station measured a 56.8 mph wind gust."
      },
      "geometry": {
        "type": "Point",
        "coordinates": [
          -88.63,
          40.88
        ]
      }
    }
  ]
}