{
  "type": "FeatureCollection",
  "metadata": {
    "schema_version": "0.2.4",
    "year": 2026,
    "month": 8,
    "wfo": "LSX",
    "start_utc": "2026-08-01T00:00:00Z",
    "end_utc": "2026-09-01T00:00:00Z",
    "generated_utc": "2026-08-05T11:28:13Z",
    "mode": "storm_data_prep",
    "public_release_status": "public-source-derived",
    "time_note": "Storm Data entry times should be reviewed in local Standard Time (ST), not daylight time. Candidate reports include standard_time_display.",
    "tornado_track_policy": "Tornado tracks must come from DAT. NCEI begin/end coordinates are not used as a tornado track substitute.",
    "source": "https://mesonet.agron.iastate.edu/cgi-bin/request/gis/lsr.py?wfo=LSX&sts=2026-08-01T00%3A00%3A00Z&ets=2026-09-01T00%3A00%3A00Z&fmt=csv"
  },
  "features": [
    {
      "type": "Feature",
      "id": "iem-lsr-LSX-1",
      "properties": {
        "report_id": "iem-lsr-LSX-1",
        "report_type": "TORNADO",
        "event_category": "tornado",
        "valid_utc": "202608010235",
        "standard_time_display": "2026-07-31 20:35 CST",
        "wfo": "LSX",
        "county_or_zone": "St. Francois",
        "city": "4 NNW Frankclay",
        "state": "MO",
        "magnitude": null,
        "magnitude_units": null,
        "source": "NWS Storm Survey",
        "event_narrative": "An EF1 tornado formed along Stoney Point Rd and briefly tracked southeastward_ producing sporadic tree damage and minor structural damage before dissipating over Lac Capri."
      },
      "geometry": {
        "type": "Point",
        "coordinates": [
          -90.64,
          37.91
        ]
      }
    },
    {
      "type": "Feature",
      "id": "iem-lsr-LSX-2",
      "properties": {
        "report_id": "iem-lsr-LSX-2",
        "report_type": "FLOOD",
        "event_category": "flooding",
        "valid_utc": "202608010236",
        "standard_time_display": "2026-07-31 20:36 CST",
        "wfo": "LSX",
        "county_or_zone": "Washington",
        "city": "2 NE Potosi",
        "state": "MO",
        "magnitude": null,
        "magnitude_units": null,
        "source": "Emergency Mngr",
        "event_narrative": "Water over roadway."
      },
      "geometry": {
        "type": "Point",
        "coordinates": [
          -90.76,
          37.96
        ]
      }
    },
    {
      "type": "Feature",
      "id": "iem-lsr-LSX-3",
      "properties": {
        "report_id": "iem-lsr-LSX-3",
        "report_type": "TSTM WND DMG",
        "event_category": "thunderstorm_wind",
        "valid_utc": "202608010237",
        "standard_time_display": "2026-07-31 20:37 CST",
        "wfo": "LSX",
        "county_or_zone": "St. Francois",
        "city": "2 SSE Valles Mill",
        "state": "MO",
        "magnitude": null,
        "magnitude_units": null,
        "source": "Emergency Mngr",
        "event_narrative": "Large tree blocking Berry Road. Time estimated from radar."
      },
      "geometry": {
        "type": "Point",
        "coordinates": [
          -90.49,
          38.02
        ]
      }
    },
    {
      "type": "Feature",
      "id": "iem-lsr-LSX-4",
      "properties": {
        "report_id": "iem-lsr-LSX-4",
        "report_type": "TSTM WND DMG",
        "event_category": "thunderstorm_wind",
        "valid_utc": "202608010241",
        "standard_time_display": "2026-07-31 20:41 CST",
        "wfo": "LSX",
        "county_or_zone": "St. Francois",
        "city": "2 NNE Iron Mountain",
        "state": "MO",
        "magnitude": null,
        "magnitude_units": null,
        "source": "Emergency Mngr",
        "event_narrative": "Tree across highway N south of Bismarck. Time estimated from radar."
      },
      "geometry": {
        "type": "Point",
        "coordinates": [
          -90.62,
          37.72
        ]
      }
    },
    {
      "type": "Feature",
      "id": "iem-lsr-LSX-5",
      "properties": {
        "report_id": "iem-lsr-LSX-5",
        "report_type": "TSTM WND DMG",
        "event_category": "thunderstorm_wind",
        "valid_utc": "202608010241",
        "standard_time_display": "2026-07-31 20:41 CST",
        "wfo": "LSX",
        "county_or_zone": "St. Francois",
        "city": "3 NNW Frankclay",
        "state": "MO",
        "magnitude": null,
        "magnitude_units": null,
        "source": "Emergency Mngr",
        "event_narrative": "Large tree down across St. Francois Road in Terre Du Lac. Time estimated from radar."
      },
      "geometry": {
        "type": "Point",
        "coordinates": [
          -90.64,
          37.9
        ]
      }
    },
    {
      "type": "Feature",
      "id": "iem-lsr-LSX-6",
      "properties": {
        "report_id": "iem-lsr-LSX-6",
        "report_type": "TSTM WND DMG",
        "event_category": "thunderstorm_wind",
        "valid_utc": "202608010246",
        "standard_time_display": "2026-07-31 20:46 CST",
        "wfo": "LSX",
        "county_or_zone": "St. Francois",
        "city": "3 NNE Bismarck",
        "state": "MO",
        "magnitude": null,
        "magnitude_units": null,
        "source": "Emergency Mngr",
        "event_narrative": "Tree blocking road at Davis Crossing and Highway 32. Time estimated from radar."
      },
      "geometry": {
        "type": "Point",
        "coordinates": [
          -90.59,
          37.81
        ]
      }
    },
    {
      "type": "Feature",
      "id": "iem-lsr-LSX-7",
      "properties": {
        "report_id": "iem-lsr-LSX-7",
        "report_type": "TSTM WND DMG",
        "event_category": "thunderstorm_wind",
        "valid_utc": "202608010247",
        "standard_time_display": "2026-07-31 20:47 CST",
        "wfo": "LSX",
        "county_or_zone": "St. Francois",
        "city": "2 SSW Doe Run",
        "state": "MO",
        "magnitude": null,
        "magnitude_units": null,
        "source": "Public",
        "event_narrative": "Uprooted trees_ damage to roof siding_ gazebo lifted and destroyed. Time estimated by radar."
      },
      "geometry": {
        "type": "Point",
        "coordinates": [
          -90.52,
          37.72
        ]
      }
    },
    {
      "type": "Feature",
      "id": "iem-lsr-LSX-8",
      "properties": {
        "report_id": "iem-lsr-LSX-8",
        "report_type": "TSTM WND DMG",
        "event_category": "thunderstorm_wind",
        "valid_utc": "202608010250",
        "standard_time_display": "2026-07-31 20:50 CST",
        "wfo": "LSX",
        "county_or_zone": "St. Francois",
        "city": "2 S Doe Run",
        "state": "MO",
        "magnitude": null,
        "magnitude_units": null,
        "source": "Public",
        "event_narrative": "Large tree across both lanes of Buck Mountain Road. Time estimated from radar."
      },
      "geometry": {
        "type": "Point",
        "coordinates": [
          -90.5,
          37.71
        ]
      }
    },
    {
      "type": "Feature",
      "id": "iem-lsr-LSX-9",
      "properties": {
        "report_id": "iem-lsr-LSX-9",
        "report_type": "TSTM WND DMG",
        "event_category": "thunderstorm_wind",
        "valid_utc": "202608010251",
        "standard_time_display": "2026-07-31 20:51 CST",
        "wfo": "LSX",
        "county_or_zone": "St. Francois",
        "city": "1 NNW Leadington",
        "state": "MO",
        "magnitude": null,
        "magnitude_units": null,
        "source": "Emergency Mngr",
        "event_narrative": "Tree on US Highway 67 just north of St. Francois State park. Time estimated from radar."
      },
      "geometry": {
        "type": "Point",
        "coordinates": [
          -90.48,
          37.84
        ]
      }
    },
    {
      "type": "Feature",
      "id": "iem-lsr-LSX-10",
      "properties": {
        "report_id": "iem-lsr-LSX-10",
        "report_type": "TSTM WND DMG",
        "event_category": "thunderstorm_wind",
        "valid_utc": "202608010254",
        "standard_time_display": "2026-07-31 20:54 CST",
        "wfo": "LSX",
        "county_or_zone": "St. Francois",
        "city": "2 NNE Doe Run",
        "state": "MO",
        "magnitude": null,
        "magnitude_units": null,
        "source": "County Official",
        "event_narrative": "Tree down near entrance to St. Joe State Park_ blocking entire roadway. Time estimated from radar."
      },
      "geometry": {
        "type": "Point",
        "coordinates": [
          -90.49,
          37.78
        ]
      }
    },
    {
      "type": "Feature",
      "id": "iem-lsr-LSX-11",
      "properties": {
        "report_id": "iem-lsr-LSX-11",
        "report_type": "TSTM WND DMG",
        "event_category": "thunderstorm_wind",
        "valid_utc": "202608010256",
        "standard_time_display": "2026-07-31 20:56 CST",
        "wfo": "LSX",
        "county_or_zone": "St. Francois",
        "city": "Farmington",
        "state": "MO",
        "magnitude": null,
        "magnitude_units": null,
        "source": "Emergency Mngr",
        "event_narrative": "Tree debris on Boyce Street. Minor siding/gutter damage to home. Time estimated from radar."
      },
      "geometry": {
        "type": "Point",
        "coordinates": [
          -90.43,
          37.78
        ]
      }
    },
    {
      "type": "Feature",
      "id": "iem-lsr-LSX-12",
      "properties": {
        "report_id": "iem-lsr-LSX-12",
        "report_type": "TSTM WND DMG",
        "event_category": "thunderstorm_wind",
        "valid_utc": "202608010258",
        "standard_time_display": "2026-07-31 20:58 CST",
        "wfo": "LSX",
        "county_or_zone": "St. Francois",
        "city": "4 NW Libertyville",
        "state": "MO",
        "magnitude": null,
        "magnitude_units": null,
        "source": "Emergency Mngr",
        "event_narrative": "Power lines down near Plum Creek Road and Highway OO. Time estimated from radar."
      },
      "geometry": {
        "type": "Point",
        "coordinates": [
          -90.35,
          37.74
        ]
      }
    },
    {
      "type": "Feature",
      "id": "iem-lsr-LSX-13",
      "properties": {
        "report_id": "iem-lsr-LSX-13",
        "report_type": "TSTM WND DMG",
        "event_category": "thunderstorm_wind",
        "valid_utc": "202608010308",
        "standard_time_display": "2026-07-31 21:08 CST",
        "wfo": "LSX",
        "county_or_zone": "St. Francois",
        "city": "3 E Farmington",
        "state": "MO",
        "magnitude": null,
        "magnitude_units": null,
        "source": "Trained Spotter",
        "event_narrative": "14in diameter tree snapped halfway up the trunk covering Rt 32. Time estimated via radar."
      },
      "geometry": {
        "type": "Point",
        "coordinates": [
          -90.37,
          37.79
        ]
      }
    }
  ]
}