{
  "type": "FeatureCollection",
  "metadata": {
    "schema_version": "0.2.4",
    "year": 2026,
    "month": 6,
    "wfo": "CAR",
    "start_utc": "2026-06-01T00:00:00Z",
    "end_utc": "2026-07-01T00:00:00Z",
    "generated_utc": "2026-06-17T12:57:26Z",
    "mode": "storm_data_prep",
    "public_release_status": "public-source-derived",
    "time_note": "Storm Data entry times should be reviewed in local Standard Time (ST), not daylight time. Candidate reports include standard_time_display.",
    "tornado_track_policy": "Tornado tracks must come from DAT. NCEI begin/end coordinates are not used as a tornado track substitute.",
    "source": "https://mesonet.agron.iastate.edu/cgi-bin/request/gis/lsr.py?wfo=CAR&sts=2026-06-01T00%3A00%3A00Z&ets=2026-07-01T00%3A00%3A00Z&fmt=csv"
  },
  "features": [
    {
      "type": "Feature",
      "id": "iem-lsr-CAR-1",
      "properties": {
        "report_id": "iem-lsr-CAR-1",
        "report_type": "HAIL",
        "event_category": "hail",
        "valid_utc": "202606122130",
        "standard_time_display": "2026-06-12 16:30 EST",
        "wfo": "CAR",
        "county_or_zone": "Piscataquis",
        "city": "1 ENE Sebec",
        "state": "ME",
        "magnitude": 0.25,
        "magnitude_units": null,
        "source": "Trained Spotter",
        "event_narrative": null
      },
      "geometry": {
        "type": "Point",
        "coordinates": [
          -69.1,
          45.28
        ]
      }
    },
    {
      "type": "Feature",
      "id": "iem-lsr-CAR-2",
      "properties": {
        "report_id": "iem-lsr-CAR-2",
        "report_type": "FLOOD",
        "event_category": "flooding",
        "valid_utc": "202606122130",
        "standard_time_display": "2026-06-12 16:30 EST",
        "wfo": "CAR",
        "county_or_zone": "Piscataquis",
        "city": "1 ENE Sebec",
        "state": "ME",
        "magnitude": null,
        "magnitude_units": null,
        "source": "Trained Spotter",
        "event_narrative": "report of Old Brownville Road washed out in places."
      },
      "geometry": {
        "type": "Point",
        "coordinates": [
          -69.1,
          45.28
        ]
      }
    },
    {
      "type": "Feature",
      "id": "iem-lsr-CAR-3",
      "properties": {
        "report_id": "iem-lsr-CAR-3",
        "report_type": "TSTM WND DMG",
        "event_category": "thunderstorm_wind",
        "valid_utc": "202606122246",
        "standard_time_display": "2026-06-12 17:46 EST",
        "wfo": "CAR",
        "county_or_zone": "Piscataquis",
        "city": "1 W Guilford",
        "state": "ME",
        "magnitude": null,
        "magnitude_units": null,
        "source": "Fire Dept/Rescue",
        "event_narrative": "Delayed Report. One tree down partially blocking Tenney Hill Road. Time estimated by radar."
      },
      "geometry": {
        "type": "Point",
        "coordinates": [
          -69.41,
          45.17
        ]
      }
    },
    {
      "type": "Feature",
      "id": "iem-lsr-CAR-4",
      "properties": {
        "report_id": "iem-lsr-CAR-4",
        "report_type": "FLOOD",
        "event_category": "flooding",
        "valid_utc": "202606122259",
        "standard_time_display": "2026-06-12 17:59 EST",
        "wfo": "CAR",
        "county_or_zone": "Piscataquis",
        "city": "3 SSE Sebec",
        "state": "ME",
        "magnitude": null,
        "magnitude_units": null,
        "source": "Trained Spotter",
        "event_narrative": "PS064 reports minor street flooding at Milo Rd and Sebec Village Rd."
      },
      "geometry": {
        "type": "Point",
        "coordinates": [
          -69.1,
          45.23
        ]
      }
    },
    {
      "type": "Feature",
      "id": "iem-lsr-CAR-5",
      "properties": {
        "report_id": "iem-lsr-CAR-5",
        "report_type": "FLOOD",
        "event_category": "flooding",
        "valid_utc": "202606122315",
        "standard_time_display": "2026-06-12 18:15 EST",
        "wfo": "CAR",
        "county_or_zone": "Piscataquis",
        "city": "4 WNW Atkinson",
        "state": "ME",
        "magnitude": null,
        "magnitude_units": null,
        "source": "Public",
        "event_narrative": "Minor flooding of Range Road."
      },
      "geometry": {
        "type": "Point",
        "coordinates": [
          -69.15,
          45.18
        ]
      }
    },
    {
      "type": "Feature",
      "id": "iem-lsr-CAR-6",
      "properties": {
        "report_id": "iem-lsr-CAR-6",
        "report_type": "TSTM WND DMG",
        "event_category": "thunderstorm_wind",
        "valid_utc": "202606122345",
        "standard_time_display": "2026-06-12 18:45 EST",
        "wfo": "CAR",
        "county_or_zone": "Piscataquis",
        "city": "1 W Brownville Junction",
        "state": "ME",
        "magnitude": null,
        "magnitude_units": null,
        "source": "Fire Dept/Rescue",
        "event_narrative": "Fire Department reports large trees down_ a 14 in diameter tree_ and a 2 ft diameter tree."
      },
      "geometry": {
        "type": "Point",
        "coordinates": [
          -69.08,
          45.35
        ]
      }
    },
    {
      "type": "Feature",
      "id": "iem-lsr-CAR-7",
      "properties": {
        "report_id": "iem-lsr-CAR-7",
        "report_type": "TSTM WND DMG",
        "event_category": "thunderstorm_wind",
        "valid_utc": "202606122345",
        "standard_time_display": "2026-06-12 18:45 EST",
        "wfo": "CAR",
        "county_or_zone": "Piscataquis",
        "city": "1 WNW Brownville",
        "state": "ME",
        "magnitude": null,
        "magnitude_units": null,
        "source": "Fire Dept/Rescue",
        "event_narrative": "Fire Department reports trees down on Quarry Road with 3-8 in diameter."
      },
      "geometry": {
        "type": "Point",
        "coordinates": [
          -69.06,
          45.32
        ]
      }
    },
    {
      "type": "Feature",
      "id": "iem-lsr-CAR-8",
      "properties": {
        "report_id": "iem-lsr-CAR-8",
        "report_type": "RAIN",
        "event_category": "other",
        "valid_utc": "202606130907",
        "standard_time_display": "2026-06-13 04:07 EST",
        "wfo": "CAR",
        "county_or_zone": "Aroostook",
        "city": "1 WSW Madawaska",
        "state": "ME",
        "magnitude": 1.07,
        "magnitude_units": null,
        "source": "Trained Spotter",
        "event_narrative": null
      },
      "geometry": {
        "type": "Point",
        "coordinates": [
          -68.35,
          47.35
        ]
      }
    }
  ]
}