{
  "type": "FeatureCollection",
  "metadata": {
    "schema_version": "0.2.4",
    "year": 2026,
    "month": 6,
    "wfo": "ILM",
    "start_utc": "2026-06-01T00:00:00Z",
    "end_utc": "2026-07-01T00:00:00Z",
    "generated_utc": "2026-06-13T11:24:46Z",
    "mode": "storm_data_prep",
    "public_release_status": "public-source-derived",
    "time_note": "Storm Data entry times should be reviewed in local Standard Time (ST), not daylight time. Candidate reports include standard_time_display.",
    "tornado_track_policy": "Tornado tracks must come from DAT. NCEI begin/end coordinates are not used as a tornado track substitute.",
    "source": "https://mesonet.agron.iastate.edu/cgi-bin/request/gis/lsr.py?wfo=ILM&sts=2026-06-01T00%3A00%3A00Z&ets=2026-07-01T00%3A00%3A00Z&fmt=csv"
  },
  "features": [
    {
      "type": "Feature",
      "id": "iem-lsr-ILM-1",
      "properties": {
        "report_id": "iem-lsr-ILM-1",
        "report_type": "RIP CURRENTS",
        "event_category": "marine",
        "valid_utc": "202606061959",
        "standard_time_display": "2026-06-06 14:59 EST",
        "wfo": "ILM",
        "county_or_zone": "New Hanover",
        "city": "0 NE Wrightsville Beach",
        "state": "NC",
        "magnitude": null,
        "magnitude_units": null,
        "source": "Lifeguard",
        "event_narrative": "15 Rip Current Rescues Logged Today by Wrightsville Beach Ocean Rescue."
      },
      "geometry": {
        "type": "Point",
        "coordinates": [
          -77.79,
          34.21
        ]
      }
    }
  ]
}