{
  "type": "FeatureCollection",
  "metadata": {
    "schema_version": "0.2.4",
    "year": 2026,
    "month": 4,
    "wfo": "MHX",
    "start_utc": "2026-04-01T00:00:00Z",
    "end_utc": "2026-05-01T00:00:00Z",
    "generated_utc": "2026-06-28T11:19:22Z",
    "mode": "storm_data_prep",
    "public_release_status": "public-source-derived",
    "time_note": "Storm Data entry times should be reviewed in local Standard Time (ST), not daylight time. Candidate reports include standard_time_display.",
    "tornado_track_policy": "Tornado tracks must come from DAT. NCEI begin/end coordinates are not used as a tornado track substitute.",
    "source": "https://mesonet.agron.iastate.edu/cgi-bin/request/gis/lsr.py?wfo=MHX&sts=2026-04-01T00%3A00%3A00Z&ets=2026-05-01T00%3A00%3A00Z&fmt=csv"
  },
  "features": [
    {
      "type": "Feature",
      "id": "iem-lsr-MHX-1",
      "properties": {
        "report_id": "iem-lsr-MHX-1",
        "report_type": "MARINE TSTM WIND",
        "event_category": "marine",
        "valid_utc": "202604051955",
        "standard_time_display": "2026-04-05 14:55 EST",
        "wfo": "MHX",
        "county_or_zone": "AMZ230",
        "city": "7 NNE Mackeys",
        "state": "NC",
        "magnitude": 39.0,
        "magnitude_units": null,
        "source": "Mesonet",
        "event_narrative": "Wind gust recorded on a personal weather station as thunderstorms moved through the area. Report came in via WeatherFlow."
      },
      "geometry": {
        "type": "Point",
        "coordinates": [
          -76.6,
          36.03
        ]
      }
    },
    {
      "type": "Feature",
      "id": "iem-lsr-MHX-2",
      "properties": {
        "report_id": "iem-lsr-MHX-2",
        "report_type": "MARINE TSTM WIND",
        "event_category": "marine",
        "valid_utc": "202604052015",
        "standard_time_display": "2026-04-05 15:15 EST",
        "wfo": "MHX",
        "county_or_zone": "AMZ136",
        "city": "2 N Bath",
        "state": "NC",
        "magnitude": 41.0,
        "magnitude_units": null,
        "source": "Mesonet",
        "event_narrative": "36 knot wind gust measured on a personal weather station as thunderstorms moved through the area. Report came in via WeatherFlow."
      },
      "geometry": {
        "type": "Point",
        "coordinates": [
          -76.81,
          35.5
        ]
      }
    },
    {
      "type": "Feature",
      "id": "iem-lsr-MHX-3",
      "properties": {
        "report_id": "iem-lsr-MHX-3",
        "report_type": "MARINE TSTM WIND",
        "event_category": "marine",
        "valid_utc": "202604052059",
        "standard_time_display": "2026-04-05 15:59 EST",
        "wfo": "MHX",
        "county_or_zone": "AMZ131",
        "city": "3 WNW East Lake",
        "state": "NC",
        "magnitude": 46.0,
        "magnitude_units": null,
        "source": "Mesonet",
        "event_narrative": "Alligator Bridge Wxflow gusted to 40 knots."
      },
      "geometry": {
        "type": "Point",
        "coordinates": [
          -76.0,
          35.9
        ]
      }
    },
    {
      "type": "Feature",
      "id": "iem-lsr-MHX-4",
      "properties": {
        "report_id": "iem-lsr-MHX-4",
        "report_type": "TSTM WND DMG",
        "event_category": "thunderstorm_wind",
        "valid_utc": "202604060440",
        "standard_time_display": "2026-04-05 23:40 EST",
        "wfo": "MHX",
        "county_or_zone": "Pamlico",
        "city": "Stonewall",
        "state": "NC",
        "magnitude": null,
        "magnitude_units": null,
        "source": "NWS Storm Survey",
        "event_narrative": "*** 1 INJ *** Delayed report. In coordination with Pamlico County Emergency Management_ a survey of damage along HWY 55 in Stonewall found damage consistent with straight line winds of 80 to 90 mph."
      },
      "geometry": {
        "type": "Point",
        "coordinates": [
          -76.74,
          35.13
        ]
      }
    },
    {
      "type": "Feature",
      "id": "iem-lsr-MHX-5",
      "properties": {
        "report_id": "iem-lsr-MHX-5",
        "report_type": "MARINE TSTM WIND",
        "event_category": "marine",
        "valid_utc": "202604060542",
        "standard_time_display": "2026-04-06 00:42 EST",
        "wfo": "MHX",
        "county_or_zone": "AMZ135",
        "city": "3 NNW Ocracoke Lighthou",
        "state": "NC",
        "magnitude": 40.0,
        "magnitude_units": null,
        "source": "Mesonet",
        "event_narrative": "35 kt wind gust recorded at the Ocracoke XOCR WeatherFlow Station in the Pamlico Sound as thunderstorms moved through the area."
      },
      "geometry": {
        "type": "Point",
        "coordinates": [
          -76.01,
          35.15
        ]
      }
    },
    {
      "type": "Feature",
      "id": "iem-lsr-MHX-6",
      "properties": {
        "report_id": "iem-lsr-MHX-6",
        "report_type": "MARINE TSTM WIND",
        "event_category": "marine",
        "valid_utc": "202604191637",
        "standard_time_display": "2026-04-19 11:37 EST",
        "wfo": "MHX",
        "county_or_zone": "AMZ150",
        "city": "Whalebone",
        "state": "NC",
        "magnitude": 47.0,
        "magnitude_units": null,
        "source": "Mesonet",
        "event_narrative": "Non-thunderstorm winds associated with a cold front gusted to 47 mph (41 kt)."
      },
      "geometry": {
        "type": "Point",
        "coordinates": [
          -75.59,
          35.91
        ]
      }
    },
    {
      "type": "Feature",
      "id": "iem-lsr-MHX-7",
      "properties": {
        "report_id": "iem-lsr-MHX-7",
        "report_type": "MARINE TSTM WIND",
        "event_category": "marine",
        "valid_utc": "202604191641",
        "standard_time_display": "2026-04-19 11:41 EST",
        "wfo": "MHX",
        "county_or_zone": "AMZ231",
        "city": "2 W Nags Head",
        "state": "NC",
        "magnitude": 40.0,
        "magnitude_units": null,
        "source": "Mesonet",
        "event_narrative": "Non-thunderstorm winds associated with a cold front gusted to 40 mph."
      },
      "geometry": {
        "type": "Point",
        "coordinates": [
          -75.66,
          35.94
        ]
      }
    },
    {
      "type": "Feature",
      "id": "iem-lsr-MHX-8",
      "properties": {
        "report_id": "iem-lsr-MHX-8",
        "report_type": "MARINE TSTM WIND",
        "event_category": "marine",
        "valid_utc": "202604191653",
        "standard_time_display": "2026-04-19 11:53 EST",
        "wfo": "MHX",
        "county_or_zone": "Dare",
        "city": "1 SSE Oregon Inlet",
        "state": "NC",
        "magnitude": 46.0,
        "magnitude_units": null,
        "source": "Mesonet",
        "event_narrative": "Corrects previous marine tstm wind report from 1 SSE Oregon Inlet. Winds associated with a cold front gusted to 46 mph (40 kt)."
      },
      "geometry": {
        "type": "Point",
        "coordinates": [
          -75.53,
          35.77
        ]
      }
    },
    {
      "type": "Feature",
      "id": "iem-lsr-MHX-9",
      "properties": {
        "report_id": "iem-lsr-MHX-9",
        "report_type": "MARINE TSTM WIND",
        "event_category": "marine",
        "valid_utc": "202604191703",
        "standard_time_display": "2026-04-19 12:03 EST",
        "wfo": "MHX",
        "county_or_zone": "AMZ131",
        "city": "3 WNW East Lake",
        "state": "NC",
        "magnitude": 43.0,
        "magnitude_units": null,
        "source": "Mesonet",
        "event_narrative": "Alligator Bridge - XALI WeatherFlow Station gusted to 37kt. Gusts were associated with cold front."
      },
      "geometry": {
        "type": "Point",
        "coordinates": [
          -76.01,
          35.9
        ]
      }
    },
    {
      "type": "Feature",
      "id": "iem-lsr-MHX-10",
      "properties": {
        "report_id": "iem-lsr-MHX-10",
        "report_type": "MARINE TSTM WIND",
        "event_category": "marine",
        "valid_utc": "202604191717",
        "standard_time_display": "2026-04-19 12:17 EST",
        "wfo": "MHX",
        "county_or_zone": "Dare",
        "city": "1 SSE Oregon Inlet",
        "state": "NC",
        "magnitude": 46.0,
        "magnitude_units": null,
        "source": "Mesonet",
        "event_narrative": "Winds associated with a cold front gusted to 46 mph (40 kt)."
      },
      "geometry": {
        "type": "Point",
        "coordinates": [
          -75.53,
          35.77
        ]
      }
    },
    {
      "type": "Feature",
      "id": "iem-lsr-MHX-11",
      "properties": {
        "report_id": "iem-lsr-MHX-11",
        "report_type": "MARINE TSTM WIND",
        "event_category": "marine",
        "valid_utc": "202604191751",
        "standard_time_display": "2026-04-19 12:51 EST",
        "wfo": "MHX",
        "county_or_zone": "AMZ135",
        "city": "1 W Waves",
        "state": "NC",
        "magnitude": 47.0,
        "magnitude_units": null,
        "source": "Mesonet",
        "event_narrative": "Winds associated with a cold front gusted to 47 mph (41 kt)."
      },
      "geometry": {
        "type": "Point",
        "coordinates": [
          -75.49,
          35.57
        ]
      }
    },
    {
      "type": "Feature",
      "id": "iem-lsr-MHX-12",
      "properties": {
        "report_id": "iem-lsr-MHX-12",
        "report_type": "MARINE TSTM WIND",
        "event_category": "marine",
        "valid_utc": "202604191757",
        "standard_time_display": "2026-04-19 12:57 EST",
        "wfo": "MHX",
        "county_or_zone": "AMZ135",
        "city": "11 ESE Middletown",
        "state": "NC",
        "magnitude": 46.0,
        "magnitude_units": null,
        "source": "Mesonet",
        "event_narrative": "Pamlico Sound - XPM2 WeatherFlow Station gusted to 40kt. Winds were associated with cold front."
      },
      "geometry": {
        "type": "Point",
        "coordinates": [
          -75.83,
          35.43
        ]
      }
    },
    {
      "type": "Feature",
      "id": "iem-lsr-MHX-13",
      "properties": {
        "report_id": "iem-lsr-MHX-13",
        "report_type": "MARINE TSTM WIND",
        "event_category": "marine",
        "valid_utc": "202604191757",
        "standard_time_display": "2026-04-19 12:57 EST",
        "wfo": "MHX",
        "county_or_zone": "AMZ135",
        "city": "1 N Avon",
        "state": "NC",
        "magnitude": 46.0,
        "magnitude_units": null,
        "source": "Mesonet",
        "event_narrative": "Avon Sound - XAVN WeatherFlow Station gusted to 40kt. Winds were associated with cold front."
      },
      "geometry": {
        "type": "Point",
        "coordinates": [
          -75.51,
          35.37
        ]
      }
    },
    {
      "type": "Feature",
      "id": "iem-lsr-MHX-14",
      "properties": {
        "report_id": "iem-lsr-MHX-14",
        "report_type": "MARINE TSTM WIND",
        "event_category": "marine",
        "valid_utc": "202604191838",
        "standard_time_display": "2026-04-19 13:38 EST",
        "wfo": "MHX",
        "county_or_zone": "Dare",
        "city": "Hatteras Island Fishing",
        "state": "NC",
        "magnitude": 39.0,
        "magnitude_units": null,
        "source": "Public",
        "event_narrative": "Winds associated with a cold front gusted to 39 mph (34 kt)."
      },
      "geometry": {
        "type": "Point",
        "coordinates": [
          -75.47,
          35.58
        ]
      }
    },
    {
      "type": "Feature",
      "id": "iem-lsr-MHX-15",
      "properties": {
        "report_id": "iem-lsr-MHX-15",
        "report_type": "MARINE TSTM WIND",
        "event_category": "marine",
        "valid_utc": "202604191840",
        "standard_time_display": "2026-04-19 13:40 EST",
        "wfo": "MHX",
        "county_or_zone": "AMZ154",
        "city": "18 SSE Cape Hatteras Li",
        "state": "NC",
        "magnitude": 53.0,
        "magnitude_units": null,
        "source": "Buoy",
        "event_narrative": "Diamond Shoals (41025) gusted to 46kt. Winds were associated with cold front."
      },
      "geometry": {
        "type": "Point",
        "coordinates": [
          -75.4,
          35.01
        ]
      }
    },
    {
      "type": "Feature",
      "id": "iem-lsr-MHX-16",
      "properties": {
        "report_id": "iem-lsr-MHX-16",
        "report_type": "MARINE TSTM WIND",
        "event_category": "marine",
        "valid_utc": "202604192000",
        "standard_time_display": "2026-04-19 15:00 EST",
        "wfo": "MHX",
        "county_or_zone": "Carteret",
        "city": "1 SSW Cape Lookout Ligh",
        "state": "NC",
        "magnitude": 51.0,
        "magnitude_units": null,
        "source": "Mesonet",
        "event_narrative": "Cape Lookout Weather Station reported 44kt gust. Winds were associated with a cold front."
      },
      "geometry": {
        "type": "Point",
        "coordinates": [
          -76.53,
          34.61
        ]
      }
    },
    {
      "type": "Feature",
      "id": "iem-lsr-MHX-17",
      "properties": {
        "report_id": "iem-lsr-MHX-17",
        "report_type": "MARINE TSTM WIND",
        "event_category": "marine",
        "valid_utc": "202604192000",
        "standard_time_display": "2026-04-19 15:00 EST",
        "wfo": "MHX",
        "county_or_zone": "AMZ135",
        "city": "3 NNW Ocracoke Lighthou",
        "state": "NC",
        "magnitude": 51.0,
        "magnitude_units": null,
        "source": "Mesonet",
        "event_narrative": "Ocracoke - XOCR WeatherFlow Station reported 44kt gust. Winds were associated with a cold front."
      },
      "geometry": {
        "type": "Point",
        "coordinates": [
          -76.01,
          35.15
        ]
      }
    },
    {
      "type": "Feature",
      "id": "iem-lsr-MHX-18",
      "properties": {
        "report_id": "iem-lsr-MHX-18",
        "report_type": "MARINE TSTM WIND",
        "event_category": "marine",
        "valid_utc": "202604192000",
        "standard_time_display": "2026-04-19 15:00 EST",
        "wfo": "MHX",
        "county_or_zone": "AMZ158",
        "city": "Marshallberg",
        "state": "NC",
        "magnitude": 51.0,
        "magnitude_units": null,
        "source": "Mesonet",
        "event_narrative": "Bernies Station WeatherFlow Station reported 44kt gust. Winds were associated with a cold front."
      },
      "geometry": {
        "type": "Point",
        "coordinates": [
          -76.52,
          34.73
        ]
      }
    },
    {
      "type": "Feature",
      "id": "iem-lsr-MHX-19",
      "properties": {
        "report_id": "iem-lsr-MHX-19",
        "report_type": "MARINE TSTM WIND",
        "event_category": "marine",
        "valid_utc": "202604192040",
        "standard_time_display": "2026-04-19 15:40 EST",
        "wfo": "MHX",
        "county_or_zone": "AMZ154",
        "city": "18 SSE Cape Hatteras Li",
        "state": "NC",
        "magnitude": 47.0,
        "magnitude_units": null,
        "source": "Buoy",
        "event_narrative": "Diamond Shoals Buoy reported wind gust of 41 knots associated with the cold front."
      },
      "geometry": {
        "type": "Point",
        "coordinates": [
          -75.36,
          35.03
        ]
      }
    },
    {
      "type": "Feature",
      "id": "iem-lsr-MHX-20",
      "properties": {
        "report_id": "iem-lsr-MHX-20",
        "report_type": "MARINE TSTM WIND",
        "event_category": "marine",
        "valid_utc": "202604241930",
        "standard_time_display": "2026-04-24 14:30 EST",
        "wfo": "MHX",
        "county_or_zone": "AMZ150",
        "city": "1 NNE Duck",
        "state": "NC",
        "magnitude": 45.0,
        "magnitude_units": null,
        "source": "Mesonet",
        "event_narrative": "Peak wind gust of 39kt measured at the Duck Pier."
      },
      "geometry": {
        "type": "Point",
        "coordinates": [
          -75.75,
          36.18
        ]
      }
    }
  ]
}