{
  "type": "FeatureCollection",
  "metadata": {
    "schema_version": "0.2.4",
    "year": 2026,
    "month": 9,
    "wfo": "MOB",
    "start_utc": "2026-09-01T00:00:00Z",
    "end_utc": "2026-10-01T00:00:00Z",
    "generated_utc": "2026-09-11T13:32:56Z",
    "mode": "storm_data_prep",
    "public_release_status": "public-source-derived",
    "time_note": "Storm Data entry times should be reviewed in local Standard Time (ST), not daylight time. Candidate reports include standard_time_display.",
    "tornado_track_policy": "Tornado tracks must come from DAT. NCEI begin/end coordinates are not used as a tornado track substitute.",
    "source": "https://mesonet.agron.iastate.edu/cgi-bin/request/gis/lsr.py?wfo=MOB&sts=2026-09-01T00%3A00%3A00Z&ets=2026-10-01T00%3A00%3A00Z&fmt=csv"
  },
  "features": [
    {
      "type": "Feature",
      "id": "iem-lsr-MOB-1",
      "properties": {
        "report_id": "iem-lsr-MOB-1",
        "report_type": "MARINE TSTM WIND",
        "event_category": "marine",
        "valid_utc": "202609021917",
        "standard_time_display": "2026-09-02 13:17 CST",
        "wfo": "MOB",
        "county_or_zone": "Mobile",
        "city": "2 SSW Brookley Field AS",
        "state": "AL",
        "magnitude": 39.0,
        "magnitude_units": null,
        "source": "Mesonet",
        "event_narrative": "WeatherFlow station XBUC at Buccaneer Yacht Club gusted to 39 mph."
      },
      "geometry": {
        "type": "Point",
        "coordinates": [
          -88.07,
          30.58
        ]
      }
    },
    {
      "type": "Feature",
      "id": "iem-lsr-MOB-2",
      "properties": {
        "report_id": "iem-lsr-MOB-2",
        "report_type": "WATERSPOUT",
        "event_category": "tornado",
        "valid_utc": "202609071221",
        "standard_time_display": "2026-09-07 06:21 CST",
        "wfo": "MOB",
        "county_or_zone": "GMZ655",
        "city": "9 SE Oriole Beach",
        "state": "FL",
        "magnitude": null,
        "magnitude_units": null,
        "source": "Public",
        "event_narrative": "Public beach webcam showed a well-defined waterspout southeast of Gulf Breeze. Lasted about 5 to 8 minutes."
      },
      "geometry": {
        "type": "Point",
        "coordinates": [
          -86.99,
          30.28
        ]
      }
    },
    {
      "type": "Feature",
      "id": "iem-lsr-MOB-3",
      "properties": {
        "report_id": "iem-lsr-MOB-3",
        "report_type": "TSTM WND GST",
        "event_category": "thunderstorm_wind",
        "valid_utc": "202609072032",
        "standard_time_display": "2026-09-07 14:32 CST",
        "wfo": "MOB",
        "county_or_zone": "Conecuh",
        "city": "2 W I65 And Us 84",
        "state": "AL",
        "magnitude": 58.0,
        "magnitude_units": null,
        "source": "ASOS",
        "event_narrative": "KGZH Evergreen Airport ASOS measures thunderstorm wind gust of 58mph."
      },
      "geometry": {
        "type": "Point",
        "coordinates": [
          -87.05,
          31.42
        ]
      }
    },
    {
      "type": "Feature",
      "id": "iem-lsr-MOB-4",
      "properties": {
        "report_id": "iem-lsr-MOB-4",
        "report_type": "TSTM WND DMG",
        "event_category": "thunderstorm_wind",
        "valid_utc": "202609072039",
        "standard_time_display": "2026-09-07 14:39 CST",
        "wfo": "MOB",
        "county_or_zone": "Escambia",
        "city": "3 NW Keego",
        "state": "AL",
        "magnitude": null,
        "magnitude_units": null,
        "source": "Broadcast Media",
        "event_narrative": "Broadcast media relays report of numerous trees down across the Pollard/McCall area near Foshee Road. Time and location estimated by radar."
      },
      "geometry": {
        "type": "Point",
        "coordinates": [
          -87.17,
          31.1
        ]
      }
    },
    {
      "type": "Feature",
      "id": "iem-lsr-MOB-5",
      "properties": {
        "report_id": "iem-lsr-MOB-5",
        "report_type": "TSTM WND DMG",
        "event_category": "thunderstorm_wind",
        "valid_utc": "202609072045",
        "standard_time_display": "2026-09-07 14:45 CST",
        "wfo": "MOB",
        "county_or_zone": "Clarke",
        "city": "Roundhill",
        "state": "AL",
        "magnitude": null,
        "magnitude_units": null,
        "source": "911 Call Center",
        "event_narrative": "911 Call Center relays several reports of trees down east of Thomasville along Northeast Main Street and near Roundhill. Time estimated by radar."
      },
      "geometry": {
        "type": "Point",
        "coordinates": [
          -87.71,
          31.89
        ]
      }
    },
    {
      "type": "Feature",
      "id": "iem-lsr-MOB-6",
      "properties": {
        "report_id": "iem-lsr-MOB-6",
        "report_type": "TSTM WND DMG",
        "event_category": "thunderstorm_wind",
        "valid_utc": "202609072145",
        "standard_time_display": "2026-09-07 15:45 CST",
        "wfo": "MOB",
        "county_or_zone": "Clarke",
        "city": "Roundhill",
        "state": "AL",
        "magnitude": null,
        "magnitude_units": null,
        "source": "911 Call Center",
        "event_narrative": "Corrects previous tstm wnd dmg report from Roundhill. 911 Call Center relays several reports of trees down east of Thomasville along Northeast Main Street and near Roundhill. Time estimated by radar."
      },
      "geometry": {
        "type": "Point",
        "coordinates": [
          -87.71,
          31.89
        ]
      }
    },
    {
      "type": "Feature",
      "id": "iem-lsr-MOB-7",
      "properties": {
        "report_id": "iem-lsr-MOB-7",
        "report_type": "MARINE TSTM WIND",
        "event_category": "marine",
        "valid_utc": "202609072222",
        "standard_time_display": "2026-09-07 16:22 CST",
        "wfo": "MOB",
        "county_or_zone": "GMZ635",
        "city": "4 W Destin",
        "state": "FL",
        "magnitude": 54.0,
        "magnitude_units": null,
        "source": "Mesonet",
        "event_narrative": "Fort Walton Beach WeatherFlow station measures marine thunderstorm wind gust to 54mph."
      },
      "geometry": {
        "type": "Point",
        "coordinates": [
          -86.56,
          30.4
        ]
      }
    },
    {
      "type": "Feature",
      "id": "iem-lsr-MOB-8",
      "properties": {
        "report_id": "iem-lsr-MOB-8",
        "report_type": "MARINE TSTM WIND",
        "event_category": "marine",
        "valid_utc": "202609111115",
        "standard_time_display": "2026-09-11 05:15 CST",
        "wfo": "MOB",
        "county_or_zone": "GMZ634",
        "city": "5 E Oriole Beach",
        "state": "FL",
        "magnitude": 42.0,
        "magnitude_units": null,
        "source": "Mesonet",
        "event_narrative": "Santa Rosa Sound WeatherFlow site DB127 measures marine thunderstorm wind gust of 42mph."
      },
      "geometry": {
        "type": "Point",
        "coordinates": [
          -87.0,
          30.38
        ]
      }
    },
    {
      "type": "Feature",
      "id": "iem-lsr-MOB-9",
      "properties": {
        "report_id": "iem-lsr-MOB-9",
        "report_type": "MARINE TSTM WIND",
        "event_category": "marine",
        "valid_utc": "202609111240",
        "standard_time_display": "2026-09-11 06:40 CST",
        "wfo": "MOB",
        "county_or_zone": "Santa Rosa",
        "city": "1 S Navarre",
        "state": "FL",
        "magnitude": 49.0,
        "magnitude_units": null,
        "source": "Mesonet",
        "event_narrative": "Prado Street tempest site measures marine thunderstorm wind gust to 49mph."
      },
      "geometry": {
        "type": "Point",
        "coordinates": [
          -86.86,
          30.4
        ]
      }
    },
    {
      "type": "Feature",
      "id": "iem-lsr-MOB-10",
      "properties": {
        "report_id": "iem-lsr-MOB-10",
        "report_type": "MARINE TSTM WIND",
        "event_category": "marine",
        "valid_utc": "202609111250",
        "standard_time_display": "2026-09-11 06:50 CST",
        "wfo": "MOB",
        "county_or_zone": "Santa Rosa",
        "city": "3 WSW Navarre",
        "state": "FL",
        "magnitude": 51.0,
        "magnitude_units": null,
        "source": "Mesonet",
        "event_narrative": "North Shores Drive tempest site measures thunderstorm wind gust to 51mph."
      },
      "geometry": {
        "type": "Point",
        "coordinates": [
          -86.91,
          30.4
        ]
      }
    }
  ]
}