{
  "type": "FeatureCollection",
  "metadata": {
    "schema_version": "0.2.4",
    "year": 2026,
    "month": 9,
    "wfo": "JAN",
    "start_utc": "2026-09-01T00:00:00Z",
    "end_utc": "2026-10-01T00:00:00Z",
    "generated_utc": "2026-09-24T14:11:52Z",
    "mode": "storm_data_prep",
    "public_release_status": "public-source-derived",
    "time_note": "Storm Data entry times should be reviewed in local Standard Time (ST), not daylight time. Candidate reports include standard_time_display.",
    "tornado_track_policy": "Tornado tracks must come from DAT. NCEI begin/end coordinates are not used as a tornado track substitute.",
    "source": "https://mesonet.agron.iastate.edu/cgi-bin/request/gis/lsr.py?wfo=JAN&sts=2026-09-01T00%3A00%3A00Z&ets=2026-10-01T00%3A00%3A00Z&fmt=csv"
  },
  "features": [
    {
      "type": "Feature",
      "id": "iem-lsr-JAN-1",
      "properties": {
        "report_id": "iem-lsr-JAN-1",
        "report_type": "TSTM WND DMG",
        "event_category": "thunderstorm_wind",
        "valid_utc": "202609031935",
        "standard_time_display": "2026-09-03 13:35 CST",
        "wfo": "JAN",
        "county_or_zone": "Leflore",
        "city": "2 ESE Greenwood",
        "state": "MS",
        "magnitude": null,
        "magnitude_units": null,
        "source": "Newspaper",
        "event_narrative": "Three utility poles were broken along MS Hwy 430 near the Greenwood Country Club."
      },
      "geometry": {
        "type": "Point",
        "coordinates": [
          -90.16,
          33.51
        ]
      }
    },
    {
      "type": "Feature",
      "id": "iem-lsr-JAN-2",
      "properties": {
        "report_id": "iem-lsr-JAN-2",
        "report_type": "TSTM WND DMG",
        "event_category": "thunderstorm_wind",
        "valid_utc": "202609032005",
        "standard_time_display": "2026-09-03 14:05 CST",
        "wfo": "JAN",
        "county_or_zone": "Rankin",
        "city": "1 S Leesburg",
        "state": "MS",
        "magnitude": null,
        "magnitude_units": null,
        "source": "Public",
        "event_narrative": "A tree fell onto a power line setting the tree on fire."
      },
      "geometry": {
        "type": "Point",
        "coordinates": [
          -89.76,
          32.43
        ]
      }
    },
    {
      "type": "Feature",
      "id": "iem-lsr-JAN-3",
      "properties": {
        "report_id": "iem-lsr-JAN-3",
        "report_type": "HAIL",
        "event_category": "hail",
        "valid_utc": "202609032025",
        "standard_time_display": "2026-09-03 14:25 CST",
        "wfo": "JAN",
        "county_or_zone": "Rankin",
        "city": "Star",
        "state": "MS",
        "magnitude": 0.7,
        "magnitude_units": null,
        "source": "Broadcast Media",
        "event_narrative": "Pea to dime size hail was reported in Star."
      },
      "geometry": {
        "type": "Point",
        "coordinates": [
          -90.05,
          32.09
        ]
      }
    },
    {
      "type": "Feature",
      "id": "iem-lsr-JAN-4",
      "properties": {
        "report_id": "iem-lsr-JAN-4",
        "report_type": "TSTM WND DMG",
        "event_category": "thunderstorm_wind",
        "valid_utc": "202609032025",
        "standard_time_display": "2026-09-03 14:25 CST",
        "wfo": "JAN",
        "county_or_zone": "Rankin",
        "city": "Star",
        "state": "MS",
        "magnitude": null,
        "magnitude_units": null,
        "source": "Fire Dept/Rescue",
        "event_narrative": "Two trees were downed on power lines and partially blocking the road near Loflin St at Rockwood Rd."
      },
      "geometry": {
        "type": "Point",
        "coordinates": [
          -90.05,
          32.09
        ]
      }
    },
    {
      "type": "Feature",
      "id": "iem-lsr-JAN-5",
      "properties": {
        "report_id": "iem-lsr-JAN-5",
        "report_type": "TSTM WND DMG",
        "event_category": "thunderstorm_wind",
        "valid_utc": "202609032055",
        "standard_time_display": "2026-09-03 14:55 CST",
        "wfo": "JAN",
        "county_or_zone": "Simpson",
        "city": "1 NNW Braxton",
        "state": "MS",
        "magnitude": null,
        "magnitude_units": null,
        "source": "Utility Company",
        "event_narrative": "A tree fell on powerlines off MS Hwy 149."
      },
      "geometry": {
        "type": "Point",
        "coordinates": [
          -89.98,
          32.04
        ]
      }
    },
    {
      "type": "Feature",
      "id": "iem-lsr-JAN-6",
      "properties": {
        "report_id": "iem-lsr-JAN-6",
        "report_type": "TSTM WND DMG",
        "event_category": "thunderstorm_wind",
        "valid_utc": "202609032115",
        "standard_time_display": "2026-09-03 15:15 CST",
        "wfo": "JAN",
        "county_or_zone": "Simpson",
        "city": "Union",
        "state": "MS",
        "magnitude": null,
        "magnitude_units": null,
        "source": "Utility Company",
        "event_narrative": "A tree fell on power lines along MS Hwy 28 west of MS Hwy 469."
      },
      "geometry": {
        "type": "Point",
        "coordinates": [
          -90.08,
          31.88
        ]
      }
    },
    {
      "type": "Feature",
      "id": "iem-lsr-JAN-7",
      "properties": {
        "report_id": "iem-lsr-JAN-7",
        "report_type": "TSTM WND DMG",
        "event_category": "thunderstorm_wind",
        "valid_utc": "202609032125",
        "standard_time_display": "2026-09-03 15:25 CST",
        "wfo": "JAN",
        "county_or_zone": "Rankin",
        "city": "2 NW JAN Airport",
        "state": "MS",
        "magnitude": null,
        "magnitude_units": null,
        "source": "NWS Employee",
        "event_narrative": "A utility pole was snapped_ a tree was snapped_ and several large limbs were downed along Lakeland Dr between N Flowood Dr and Flynt Dr."
      },
      "geometry": {
        "type": "Point",
        "coordinates": [
          -90.1,
          32.33
        ]
      }
    },
    {
      "type": "Feature",
      "id": "iem-lsr-JAN-8",
      "properties": {
        "report_id": "iem-lsr-JAN-8",
        "report_type": "TSTM WND DMG",
        "event_category": "thunderstorm_wind",
        "valid_utc": "202609061914",
        "standard_time_display": "2026-09-06 13:14 CST",
        "wfo": "JAN",
        "county_or_zone": "Washington",
        "city": "2 ESE Greenville",
        "state": "MS",
        "magnitude": null,
        "magnitude_units": null,
        "source": "Broadcast Media",
        "event_narrative": "Front of brick building (metro pbs) collapsed. Additionally: Uprooted tree on cottage drive. Trampoline lifted and moved at beauchamp st. peak wind 44kts 1914 on metar SPECI KGLH 061920Z AUTO 02012G4"
      },
      "geometry": {
        "type": "Point",
        "coordinates": [
          -91.03,
          33.4
        ]
      }
    },
    {
      "type": "Feature",
      "id": "iem-lsr-JAN-9",
      "properties": {
        "report_id": "iem-lsr-JAN-9",
        "report_type": "TSTM WND DMG",
        "event_category": "thunderstorm_wind",
        "valid_utc": "202609061930",
        "standard_time_display": "2026-09-06 13:30 CST",
        "wfo": "JAN",
        "county_or_zone": "Washington",
        "city": "3 ESE Greenville",
        "state": "MS",
        "magnitude": null,
        "magnitude_units": null,
        "source": "Trained Spotter",
        "event_narrative": "The roof awning of a business along S Raceway Rd was lifted_ pulling a portion of the metal roof off the building."
      },
      "geometry": {
        "type": "Point",
        "coordinates": [
          -91.01,
          33.4
        ]
      }
    },
    {
      "type": "Feature",
      "id": "iem-lsr-JAN-10",
      "properties": {
        "report_id": "iem-lsr-JAN-10",
        "report_type": "TSTM WND DMG",
        "event_category": "thunderstorm_wind",
        "valid_utc": "202609061930",
        "standard_time_display": "2026-09-06 13:30 CST",
        "wfo": "JAN",
        "county_or_zone": "Washington",
        "city": "Leland",
        "state": "MS",
        "magnitude": null,
        "magnitude_units": null,
        "source": "Broadcast Media",
        "event_narrative": "Trees were blown down."
      },
      "geometry": {
        "type": "Point",
        "coordinates": [
          -90.9,
          33.4
        ]
      }
    },
    {
      "type": "Feature",
      "id": "iem-lsr-JAN-11",
      "properties": {
        "report_id": "iem-lsr-JAN-11",
        "report_type": "TSTM WND DMG",
        "event_category": "thunderstorm_wind",
        "valid_utc": "202609061936",
        "standard_time_display": "2026-09-06 13:36 CST",
        "wfo": "JAN",
        "county_or_zone": "Washington",
        "city": "3 ESE Greenville",
        "state": "MS",
        "magnitude": null,
        "magnitude_units": null,
        "source": "Trained Spotter",
        "event_narrative": "Numerous trees and power lines were down and damage to buildings occurred due to a severe microburst in the Greenville area."
      },
      "geometry": {
        "type": "Point",
        "coordinates": [
          -91.01,
          33.4
        ]
      }
    },
    {
      "type": "Feature",
      "id": "iem-lsr-JAN-12",
      "properties": {
        "report_id": "iem-lsr-JAN-12",
        "report_type": "TSTM WND DMG",
        "event_category": "thunderstorm_wind",
        "valid_utc": "202609062040",
        "standard_time_display": "2026-09-06 14:40 CST",
        "wfo": "JAN",
        "county_or_zone": "Clarke",
        "city": "Enterprise",
        "state": "MS",
        "magnitude": null,
        "magnitude_units": null,
        "source": "Fire Dept/Rescue",
        "event_narrative": "Microburst wind damage occurred near Enterprise Town Hall on River Road. This included a damaged power pole and tossed playground equipment."
      },
      "geometry": {
        "type": "Point",
        "coordinates": [
          -88.82,
          32.17
        ]
      }
    },
    {
      "type": "Feature",
      "id": "iem-lsr-JAN-13",
      "properties": {
        "report_id": "iem-lsr-JAN-13",
        "report_type": "TSTM WND DMG",
        "event_category": "thunderstorm_wind",
        "valid_utc": "202609062140",
        "standard_time_display": "2026-09-06 15:40 CST",
        "wfo": "JAN",
        "county_or_zone": "Oktibbeha",
        "city": "1 WSW Clayton Village",
        "state": "MS",
        "magnitude": null,
        "magnitude_units": null,
        "source": "Emergency Mngr",
        "event_narrative": "MSU reported that part of a tree came down on a house."
      },
      "geometry": {
        "type": "Point",
        "coordinates": [
          -88.78,
          33.47
        ]
      }
    },
    {
      "type": "Feature",
      "id": "iem-lsr-JAN-14",
      "properties": {
        "report_id": "iem-lsr-JAN-14",
        "report_type": "TSTM WND DMG",
        "event_category": "thunderstorm_wind",
        "valid_utc": "202609062202",
        "standard_time_display": "2026-09-06 16:02 CST",
        "wfo": "JAN",
        "county_or_zone": "Neshoba",
        "city": "2 E Philadelphia",
        "state": "MS",
        "magnitude": null,
        "magnitude_units": null,
        "source": "Emergency Mngr",
        "event_narrative": "Per Neshoba County EMA_ a tree was down across the road near the intersection of CR 551 and CR 616."
      },
      "geometry": {
        "type": "Point",
        "coordinates": [
          -89.08,
          32.78
        ]
      }
    },
    {
      "type": "Feature",
      "id": "iem-lsr-JAN-15",
      "properties": {
        "report_id": "iem-lsr-JAN-15",
        "report_type": "TSTM WND DMG",
        "event_category": "thunderstorm_wind",
        "valid_utc": "202609070043",
        "standard_time_display": "2026-09-06 18:43 CST",
        "wfo": "JAN",
        "county_or_zone": "Hinds",
        "city": "2 WNW Clinton",
        "state": "MS",
        "magnitude": null,
        "magnitude_units": null,
        "source": "Utility Company",
        "event_narrative": "Trees were downed in multiple locations along S Frontage Rd between the Natchez Trace Pkwy and Norrell Rd."
      },
      "geometry": {
        "type": "Point",
        "coordinates": [
          -90.37,
          32.35
        ]
      }
    },
    {
      "type": "Feature",
      "id": "iem-lsr-JAN-16",
      "properties": {
        "report_id": "iem-lsr-JAN-16",
        "report_type": "TSTM WND DMG",
        "event_category": "thunderstorm_wind",
        "valid_utc": "202609072230",
        "standard_time_display": "2026-09-07 16:30 CST",
        "wfo": "JAN",
        "county_or_zone": "Rankin",
        "city": "5 WSW Fannin",
        "state": "MS",
        "magnitude": null,
        "magnitude_units": null,
        "source": "Emergency Mngr",
        "event_narrative": "Per Rankin County EMA_ several trees and a power line came down due to a severe microburst in the Spillway Road area. A home was damaged by one of the trees on Turtle Creek Drive_ and the power line"
      },
      "geometry": {
        "type": "Point",
        "coordinates": [
          -90.03,
          32.38
        ]
      }
    },
    {
      "type": "Feature",
      "id": "iem-lsr-JAN-17",
      "properties": {
        "report_id": "iem-lsr-JAN-17",
        "report_type": "TSTM WND DMG",
        "event_category": "thunderstorm_wind",
        "valid_utc": "202609082112",
        "standard_time_display": "2026-09-08 15:12 CST",
        "wfo": "JAN",
        "county_or_zone": "Washington",
        "city": "3 SSW Greenville",
        "state": "MS",
        "magnitude": null,
        "magnitude_units": null,
        "source": "Other Federal",
        "event_narrative": "Power pole down on Harbor Front Rd."
      },
      "geometry": {
        "type": "Point",
        "coordinates": [
          -91.09,
          33.37
        ]
      }
    },
    {
      "type": "Feature",
      "id": "iem-lsr-JAN-18",
      "properties": {
        "report_id": "iem-lsr-JAN-18",
        "report_type": "TSTM WND DMG",
        "event_category": "thunderstorm_wind",
        "valid_utc": "202609112108",
        "standard_time_display": "2026-09-11 15:08 CST",
        "wfo": "JAN",
        "county_or_zone": "Smith",
        "city": "3 N Shady Grove",
        "state": "MS",
        "magnitude": null,
        "magnitude_units": null,
        "source": "Fire Dept/Rescue",
        "event_narrative": "A tree was downed along S C Rd 114_ partially blocking the road."
      },
      "geometry": {
        "type": "Point",
        "coordinates": [
          -89.62,
          31.94
        ]
      }
    },
    {
      "type": "Feature",
      "id": "iem-lsr-JAN-19",
      "properties": {
        "report_id": "iem-lsr-JAN-19",
        "report_type": "TSTM WND DMG",
        "event_category": "thunderstorm_wind",
        "valid_utc": "202609112130",
        "standard_time_display": "2026-09-11 15:30 CST",
        "wfo": "JAN",
        "county_or_zone": "Smith",
        "city": "Taylorsville",
        "state": "MS",
        "magnitude": null,
        "magnitude_units": null,
        "source": "Fire Dept/Rescue",
        "event_narrative": "A large tree limb fell on a power line along MS Hwy 37 near Central St."
      },
      "geometry": {
        "type": "Point",
        "coordinates": [
          -89.43,
          31.83
        ]
      }
    },
    {
      "type": "Feature",
      "id": "iem-lsr-JAN-20",
      "properties": {
        "report_id": "iem-lsr-JAN-20",
        "report_type": "TSTM WND DMG",
        "event_category": "thunderstorm_wind",
        "valid_utc": "202609121844",
        "standard_time_display": "2026-09-12 12:44 CST",
        "wfo": "JAN",
        "county_or_zone": "Grenada",
        "city": "Tie Plant",
        "state": "MS",
        "magnitude": null,
        "magnitude_units": null,
        "source": "Utility Company",
        "event_narrative": "A tree fell on a power line along Jackson Ave."
      },
      "geometry": {
        "type": "Point",
        "coordinates": [
          -89.8,
          33.74
        ]
      }
    },
    {
      "type": "Feature",
      "id": "iem-lsr-JAN-21",
      "properties": {
        "report_id": "iem-lsr-JAN-21",
        "report_type": "TSTM WND DMG",
        "event_category": "thunderstorm_wind",
        "valid_utc": "202609121900",
        "standard_time_display": "2026-09-12 13:00 CST",
        "wfo": "JAN",
        "county_or_zone": "Grenada",
        "city": "Grenada",
        "state": "MS",
        "magnitude": null,
        "magnitude_units": null,
        "source": "Broadcast Media",
        "event_narrative": "Large tree limbs were blown down in Grenada."
      },
      "geometry": {
        "type": "Point",
        "coordinates": [
          -89.8,
          33.78
        ]
      }
    },
    {
      "type": "Feature",
      "id": "iem-lsr-JAN-22",
      "properties": {
        "report_id": "iem-lsr-JAN-22",
        "report_type": "TSTM WND DMG",
        "event_category": "thunderstorm_wind",
        "valid_utc": "202609122043",
        "standard_time_display": "2026-09-12 14:43 CST",
        "wfo": "JAN",
        "county_or_zone": "Neshoba",
        "city": "2 SSW Bogue Chitto",
        "state": "MS",
        "magnitude": null,
        "magnitude_units": null,
        "source": "Public",
        "event_narrative": "A tree was downed across Rd 757. Social media report with picture."
      },
      "geometry": {
        "type": "Point",
        "coordinates": [
          -88.95,
          32.8
        ]
      }
    },
    {
      "type": "Feature",
      "id": "iem-lsr-JAN-23",
      "properties": {
        "report_id": "iem-lsr-JAN-23",
        "report_type": "TSTM WND GST",
        "event_category": "thunderstorm_wind",
        "valid_utc": "202609122047",
        "standard_time_display": "2026-09-12 14:47 CST",
        "wfo": "JAN",
        "county_or_zone": "Kemper",
        "city": "3 N Cleveland",
        "state": "MS",
        "magnitude": 58.0,
        "magnitude_units": null,
        "source": "AWOS",
        "event_narrative": "A peak wind gust of 50 kts was measured from the northwest by site KNJW."
      },
      "geometry": {
        "type": "Point",
        "coordinates": [
          -88.83,
          32.8
        ]
      }
    },
    {
      "type": "Feature",
      "id": "iem-lsr-JAN-24",
      "properties": {
        "report_id": "iem-lsr-JAN-24",
        "report_type": "TSTM WND DMG",
        "event_category": "thunderstorm_wind",
        "valid_utc": "202609122050",
        "standard_time_display": "2026-09-12 14:50 CST",
        "wfo": "JAN",
        "county_or_zone": "Neshoba",
        "city": "4 SE Spring Creek",
        "state": "MS",
        "magnitude": null,
        "magnitude_units": null,
        "source": "Public",
        "event_narrative": "Large tree limbs damaged a fence is the Forestdale community."
      },
      "geometry": {
        "type": "Point",
        "coordinates": [
          -89.0,
          32.79
        ]
      }
    },
    {
      "type": "Feature",
      "id": "iem-lsr-JAN-25",
      "properties": {
        "report_id": "iem-lsr-JAN-25",
        "report_type": "TSTM WND DMG",
        "event_category": "thunderstorm_wind",
        "valid_utc": "202609122352",
        "standard_time_display": "2026-09-12 17:52 CST",
        "wfo": "JAN",
        "county_or_zone": "Rankin",
        "city": "Puckett",
        "state": "MS",
        "magnitude": null,
        "magnitude_units": null,
        "source": "Law Enforcement",
        "event_narrative": "A tree was downed near Puckett Town Hall_ partially blocking the road."
      },
      "geometry": {
        "type": "Point",
        "coordinates": [
          -89.78,
          32.08
        ]
      }
    },
    {
      "type": "Feature",
      "id": "iem-lsr-JAN-26",
      "properties": {
        "report_id": "iem-lsr-JAN-26",
        "report_type": "TSTM WND DMG",
        "event_category": "thunderstorm_wind",
        "valid_utc": "202609131945",
        "standard_time_display": "2026-09-13 13:45 CST",
        "wfo": "JAN",
        "county_or_zone": "Simpson",
        "city": "3 ENE Martinville",
        "state": "MS",
        "magnitude": null,
        "magnitude_units": null,
        "source": "Law Enforcement",
        "event_narrative": "A tree was downed along Warren Cook Rd."
      },
      "geometry": {
        "type": "Point",
        "coordinates": [
          -89.71,
          31.99
        ]
      }
    },
    {
      "type": "Feature",
      "id": "iem-lsr-JAN-27",
      "properties": {
        "report_id": "iem-lsr-JAN-27",
        "report_type": "TSTM WND DMG",
        "event_category": "thunderstorm_wind",
        "valid_utc": "202609131956",
        "standard_time_display": "2026-09-13 13:56 CST",
        "wfo": "JAN",
        "county_or_zone": "Simpson",
        "city": "2 SSW Magee",
        "state": "MS",
        "magnitude": null,
        "magnitude_units": null,
        "source": "Law Enforcement",
        "event_narrative": "A tree was downed on Nub McNair Rd."
      },
      "geometry": {
        "type": "Point",
        "coordinates": [
          -89.75,
          31.85
        ]
      }
    },
    {
      "type": "Feature",
      "id": "iem-lsr-JAN-28",
      "properties": {
        "report_id": "iem-lsr-JAN-28",
        "report_type": "TSTM WND DMG",
        "event_category": "thunderstorm_wind",
        "valid_utc": "202609140950",
        "standard_time_display": "2026-09-14 03:50 CST",
        "wfo": "JAN",
        "county_or_zone": "Hinds",
        "city": "4 SW Pocahontas",
        "state": "MS",
        "magnitude": null,
        "magnitude_units": null,
        "source": "Fire Dept/Rescue",
        "event_narrative": "A tree was downed at N Ratliff Rd and S Springdale Rd_ partially blocking the road."
      },
      "geometry": {
        "type": "Point",
        "coordinates": [
          -90.33,
          32.44
        ]
      }
    },
    {
      "type": "Feature",
      "id": "iem-lsr-JAN-29",
      "properties": {
        "report_id": "iem-lsr-JAN-29",
        "report_type": "TSTM WND DMG",
        "event_category": "thunderstorm_wind",
        "valid_utc": "202609142124",
        "standard_time_display": "2026-09-14 15:24 CST",
        "wfo": "JAN",
        "county_or_zone": "Hinds",
        "city": "3 WSW Hawkins Field",
        "state": "MS",
        "magnitude": null,
        "magnitude_units": null,
        "source": "Fire Dept/Rescue",
        "event_narrative": "A tree was downed on Westhaven Blvd blocking both lanes of traffic."
      },
      "geometry": {
        "type": "Point",
        "coordinates": [
          -90.27,
          32.32
        ]
      }
    },
    {
      "type": "Feature",
      "id": "iem-lsr-JAN-30",
      "properties": {
        "report_id": "iem-lsr-JAN-30",
        "report_type": "TSTM WND DMG",
        "event_category": "thunderstorm_wind",
        "valid_utc": "202609142150",
        "standard_time_display": "2026-09-14 15:50 CST",
        "wfo": "JAN",
        "county_or_zone": "Hinds",
        "city": "4 SW Pocahontas",
        "state": "MS",
        "magnitude": null,
        "magnitude_units": null,
        "source": "Fire Dept/Rescue",
        "event_narrative": "Corrects previous tstm wnd dmg report from 4 SW Pocahontas for time. A tree was downed at N Ratliff Rd and S Springdale Rd_ partially blocking the road."
      },
      "geometry": {
        "type": "Point",
        "coordinates": [
          -90.33,
          32.44
        ]
      }
    },
    {
      "type": "Feature",
      "id": "iem-lsr-JAN-31",
      "properties": {
        "report_id": "iem-lsr-JAN-31",
        "report_type": "TSTM WND DMG",
        "event_category": "thunderstorm_wind",
        "valid_utc": "202609142210",
        "standard_time_display": "2026-09-14 16:10 CST",
        "wfo": "JAN",
        "county_or_zone": "Hinds",
        "city": "1 W Brownsville",
        "state": "MS",
        "magnitude": null,
        "magnitude_units": null,
        "source": "Fire Dept/Rescue",
        "event_narrative": "A tree was downed on Cox Ferry Rd near MS Hwy 22_ partially blocking the road."
      },
      "geometry": {
        "type": "Point",
        "coordinates": [
          -90.45,
          32.45
        ]
      }
    },
    {
      "type": "Feature",
      "id": "iem-lsr-JAN-32",
      "properties": {
        "report_id": "iem-lsr-JAN-32",
        "report_type": "TSTM WND DMG",
        "event_category": "thunderstorm_wind",
        "valid_utc": "202609210608",
        "standard_time_display": "2026-09-21 00:08 CST",
        "wfo": "JAN",
        "county_or_zone": "Rankin",
        "city": "3 E Pelahatchie",
        "state": "MS",
        "magnitude": null,
        "magnitude_units": null,
        "source": "Law Enforcement",
        "event_narrative": "Trees were downed at US 80 and Noblin Bridge Rd and on Lake Rd_ blocking portions of the roadway."
      },
      "geometry": {
        "type": "Point",
        "coordinates": [
          -89.76,
          32.32
        ]
      }
    },
    {
      "type": "Feature",
      "id": "iem-lsr-JAN-33",
      "properties": {
        "report_id": "iem-lsr-JAN-33",
        "report_type": "TSTM WND DMG",
        "event_category": "thunderstorm_wind",
        "valid_utc": "202609211145",
        "standard_time_display": "2026-09-21 05:45 CST",
        "wfo": "JAN",
        "county_or_zone": "Lamar",
        "city": "West Hattiesburg",
        "state": "MS",
        "magnitude": null,
        "magnitude_units": null,
        "source": "Public",
        "event_narrative": "Report of steeple blown off of Main St Baptist Church roof."
      },
      "geometry": {
        "type": "Point",
        "coordinates": [
          -89.37,
          31.32
        ]
      }
    },
    {
      "type": "Feature",
      "id": "iem-lsr-JAN-34",
      "properties": {
        "report_id": "iem-lsr-JAN-34",
        "report_type": "TSTM WND DMG",
        "event_category": "thunderstorm_wind",
        "valid_utc": "202609211914",
        "standard_time_display": "2026-09-21 13:14 CST",
        "wfo": "JAN",
        "county_or_zone": "Rankin",
        "city": "4 N Pelahatchie",
        "state": "MS",
        "magnitude": null,
        "magnitude_units": null,
        "source": "NWS Employee",
        "event_narrative": "A few large trees snapped along Ranch Wood Road and a few other trees or large limbs broken off along Hwy 43."
      },
      "geometry": {
        "type": "Point",
        "coordinates": [
          -89.8,
          32.37
        ]
      }
    },
    {
      "type": "Feature",
      "id": "iem-lsr-JAN-35",
      "properties": {
        "report_id": "iem-lsr-JAN-35",
        "report_type": "TSTM WND DMG",
        "event_category": "thunderstorm_wind",
        "valid_utc": "202609211915",
        "standard_time_display": "2026-09-21 13:15 CST",
        "wfo": "JAN",
        "county_or_zone": "Rankin",
        "city": "5 N Pelahatchie",
        "state": "MS",
        "magnitude": null,
        "magnitude_units": null,
        "source": "NWS Employee",
        "event_narrative": "Several large trees uprooted along a field edge_ just E of Hwy 43."
      },
      "geometry": {
        "type": "Point",
        "coordinates": [
          -89.81,
          32.38
        ]
      }
    },
    {
      "type": "Feature",
      "id": "iem-lsr-JAN-36",
      "properties": {
        "report_id": "iem-lsr-JAN-36",
        "report_type": "TSTM WND DMG",
        "event_category": "thunderstorm_wind",
        "valid_utc": "202609211930",
        "standard_time_display": "2026-09-21 13:30 CST",
        "wfo": "JAN",
        "county_or_zone": "Neshoba",
        "city": "1 SSE Arlington",
        "state": "MS",
        "magnitude": null,
        "magnitude_units": null,
        "source": "Emergency Mngr",
        "event_narrative": "Tree down on Marty Stuart Dr near MS Hwy 19."
      },
      "geometry": {
        "type": "Point",
        "coordinates": [
          -89.17,
          32.87
        ]
      }
    },
    {
      "type": "Feature",
      "id": "iem-lsr-JAN-37",
      "properties": {
        "report_id": "iem-lsr-JAN-37",
        "report_type": "TSTM WND DMG",
        "event_category": "thunderstorm_wind",
        "valid_utc": "202609212100",
        "standard_time_display": "2026-09-21 15:00 CST",
        "wfo": "JAN",
        "county_or_zone": "Newton",
        "city": "3 SE Little Rock",
        "state": "MS",
        "magnitude": null,
        "magnitude_units": null,
        "source": "Emergency Mngr",
        "event_narrative": "Two trees down."
      },
      "geometry": {
        "type": "Point",
        "coordinates": [
          -88.99,
          32.5
        ]
      }
    },
    {
      "type": "Feature",
      "id": "iem-lsr-JAN-38",
      "properties": {
        "report_id": "iem-lsr-JAN-38",
        "report_type": "TSTM WND DMG",
        "event_category": "thunderstorm_wind",
        "valid_utc": "202609212120",
        "standard_time_display": "2026-09-21 15:20 CST",
        "wfo": "JAN",
        "county_or_zone": "Lauderdale",
        "city": "3 E Nellieburg",
        "state": "MS",
        "magnitude": null,
        "magnitude_units": null,
        "source": "Broadcast Media",
        "event_narrative": "Several downed trees and some lines on the N side of Meridian. N Hills St area."
      },
      "geometry": {
        "type": "Point",
        "coordinates": [
          -88.72,
          32.41
        ]
      }
    },
    {
      "type": "Feature",
      "id": "iem-lsr-JAN-39",
      "properties": {
        "report_id": "iem-lsr-JAN-39",
        "report_type": "TSTM WND DMG",
        "event_category": "thunderstorm_wind",
        "valid_utc": "202609212132",
        "standard_time_display": "2026-09-21 15:32 CST",
        "wfo": "JAN",
        "county_or_zone": "Lauderdale",
        "city": "2 NE Lost Gap",
        "state": "MS",
        "magnitude": null,
        "magnitude_units": null,
        "source": "Public",
        "event_narrative": "Strong thunderstorms caused damage to the VFW Post on Old 8th Street Road. Couple of powerlines down."
      },
      "geometry": {
        "type": "Point",
        "coordinates": [
          -88.75,
          32.37
        ]
      }
    },
    {
      "type": "Feature",
      "id": "iem-lsr-JAN-40",
      "properties": {
        "report_id": "iem-lsr-JAN-40",
        "report_type": "TSTM WND DMG",
        "event_category": "thunderstorm_wind",
        "valid_utc": "202609212136",
        "standard_time_display": "2026-09-21 15:36 CST",
        "wfo": "JAN",
        "county_or_zone": "Lauderdale",
        "city": "1 W Meridian",
        "state": "MS",
        "magnitude": null,
        "magnitude_units": null,
        "source": "Broadcast Media",
        "event_narrative": "A couple trees down in town_ Arthur St."
      },
      "geometry": {
        "type": "Point",
        "coordinates": [
          -88.73,
          32.36
        ]
      }
    },
    {
      "type": "Feature",
      "id": "iem-lsr-JAN-41",
      "properties": {
        "report_id": "iem-lsr-JAN-41",
        "report_type": "TSTM WND DMG",
        "event_category": "thunderstorm_wind",
        "valid_utc": "202609212203",
        "standard_time_display": "2026-09-21 16:03 CST",
        "wfo": "JAN",
        "county_or_zone": "Lauderdale",
        "city": "1 W Meridian",
        "state": "MS",
        "magnitude": null,
        "magnitude_units": null,
        "source": "Public",
        "event_narrative": "A tree was blown down on Arthur Street near Meridian. Picture relayed via social media."
      },
      "geometry": {
        "type": "Point",
        "coordinates": [
          -88.73,
          32.37
        ]
      }
    },
    {
      "type": "Feature",
      "id": "iem-lsr-JAN-42",
      "properties": {
        "report_id": "iem-lsr-JAN-42",
        "report_type": "TSTM WND DMG",
        "event_category": "thunderstorm_wind",
        "valid_utc": "202609212205",
        "standard_time_display": "2026-09-21 16:05 CST",
        "wfo": "JAN",
        "county_or_zone": "Clarke",
        "city": "3 SSW Stonewall",
        "state": "MS",
        "magnitude": null,
        "magnitude_units": null,
        "source": "Emergency Mngr",
        "event_narrative": "A few trees down."
      },
      "geometry": {
        "type": "Point",
        "coordinates": [
          -88.82,
          32.1
        ]
      }
    },
    {
      "type": "Feature",
      "id": "iem-lsr-JAN-43",
      "properties": {
        "report_id": "iem-lsr-JAN-43",
        "report_type": "TSTM WND DMG",
        "event_category": "thunderstorm_wind",
        "valid_utc": "202609212206",
        "standard_time_display": "2026-09-21 16:06 CST",
        "wfo": "JAN",
        "county_or_zone": "Jones",
        "city": "2 WSW Ellisville",
        "state": "MS",
        "magnitude": null,
        "magnitude_units": null,
        "source": "Emergency Mngr",
        "event_narrative": "Several trees were blown down along the I-59 corridor."
      },
      "geometry": {
        "type": "Point",
        "coordinates": [
          -89.24,
          31.59
        ]
      }
    },
    {
      "type": "Feature",
      "id": "iem-lsr-JAN-44",
      "properties": {
        "report_id": "iem-lsr-JAN-44",
        "report_type": "TSTM WND DMG",
        "event_category": "thunderstorm_wind",
        "valid_utc": "202609212212",
        "standard_time_display": "2026-09-21 16:12 CST",
        "wfo": "JAN",
        "county_or_zone": "Clarke",
        "city": "3 NNW Harmony",
        "state": "MS",
        "magnitude": null,
        "magnitude_units": null,
        "source": "Emergency Mngr",
        "event_narrative": "Clarke County EMA reported that several trees were down across western Clarke County."
      },
      "geometry": {
        "type": "Point",
        "coordinates": [
          -88.83,
          32.02
        ]
      }
    },
    {
      "type": "Feature",
      "id": "iem-lsr-JAN-45",
      "properties": {
        "report_id": "iem-lsr-JAN-45",
        "report_type": "TSTM WND DMG",
        "event_category": "thunderstorm_wind",
        "valid_utc": "202609212217",
        "standard_time_display": "2026-09-21 16:17 CST",
        "wfo": "JAN",
        "county_or_zone": "Lamar",
        "city": "3 ENE Epley",
        "state": "MS",
        "magnitude": null,
        "magnitude_units": null,
        "source": "Public",
        "event_narrative": "Multiple large limbs down along Epley road_ winds est 60 mph. Dime hail also occurred."
      },
      "geometry": {
        "type": "Point",
        "coordinates": [
          -89.46,
          31.4
        ]
      }
    },
    {
      "type": "Feature",
      "id": "iem-lsr-JAN-46",
      "properties": {
        "report_id": "iem-lsr-JAN-46",
        "report_type": "TSTM WND DMG",
        "event_category": "thunderstorm_wind",
        "valid_utc": "202609212218",
        "standard_time_display": "2026-09-21 16:18 CST",
        "wfo": "JAN",
        "county_or_zone": "Jefferson Davis",
        "city": "Prentiss",
        "state": "MS",
        "magnitude": null,
        "magnitude_units": null,
        "source": "Emergency Mngr",
        "event_narrative": "Jefferson Davis County EMA reported two trees down."
      },
      "geometry": {
        "type": "Point",
        "coordinates": [
          -89.87,
          31.6
        ]
      }
    },
    {
      "type": "Feature",
      "id": "iem-lsr-JAN-47",
      "properties": {
        "report_id": "iem-lsr-JAN-47",
        "report_type": "TSTM WND DMG",
        "event_category": "thunderstorm_wind",
        "valid_utc": "202609212224",
        "standard_time_display": "2026-09-21 16:24 CST",
        "wfo": "JAN",
        "county_or_zone": "Clarke",
        "city": "1 S Pachuta",
        "state": "MS",
        "magnitude": null,
        "magnitude_units": null,
        "source": "Emergency Mngr",
        "event_narrative": "Clarke County EMA reported several trees down across western Clarke County."
      },
      "geometry": {
        "type": "Point",
        "coordinates": [
          -88.88,
          32.03
        ]
      }
    },
    {
      "type": "Feature",
      "id": "iem-lsr-JAN-48",
      "properties": {
        "report_id": "iem-lsr-JAN-48",
        "report_type": "TSTM WND DMG",
        "event_category": "thunderstorm_wind",
        "valid_utc": "202609212226",
        "standard_time_display": "2026-09-21 16:26 CST",
        "wfo": "JAN",
        "county_or_zone": "Carroll",
        "city": "Vaiden",
        "state": "MS",
        "magnitude": null,
        "magnitude_units": null,
        "source": "Emergency Mngr",
        "event_narrative": "A couple trees and lines down."
      },
      "geometry": {
        "type": "Point",
        "coordinates": [
          -89.75,
          33.33
        ]
      }
    },
    {
      "type": "Feature",
      "id": "iem-lsr-JAN-49",
      "properties": {
        "report_id": "iem-lsr-JAN-49",
        "report_type": "TSTM WND DMG",
        "event_category": "thunderstorm_wind",
        "valid_utc": "202609212230",
        "standard_time_display": "2026-09-21 16:30 CST",
        "wfo": "JAN",
        "county_or_zone": "Holmes",
        "city": "2 ENE Franklin",
        "state": "MS",
        "magnitude": null,
        "magnitude_units": null,
        "source": "Utility Company",
        "event_narrative": "Tree on a line."
      },
      "geometry": {
        "type": "Point",
        "coordinates": [
          -89.98,
          33.05
        ]
      }
    },
    {
      "type": "Feature",
      "id": "iem-lsr-JAN-50",
      "properties": {
        "report_id": "iem-lsr-JAN-50",
        "report_type": "TSTM WND DMG",
        "event_category": "thunderstorm_wind",
        "valid_utc": "202609212241",
        "standard_time_display": "2026-09-21 16:41 CST",
        "wfo": "JAN",
        "county_or_zone": "Forrest",
        "city": "2 SE Lux",
        "state": "MS",
        "magnitude": null,
        "magnitude_units": null,
        "source": "Emergency Mngr",
        "event_narrative": "Trees down along Peps Point Rd."
      },
      "geometry": {
        "type": "Point",
        "coordinates": [
          -89.38,
          31.42
        ]
      }
    },
    {
      "type": "Feature",
      "id": "iem-lsr-JAN-51",
      "properties": {
        "report_id": "iem-lsr-JAN-51",
        "report_type": "TSTM WND DMG",
        "event_category": "thunderstorm_wind",
        "valid_utc": "202609212243",
        "standard_time_display": "2026-09-21 16:43 CST",
        "wfo": "JAN",
        "county_or_zone": "Forrest",
        "city": "2 SSW Eatonville",
        "state": "MS",
        "magnitude": null,
        "magnitude_units": null,
        "source": "Emergency Mngr",
        "event_narrative": "Trees down on River road and a few along Hwy 49."
      },
      "geometry": {
        "type": "Point",
        "coordinates": [
          -89.34,
          31.38
        ]
      }
    },
    {
      "type": "Feature",
      "id": "iem-lsr-JAN-52",
      "properties": {
        "report_id": "iem-lsr-JAN-52",
        "report_type": "TSTM WND DMG",
        "event_category": "thunderstorm_wind",
        "valid_utc": "202609212257",
        "standard_time_display": "2026-09-21 16:57 CST",
        "wfo": "JAN",
        "county_or_zone": "Lamar",
        "city": "West Hattiesburg",
        "state": "MS",
        "magnitude": null,
        "magnitude_units": null,
        "source": "Broadcast Media",
        "event_narrative": "An intense microburst impacted areas of W Hattiesburg along Hwy 98 in and around the Turtle Creek Mall. Trees_ lines and stop lights were down. The Dicks sign was blown down. A large section of the r"
      },
      "geometry": {
        "type": "Point",
        "coordinates": [
          -89.37,
          31.32
        ]
      }
    },
    {
      "type": "Feature",
      "id": "iem-lsr-JAN-53",
      "properties": {
        "report_id": "iem-lsr-JAN-53",
        "report_type": "TSTM WND DMG",
        "event_category": "thunderstorm_wind",
        "valid_utc": "202609212310",
        "standard_time_display": "2026-09-21 17:10 CST",
        "wfo": "JAN",
        "county_or_zone": "Lamar",
        "city": "2 SSE Oak Grove",
        "state": "MS",
        "magnitude": null,
        "magnitude_units": null,
        "source": "Emergency Mngr",
        "event_narrative": "Numerous trees down in the area S of Oak Grove along Old Hwy 11. Power lines down. Tree down on a home on Timber Ridge with another downed tree that caught the patio portion of the house on Howell Rd"
      },
      "geometry": {
        "type": "Point",
        "coordinates": [
          -89.41,
          31.25
        ]
      }
    },
    {
      "type": "Feature",
      "id": "iem-lsr-JAN-54",
      "properties": {
        "report_id": "iem-lsr-JAN-54",
        "report_type": "TSTM WND DMG",
        "event_category": "thunderstorm_wind",
        "valid_utc": "202609212345",
        "standard_time_display": "2026-09-21 17:45 CST",
        "wfo": "JAN",
        "county_or_zone": "Lamar",
        "city": "West Hattiesburg",
        "state": "MS",
        "magnitude": null,
        "magnitude_units": null,
        "source": "Public",
        "event_narrative": "Report of steeple blown off of Main St Baptist Church roof."
      },
      "geometry": {
        "type": "Point",
        "coordinates": [
          -89.37,
          31.32
        ]
      }
    },
    {
      "type": "Feature",
      "id": "iem-lsr-JAN-55",
      "properties": {
        "report_id": "iem-lsr-JAN-55",
        "report_type": "TSTM WND DMG",
        "event_category": "thunderstorm_wind",
        "valid_utc": "202609220019",
        "standard_time_display": "2026-09-21 18:19 CST",
        "wfo": "JAN",
        "county_or_zone": "Yazoo",
        "city": "1 ENE Bentonia",
        "state": "MS",
        "magnitude": null,
        "magnitude_units": null,
        "source": "Public",
        "event_narrative": "Several trees were reported down near the intersection of Rosehill Road and Highway 433 per reports from a local convenience store."
      },
      "geometry": {
        "type": "Point",
        "coordinates": [
          -90.35,
          32.66
        ]
      }
    },
    {
      "type": "Feature",
      "id": "iem-lsr-JAN-56",
      "properties": {
        "report_id": "iem-lsr-JAN-56",
        "report_type": "TSTM WND DMG",
        "event_category": "thunderstorm_wind",
        "valid_utc": "202609220020",
        "standard_time_display": "2026-09-21 18:20 CST",
        "wfo": "JAN",
        "county_or_zone": "Forrest",
        "city": "6 SE Petal",
        "state": "MS",
        "magnitude": null,
        "magnitude_units": null,
        "source": "Emergency Mngr",
        "event_narrative": "A few trees down on Bennie Burkett Rd."
      },
      "geometry": {
        "type": "Point",
        "coordinates": [
          -89.18,
          31.29
        ]
      }
    },
    {
      "type": "Feature",
      "id": "iem-lsr-JAN-57",
      "properties": {
        "report_id": "iem-lsr-JAN-57",
        "report_type": "TSTM WND DMG",
        "event_category": "thunderstorm_wind",
        "valid_utc": "202609220045",
        "standard_time_display": "2026-09-21 18:45 CST",
        "wfo": "JAN",
        "county_or_zone": "Webster",
        "city": "1 SW Cumberland",
        "state": "MS",
        "magnitude": null,
        "magnitude_units": null,
        "source": "Law Enforcement",
        "event_narrative": "Local law enforcement reported a few trees down across portions of southeast Webster county."
      },
      "geometry": {
        "type": "Point",
        "coordinates": [
          -89.09,
          33.61
        ]
      }
    },
    {
      "type": "Feature",
      "id": "iem-lsr-JAN-58",
      "properties": {
        "report_id": "iem-lsr-JAN-58",
        "report_type": "TSTM WND DMG",
        "event_category": "thunderstorm_wind",
        "valid_utc": "202609220204",
        "standard_time_display": "2026-09-21 20:04 CST",
        "wfo": "JAN",
        "county_or_zone": "Choctaw",
        "city": "1 W Fentress",
        "state": "MS",
        "magnitude": null,
        "magnitude_units": null,
        "source": "Law Enforcement",
        "event_narrative": "Tree down along Hwy 12 next to a funeral home."
      },
      "geometry": {
        "type": "Point",
        "coordinates": [
          -89.23,
          33.3
        ]
      }
    }
  ]
}