{
  "type": "FeatureCollection",
  "name": "cwa",
  "crs": {
    "type": "name",
    "properties": {
      "name": "urn:ogc:def:crs:OGC:1.3:CRS84"
    }
  },
  "features": [
    {
      "type": "Feature",
      "properties": {
        "WFO": "VEF",
        "CWA": "VEF",
        "STATE": "Nevada",
        "ST": "NV",
        "CITYSTATE": "Las Vegas NV"
      },
      "geometry": {
        "type": "Polygon",
        "coordinates": [
          [
            [
              -115.00079345685253,
              38.677307129020846
            ],
            [
              -114.04980468833566,
              38.67669677713462
            ],
            [
              -114.04998779300223,
              38.15948486303603
            ],
            [
              -114.04870605494045,
              38.14868164094503
            ],
            [
              -114.04998779300223,
              38.13751220682292
            ],
            [
              -114.05041503932256,
              37.996276854992914
            ],
            [
              -114.0496215818705,
              37.8253173833906
            ],
            [
              -114.04840087899731,
              37.80969238319699
            ],
            [
              -114.05169677738434,
              37.74652099624706
            ],
            [
              -114.05299377424325,
              37.57391357365253
            ],
            [
              -114.05120849587536,
              37.38952636684843
            ],
            [
              -114.05279540988022,
              37.1038818360779
            ],
            [
              -114.05030059789425,
              37.000312804792145
            ],
            [
              -112.54649353055197,
              37.00081253107351
            ],
            [
              -112.54010009814095,
              36.999713897678305
            ],
            [
              -112.54019927987281,
              36.99741363513118
            ],
            [
              -112.54349517825983,
              36.99561309796616
            ],
            [
              -112.54299926780192,
              36.98431396541724
            ],
            [
              -112.53619384786776,
              36.97611236599295
            ],
            [
              -112.53109741231572,
              36.96651077305381
            ],
            [
              -112.53199768134789,
              36.95641326875739
            ],
            [
              -112.52979278740719,
              36.95331191980932
            ],
            [
              -112.53039550944516,
              36.95061111541071
            ],
            [
              -112.54559326241912,
              36.93711090114721
            ],
            [
              -112.54499816933003,
              36.928012847614866
            ],
            [
              -112.54809570335397,
              36.9274101255769
            ],
            [
              -112.5463943479208,
              36.9199104308218
            ],
            [
              -112.54850006102896,
              36.91381072958154
            ],
            [
              -112.55179595941598,
              36.913311005098876
            ],
            [
              -112.55369567921218,
              36.907913207628496
            ],
            [
              -112.56710052486932,
              36.89751052918763
            ],
            [
              -112.57149505575217,
              36.89221191434842
            ],
            [
              -112.57089996356245,
              36.88951110815117
            ],
            [
              -112.57409668021756,
              36.886013031376365
            ],
            [
              -112.57249450741557,
              36.883213043447256
            ],
            [
              -112.57539367707648,
              36.875610352036176
            ],
            [
              -112.57419586194942,
              36.87331390441324
            ],
            [
              -112.57819366500559,
              36.867813110286875
            ],
            [
              -112.57579803475147,
              36.86511230498894
            ],
            [
              -112.5842971802706,
              36.86051177989475
            ],
            [
              -112.58639526442988,
              36.85751342760267
            ],
            [
              -112.58749389602644,
              36.85071182259259
            ],
            [
              -112.58529663103468,
              36.84801101729465
            ],
            [
              -112.59249877879557,
              36.84011077888937
            ],
            [
              -112.59410095159762,
              36.83371353065496
            ],
            [
              -112.59919738804899,
              36.832511902402416
            ],
            [
              -112.5971984874202,
              36.82551193213004
            ],
            [
              -112.60039520317605,
              36.82301330611921
            ],
            [
              -112.60089874258284,
              36.81771087635593
            ],
            [
              -112.59959411587573,
              36.81101226800183
            ],
            [
              -112.59759521524694,
              36.80891036981774
            ],
            [
              -112.60619354159866,
              36.80731201193987
            ],
            [
              -112.60399627840548,
              36.8051109311246
            ],
            [
              -112.60540008504586,
              36.80251312338197
            ],
            [
              -112.60429382360104,
              36.79991149891657
            ],
            [
              -112.61009979187185,
              36.80171203608165
            ],
            [
              -112.609199523739,
              36.79811096175155
            ],
            [
              -112.61399841319616,
              36.797611237268825
            ],
            [
              -112.61229705776299,
              36.79451370234551
            ],
            [
              -112.61399841319616,
              36.79131317076627
            ],
            [
              -112.61380004883313,
              36.7873115536853
            ],
            [
              -112.61940002379202,
              36.78261184685931
            ],
            [
              -112.61569976773006,
              36.774711609353346
            ],
            [
              -112.6197967534174,
              36.76961135887717
            ],
            [
              -112.62039947455605,
              36.7639122012871
            ],
            [
              -112.61729431158318,
              36.763214110642764
            ],
            [
              -112.61509704659142,
              36.757812500046896
            ],
            [
              -112.61089325022328,
              36.756511688263856
            ],
            [
              -112.61199951256742,
              36.75241088855171
            ],
            [
              -112.6158981320931,
              36.75511169384964
            ],
            [
              -112.61660003676224,
              36.75271224957072
            ],
            [
              -112.6128005980691,
              36.742610931249544
            ],
            [
              -112.6158981320931,
              36.744312285783394
            ],
            [
              -112.61759948842564,
              36.74121093683533
            ],
            [
              -112.61489868222839,
              36.740913390740445
            ],
            [
              -112.61339569115819,
              36.73751068077337
            ],
            [
              -112.62169647231428,
              36.7379112244235
            ],
            [
              -112.62179565404614,
              36.73531341578155
            ],
            [
              -112.61679840112527,
              36.73411178573036
            ],
            [
              -112.61750030489515,
              36.7304115296684
            ],
            [
              -112.62059783891908,
              36.72901153615351
            ],
            [
              -112.62249755871534,
              36.7237129213143
            ],
            [
              -112.6203002928242,
              36.72151184139841
            ],
            [
              -112.6231002807533,
              36.720111846984196
            ],
            [
              -112.62399291993728,
              36.71741104078694
            ],
            [
              -112.62739562990436,
              36.71631240829106
            ],
            [
              -112.62419891414851,
              36.71061325070099
            ],
            [
              -112.62569427537045,
              36.70791244540311
            ],
            [
              -112.63009643610161,
              36.70571136458784
            ],
            [
              -112.62759399426739,
              36.700210571360856
            ],
            [
              -112.63009643610161,
              36.6958122246545
            ],
            [
              -112.63029479956532,
              36.689613341682445
            ],
            [
              -112.6343994142016,
              36.687011719015686
            ],
            [
              -112.63529968323377,
              36.68431091281843
            ],
            [
              -112.63329315185746,
              36.67921066324158
            ],
            [
              -112.63839721725776,
              36.67441177378436
            ],
            [
              -112.63659668009268,
              36.6724128722563
            ],
            [
              -112.63259887703651,
              36.657711028840936
            ],
            [
              -112.62799835194238,
              36.65451049816102
            ],
            [
              -112.6303939821965,
              36.652111052982775
            ],
            [
              -112.62969970737555,
              36.649612426972
            ],
            [
              -112.62659454440268,
              36.64761352544389
            ],
            [
              -112.62889862097455,
              36.64421081457749
            ],
            [
              -112.62759399426739,
              36.636512756358684
            ],
            [
              -112.62529754574513,
              36.63451385483057
            ],
            [
              -112.62689971944644,
              36.630912781399786
            ],
            [
              -112.62599945131359,
              36.62831115693439
            ],
            [
              -112.62279510481022,
              36.62671279905646
            ],
            [
              -112.62259674134651,
              36.61531066895225
            ],
            [
              -112.61889648438523,
              36.61431121818822
            ],
            [
              -112.61909484874826,
              36.611011504877126
            ],
            [
              -112.621894835778,
              36.60721206708325
            ],
            [
              -112.62019348124414,
              36.602512360257265
            ],
            [
              -112.62329864511634,
              36.60011291507902
            ],
            [
              -112.62119293200817,
              36.595813751003845
            ],
            [
              -112.62609863304544,
              36.593212128337086
            ],
            [
              -112.62359619121122,
              36.59171295219102
            ],
            [
              -112.62779998757935,
              36.59001159675785
            ],
            [
              -112.62639617914033,
              36.58181381225768
            ],
            [
              -112.62949371316432,
              36.58141326860749
            ],
            [
              -112.62819671630535,
              36.57821273792757
            ],
            [
              -112.6347961429276,
              36.576313019030636
            ],
            [
              -112.63249969530466,
              36.574611663597466
            ],
            [
              -112.6324005135728,
              36.57151412957347
            ],
            [
              -112.63599395805471,
              36.57011413605858
            ],
            [
              -112.64359283544098,
              36.571113585923285
            ],
            [
              -112.64169311474541,
              36.56881332427554
            ],
            [
              -112.64199829158787,
              36.56621169981014
            ],
            [
              -112.64819335873648,
              36.56301116913022
            ],
            [
              -112.6498947141697,
              36.559413909724185
            ],
            [
              -112.65349578939913,
              36.558311462304175
            ],
            [
              -112.65619659379774,
              36.55361175457887
            ],
            [
              -112.6517944339659,
              36.55261230471416
            ],
            [
              -112.65019226116391,
              36.55061340318605
            ],
            [
              -112.6546936054255,
              36.54361343381299
            ],
            [
              -112.65929412782168,
              36.543411255425156
            ],
            [
              -112.65959930376482,
              36.53851318423614
            ],
            [
              -112.65619659379774,
              36.53731155418495
            ],
            [
              -112.65859985390011,
              36.534912109006655
            ],
            [
              -112.65839386058815,
              36.529113769684784
            ],
            [
              -112.65359497113099,
              36.5290107730288
            ],
            [
              -112.65529632656421,
              36.52061080924153
            ],
            [
              -112.65309905977375,
              36.51911163309546
            ],
            [
              -112.65570068423915,
              36.51511383093862
            ],
            [
              -112.65219879343954,
              36.51021194482547
            ],
            [
              -112.64679718014571,
              36.5101127621943
            ],
            [
              -112.64489746124883,
              36.50781249964717
            ],
            [
              -112.64519500734366,
              36.50511169434924
            ],
            [
              -112.64749908391553,
              36.50371169993508
            ],
            [
              -112.64169311474541,
              36.501811981038145
            ],
            [
              -112.64009857179161,
              36.49581146242912
            ],
            [
              -112.63589477542354,
              36.492111206367156
            ],
            [
              -112.63949584975364,
              36.48981094382003
            ],
            [
              -112.63869476335259,
              36.48781204229198
            ],
            [
              -112.6331939701256,
              36.48501205436287
            ],
            [
              -112.62789917021053,
              36.48661041314011
            ],
            [
              -112.62220001172113,
              36.48471069334386
            ],
            [
              -112.62220001172113,
              36.48201370207073
            ],
            [
              -112.6246948237071,
              36.48141098003276
            ],
            [
              -112.62489318807013,
              36.47751235960777
            ],
            [
              -112.6228942874414,
              36.47471237167866
            ],
            [
              -112.63009643610161,
              36.470012664852675
            ],
            [
              -112.63009643610161,
              36.46401214624359
            ],
            [
              -112.6431961058156,
              36.460411071913484
            ],
            [
              -112.64439392094266,
              36.457012176870535
            ],
            [
              -112.64179992722484,
              36.456111907838306
            ],
            [
              -112.64139557044916,
              36.44991302486625
            ],
            [
              -112.6429977423519,
              36.446811675918184
            ],
            [
              -112.64009857179161,
              36.44331359914332
            ],
            [
              -112.63710022039879,
              36.44371032697006
            ],
            [
              -112.63949584975364,
              36.439411162894885
            ],
            [
              -112.64450073342209,
              36.44111251832811
            ],
            [
              -112.64579772938168,
              36.439010620144074
            ],
            [
              -112.64279937708955,
              36.43721389790312
            ],
            [
              -112.64369964612172,
              36.43451309170587
            ],
            [
              -112.63979339584853,
              36.43351364094184
            ],
            [
              -112.64099883992446,
              36.43121337929409
            ],
            [
              -112.63789368234751,
              36.42561341332839
            ],
            [
              -112.63109588596632,
              36.4280128477148
            ],
            [
              -112.62849426329956,
              36.42691040029479
            ],
            [
              -112.6295928957955,
              36.42371368363962
            ],
            [
              -112.62759399426739,
              36.41811370778146
            ],
            [
              -112.62409973241671,
              36.414310455063514
            ],
            [
              -112.62409973241671,
              36.409214020410786
            ],
            [
              -112.63059997640772,
              36.4013137820055
            ],
            [
              -112.62989807083926,
              36.39781189030657
            ],
            [
              -112.63189697326669,
              36.39491271974629
            ],
            [
              -112.6297988891074,
              36.39221191444835
            ],
            [
              -112.64249420204573,
              36.38711166397218
            ],
            [
              -112.64769744917788,
              36.38251113887799
            ],
            [
              -112.6509933475649,
              36.366313934240736
            ],
            [
              -112.65629577642892,
              36.3575134277026
            ],
            [
              -112.66779327424018,
              36.34711074836241
            ],
            [
              -112.68149566689146,
              36.34191131615438
            ],
            [
              -112.68599700935448,
              36.3451118468343
            ],
            [
              -112.68869781555173,
              36.35311126697144
            ],
            [
              -112.69219970725067,
              36.355010985868375
            ],
            [
              -112.69809722920371,
              36.355411530417825
            ],
            [
              -112.72169494596494,
              36.34731292675025
            ],
            [
              -112.72619628932728,
              36.34301376267507
            ],
            [
              -112.72489929156899,
              36.33551406881929
            ],
            [
              -112.72069549610023,
              36.32761383131333
            ],
            [
              -112.72010040301114,
              36.32461166409706
            ],
            [
              -112.72169494596494,
              36.32131195078597
            ],
            [
              -112.72459411742454,
              36.31881332387587
            ],
            [
              -112.73089599615327,
              36.31781387311179
            ],
            [
              -112.73849487443886,
              36.3198127746399
            ],
            [
              -112.7485961909614,
              36.325111388579785
            ],
            [
              -112.75519561758364,
              36.32461166409706
            ],
            [
              -112.75869751018189,
              36.32071304277275
            ],
            [
              -112.76169586157471,
              36.31001281733768
            ],
            [
              -112.76619720493704,
              36.30571365416188
            ],
            [
              -112.76969909843461,
              36.30371093681032
            ],
            [
              -112.78539276096711,
              36.30241393995141
            ],
            [
              -112.78789520280134,
              36.300212860035515
            ],
            [
              -112.78919983040782,
              36.28991317735131
            ],
            [
              -112.7930984499335,
              36.28471374514328
            ],
            [
              -112.79729461735269,
              36.283813477010426
            ],
            [
              -112.81399536139679,
              36.28861236556827
            ],
            [
              -112.82339477504877,
              36.28841018718043
            ],
            [
              -112.83029937671483,
              36.28641128475306
            ],
            [
              -112.8386001587703,
              36.27821350115221
            ],
            [
              -112.84299469055247,
              36.27671051008201
            ],
            [
              -112.86869812042187,
              36.28231048594023
            ],
            [
              -112.87799835234205,
              36.276813506737994
            ],
            [
              -112.88159942577283,
              36.26681137104799
            ],
            [
              -112.89069366528037,
              36.259113311929866
            ],
            [
              -112.89939880411151,
              36.25441360510382
            ],
            [
              -112.90390014657447,
              36.25401306235301
            ],
            [
              -112.91399383504739,
              36.25771331841497
            ],
            [
              -112.92439270036277,
              36.25701141374577
            ],
            [
              -112.93179321338607,
              36.244510651145674
            ],
            [
              -112.93899536114697,
              36.24161148058539
            ],
            [
              -112.98229217514375,
              36.23171234065205
            ],
            [
              -113.00899505577718,
              36.23901367194344
            ],
            [
              -113.01799774340111,
              36.23701095639058
            ],
            [
              -113.03869628960206,
              36.22621154832433
            ],
            [
              -113.0537948608441,
              36.20891189626707
            ],
            [
              -113.06229400636329,
              36.20721054083384
            ],
            [
              -113.08839416495869,
              36.1950111392527
            ],
            [
              -113.09529876842339,
              36.19371032657034
            ],
            [
              -113.11409759482808,
              36.18321228042248
            ],
            [
              -113.12529754744384,
              36.17081069865486
            ],
            [
              -113.13619995126669,
              36.16661071811018
            ],
            [
              -113.13929748529068,
              36.1672134401482
            ],
            [
              -113.14599609544342,
              36.17301178036939
            ],
            [
              -113.15579986587107,
              36.17441177388429
            ],
            [
              -113.15979766802792,
              36.1732101438331
            ],
            [
              -113.17259979344567,
              36.16271209678587
            ],
            [
              -113.19919586159972,
              36.151412964236954
            ],
            [
              -113.20149993907091,
              36.14831161528889
            ],
            [
              -113.20119476312777,
              36.14351272583167
            ],
            [
              -113.20529937686473,
              36.133213043147464
            ],
            [
              -113.20199585042815,
              36.11861038236333
            ],
            [
              -113.21589660744246,
              36.107212067183184
            ],
            [
              -113.22429657033041,
              36.09151077300385
            ],
            [
              -113.23109436041636,
              36.089511870576416
            ],
            [
              -113.24669647196458,
              36.09321212843702
            ],
            [
              -113.2566986085539,
              36.08881378173072
            ],
            [
              -113.26829528809702,
              36.092311859404845
            ],
            [
              -113.27709960955929,
              36.09701156623083
            ],
            [
              -113.30059814458866,
              36.09571075444779
            ],
            [
              -113.30949401883385,
              36.09981155415994
            ],
            [
              -113.31340026910709,
              36.1000137334471
            ],
            [
              -113.31999969483002,
              36.0968132018678
            ],
            [
              -113.33110046391522,
              36.0682106023375
            ],
            [
              -113.34659576388339,
              36.055912018125184
            ],
            [
              -113.35409546043712,
              36.0413131713658
            ],
            [
              -113.34859466631076,
              36.01381301925551
            ],
            [
              -113.34339904812754,
              36.00941085762503
            ],
            [
              -113.34079742456146,
              36.00391387932211
            ],
            [
              -113.34059906019843,
              35.98721313527801
            ],
            [
              -113.33369445943174,
              35.97901153585377
            ],
            [
              -113.32239532508413,
              35.97631072965652
            ],
            [
              -113.31899261511705,
              35.97271347025048
            ],
            [
              -113.31789398172185,
              35.96781158413734
            ],
            [
              -113.3188934333852,
              35.965412139858415
            ],
            [
              -113.3175964374256,
              35.96181106642763
            ],
            [
              -113.32629394640844,
              35.95431137077321
            ],
            [
              -113.32869720471217,
              35.94961166394717
            ],
            [
              -113.32539367737627,
              35.939212798631786
            ],
            [
              -113.3259963994143,
              35.93331146175461
            ],
            [
              -113.33480071997724,
              35.91521072419562
            ],
            [
              -113.33379364026428,
              35.912113190171624
            ],
            [
              -113.32829284703723,
              35.908210753923186
            ],
            [
              -113.32099914559404,
              35.89731216412514
            ],
            [
              -113.30979919387767,
              35.89141082814723
            ],
            [
              -113.30919647183964,
              35.88641357432704
            ],
            [
              -113.31250000007492,
              35.87581253062382
            ],
            [
              -113.31099700900472,
              35.86241149899155
            ],
            [
              -113.31589508109306,
              35.85351180982224
            ],
            [
              -113.32659912055294,
              35.84141159087227
            ],
            [
              -113.32579803505126,
              35.83081054716905
            ],
            [
              -113.33319854717519,
              35.821212769154045
            ],
            [
              -113.32969664918096,
              35.81291198619925
            ],
            [
              -113.33390045184433,
              35.801712036281515
            ],
            [
              -113.33349609416939,
              34.317913055243366
            ],
            [
              -113.34339904812754,
              34.318511963256526
            ],
            [
              -113.3414993292306,
              34.31241226201632
            ],
            [
              -113.35119628897752,
              34.30011367780406
            ],
            [
              -113.35839843943637,
              34.29541397097802
            ],
            [
              -113.36979675281788,
              34.29201126101094
            ],
            [
              -113.3864974977613,
              34.294910430671905
            ],
            [
              -113.39869689934238,
              34.30011367780406
            ],
            [
              -113.4114990229615,
              34.29481124894005
            ],
            [
              -113.41479492224784,
              34.294910430671905
            ],
            [
              -113.41959381080568,
              34.29871368428917
            ],
            [
              -113.43479919542648,
              34.30151367221828
            ],
            [
              -113.44580078098124,
              34.29931259230233
            ],
            [
              -113.46749877884554,
              34.30361175457887
            ],
            [
              -113.4714965819017,
              34.30201339670094
            ],
            [
              -113.47449493419384,
              34.30471038797407
            ],
            [
              -113.48139953585985,
              34.303310393559855
            ],
            [
              -113.48769378743833,
              34.30501174899308
            ],
            [
              -113.49849701042865,
              34.302513122982305
            ],
            [
              -113.50729370114334,
              34.30481338463005
            ],
            [
              -113.51589965824257,
              34.310112000368576
            ],
            [
              -113.5242996220299,
              34.309013366973375
            ],
            [
              -113.52629852355795,
              34.31041336138759
            ],
            [
              -113.53419494613979,
              34.308212279673
            ],
            [
              -113.53999328636104,
              34.30551147527444
            ],
            [
              -113.54449462882405,
              34.29981231678505
            ],
            [
              -113.54859924256095,
              34.28851318423614
            ],
            [
              -113.55719757071131,
              34.28381347741009
            ],
            [
              -113.5680999763328,
              34.27491378824078
            ],
            [
              -113.56949615492357,
              34.26961135937677
            ],
            [
              -113.5825958264362,
              34.25891113304243
            ],
            [
              -113.5866928103249,
              34.243412018150195
            ],
            [
              -113.59659576428305,
              34.23761367792895
            ],
            [
              -113.59899902258678,
              34.23391342186699
            ],
            [
              -113.60589599620323,
              34.229511261135826
            ],
            [
              -113.60779571510011,
              34.23131179830091
            ],
            [
              -113.61829376214735,
              34.2274131769766
            ],
            [
              -113.62590026938187,
              34.228610992103654
            ],
            [
              -113.6352996830339,
              34.224311828927796
            ],
            [
              -113.63899993909587,
              34.22401046790884
            ],
            [
              -113.64059448204966,
              34.227111815957585
            ],
            [
              -113.64389801028489,
              34.22631072955659
            ],
            [
              -113.64529418887571,
              34.22091293298553
            ],
            [
              -113.64769744897808,
              34.2218132020177
            ],
            [
              -113.66489410437936,
              34.212413788365666
            ],
            [
              -113.67609405519647,
              34.21251297009752
            ],
            [
              -113.67910003733681,
              34.21011352491928
            ],
            [
              -113.69509887671177,
              34.21031189018163
            ],
            [
              -113.70619964579697,
              34.212612151829376
            ],
            [
              -113.71579742381203,
              34.22141265926689
            ],
            [
              -113.72149658230137,
              34.22231292739974
            ],
            [
              -113.72359466556134,
              34.22461318994681
            ],
            [
              -113.73149871799143,
              34.24061203022109
            ],
            [
              -113.75209808335984,
              34.238212585042845
            ],
            [
              -113.77759551901795,
              34.22891235222335
            ],
            [
              -113.79889678995488,
              34.236011505126896
            ],
            [
              -113.81279754606987,
              34.232311249064935
            ],
            [
              -113.81529235805584,
              34.23481368999984
            ],
            [
              -113.81869506802292,
              34.233612060847975
            ],
            [
              -113.82180023189517,
              34.22701263422573
            ],
            [
              -113.83529663123448,
              34.22311401380074
            ],
            [
              -113.83929443429065,
              34.225612639811516
            ],
            [
              -113.84259796072729,
              34.23291397110296
            ],
            [
              -113.84849548357965,
              34.239913939576695
            ],
            [
              -113.85099792541388,
              34.25061035188628
            ],
            [
              -113.85529327456493,
              34.25261306833846
            ],
            [
              -113.871795654246,
              34.25501251171812
            ],
            [
              -113.89569854695037,
              34.24881362874601
            ],
            [
              -113.90549469022773,
              34.24831390426334
            ],
            [
              -113.92879486089407,
              34.24931335412805
            ],
            [
              -113.94209289587042,
              34.25541305536825
            ],
            [
              -113.96339416500865,
              34.258113860666185
            ],
            [
              -114.0076980587184,
              34.25401306185336
            ],
            [
              -114.01619720513685,
              34.25901412969836
            ],
            [
              -114.02149963400086,
              34.266712188816484
            ],
            [
              -114.024497986293,
              34.267410277662236
            ],
            [
              -114.02829742408682,
              34.262012481990496
            ],
            [
              -114.03509521507209,
              34.25991058290714
            ],
            [
              -114.037597656007,
              34.26181030270334
            ],
            [
              -114.03739929164396,
              34.2654113770335
            ],
            [
              -114.04369354232307,
              34.26651382355419
            ],
            [
              -114.0461959841573,
              34.26891326873243
            ],
            [
              -114.04719543492138,
              34.27351379382657
            ],
            [
              -114.04999542195111,
              34.277111053232545
            ],
            [
              -114.0564956668415,
              34.279113769684784
            ],
            [
              -114.06779480028979,
              34.29021072384586
            ],
            [
              -114.084197998239,
              34.29441070618918
            ],
            [
              -114.09159851126225,
              34.29901123038405
            ],
            [
              -114.09959411557594,
              34.29951095576604
            ],
            [
              -114.11159515369337,
              34.29501342822721
            ],
            [
              -114.12909698503779,
              34.304210662592084
            ],
            [
              -114.13769531318815,
              34.30361175457887
            ],
            [
              -114.13939666682268,
              34.296012878091915
            ],
            [
              -114.13669586242406,
              34.28391265914195
            ],
            [
              -114.13639831542986,
              34.273410797170584
            ],
            [
              -114.13119506829776,
              34.26271057083625
            ],
            [
              -114.13249969500487,
              34.25891113304243
            ],
            [
              -114.16510009759139,
              34.25911331232953
            ],
            [
              -114.16419982855922,
              34.25251388480797
            ],
            [
              -114.16629791271845,
              34.24981308040941
            ],
            [
              -114.17279815670952,
              34.247913360613154
            ],
            [
              -114.17579650900166,
              34.245311737047075
            ],
            [
              -114.1781997682047,
              34.239913939576695
            ],
            [
              -114.19089508114303,
              34.230812072918866
            ],
            [
              -114.21179962155526,
              34.211513519333494
            ],
            [
              -114.22339630109838,
              34.20511245707428
            ],
            [
              -114.22549438525766,
              34.20271301279536
            ],
            [
              -114.22489929216857,
              34.19391250625722
            ],
            [
              -114.22929382305148,
              34.18721389790312
            ],
            [
              -114.2400970460418,
              34.18351364094184
            ],
            [
              -114.24429321256167,
              34.179512023860866
            ],
            [
              -114.25609588631607,
              34.17311096160165
            ],
            [
              -114.2686004638403,
              34.17021179194069
            ],
            [
              -114.27519988956323,
              34.172111510837624
            ],
            [
              -114.2871932978324,
              34.1705131529597
            ],
            [
              -114.2928924563218,
              34.166511535878726
            ],
            [
              -114.31199645956895,
              34.14521408076524
            ],
            [
              -114.32079315208227,
              34.13871383677417
            ],
            [
              -114.33609771663629,
              34.134014129948184
            ],
            [
              -114.3510971070458,
              34.1339111332922
            ],
            [
              -114.3558959956037,
              34.13071060171296
            ],
            [
              -114.36079406679272,
              34.123210906957866
            ],
            [
              -114.36709594732008,
              34.118412018399965
            ],
            [
              -114.38050079297716,
              34.115413666107884
            ],
            [
              -114.3897933959484,
              34.110412598262826
            ],
            [
              -114.4063949582607,
              34.11141204812759
            ],
            [
              -114.41519927972297,
              34.108013153084585
            ],
            [
              -114.4339981079263,
              34.08741378771617
            ],
            [
              -114.43619547364216,
              34.07971191457324
            ],
            [
              -115.18509674072197,
              34.079410552654906
            ],
            [
              -115.20779418935035,
              34.07781219477704
            ],
            [
              -115.31609344505642,
              34.07781219477704
            ],
            [
              -115.31609344505642,
              34.07271194520018
            ],
            [
              -115.38619232231781,
              34.09041214000831
            ],
            [
              -115.41139984082997,
              34.09291076691841
            ],
            [
              -115.47539520282629,
              34.11071014435771
            ],
            [
              -115.52459716772506,
              34.11701202398575
            ],
            [
              -115.52829742378702,
              34.113410949655645
            ],
            [
              -115.54909515441778,
              34.07351303070186
            ],
            [
              -115.56539916973588,
              34.07561111486109
            ],
            [
              -115.57539367737627,
              34.08191299358981
            ],
            [
              -115.58239746077419,
              34.089813231995095
            ],
            [
              -115.59849548278027,
              34.09451293882114
            ],
            [
              -115.60769653296859,
              34.07271194520018
            ],
            [
              -115.59619903605665,
              34.03541183488829
            ],
            [
              -116.00079345755199,
              34.034412384124266
            ],
            [
              -116.00069427492082,
              34.07791137740821
            ],
            [
              -116.03569793671039,
              34.078311920159024
            ],
            [
              -116.03599548280528,
              34.10701370232056
            ],
            [
              -116.05359649678087,
              34.10701370232056
            ],
            [
              -116.05359649678087,
              34.121212006329074
            ],
            [
              -116.26499939000979,
              34.12051391568474
            ],
            [
              -116.26490020827794,
              34.077713013045184
            ],
            [
              -116.31739807156373,
              34.076213836899115
            ],
            [
              -116.44490051314813,
              34.07601165761196
            ],
            [
              -116.47229766770317,
              34.03281021132227
            ],
            [
              -116.61639660032279,
              34.03321215971346
            ],
            [
              -116.59869384784275,
              34.100410460774185
            ],
            [
              -116.47221333827491,
              34.13695649404701
            ],
            [
              -116.44451503943748,
              34.19827487108847
            ],
            [
              -116.44469500007415,
              34.20089399995817
            ],
            [
              -116.43899536134683,
              34.20811080936642
            ],
            [
              -116.43779754621977,
              34.25671386715129
            ],
            [
              -116.44709400008799,
              34.26912699981125
            ],
            [
              -116.45180446280568,
              34.282006682762244
            ],
            [
              -116.4799170001694,
              34.32253500039002
            ],
            [
              -116.40480041490719,
              34.3569107060643
            ],
            [
              -116.40409851113736,
              34.47091293338519
            ],
            [
              -116.4213943482705,
              34.471412658767235
            ],
            [
              -116.42180633489443,
              34.530513762700025
            ],
            [
              -116.4570007320981,
              34.53101348898139
            ],
            [
              -116.45741272141993,
              34.56189727823687
            ],
            [
              -116.47419738839875,
              34.56141281075264
            ],
            [
              -116.47470092780554,
              34.60506820693223
            ],
            [
              -116.50430297899925,
              34.60537719690018
            ],
            [
              -116.50489807118902,
              34.67671203583183
            ],
            [
              -116.4175532925504,
              34.736270143752165
            ],
            [
              -117.63208697293544,
              34.82008760685761
            ],
            [
              -117.63319397002567,
              35.09261321972434
            ],
            [
              -117.63099670413453,
              35.10461044291765
            ],
            [
              -117.63119506759824,
              35.361610412690425
            ],
            [
              -117.63269805956776,
              35.40621185339438
            ],
            [
              -117.63129425022942,
              35.41961288502665
            ],
            [
              -117.63339996333758,
              35.434013367423006
            ],
            [
              -117.63369751033179,
              35.45101165756199
            ],
            [
              -117.63099670413453,
              35.45101165756199
            ],
            [
              -117.63029480036471,
              35.458213806222204
            ],
            [
              -117.6299972533705,
              35.545711517272764
            ],
            [
              -117.63009643600168,
              35.56411361675009
            ],
            [
              -117.63379669206364,
              35.56411361675009
            ],
            [
              -117.63479614282767,
              35.56981277523943
            ],
            [
              -117.63489532455952,
              35.62211227416219
            ],
            [
              -117.63309478829382,
              35.65131378170571
            ],
            [
              -117.6163940433504,
              35.65171051043177
            ],
            [
              -117.61619567898737,
              35.67571258486794
            ],
            [
              -117.6163940433504,
              35.68081283624343
            ],
            [
              -117.65149688687183,
              35.68071365361226
            ],
            [
              -117.65219879244029,
              35.688011169080255
            ],
            [
              -117.65139770513997,
              35.709911346231706
            ],
            [
              -117.63430023236981,
              35.709911346231706
            ],
            [
              -117.63299560476332,
              35.79721069291918
            ],
            [
              -117.92449951184295,
              35.79811096195141
            ],
            [
              -117.92309570340393,
              35.78681182940244
            ],
            [
              -118.00799560491322,
              35.7894134520692
            ],
            [
              -118.00909423830842,
              35.79621124305447
            ],
            [
              -118.00740051272345,
              35.79941177373445
            ],
            [
              -118.01009368907245,
              35.80471038767428
            ],
            [
              -118.00849914611865,
              35.80761337315869
            ],
            [
              -118.00839996258816,
              35.814010619594455
            ],
            [
              -118.0073928828752,
              35.81671142579171
            ],
            [
              -118.00109863309541,
              35.82021331838996
            ],
            [
              -117.99869537389236,
              35.823310852413954
            ],
            [
              -118.00549316397831,
              35.82821273762778
            ],
            [
              -118.00479888915737,
              35.83971405036317
            ],
            [
              -118.00339508071835,
              35.84181213362314
            ],
            [
              -118.00539398224646,
              35.843311309769206
            ],
            [
              -118.0055007929272,
              35.86271286001056
            ],
            [
              -117.99599456859443,
              35.86951065099578
            ],
            [
              -117.99289703457043,
              35.86891174298262
            ],
            [
              -117.99039459183689,
              35.866012573321655
            ],
            [
              -117.981300354128,
              35.86791229221859
            ],
            [
              -117.98349762001914,
              35.87581253062382
            ],
            [
              -117.98880004888309,
              35.881111144563704
            ],
            [
              -117.98889923241359,
              35.88391113339213
            ],
            [
              -117.98489380040854,
              35.88751220682292
            ],
            [
              -117.98249816925505,
              35.892612457299094
            ],
            [
              -117.98269653271876,
              35.89561080869191
            ],
            [
              -117.98639679057936,
              35.89831161488917
            ],
            [
              -117.98779296917013,
              35.90201187095113
            ],
            [
              -117.98579406674276,
              35.905212401631104
            ],
            [
              -117.98899841324612,
              35.90811157219133
            ],
            [
              -117.98959350633521,
              35.912113190171624
            ],
            [
              -117.98859405557118,
              35.91721343974848
            ],
            [
              -117.98379516611396,
              35.9255104059805
            ],
            [
              -117.98639679057936,
              35.935512542569825
            ],
            [
              -117.99149322523215,
              35.943313599243254
            ],
            [
              -118.00749969535462,
              35.947013855305215
            ],
            [
              -118.01129913314844,
              35.95431137077321
            ],
            [
              -118.01619720523678,
              35.95491027788705
            ],
            [
              -118.01799774240186,
              35.96211242744664
            ],
            [
              -118.01289367700156,
              35.968410492150554
            ],
            [
              -118.0139999393457,
              35.97161102283047
            ],
            [
              -118.01059722937862,
              35.976612090675474
            ],
            [
              -118.00460052479434,
              35.97791290335783
            ],
            [
              -118.00359344508138,
              35.98371124267976
            ],
            [
              -118.00649261474234,
              35.98981094391996
            ],
            [
              -118.01119995141659,
              35.993312835618894
            ],
            [
              -118.01189422623753,
              35.99771118232525
            ],
            [
              -118.02139282342006,
              36.00431060804817
            ],
            [
              -118.03329467800694,
              36.00881195141051
            ],
            [
              -118.03789520310113,
              36.029312134147744
            ],
            [
              -118.04079437276204,
              36.030811310293814
            ],
            [
              -118.04019928057232,
              36.03501129173776
            ],
            [
              -118.0453948969569,
              36.04071044932783
            ],
            [
              -118.04319763196509,
              36.04821395900706
            ],
            [
              -118.05139923138938,
              36.05931091316813
            ],
            [
              -118.04979705499005,
              36.07671356278075
            ],
            [
              -118.05239868215341,
              36.08511352476938
            ],
            [
              -118.05789947538045,
              36.09161376965977
            ],
            [
              -118.06340027040613,
              36.08961105320759
            ],
            [
              -118.0665969852626,
              36.09251403779268
            ],
            [
              -118.0662994382684,
              36.10501098636797
            ],
            [
              -118.06789398212152,
              36.10801315268492
            ],
            [
              -118.06479644809758,
              36.11071395888217
            ],
            [
              -118.07319641098553,
              36.140811919634416
            ],
            [
              -118.059997560439,
              36.15051269520478
            ],
            [
              -118.05879974441262,
              36.15331268313389
            ],
            [
              -118.05899810787633,
              36.15751266457784
            ],
            [
              -118.06199646016847,
              36.16261291505401
            ],
            [
              -118.05979919427739,
              36.165710449078006
            ],
            [
              -118.0614929198623,
              36.17381286587113
            ],
            [
              -118.06929779056054,
              36.17831039430928
            ],
            [
              -118.07379913302356,
              36.189311980763364
            ],
            [
              -118.08529663083482,
              36.19701385480562
            ],
            [
              -118.09119415278786,
              36.19851303095169
            ],
            [
              -118.09439849929129,
              36.204513549560716
            ],
            [
              -118.10440063498129,
              36.21161270066568
            ],
            [
              -118.10739898727343,
              36.2184104916509
            ],
            [
              -118.10829925540628,
              36.22721099908841
            ],
            [
              -118.10529327416526,
              36.229610443367335
            ],
            [
              -118.10519409243341,
              36.23301315333441
            ],
            [
              -118.11229705756313,
              36.240413666357654
            ],
            [
              -118.11759948732646,
              36.25251388530762
            ],
            [
              -118.11930084186031,
              36.25771331841497
            ],
            [
              -118.11709594702029,
              36.2685127255819
            ],
            [
              -118.11799621605252,
              36.27151107787398
            ],
            [
              -118.12159729038262,
              36.27711105283288
            ],
            [
              -118.12689971924664,
              36.27981185903013
            ],
            [
              -118.12749481233567,
              36.282012938946025
            ],
            [
              -118.12499237140077,
              36.28811264018623
            ],
            [
              -118.12649536157164,
              36.29981231728465
            ],
            [
              -118.1206970213504,
              36.3020133972006
            ],
            [
              -118.12109375007645,
              36.30591201762559
            ],
            [
              -118.11919403117957,
              36.307510376402774
            ],
            [
              -118.11399841299635,
              36.3073120120398
            ],
            [
              -118.11109924333539,
              36.309112549204826
            ],
            [
              -118.11370086690147,
              36.3198127746399
            ],
            [
              -118.10719299306214,
              36.32571411061775
            ],
            [
              -118.1038970955745,
              36.3259124758801
            ],
            [
              -118.09859466581116,
              36.33241271987117
            ],
            [
              -118.10149383457275,
              36.337913513098215
            ],
            [
              -118.10070037802001,
              36.3457107539482
            ],
            [
              -118.10479736280803,
              36.34801101739458
            ],
            [
              -118.12159729038262,
              36.35061264006134
            ],
            [
              -118.12359619101136,
              36.352413177226424
            ],
            [
              -118.122795106409,
              36.355213165155476
            ],
            [
              -118.1257934569025,
              36.36101150537672
            ],
            [
              -118.1293945312326,
              36.36491393982652
            ],
            [
              -118.13079834057095,
              36.37051391568474
            ],
            [
              -118.14129638671886,
              36.37261199984397
            ],
            [
              -118.14679717994585,
              36.37871170018485
            ],
            [
              -118.15289306626198,
              36.37961196921708
            ],
            [
              -118.15760040293623,
              36.38861084011825
            ],
            [
              -118.1625976558571,
              36.3895111082511
            ],
            [
              -118.15679931743449,
              36.39561080859198
            ],
            [
              -118.14619445790788,
              36.39861297580825
            ],
            [
              -118.1399993898599,
              36.404312134297584
            ],
            [
              -118.13759612975753,
              36.415412903382844
            ],
            [
              -118.14119720498701,
              36.42091369571057
            ],
            [
              -118.15129852330818,
              36.42531204241686
            ],
            [
              -118.15699767909956,
              36.432312008192696
            ],
            [
              -118.17539978037553,
              36.42701339695077
            ],
            [
              -118.18479919402756,
              36.4266128541999
            ],
            [
              -118.19359588744021,
              36.42681121766361
            ],
            [
              -118.20369720486207,
              36.43121337929409
            ],
            [
              -118.20879364041411,
              36.43051147462489
            ],
            [
              -118.21299743678225,
              36.43341064518518
            ],
            [
              -118.21369934055207,
              36.43671035759695
            ],
            [
              -118.21080017089116,
              36.43851089476203
            ],
            [
              -118.20999908359079,
              36.44161224371015
            ],
            [
              -118.21080017089116,
              36.44521331804026
            ],
            [
              -118.21399688844559,
              36.44811248770122
            ],
            [
              -118.21659851111235,
              36.457012176870535
            ],
            [
              -118.22399902323627,
              36.463512420861605
            ],
            [
              -118.23069763159037,
              36.46491241527582
            ],
            [
              -118.23849487333968,
              36.47721099858876
            ],
            [
              -118.2491989145982,
              36.48221206733308
            ],
            [
              -118.24889373775574,
              36.486213684414054
            ],
            [
              -118.23880004928282,
              36.49121093733493
            ],
            [
              -118.23619842481742,
              36.49431228628305
            ],
            [
              -118.24099731427458,
              36.50041198662393
            ],
            [
              -118.23809814641231,
              36.50601196338147
            ],
            [
              -118.23899841274653,
              36.50921249406139
            ],
            [
              -118.23749542257565,
              36.511413573977336
            ],
            [
              -118.23889923101467,
              36.513313292874216
            ],
            [
              -118.23879241943456,
              36.523410797170584
            ],
            [
              -118.24669647186465,
              36.52181243929272
            ],
            [
              -118.24969482415679,
              36.52481079068548
            ],
            [
              -118.25059509318896,
              36.52961349506677
            ],
            [
              -118.2491989145982,
              36.534313201892815
            ],
            [
              -118.25219726599101,
              36.541912079279086
            ],
            [
              -118.25869750998208,
              36.54361343381299
            ],
            [
              -118.26569366533033,
              36.551410674662975
            ],
            [
              -118.27519989056248,
              36.551013946836235
            ],
            [
              -118.28139495771109,
              36.555713653662224
            ],
            [
              -118.29049682616755,
              36.55861282332319
            ],
            [
              -118.29179382302647,
              36.56191253663434
            ],
            [
              -118.29079437316176,
              36.57341384936973
            ],
            [
              -118.2936935419234,
              36.57691192614453
            ],
            [
              -118.28839874290765,
              36.584312439167775
            ],
            [
              -118.2888946533655,
              36.58911132772562
            ],
            [
              -118.27969360407656,
              36.59181213392287
            ],
            [
              -118.27489471372002,
              36.59721374541806
            ],
            [
              -118.28170013455355,
              36.60421371479117
            ],
            [
              -118.28820037944394,
              36.60331344575894
            ],
            [
              -118.29439544659255,
              36.60571289093724
            ],
            [
              -118.3006973271199,
              36.61261367767912
            ],
            [
              -118.30229949992196,
              36.6186103822634
            ],
            [
              -118.30889892744352,
              36.62121200582948
            ],
            [
              -118.3137969968339,
              36.62561035163645
            ],
            [
              -118.32039642255683,
              36.627212524438505
            ],
            [
              -118.3194961553233,
              36.63851165788674
            ],
            [
              -118.32449340824417,
              36.64611053527301
            ],
            [
              -118.33709716839957,
              36.65441131642916
            ],
            [
              -118.33679962230468,
              36.65931320164299
            ],
            [
              -118.3294982910133,
              36.66591262826523
            ],
            [
              -118.33109283396709,
              36.66891097965805
            ],
            [
              -118.3333969123376,
              36.671413422391595
            ],
            [
              -118.34709930408957,
              36.67251205398816
            ],
            [
              -118.35149383497247,
              36.681812285908336
            ],
            [
              -118.36449432385393,
              36.68861389181768
            ],
            [
              -118.36619567928716,
              36.69131088309081
            ],
            [
              -118.36169433592482,
              36.69491195742097
            ],
            [
              -118.3489990229865,
              36.69561386119079
            ],
            [
              -118.34149932913073,
              36.70201110762656
            ],
            [
              -118.33799743743174,
              36.70291137665873
            ],
            [
              -118.33499908424034,
              36.706012725606854
            ],
            [
              -118.3364944463616,
              36.71811294635546
            ],
            [
              -118.33929443429065,
              36.72841262814035
            ],
            [
              -118.35029602074474,
              36.739810944219755
            ],
            [
              -118.35889434799572,
              36.74341201765054
            ],
            [
              -118.36279296932003,
              36.74771118172572
            ],
            [
              -118.36879730195386,
              36.74981307990976
            ],
            [
              -118.37169647341346,
              36.76011276169464
            ],
            [
              -118.37459564217511,
              36.76421356230611
            ],
            [
              -118.37279510501003,
              36.766010283647745
            ],
            [
              -118.37649536107205,
              36.77351379422629
            ],
            [
              -118.3760986332453,
              36.777912140033266
            ],
            [
              -118.37989807103912,
              36.782913207878266
            ],
            [
              -118.37310028095317,
              36.79511261035873
            ],
            [
              -118.37399292013714,
              36.79971313455354
            ],
            [
              -118.37999725277098,
              36.80891036981774
            ],
            [
              -118.38379669236343,
              36.810413360887935
            ],
            [
              -118.38459777786511,
              36.81491088932614
            ],
            [
              -118.39189910915655,
              36.822311400550745
            ],
            [
              -118.39319610601547,
              36.83131408727536
            ],
            [
              -118.39019775372333,
              36.834011077649166
            ],
            [
              -118.37269592327823,
              36.83571243308239
            ],
            [
              -118.36269378758817,
              36.843311309569344
            ],
            [
              -118.36259460405768,
              36.86111068700865
            ],
            [
              -118.3651962294224,
              36.86201095604082
            ],
            [
              -118.36649322538199,
              36.86901092541393
            ],
            [
              -118.37009429881283,
              36.87121200622914
            ],
            [
              -118.36629486101901,
              36.88171386730119
            ],
            [
              -118.36079406689265,
              36.88581085208921
            ],
            [
              -118.36899566721621,
              36.898113251225595
            ],
            [
              -118.36729431178304,
              36.9065132141136
            ],
            [
              -118.37139892641926,
              36.909412383774566
            ],
            [
              -118.37729644837236,
              36.91851043730691
            ],
            [
              -118.3877944954196,
              36.94441223064001
            ],
            [
              -118.39709472733978,
              36.95741272042079
            ],
            [
              -118.40409851073764,
              36.957210541133634
            ],
            [
              -118.40299987824176,
              36.962013244615605
            ],
            [
              -118.40439605683252,
              36.9720115662808
            ],
            [
              -118.40739440912466,
              36.973011017044826
            ],
            [
              -118.40909576455783,
              36.98051071179998
            ],
            [
              -118.41109466608594,
              36.98291397100303
            ],
            [
              -118.41709899871978,
              36.985412597913125
            ],
            [
              -118.41979980491703,
              36.988410950205264
            ],
            [
              -118.41889953588486,
              36.99481201156516
            ],
            [
              -118.41259765625682,
              36.997711182125386
            ],
            [
              -118.41819763211498,
              37.00471115059918
            ],
            [
              -118.42779541013005,
              37.01131057722142
            ],
            [
              -118.42309570330406,
              37.01771163858132
            ],
            [
              -118.42319488503585,
              37.02481079058555
            ],
            [
              -118.42879486089407,
              37.03241348289595
            ],
            [
              -118.43739318814511,
              37.03751373337212
            ],
            [
              -118.44109344510639,
              37.04521179159099
            ],
            [
              -118.43529510488514,
              37.049911499316295
            ],
            [
              -118.4379959110824,
              37.05521392818031
            ],
            [
              -118.43709564205022,
              37.059810638350314
            ],
            [
              -118.44899749843574,
              37.06891250590746
            ],
            [
              -118.45259857186659,
              37.06751251239257
            ],
            [
              -118.46789550837099,
              37.06731033310547
            ],
            [
              -118.4706954963001,
              37.07211303658744
            ],
            [
              -118.48600006085411,
              37.07711029130695
            ],
            [
              -118.49149322513222,
              37.08551406911903
            ],
            [
              -118.49809265085514,
              37.09171295209114
            ],
            [
              -118.50159454255407,
              37.09271240195585
            ],
            [
              -118.50279235858045,
              37.09511184713409
            ],
            [
              -118.51139831478037,
              37.09331130996901
            ],
            [
              -118.52139282242081,
              37.09821319608221
            ],
            [
              -118.52610015909505,
              37.1037139893092
            ],
            [
              -118.52959442094573,
              37.10531234718712
            ],
            [
              -118.53159332337316,
              37.110813141313486
            ],
            [
              -118.53730010991211,
              37.11341094995544
            ],
            [
              -118.54799652132237,
              37.114913940126314
            ],
            [
              -118.5635986328706,
              37.11321258469309
            ],
            [
              -118.5679931637535,
              37.116611480635356
            ],
            [
              -118.56869506842264,
              37.1221122738624
            ],
            [
              -118.57519531331303,
              37.12341308564544
            ],
            [
              -118.58249664280578,
              37.12231063822543
            ],
            [
              -118.58559417682977,
              37.1247138983278
            ],
            [
              -118.59179687472596,
              37.13731384265975
            ],
            [
              -118.60159301800337,
              37.13731384265975
            ],
            [
              -118.61380004943271,
              37.14271163923081
            ],
            [
              -118.62969970707582,
              37.137611388754635
            ],
            [
              -118.63389587359563,
              37.138912201436995
            ],
            [
              -118.64349365340934,
              37.13801193240482
            ],
            [
              -118.64659881638221,
              37.140411376683744
            ],
            [
              -118.65019988981305,
              37.14011383058886
            ],
            [
              -118.65409851113736,
              37.142013550385116
            ],
            [
              -118.65549468972813,
              37.14581298817893
            ],
            [
              -118.66389465441472,
              37.15221405043815
            ],
            [
              -118.66690063475647,
              37.15591049157598
            ],
            [
              -118.66699981738765,
              37.16061019930129
            ],
            [
              -118.67149353000235,
              37.1667137145663
            ],
            [
              -118.66690063475647,
              37.17281341580656
            ],
            [
              -118.66479492344695,
              37.179012298778616
            ],
            [
              -118.66719818085136,
              37.18301391585959
            ],
            [
              -118.66659545881333,
              37.18901062044381
            ],
            [
              -118.66939544674244,
              37.190410613958704
            ],
            [
              -118.68149566659173,
              37.20481109635506
            ],
            [
              -118.67620086757597,
              37.21391296391221
            ],
            [
              -118.6787948612938,
              37.2146110527579
            ],
            [
              -118.67910003723688,
              37.21981048586531
            ],
            [
              -118.68619537431704,
              37.22761154163936
            ],
            [
              -118.68259429908761,
              37.23401260389858
            ],
            [
              -118.6845932024143,
              37.24211120576757
            ],
            [
              -118.68299865676255,
              37.245010376327855
            ],
            [
              -118.6745986938746,
              37.24961090142199
            ],
            [
              -118.66600036572424,
              37.260612487876074
            ],
            [
              -118.66829681424656,
              37.264312743938035
            ],
            [
              -118.6805953975595,
              37.27871322633439
            ],
            [
              -118.6856994629598,
              37.290512085164664
            ],
            [
              -118.69499969487998,
              37.30251312328204
            ],
            [
              -118.69509887841048,
              37.305912018325046
            ],
            [
              -118.69799804717212,
              37.30581283569387
            ],
            [
              -118.70079803510123,
              37.30821227997279
            ],
            [
              -118.70619964659636,
              37.314113616849966
            ],
            [
              -118.7101974487532,
              37.32241058308199
            ],
            [
              -118.7157974237121,
              37.32791137720835
            ],
            [
              -118.7294998172627,
              37.32241058308199
            ],
            [
              -118.73329925505652,
              37.318012238174276
            ],
            [
              -118.74049377386854,
              37.31531143197708
            ],
            [
              -118.74739837643386,
              37.322311401350134
            ],
            [
              -118.75,
              37.32261276236915
            ],
            [
              -118.7570953370801,
              37.32831191995922
            ],
            [
              -118.77339935329746,
              37.33431243856825
            ],
            [
              -118.77769470244851,
              37.33441162119942
            ],
            [
              -118.78659820744127,
              37.3439140324067
            ],
            [
              -118.78429412817144,
              37.35101318441099
            ],
            [
              -118.77999877902039,
              37.357410430846755
            ],
            [
              -118.7701950067941,
              37.35881042526097
            ],
            [
              -118.76839447142765,
              37.36051177979488
            ],
            [
              -118.76999664333039,
              37.36511230488901
            ],
            [
              -118.76849365226019,
              37.36771392755577
            ],
            [
              -118.77389526375538,
              37.375110625654884
            ],
            [
              -118.77859497058137,
              37.37591171295526
            ],
            [
              -118.78089904805262,
              37.3822135925833
            ],
            [
              -118.78989410402966,
              37.39351272603153
            ],
            [
              -118.78209686317967,
              37.408710479904755
            ],
            [
              -118.78339386003859,
              37.41291046134876
            ],
            [
              -118.77979278570848,
              37.421710967886895
            ],
            [
              -118.77509307888243,
              37.424613953371306
            ],
            [
              -118.77039337205645,
              37.42221069326894
            ],
            [
              -118.7670974727701,
              37.42441177408415
            ],
            [
              -118.76449585010334,
              37.43031311006206
            ],
            [
              -118.75989532500921,
              37.43461227413718
            ],
            [
              -118.75879669341265,
              37.441913605428624
            ],
            [
              -118.76389312716606,
              37.45651245128863
            ],
            [
              -118.77209472659035,
              37.45871353120458
            ],
            [
              -118.77519988956323,
              37.46341323892989
            ],
            [
              -118.20419311531998,
              37.46261215162957
            ],
            [
              -117.83379364026428,
              37.46531295782677
            ],
            [
              -117.87589263913395,
              37.497310638375325
            ],
            [
              -117.90459442129549,
              37.51581191958445
            ],
            [
              -118.05459594714523,
              37.62671279885666
            ],
            [
              -118.42810058607313,
              37.896213531229535
            ],
            [
              -118.41790008512078,
              37.89651107822374
            ],
            [
              -118.41499328741025,
              37.89391326868247
            ],
            [
              -118.35149383497247,
              37.89371109029463
            ],
            [
              -118.25129699695879,
              37.982810974147185
            ],
            [
              -118.23389434824554,
              38.000312804592284
            ],
            [
              -118.12599945111373,
              38.093711853419336
            ],
            [
              -118.0780944821746,
              38.137413025091064
            ],
            [
              -117.69149780338091,
              38.474212645896955
            ],
            [
              -117.24569702130049,
              38.074211121446126
            ],
            [
              -117.2412033077864,
              38.06981658876464
            ],
            [
              -117.24109649710562,
              38.05011367840359
            ],
            [
              -116.49589538626304,
              38.041511536228484
            ],
            [
              -115.86322021524069,
              38.05090332003226
            ],
            [
              -115.00079345685253,
              38.05090332003226
            ],
            [
              -115.00079345685253,
              38.677307129020846
            ]
          ]
        ]
      }
    }
  ],
  "metadata": {
    "schema_version": "0.1.0",
    "wfo": "VEF",
    "layer": "cwa",
    "source": "https://www.weather.gov/source/gis/Shapefiles/WSOM/w_16ap26.zip",
    "public_release_status": "public-source-derived"
  }
}