{
  "type": "FeatureCollection",
  "name": "cwa",
  "crs": {
    "type": "name",
    "properties": {
      "name": "urn:ogc:def:crs:OGC:1.3:CRS84"
    }
  },
  "features": [
    {
      "type": "Feature",
      "properties": {
        "WFO": "LUB",
        "CWA": "LUB",
        "STATE": "Texas",
        "ST": "TX",
        "CITYSTATE": "Lubbock TX"
      },
      "geometry": {
        "type": "Polygon",
        "coordinates": [
          [
            [
              -101.090797423862,
              34.749210358271455
            ],
            [
              -100.00039672932559,
              34.74681091309321
            ],
            [
              -100.00039672932559,
              34.56341171318007
            ],
            [
              -99.9974975587653,
              34.558013915709694
            ],
            [
              -99.99759674139648,
              34.23701095589098
            ],
            [
              -99.99859619126119,
              34.22441101065965
            ],
            [
              -100.00599670428443,
              34.225612639811516
            ],
            [
              -100.00729370114334,
              34.23931121843805
            ],
            [
              -100.0093994142515,
              34.241611480985114
            ],
            [
              -100.01210022044876,
              34.24181366027227
            ],
            [
              -100.02309417705459,
              34.23911285407502
            ],
            [
              -100.03709411580076,
              34.23871231132415
            ],
            [
              -100.04329681459626,
              34.22791290325796
            ],
            [
              -100.04649353035211,
              34.22941207940397
            ],
            [
              -100.0469970697589,
              34.22621154782473
            ],
            [
              -100.0485000608291,
              33.83601379380161
            ],
            [
              -99.99669647236425,
              33.83601379380161
            ],
            [
              -99.98939514197218,
              33.24991226234107
            ],
            [
              -99.98880004888309,
              32.96011352471942
            ],
            [
              -100.14459991495409,
              32.95981216370046
            ],
            [
              -100.4795989985949,
              32.96291351264853
            ],
            [
              -100.99019622817337,
              32.96511077943899
            ],
            [
              -101.02379608242325,
              32.97001266465281
            ],
            [
              -101.03849792493924,
              32.97021102901584
            ],
            [
              -101.173393250598,
              32.96361160329292
            ],
            [
              -101.55410003728684,
              32.96101379375165
            ],
            [
              -101.71879577580438,
              32.962013245414994
            ],
            [
              -102.23589325027325,
              32.95861053544792
            ],
            [
              -103.06469726576614,
              32.95911407485471
            ],
            [
              -103.05970001194595,
              33.25701141434536
            ],
            [
              -103.04359436009162,
              34.003612517803504
            ],
            [
              -103.04279327458994,
              34.74651336699833
            ],
            [
              -102.99799347042227,
              34.747711182125386
            ],
            [
              -102.37009429931243,
              34.746013640717024
            ],
            [
              -101.99929809642998,
              34.74821090660811
            ],
            [
              -101.1253967288759,
              34.747711182125386
            ],
            [
              -101.090797423862,
              34.749210358271455
            ]
          ]
        ]
      }
    }
  ],
  "metadata": {
    "schema_version": "0.1.0",
    "wfo": "LUB",
    "layer": "cwa",
    "source": "https://www.weather.gov/source/gis/Shapefiles/WSOM/w_16ap26.zip",
    "public_release_status": "public-source-derived"
  }
}