{
  "type": "FeatureCollection",
  "metadata": {
    "schema_version": "0.2.4",
    "year": 2026,
    "month": 5,
    "wfo": "HGX",
    "start_utc": "2026-05-01T00:00:00Z",
    "end_utc": "2026-06-01T00:00:00Z",
    "generated_utc": "2026-07-13T12:19:48Z",
    "mode": "storm_data_prep",
    "public_release_status": "public-source-derived",
    "time_note": "Storm Data entry times should be reviewed in local Standard Time (ST), not daylight time. Candidate reports include standard_time_display.",
    "tornado_track_policy": "Tornado tracks must come from DAT. NCEI begin/end coordinates are not used as a tornado track substitute.",
    "source": "https://mesonet.agron.iastate.edu/cgi-bin/request/gis/lsr.py?wfo=HGX&sts=2026-05-01T00%3A00%3A00Z&ets=2026-06-01T00%3A00%3A00Z&fmt=csv"
  },
  "features": [
    {
      "type": "Feature",
      "id": "iem-lsr-HGX-1",
      "properties": {
        "report_id": "iem-lsr-HGX-1",
        "report_type": "HAIL",
        "event_category": "hail",
        "valid_utc": "202605010455",
        "standard_time_display": "2026-04-30 22:55 CST",
        "wfo": "HGX",
        "county_or_zone": "Fort Bend",
        "city": "4 WNW First Colony",
        "state": "TX",
        "magnitude": 1.0,
        "magnitude_units": null,
        "source": "Public",
        "event_narrative": "Public reports of estimated 1 inch hail in Sugar Land."
      },
      "geometry": {
        "type": "Point",
        "coordinates": [
          -95.67,
          29.59
        ]
      }
    },
    {
      "type": "Feature",
      "id": "iem-lsr-HGX-2",
      "properties": {
        "report_id": "iem-lsr-HGX-2",
        "report_type": "HAIL",
        "event_category": "hail",
        "valid_utc": "202605010500",
        "standard_time_display": "2026-04-30 23:00 CST",
        "wfo": "HGX",
        "county_or_zone": "Fort Bend",
        "city": "First Colony",
        "state": "TX",
        "magnitude": 1.5,
        "magnitude_units": null,
        "source": "Utility Company",
        "event_narrative": "Report of estimated ping pong sized hail near the intersection of Austin Parkway and Sweetwater Blvd."
      },
      "geometry": {
        "type": "Point",
        "coordinates": [
          -95.61,
          29.58
        ]
      }
    },
    {
      "type": "Feature",
      "id": "iem-lsr-HGX-3",
      "properties": {
        "report_id": "iem-lsr-HGX-3",
        "report_type": "HAIL",
        "event_category": "hail",
        "valid_utc": "202605010505",
        "standard_time_display": "2026-04-30 23:05 CST",
        "wfo": "HGX",
        "county_or_zone": "Fort Bend",
        "city": "Missouri City",
        "state": "TX",
        "magnitude": 1.25,
        "magnitude_units": null,
        "source": "Broadcast Media",
        "event_narrative": "Reported near the intersection of Turtle Creek Dr and Point Clear Dr. Large volume of nickel sized hail_ but largest stones were over 1 inch but less than 1.5 inches."
      },
      "geometry": {
        "type": "Point",
        "coordinates": [
          -95.53,
          29.57
        ]
      }
    },
    {
      "type": "Feature",
      "id": "iem-lsr-HGX-4",
      "properties": {
        "report_id": "iem-lsr-HGX-4",
        "report_type": "HAIL",
        "event_category": "hail",
        "valid_utc": "202605010511",
        "standard_time_display": "2026-04-30 23:11 CST",
        "wfo": "HGX",
        "county_or_zone": "Brazoria",
        "city": "3 NE Fresno",
        "state": "TX",
        "magnitude": 1.0,
        "magnitude_units": null,
        "source": "Broadcast Media",
        "event_narrative": "Corrects previous hail report from 3 NE Fresno. A news station published a story sharing information regarding damage to schools in Alvin. The story mentioned that Alvin ISD superintendent reported r"
      },
      "geometry": {
        "type": "Point",
        "coordinates": [
          -95.42,
          29.57
        ]
      }
    },
    {
      "type": "Feature",
      "id": "iem-lsr-HGX-5",
      "properties": {
        "report_id": "iem-lsr-HGX-5",
        "report_type": "HAIL",
        "event_category": "hail",
        "valid_utc": "202605010511",
        "standard_time_display": "2026-04-30 23:11 CST",
        "wfo": "HGX",
        "county_or_zone": "Brazoria",
        "city": "3 NE Fresno",
        "state": "TX",
        "magnitude": 1.0,
        "magnitude_units": null,
        "source": "Local Official",
        "event_narrative": "Alvin ISD superintendent reported roof damage to Wilder Elementary School_ likely caused by a robust hailstorm that moved over the school. Leaks in the roof caused water damage_ resulting in the scho"
      },
      "geometry": {
        "type": "Point",
        "coordinates": [
          -95.42,
          29.57
        ]
      }
    },
    {
      "type": "Feature",
      "id": "iem-lsr-HGX-6",
      "properties": {
        "report_id": "iem-lsr-HGX-6",
        "report_type": "HAIL",
        "event_category": "hail",
        "valid_utc": "202605010512",
        "standard_time_display": "2026-04-30 23:12 CST",
        "wfo": "HGX",
        "county_or_zone": "Brazoria",
        "city": "4 NE Fresno",
        "state": "TX",
        "magnitude": 1.0,
        "magnitude_units": null,
        "source": "Broadcast Media",
        "event_narrative": "A news station published a story sharing information regarding damage to schools in Alvin. The story mentioned that Alvin ISD superintendent reported roof damage to Mary Marek Elementary School_ like"
      },
      "geometry": {
        "type": "Point",
        "coordinates": [
          -95.4,
          29.58
        ]
      }
    },
    {
      "type": "Feature",
      "id": "iem-lsr-HGX-7",
      "properties": {
        "report_id": "iem-lsr-HGX-7",
        "report_type": "HAIL",
        "event_category": "hail",
        "valid_utc": "202605010515",
        "standard_time_display": "2026-04-30 23:15 CST",
        "wfo": "HGX",
        "county_or_zone": "Brazoria",
        "city": "2 WSW Brookside Village",
        "state": "TX",
        "magnitude": 1.0,
        "magnitude_units": null,
        "source": "Trained Spotter",
        "event_narrative": "Report of 1 inch hail near the intersection of Cullen Blvd and Hawk Rd."
      },
      "geometry": {
        "type": "Point",
        "coordinates": [
          -95.35,
          29.58
        ]
      }
    },
    {
      "type": "Feature",
      "id": "iem-lsr-HGX-8",
      "properties": {
        "report_id": "iem-lsr-HGX-8",
        "report_type": "HAIL",
        "event_category": "hail",
        "valid_utc": "202605010526",
        "standard_time_display": "2026-04-30 23:26 CST",
        "wfo": "HGX",
        "county_or_zone": "Harris",
        "city": "4 ENE Pearland",
        "state": "TX",
        "magnitude": 1.25,
        "magnitude_units": null,
        "source": "Amateur Radio",
        "event_narrative": "Report of hail near the intersection of Scarsdale Blvd and Beamer Rd in SE Harris County."
      },
      "geometry": {
        "type": "Point",
        "coordinates": [
          -95.21,
          29.58
        ]
      }
    },
    {
      "type": "Feature",
      "id": "iem-lsr-HGX-9",
      "properties": {
        "report_id": "iem-lsr-HGX-9",
        "report_type": "HAIL",
        "event_category": "hail",
        "valid_utc": "202605010528",
        "standard_time_display": "2026-04-30 23:28 CST",
        "wfo": "HGX",
        "county_or_zone": "Brazoria",
        "city": "2 N Pearland",
        "state": "TX",
        "magnitude": 1.0,
        "magnitude_units": null,
        "source": "Public",
        "event_narrative": "Report from mPING: Quarter (1.00 in.). Corroborated with nearby spotter reports."
      },
      "geometry": {
        "type": "Point",
        "coordinates": [
          -95.27,
          29.58
        ]
      }
    },
    {
      "type": "Feature",
      "id": "iem-lsr-HGX-10",
      "properties": {
        "report_id": "iem-lsr-HGX-10",
        "report_type": "HAIL",
        "event_category": "hail",
        "valid_utc": "202605010528",
        "standard_time_display": "2026-04-30 23:28 CST",
        "wfo": "HGX",
        "county_or_zone": "Harris",
        "city": "4 E Pearland",
        "state": "TX",
        "magnitude": 1.0,
        "magnitude_units": null,
        "source": "Public",
        "event_narrative": "Report from mPING: Quarter (1.00 in.). Corroborated with nearby spotter reports."
      },
      "geometry": {
        "type": "Point",
        "coordinates": [
          -95.21,
          29.58
        ]
      }
    },
    {
      "type": "Feature",
      "id": "iem-lsr-HGX-11",
      "properties": {
        "report_id": "iem-lsr-HGX-11",
        "report_type": "HAIL",
        "event_category": "hail",
        "valid_utc": "202605010531",
        "standard_time_display": "2026-04-30 23:31 CST",
        "wfo": "HGX",
        "county_or_zone": "Harris",
        "city": "3 NE Pearland",
        "state": "TX",
        "magnitude": 1.25,
        "magnitude_units": null,
        "source": "Public",
        "event_narrative": "Report from mPING: Half Dollar (1.25 in.). Corroborated with nearby spotter reports."
      },
      "geometry": {
        "type": "Point",
        "coordinates": [
          -95.24,
          29.58
        ]
      }
    },
    {
      "type": "Feature",
      "id": "iem-lsr-HGX-12",
      "properties": {
        "report_id": "iem-lsr-HGX-12",
        "report_type": "MARINE TSTM WIND",
        "event_category": "marine",
        "valid_utc": "202605011654",
        "standard_time_display": "2026-05-01 10:54 CST",
        "wfo": "HGX",
        "county_or_zone": "GMZ335",
        "city": "1 ENE Morgan's Point",
        "state": "TX",
        "magnitude": 40.0,
        "magnitude_units": null,
        "source": "Mesonet",
        "event_narrative": "Mesonet station MGPT2 Morgans Point_ TX."
      },
      "geometry": {
        "type": "Point",
        "coordinates": [
          -94.98,
          29.68
        ]
      }
    },
    {
      "type": "Feature",
      "id": "iem-lsr-HGX-13",
      "properties": {
        "report_id": "iem-lsr-HGX-13",
        "report_type": "MARINE TSTM WIND",
        "event_category": "marine",
        "valid_utc": "202605011709",
        "standard_time_display": "2026-05-01 11:09 CST",
        "wfo": "HGX",
        "county_or_zone": "GMZ335",
        "city": "4 NNE San Leon",
        "state": "TX",
        "magnitude": 46.0,
        "magnitude_units": null,
        "source": "Mesonet",
        "event_narrative": "Gust at WeatherFlow XGAL in Galveston Bay."
      },
      "geometry": {
        "type": "Point",
        "coordinates": [
          -94.91,
          29.54
        ]
      }
    },
    {
      "type": "Feature",
      "id": "iem-lsr-HGX-14",
      "properties": {
        "report_id": "iem-lsr-HGX-14",
        "report_type": "MARINE TSTM WIND",
        "event_category": "marine",
        "valid_utc": "202605011729",
        "standard_time_display": "2026-05-01 11:29 CST",
        "wfo": "HGX",
        "county_or_zone": "Galveston",
        "city": "15 WSW High Island",
        "state": "TX",
        "magnitude": 39.0,
        "magnitude_units": null,
        "source": "Mesonet",
        "event_narrative": "Mesonet station XCRB."
      },
      "geometry": {
        "type": "Point",
        "coordinates": [
          -94.62,
          29.47
        ]
      }
    },
    {
      "type": "Feature",
      "id": "iem-lsr-HGX-15",
      "properties": {
        "report_id": "iem-lsr-HGX-15",
        "report_type": "MARINE TSTM WIND",
        "event_category": "marine",
        "valid_utc": "202605011745",
        "standard_time_display": "2026-05-01 11:45 CST",
        "wfo": "HGX",
        "county_or_zone": "Galveston",
        "city": "9 WSW High Island",
        "state": "TX",
        "magnitude": 46.0,
        "magnitude_units": null,
        "source": "Mesonet",
        "event_narrative": "Mesonet station Caplen."
      },
      "geometry": {
        "type": "Point",
        "coordinates": [
          -94.52,
          29.5
        ]
      }
    },
    {
      "type": "Feature",
      "id": "iem-lsr-HGX-16",
      "properties": {
        "report_id": "iem-lsr-HGX-16",
        "report_type": "MARINE TSTM WIND",
        "event_category": "marine",
        "valid_utc": "202605011937",
        "standard_time_display": "2026-05-01 13:37 CST",
        "wfo": "HGX",
        "county_or_zone": "Matagorda",
        "city": "1 NW Palacios",
        "state": "TX",
        "magnitude": 43.0,
        "magnitude_units": null,
        "source": "ASOS",
        "event_narrative": "37 knot wind gust at Palacios Airport."
      },
      "geometry": {
        "type": "Point",
        "coordinates": [
          -96.25,
          28.73
        ]
      }
    },
    {
      "type": "Feature",
      "id": "iem-lsr-HGX-17",
      "properties": {
        "report_id": "iem-lsr-HGX-17",
        "report_type": "TSTM WND GST",
        "event_category": "thunderstorm_wind",
        "valid_utc": "202605011956",
        "standard_time_display": "2026-05-01 13:56 CST",
        "wfo": "HGX",
        "county_or_zone": "Matagorda",
        "city": "1 WNW Palacios",
        "state": "TX",
        "magnitude": 60.0,
        "magnitude_units": null,
        "source": "ASOS",
        "event_narrative": "ASOS station KPSX Palacios measured a 60 mph wind gust."
      },
      "geometry": {
        "type": "Point",
        "coordinates": [
          -96.25,
          28.72
        ]
      }
    },
    {
      "type": "Feature",
      "id": "iem-lsr-HGX-18",
      "properties": {
        "report_id": "iem-lsr-HGX-18",
        "report_type": "MARINE TSTM WIND",
        "event_category": "marine",
        "valid_utc": "202605012000",
        "standard_time_display": "2026-05-01 14:00 CST",
        "wfo": "HGX",
        "county_or_zone": "GMZ350",
        "city": "21 SSW Palacios",
        "state": "TX",
        "magnitude": 48.0,
        "magnitude_units": null,
        "source": "Mesonet",
        "event_narrative": "Mesonet station MBET2 13 ESE Magnolia Beach measured a wind gust around 42 knots."
      },
      "geometry": {
        "type": "Point",
        "coordinates": [
          -96.33,
          28.42
        ]
      }
    },
    {
      "type": "Feature",
      "id": "iem-lsr-HGX-19",
      "properties": {
        "report_id": "iem-lsr-HGX-19",
        "report_type": "TSTM WND GST",
        "event_category": "thunderstorm_wind",
        "valid_utc": "202605012003",
        "standard_time_display": "2026-05-01 14:03 CST",
        "wfo": "HGX",
        "county_or_zone": "Matagorda",
        "city": "1 WNW Palacios",
        "state": "TX",
        "magnitude": 77.0,
        "magnitude_units": null,
        "source": "ASOS",
        "event_narrative": "ASOS station KPSX Palacios measured a 77 mph wind gust."
      },
      "geometry": {
        "type": "Point",
        "coordinates": [
          -96.25,
          28.72
        ]
      }
    },
    {
      "type": "Feature",
      "id": "iem-lsr-HGX-20",
      "properties": {
        "report_id": "iem-lsr-HGX-20",
        "report_type": "MARINE TSTM WIND",
        "event_category": "marine",
        "valid_utc": "202605012003",
        "standard_time_display": "2026-05-01 14:03 CST",
        "wfo": "HGX",
        "county_or_zone": "Matagorda",
        "city": "1 WNW Palacios",
        "state": "TX",
        "magnitude": 77.0,
        "magnitude_units": null,
        "source": "ASOS",
        "event_narrative": "ASOS station KPSX Palacios measured a 67 knot wind gust."
      },
      "geometry": {
        "type": "Point",
        "coordinates": [
          -96.25,
          28.72
        ]
      }
    },
    {
      "type": "Feature",
      "id": "iem-lsr-HGX-21",
      "properties": {
        "report_id": "iem-lsr-HGX-21",
        "report_type": "MARINE TSTM WIND",
        "event_category": "marine",
        "valid_utc": "202605012026",
        "standard_time_display": "2026-05-01 14:26 CST",
        "wfo": "HGX",
        "county_or_zone": "GMZ350",
        "city": "18 ESE Palacios",
        "state": "TX",
        "magnitude": 71.0,
        "magnitude_units": null,
        "source": "Mesonet",
        "event_narrative": "Mesonet station XMGB Matagorda Bay."
      },
      "geometry": {
        "type": "Point",
        "coordinates": [
          -95.98,
          28.59
        ]
      }
    },
    {
      "type": "Feature",
      "id": "iem-lsr-HGX-22",
      "properties": {
        "report_id": "iem-lsr-HGX-22",
        "report_type": "TSTM WND GST",
        "event_category": "thunderstorm_wind",
        "valid_utc": "202605012026",
        "standard_time_display": "2026-05-01 14:26 CST",
        "wfo": "HGX",
        "county_or_zone": "GMZ350",
        "city": "18 ESE Palacios",
        "state": "TX",
        "magnitude": 71.0,
        "magnitude_units": null,
        "source": "Mesonet",
        "event_narrative": "Mesonet station XMGB Matagorda Bay."
      },
      "geometry": {
        "type": "Point",
        "coordinates": [
          -95.98,
          28.59
        ]
      }
    },
    {
      "type": "Feature",
      "id": "iem-lsr-HGX-23",
      "properties": {
        "report_id": "iem-lsr-HGX-23",
        "report_type": "MARINE TSTM WIND",
        "event_category": "marine",
        "valid_utc": "202605012048",
        "standard_time_display": "2026-05-01 14:48 CST",
        "wfo": "HGX",
        "county_or_zone": "GMZ355",
        "city": "1 ENE Quintana",
        "state": "TX",
        "magnitude": 41.0,
        "magnitude_units": null,
        "source": "Mesonet",
        "event_narrative": "Gust at FPST2."
      },
      "geometry": {
        "type": "Point",
        "coordinates": [
          -95.29,
          28.94
        ]
      }
    },
    {
      "type": "Feature",
      "id": "iem-lsr-HGX-24",
      "properties": {
        "report_id": "iem-lsr-HGX-24",
        "report_type": "HAIL",
        "event_category": "hail",
        "valid_utc": "202605100013",
        "standard_time_display": "2026-05-09 18:13 CST",
        "wfo": "HGX",
        "county_or_zone": "Fort Bend",
        "city": "5 NW Pecan Grove",
        "state": "TX",
        "magnitude": 1.0,
        "magnitude_units": null,
        "source": "Trained Spotter",
        "event_narrative": "Multiple rounds of hail were reported near Cinco Ranch_ including quarter size hail scattered among penny and nickel size hail."
      },
      "geometry": {
        "type": "Point",
        "coordinates": [
          -95.79,
          29.69
        ]
      }
    },
    {
      "type": "Feature",
      "id": "iem-lsr-HGX-25",
      "properties": {
        "report_id": "iem-lsr-HGX-25",
        "report_type": "HAIL",
        "event_category": "hail",
        "valid_utc": "202605110058",
        "standard_time_display": "2026-05-10 18:58 CST",
        "wfo": "HGX",
        "county_or_zone": "Walker",
        "city": "11 N Richards",
        "state": "TX",
        "magnitude": 1.75,
        "magnitude_units": null,
        "source": "Public",
        "event_narrative": "Hail_ ranging from half dollar to golf ball size_ fell over Birdwell Rd north of Wesley Grove. It was reported that hail fell for approximately 45 minutes in this area."
      },
      "geometry": {
        "type": "Point",
        "coordinates": [
          -95.79,
          30.69
        ]
      }
    },
    {
      "type": "Feature",
      "id": "iem-lsr-HGX-26",
      "properties": {
        "report_id": "iem-lsr-HGX-26",
        "report_type": "HAIL",
        "event_category": "hail",
        "valid_utc": "202605110158",
        "standard_time_display": "2026-05-10 19:58 CST",
        "wfo": "HGX",
        "county_or_zone": "Madison",
        "city": "6 ESE Madisonville",
        "state": "TX",
        "magnitude": 1.0,
        "magnitude_units": null,
        "source": "Public",
        "event_narrative": "Quarter size hail was reported along I-45 near exit 136 off Spur 67."
      },
      "geometry": {
        "type": "Point",
        "coordinates": [
          -95.81,
          30.92
        ]
      }
    },
    {
      "type": "Feature",
      "id": "iem-lsr-HGX-27",
      "properties": {
        "report_id": "iem-lsr-HGX-27",
        "report_type": "HAIL",
        "event_category": "hail",
        "valid_utc": "202605110217",
        "standard_time_display": "2026-05-10 20:17 CST",
        "wfo": "HGX",
        "county_or_zone": "Madison",
        "city": "5 SW Midway",
        "state": "TX",
        "magnitude": 1.75,
        "magnitude_units": null,
        "source": "Trained Spotter",
        "event_narrative": "A trained spotter reported golf ball size hail through mPING. The same spotter called to report potentially larger hail that was unsafe to retrieve and measure before some melting occurred."
      },
      "geometry": {
        "type": "Point",
        "coordinates": [
          -95.8,
          30.97
        ]
      }
    },
    {
      "type": "Feature",
      "id": "iem-lsr-HGX-28",
      "properties": {
        "report_id": "iem-lsr-HGX-28",
        "report_type": "TSTM WND DMG",
        "event_category": "thunderstorm_wind",
        "valid_utc": "202605110444",
        "standard_time_display": "2026-05-10 22:44 CST",
        "wfo": "HGX",
        "county_or_zone": "Washington",
        "city": "5 SSE Somerville",
        "state": "TX",
        "magnitude": null,
        "magnitude_units": null,
        "source": "Law Enforcement",
        "event_narrative": "Trees reported down by law enforcement near the intersection of Hwy 36 N and Christmas Rd."
      },
      "geometry": {
        "type": "Point",
        "coordinates": [
          -96.49,
          30.29
        ]
      }
    },
    {
      "type": "Feature",
      "id": "iem-lsr-HGX-29",
      "properties": {
        "report_id": "iem-lsr-HGX-29",
        "report_type": "HAIL",
        "event_category": "hail",
        "valid_utc": "202605110524",
        "standard_time_display": "2026-05-10 23:24 CST",
        "wfo": "HGX",
        "county_or_zone": "Washington",
        "city": "Brenham",
        "state": "TX",
        "magnitude": 1.0,
        "magnitude_units": null,
        "source": "Trained Spotter",
        "event_narrative": "Trained spotter reported nickel and quarter size hail near Brenham_ TX."
      },
      "geometry": {
        "type": "Point",
        "coordinates": [
          -96.4,
          30.16
        ]
      }
    },
    {
      "type": "Feature",
      "id": "iem-lsr-HGX-30",
      "properties": {
        "report_id": "iem-lsr-HGX-30",
        "report_type": "TSTM WND DMG",
        "event_category": "thunderstorm_wind",
        "valid_utc": "202605110703",
        "standard_time_display": "2026-05-11 01:03 CST",
        "wfo": "HGX",
        "county_or_zone": "Montgomery",
        "city": "4 NE Magnolia",
        "state": "TX",
        "magnitude": null,
        "magnitude_units": null,
        "source": "Fire Dept/Rescue",
        "event_narrative": "County dispatch reported that fire crews were working to clear a high concentration of fallen trees along FM 149 and Jackson Road in Montgomery county. Time of damaged estimated from radar."
      },
      "geometry": {
        "type": "Point",
        "coordinates": [
          -95.71,
          30.26
        ]
      }
    },
    {
      "type": "Feature",
      "id": "iem-lsr-HGX-31",
      "properties": {
        "report_id": "iem-lsr-HGX-31",
        "report_type": "MARINE TSTM WIND",
        "event_category": "marine",
        "valid_utc": "202605190948",
        "standard_time_display": "2026-05-19 03:48 CST",
        "wfo": "HGX",
        "county_or_zone": "GMZ350",
        "city": "21 SSW Palacios",
        "state": "TX",
        "magnitude": 45.0,
        "magnitude_units": null,
        "source": "Public",
        "event_narrative": "Report from Wxflow station (MBET2)."
      },
      "geometry": {
        "type": "Point",
        "coordinates": [
          -96.33,
          28.42
        ]
      }
    },
    {
      "type": "Feature",
      "id": "iem-lsr-HGX-32",
      "properties": {
        "report_id": "iem-lsr-HGX-32",
        "report_type": "MARINE TSTM WIND",
        "event_category": "marine",
        "valid_utc": "202605191026",
        "standard_time_display": "2026-05-19 04:26 CST",
        "wfo": "HGX",
        "county_or_zone": "Matagorda",
        "city": "17 ESE Palacios",
        "state": "TX",
        "magnitude": 45.0,
        "magnitude_units": null,
        "source": "Mesonet",
        "event_narrative": "Report from WxFlow station (Matagorda Bay)."
      },
      "geometry": {
        "type": "Point",
        "coordinates": [
          -95.98,
          28.6
        ]
      }
    },
    {
      "type": "Feature",
      "id": "iem-lsr-HGX-33",
      "properties": {
        "report_id": "iem-lsr-HGX-33",
        "report_type": "MARINE TSTM WIND",
        "event_category": "marine",
        "valid_utc": "202605200342",
        "standard_time_display": "2026-05-19 21:42 CST",
        "wfo": "HGX",
        "county_or_zone": "GMZ335",
        "city": "1 E Kemah",
        "state": "TX",
        "magnitude": 45.0,
        "magnitude_units": null,
        "source": "Mesonet",
        "event_narrative": "Measured by WeatherFlow sensor at Texas Corinthian Yacht Club."
      },
      "geometry": {
        "type": "Point",
        "coordinates": [
          -95.0,
          29.53
        ]
      }
    },
    {
      "type": "Feature",
      "id": "iem-lsr-HGX-34",
      "properties": {
        "report_id": "iem-lsr-HGX-34",
        "report_type": "MARINE TSTM WIND",
        "event_category": "marine",
        "valid_utc": "202605200356",
        "standard_time_display": "2026-05-19 21:56 CST",
        "wfo": "HGX",
        "county_or_zone": "Galveston",
        "city": "15 WSW High Island",
        "state": "TX",
        "magnitude": 41.0,
        "magnitude_units": null,
        "source": "Mesonet",
        "event_narrative": "Mesonet station XCRB Crab Lake."
      },
      "geometry": {
        "type": "Point",
        "coordinates": [
          -94.62,
          29.47
        ]
      }
    },
    {
      "type": "Feature",
      "id": "iem-lsr-HGX-35",
      "properties": {
        "report_id": "iem-lsr-HGX-35",
        "report_type": "MARINE TSTM WIND",
        "event_category": "marine",
        "valid_utc": "202605200424",
        "standard_time_display": "2026-05-19 22:24 CST",
        "wfo": "HGX",
        "county_or_zone": "GMZ335",
        "city": "1 ESE San Leon",
        "state": "TX",
        "magnitude": 43.0,
        "magnitude_units": null,
        "source": "Mesonet",
        "event_narrative": "Mesonet station EPTT2 Eagle Point_ TX."
      },
      "geometry": {
        "type": "Point",
        "coordinates": [
          -94.92,
          29.48
        ]
      }
    },
    {
      "type": "Feature",
      "id": "iem-lsr-HGX-36",
      "properties": {
        "report_id": "iem-lsr-HGX-36",
        "report_type": "MARINE TSTM WIND",
        "event_category": "marine",
        "valid_utc": "202605200424",
        "standard_time_display": "2026-05-19 22:24 CST",
        "wfo": "HGX",
        "county_or_zone": "GMZ355",
        "city": "13 E Bayou Vista",
        "state": "TX",
        "magnitude": 44.0,
        "magnitude_units": null,
        "source": "Buoy",
        "event_narrative": "Buoy station GNJT2 Galveston Bay Entrance_ North Jetty_ T."
      },
      "geometry": {
        "type": "Point",
        "coordinates": [
          -94.72,
          29.36
        ]
      }
    },
    {
      "type": "Feature",
      "id": "iem-lsr-HGX-37",
      "properties": {
        "report_id": "iem-lsr-HGX-37",
        "report_type": "MARINE TSTM WIND",
        "event_category": "marine",
        "valid_utc": "202605200425",
        "standard_time_display": "2026-05-19 22:25 CST",
        "wfo": "HGX",
        "county_or_zone": "Galveston",
        "city": "4 ENE Texas City",
        "state": "TX",
        "magnitude": 42.0,
        "magnitude_units": null,
        "source": "Mesonet",
        "event_narrative": "Mesonet station XLEV Levee."
      },
      "geometry": {
        "type": "Point",
        "coordinates": [
          -94.89,
          29.42
        ]
      }
    },
    {
      "type": "Feature",
      "id": "iem-lsr-HGX-38",
      "properties": {
        "report_id": "iem-lsr-HGX-38",
        "report_type": "MARINE TSTM WIND",
        "event_category": "marine",
        "valid_utc": "202605200440",
        "standard_time_display": "2026-05-19 22:40 CST",
        "wfo": "HGX",
        "county_or_zone": "GMZ355",
        "city": "23 S High Island",
        "state": "TX",
        "magnitude": 49.0,
        "magnitude_units": null,
        "source": "Mesonet",
        "event_narrative": "Mesonet station 42035 28 E Galveston."
      },
      "geometry": {
        "type": "Point",
        "coordinates": [
          -94.41,
          29.23
        ]
      }
    },
    {
      "type": "Feature",
      "id": "iem-lsr-HGX-39",
      "properties": {
        "report_id": "iem-lsr-HGX-39",
        "report_type": "MARINE TSTM WIND",
        "event_category": "marine",
        "valid_utc": "202605200450",
        "standard_time_display": "2026-05-19 22:50 CST",
        "wfo": "HGX",
        "county_or_zone": "Galveston",
        "city": "5 SW Jamaica Beach",
        "state": "TX",
        "magnitude": 41.0,
        "magnitude_units": null,
        "source": "Mesonet",
        "event_narrative": "Mesonet station 111CE 147 West End."
      },
      "geometry": {
        "type": "Point",
        "coordinates": [
          -95.04,
          29.14
        ]
      }
    },
    {
      "type": "Feature",
      "id": "iem-lsr-HGX-40",
      "properties": {
        "report_id": "iem-lsr-HGX-40",
        "report_type": "MARINE TSTM WIND",
        "event_category": "marine",
        "valid_utc": "202605200451",
        "standard_time_display": "2026-05-19 22:51 CST",
        "wfo": "HGX",
        "county_or_zone": "GMZ335",
        "city": "4 ESE Bayou Vista",
        "state": "TX",
        "magnitude": 50.0,
        "magnitude_units": null,
        "source": "Mesonet",
        "event_narrative": "Mesonet station GVCT2 Galveston Causeway."
      },
      "geometry": {
        "type": "Point",
        "coordinates": [
          -94.89,
          29.3
        ]
      }
    },
    {
      "type": "Feature",
      "id": "iem-lsr-HGX-41",
      "properties": {
        "report_id": "iem-lsr-HGX-41",
        "report_type": "MARINE TSTM WIND",
        "event_category": "marine",
        "valid_utc": "202605200452",
        "standard_time_display": "2026-05-19 22:52 CST",
        "wfo": "HGX",
        "county_or_zone": "GMZ355",
        "city": "3 ENE Galveston",
        "state": "TX",
        "magnitude": 44.0,
        "magnitude_units": null,
        "source": "Mesonet",
        "event_narrative": "Mesonet station XGPR Galveston Fishing Pier."
      },
      "geometry": {
        "type": "Point",
        "coordinates": [
          -94.85,
          29.25
        ]
      }
    },
    {
      "type": "Feature",
      "id": "iem-lsr-HGX-42",
      "properties": {
        "report_id": "iem-lsr-HGX-42",
        "report_type": "MARINE TSTM WIND",
        "event_category": "marine",
        "valid_utc": "202605200515",
        "standard_time_display": "2026-05-19 23:15 CST",
        "wfo": "HGX",
        "county_or_zone": "GMZ355",
        "city": "22 ESE Galveston",
        "state": "TX",
        "magnitude": 56.0,
        "magnitude_units": null,
        "source": "AWOS",
        "event_narrative": "AWOS station KGVW 21 ESE Galveston."
      },
      "geometry": {
        "type": "Point",
        "coordinates": [
          -94.55,
          29.13
        ]
      }
    },
    {
      "type": "Feature",
      "id": "iem-lsr-HGX-43",
      "properties": {
        "report_id": "iem-lsr-HGX-43",
        "report_type": "MARINE TSTM WIND",
        "event_category": "marine",
        "valid_utc": "202605200520",
        "standard_time_display": "2026-05-19 23:20 CST",
        "wfo": "HGX",
        "county_or_zone": "Brazoria",
        "city": "11 NE Surfside Beach",
        "state": "TX",
        "magnitude": 39.0,
        "magnitude_units": null,
        "source": "Mesonet",
        "event_narrative": "Mesonet station 093CE 33 San Luis Pass South."
      },
      "geometry": {
        "type": "Point",
        "coordinates": [
          -95.14,
          29.06
        ]
      }
    },
    {
      "type": "Feature",
      "id": "iem-lsr-HGX-44",
      "properties": {
        "report_id": "iem-lsr-HGX-44",
        "report_type": "MARINE TSTM WIND",
        "event_category": "marine",
        "valid_utc": "202605200530",
        "standard_time_display": "2026-05-19 23:30 CST",
        "wfo": "HGX",
        "county_or_zone": "Brazoria",
        "city": "11 NE Surfside Beach",
        "state": "TX",
        "magnitude": 42.0,
        "magnitude_units": null,
        "source": "Mesonet",
        "event_narrative": "Mesonet station 093CE 33 San Luis Pass South."
      },
      "geometry": {
        "type": "Point",
        "coordinates": [
          -95.14,
          29.06
        ]
      }
    },
    {
      "type": "Feature",
      "id": "iem-lsr-HGX-45",
      "properties": {
        "report_id": "iem-lsr-HGX-45",
        "report_type": "MARINE TSTM WIND",
        "event_category": "marine",
        "valid_utc": "202605200540",
        "standard_time_display": "2026-05-19 23:40 CST",
        "wfo": "HGX",
        "county_or_zone": "GMZ355",
        "city": "1 E Quintana",
        "state": "TX",
        "magnitude": 50.0,
        "magnitude_units": null,
        "source": "Mesonet",
        "event_narrative": "Mesonet station XSRF Surfside Beach."
      },
      "geometry": {
        "type": "Point",
        "coordinates": [
          -95.29,
          28.93
        ]
      }
    },
    {
      "type": "Feature",
      "id": "iem-lsr-HGX-46",
      "properties": {
        "report_id": "iem-lsr-HGX-46",
        "report_type": "MARINE TSTM WIND",
        "event_category": "marine",
        "valid_utc": "202605200600",
        "standard_time_display": "2026-05-20 00:00 CST",
        "wfo": "HGX",
        "county_or_zone": "GMZ355",
        "city": "1 ENE Quintana",
        "state": "TX",
        "magnitude": 46.0,
        "magnitude_units": null,
        "source": "Mesonet",
        "event_narrative": "Mesonet station FPST2 1 SSW Surfside Beach."
      },
      "geometry": {
        "type": "Point",
        "coordinates": [
          -95.29,
          28.94
        ]
      }
    },
    {
      "type": "Feature",
      "id": "iem-lsr-HGX-47",
      "properties": {
        "report_id": "iem-lsr-HGX-47",
        "report_type": "FLOOD",
        "event_category": "flooding",
        "valid_utc": "202605211457",
        "standard_time_display": "2026-05-21 08:57 CST",
        "wfo": "HGX",
        "county_or_zone": "Brazoria",
        "city": "1 ENE Clute",
        "state": "TX",
        "magnitude": null,
        "magnitude_units": null,
        "source": "Storm Chaser",
        "event_narrative": "A storm chaser shared a video on social media_ showing inundation along Oyster Creek."
      },
      "geometry": {
        "type": "Point",
        "coordinates": [
          -95.38,
          29.03
        ]
      }
    },
    {
      "type": "Feature",
      "id": "iem-lsr-HGX-48",
      "properties": {
        "report_id": "iem-lsr-HGX-48",
        "report_type": "MARINE TSTM WIND",
        "event_category": "marine",
        "valid_utc": "202605231047",
        "standard_time_display": "2026-05-23 04:47 CST",
        "wfo": "HGX",
        "county_or_zone": "GMZ335",
        "city": "1 E Kemah",
        "state": "TX",
        "magnitude": 51.0,
        "magnitude_units": null,
        "source": "Mesonet",
        "event_narrative": "Mesonet station XTCY Texas Corinthian Yacht Club."
      },
      "geometry": {
        "type": "Point",
        "coordinates": [
          -95.0,
          29.53
        ]
      }
    },
    {
      "type": "Feature",
      "id": "iem-lsr-HGX-49",
      "properties": {
        "report_id": "iem-lsr-HGX-49",
        "report_type": "TSTM WND DMG",
        "event_category": "thunderstorm_wind",
        "valid_utc": "202605231105",
        "standard_time_display": "2026-05-23 05:05 CST",
        "wfo": "HGX",
        "county_or_zone": "Galveston",
        "city": "2 SE Friendswood",
        "state": "TX",
        "magnitude": null,
        "magnitude_units": null,
        "source": "Public",
        "event_narrative": "Trees blown down. West Ranch neighborhood."
      },
      "geometry": {
        "type": "Point",
        "coordinates": [
          -95.17,
          29.49
        ]
      }
    },
    {
      "type": "Feature",
      "id": "iem-lsr-HGX-50",
      "properties": {
        "report_id": "iem-lsr-HGX-50",
        "report_type": "MARINE TSTM WIND",
        "event_category": "marine",
        "valid_utc": "202605231123",
        "standard_time_display": "2026-05-23 05:23 CST",
        "wfo": "HGX",
        "county_or_zone": "Chambers",
        "city": "3 SE Baytown",
        "state": "TX",
        "magnitude": 47.0,
        "magnitude_units": null,
        "source": "Mesonet",
        "event_narrative": "Mesonet station CBHT2 1710 Cedar Bayou At Sh 99."
      },
      "geometry": {
        "type": "Point",
        "coordinates": [
          -94.94,
          29.72
        ]
      }
    },
    {
      "type": "Feature",
      "id": "iem-lsr-HGX-51",
      "properties": {
        "report_id": "iem-lsr-HGX-51",
        "report_type": "MARINE TSTM WIND",
        "event_category": "marine",
        "valid_utc": "202605231127",
        "standard_time_display": "2026-05-23 05:27 CST",
        "wfo": "HGX",
        "county_or_zone": "GMZ335",
        "city": "1 S Highlands",
        "state": "TX",
        "magnitude": 58.0,
        "magnitude_units": null,
        "source": "Mesonet",
        "event_narrative": "Mesonet station HLNT2 G103 San Jacinto River At I-10 E."
      },
      "geometry": {
        "type": "Point",
        "coordinates": [
          -95.06,
          29.79
        ]
      }
    },
    {
      "type": "Feature",
      "id": "iem-lsr-HGX-52",
      "properties": {
        "report_id": "iem-lsr-HGX-52",
        "report_type": "MARINE TSTM WIND",
        "event_category": "marine",
        "valid_utc": "202605231132",
        "standard_time_display": "2026-05-23 05:32 CST",
        "wfo": "HGX",
        "county_or_zone": "Harris",
        "city": "3 SE Channelview",
        "state": "TX",
        "magnitude": 50.0,
        "magnitude_units": null,
        "source": "Mesonet",
        "event_narrative": "Mesonet station SCPT2 2200 Houston Ship Channel At Jua."
      },
      "geometry": {
        "type": "Point",
        "coordinates": [
          -95.08,
          29.76
        ]
      }
    },
    {
      "type": "Feature",
      "id": "iem-lsr-HGX-53",
      "properties": {
        "report_id": "iem-lsr-HGX-53",
        "report_type": "MARINE TSTM WIND",
        "event_category": "marine",
        "valid_utc": "202605231133",
        "standard_time_display": "2026-05-23 05:33 CST",
        "wfo": "HGX",
        "county_or_zone": "Harris",
        "city": "1 SW Taylor Lake Villag",
        "state": "TX",
        "magnitude": 48.0,
        "magnitude_units": null,
        "source": "Mesonet",
        "event_narrative": "Mesonet station XCLP Clear Lake Park."
      },
      "geometry": {
        "type": "Point",
        "coordinates": [
          -95.07,
          29.56
        ]
      }
    },
    {
      "type": "Feature",
      "id": "iem-lsr-HGX-54",
      "properties": {
        "report_id": "iem-lsr-HGX-54",
        "report_type": "MARINE TSTM WIND",
        "event_category": "marine",
        "valid_utc": "202605231144",
        "standard_time_display": "2026-05-23 05:44 CST",
        "wfo": "HGX",
        "county_or_zone": "GMZ335",
        "city": "4 NNE San Leon",
        "state": "TX",
        "magnitude": 67.0,
        "magnitude_units": null,
        "source": "Mesonet",
        "event_narrative": "Mesonet station XGAL Galveston Bay."
      },
      "geometry": {
        "type": "Point",
        "coordinates": [
          -94.91,
          29.54
        ]
      }
    },
    {
      "type": "Feature",
      "id": "iem-lsr-HGX-55",
      "properties": {
        "report_id": "iem-lsr-HGX-55",
        "report_type": "TSTM WND DMG",
        "event_category": "thunderstorm_wind",
        "valid_utc": "202605231155",
        "standard_time_display": "2026-05-23 05:55 CST",
        "wfo": "HGX",
        "county_or_zone": "Liberty",
        "city": "1 ESE Dayton",
        "state": "TX",
        "magnitude": null,
        "magnitude_units": null,
        "source": "Public",
        "event_narrative": "A member of the public shared a short video on social media_ showing a downed tree in Dayton Texas. Only one tree was downed and the root system on the downed tree appeared to be shallow. Branches we"
      },
      "geometry": {
        "type": "Point",
        "coordinates": [
          -94.89,
          30.05
        ]
      }
    },
    {
      "type": "Feature",
      "id": "iem-lsr-HGX-56",
      "properties": {
        "report_id": "iem-lsr-HGX-56",
        "report_type": "TSTM WND DMG",
        "event_category": "thunderstorm_wind",
        "valid_utc": "202605231155",
        "standard_time_display": "2026-05-23 05:55 CST",
        "wfo": "HGX",
        "county_or_zone": "Liberty",
        "city": "1 ESE Dayton",
        "state": "TX",
        "magnitude": null,
        "magnitude_units": null,
        "source": "Public",
        "event_narrative": "Corrects previous tstm wnd dmg report from 1 ESE Dayton. A member of the public shared multiple videos on social media_ showing straight line wind damage in Dayton. Two trees were downed with numerou"
      },
      "geometry": {
        "type": "Point",
        "coordinates": [
          -94.89,
          30.05
        ]
      }
    },
    {
      "type": "Feature",
      "id": "iem-lsr-HGX-57",
      "properties": {
        "report_id": "iem-lsr-HGX-57",
        "report_type": "WATERSPOUT",
        "event_category": "tornado",
        "valid_utc": "202605231635",
        "standard_time_display": "2026-05-23 10:35 CST",
        "wfo": "HGX",
        "county_or_zone": "GMZ355",
        "city": "5 ENE Galveston",
        "state": "TX",
        "magnitude": null,
        "magnitude_units": null,
        "source": "Public",
        "event_narrative": "Public report of a brief water spout about a mile out from 52nd Street over the Gulf."
      },
      "geometry": {
        "type": "Point",
        "coordinates": [
          -94.82,
          29.27
        ]
      }
    },
    {
      "type": "Feature",
      "id": "iem-lsr-HGX-58",
      "properties": {
        "report_id": "iem-lsr-HGX-58",
        "report_type": "MARINE TSTM WIND",
        "event_category": "marine",
        "valid_utc": "202605231824",
        "standard_time_display": "2026-05-23 12:24 CST",
        "wfo": "HGX",
        "county_or_zone": "GMZ355",
        "city": "13 E Bayou Vista",
        "state": "TX",
        "magnitude": 40.0,
        "magnitude_units": null,
        "source": "Buoy",
        "event_narrative": "Buoy station GNJT2 Galveston Bay Entrance_ North Jetty_ T."
      },
      "geometry": {
        "type": "Point",
        "coordinates": [
          -94.72,
          29.36
        ]
      }
    },
    {
      "type": "Feature",
      "id": "iem-lsr-HGX-59",
      "properties": {
        "report_id": "iem-lsr-HGX-59",
        "report_type": "MARINE TSTM WIND",
        "event_category": "marine",
        "valid_utc": "202605231830",
        "standard_time_display": "2026-05-23 12:30 CST",
        "wfo": "HGX",
        "county_or_zone": "GMZ355",
        "city": "13 E Bayou Vista",
        "state": "TX",
        "magnitude": 40.0,
        "magnitude_units": null,
        "source": "Buoy",
        "event_narrative": "Buoy station GNJT2 Galveston Bay Entrance_ North Jetty."
      },
      "geometry": {
        "type": "Point",
        "coordinates": [
          -94.72,
          29.36
        ]
      }
    },
    {
      "type": "Feature",
      "id": "iem-lsr-HGX-60",
      "properties": {
        "report_id": "iem-lsr-HGX-60",
        "report_type": "MARINE TSTM WIND",
        "event_category": "marine",
        "valid_utc": "202605231830",
        "standard_time_display": "2026-05-23 12:30 CST",
        "wfo": "HGX",
        "county_or_zone": "GMZ355",
        "city": "13 E Bayou Vista",
        "state": "TX",
        "magnitude": 40.0,
        "magnitude_units": null,
        "source": "Buoy",
        "event_narrative": "Buoy station GNJT2 Galveston Bay Entrance_ North Jetty_ T."
      },
      "geometry": {
        "type": "Point",
        "coordinates": [
          -94.72,
          29.36
        ]
      }
    },
    {
      "type": "Feature",
      "id": "iem-lsr-HGX-61",
      "properties": {
        "report_id": "iem-lsr-HGX-61",
        "report_type": "FLASH FLOOD",
        "event_category": "flooding",
        "valid_utc": "202605231850",
        "standard_time_display": "2026-05-23 12:50 CST",
        "wfo": "HGX",
        "county_or_zone": "Brazoria",
        "city": "Hillcrest",
        "state": "TX",
        "magnitude": null,
        "magnitude_units": null,
        "source": "Public",
        "event_narrative": "Estimated 4 inches of water in Hillcrest_ TX."
      },
      "geometry": {
        "type": "Point",
        "coordinates": [
          -95.22,
          29.39
        ]
      }
    },
    {
      "type": "Feature",
      "id": "iem-lsr-HGX-62",
      "properties": {
        "report_id": "iem-lsr-HGX-62",
        "report_type": "MARINE TSTM WIND",
        "event_category": "marine",
        "valid_utc": "202605231854",
        "standard_time_display": "2026-05-23 12:54 CST",
        "wfo": "HGX",
        "county_or_zone": "GMZ350",
        "city": "21 SSW Palacios",
        "state": "TX",
        "magnitude": 53.0,
        "magnitude_units": null,
        "source": "Mesonet",
        "event_narrative": "Mesonet station MBET2 13 ESE Magnolia Beach."
      },
      "geometry": {
        "type": "Point",
        "coordinates": [
          -96.33,
          28.42
        ]
      }
    },
    {
      "type": "Feature",
      "id": "iem-lsr-HGX-63",
      "properties": {
        "report_id": "iem-lsr-HGX-63",
        "report_type": "FLASH FLOOD",
        "event_category": "flooding",
        "valid_utc": "202605231900",
        "standard_time_display": "2026-05-23 13:00 CST",
        "wfo": "HGX",
        "county_or_zone": "Brazoria",
        "city": "1 S Alvin",
        "state": "TX",
        "magnitude": null,
        "magnitude_units": null,
        "source": "Storm Chaser",
        "event_narrative": "A storm chaser shared a video on social media showing flooding over portions of Alvin. In the video_ extensive inundation can be seen across two residential properties with both homes surrounded by w"
      },
      "geometry": {
        "type": "Point",
        "coordinates": [
          -95.24,
          29.42
        ]
      }
    },
    {
      "type": "Feature",
      "id": "iem-lsr-HGX-64",
      "properties": {
        "report_id": "iem-lsr-HGX-64",
        "report_type": "MARINE TSTM WIND",
        "event_category": "marine",
        "valid_utc": "202605231916",
        "standard_time_display": "2026-05-23 13:16 CST",
        "wfo": "HGX",
        "county_or_zone": "GMZ350",
        "city": "18 ESE Palacios",
        "state": "TX",
        "magnitude": 63.0,
        "magnitude_units": null,
        "source": "Mesonet",
        "event_narrative": "Mesonet station XMGB Matagorda Bay."
      },
      "geometry": {
        "type": "Point",
        "coordinates": [
          -95.98,
          28.59
        ]
      }
    },
    {
      "type": "Feature",
      "id": "iem-lsr-HGX-65",
      "properties": {
        "report_id": "iem-lsr-HGX-65",
        "report_type": "MARINE TSTM WIND",
        "event_category": "marine",
        "valid_utc": "202605231930",
        "standard_time_display": "2026-05-23 13:30 CST",
        "wfo": "HGX",
        "county_or_zone": "GMZ330",
        "city": "19 S Bay City",
        "state": "TX",
        "magnitude": 51.0,
        "magnitude_units": null,
        "source": "Mesonet",
        "event_narrative": "Mesonet station EMAT2 18 S Bay City."
      },
      "geometry": {
        "type": "Point",
        "coordinates": [
          -95.91,
          28.71
        ]
      }
    },
    {
      "type": "Feature",
      "id": "iem-lsr-HGX-66",
      "properties": {
        "report_id": "iem-lsr-HGX-66",
        "report_type": "MARINE TSTM WIND",
        "event_category": "marine",
        "valid_utc": "202605231935",
        "standard_time_display": "2026-05-23 13:35 CST",
        "wfo": "HGX",
        "county_or_zone": "GMZ355",
        "city": "22 ESE Galveston",
        "state": "TX",
        "magnitude": 44.0,
        "magnitude_units": null,
        "source": "AWOS",
        "event_narrative": "AWOS station KGVW 21 ESE Galveston."
      },
      "geometry": {
        "type": "Point",
        "coordinates": [
          -94.55,
          29.13
        ]
      }
    },
    {
      "type": "Feature",
      "id": "iem-lsr-HGX-67",
      "properties": {
        "report_id": "iem-lsr-HGX-67",
        "report_type": "FLASH FLOOD",
        "event_category": "flooding",
        "valid_utc": "202605231942",
        "standard_time_display": "2026-05-23 13:42 CST",
        "wfo": "HGX",
        "county_or_zone": "Harris",
        "city": "3 SW Bellaire",
        "state": "TX",
        "magnitude": null,
        "magnitude_units": null,
        "source": "Public",
        "event_narrative": "A member of the public shared a photo on social media_ showing roadways inundated along South Braeswood Boulevard and Fondren Road. One vehicle appears to have stalled out in the flood waters."
      },
      "geometry": {
        "type": "Point",
        "coordinates": [
          -95.51,
          29.68
        ]
      }
    },
    {
      "type": "Feature",
      "id": "iem-lsr-HGX-68",
      "properties": {
        "report_id": "iem-lsr-HGX-68",
        "report_type": "MARINE TSTM WIND",
        "event_category": "marine",
        "valid_utc": "202605232000",
        "standard_time_display": "2026-05-23 14:00 CST",
        "wfo": "HGX",
        "county_or_zone": "GMZ335",
        "city": "12 SW Jamaica Beach",
        "state": "TX",
        "magnitude": 40.0,
        "magnitude_units": null,
        "source": "Mesonet",
        "event_narrative": "Mesonet station LUIT2 11 SW Jamaica Beach."
      },
      "geometry": {
        "type": "Point",
        "coordinates": [
          -95.12,
          29.08
        ]
      }
    },
    {
      "type": "Feature",
      "id": "iem-lsr-HGX-69",
      "properties": {
        "report_id": "iem-lsr-HGX-69",
        "report_type": "TSTM WND DMG",
        "event_category": "thunderstorm_wind",
        "valid_utc": "202605232015",
        "standard_time_display": "2026-05-23 14:15 CST",
        "wfo": "HGX",
        "county_or_zone": "Brazoria",
        "city": "1 WNW Lake Jackson",
        "state": "TX",
        "magnitude": null,
        "magnitude_units": null,
        "source": "Public",
        "event_narrative": "Wind damage to a Lowes."
      },
      "geometry": {
        "type": "Point",
        "coordinates": [
          -95.46,
          29.04
        ]
      }
    },
    {
      "type": "Feature",
      "id": "iem-lsr-HGX-70",
      "properties": {
        "report_id": "iem-lsr-HGX-70",
        "report_type": "FLASH FLOOD",
        "event_category": "flooding",
        "valid_utc": "202605232133",
        "standard_time_display": "2026-05-23 15:33 CST",
        "wfo": "HGX",
        "county_or_zone": "Harris",
        "city": "3 WSW Bellaire",
        "state": "TX",
        "magnitude": null,
        "magnitude_units": null,
        "source": "Public",
        "event_narrative": "Multiple mPing reports of street flooding and vehicles stranded."
      },
      "geometry": {
        "type": "Point",
        "coordinates": [
          -95.52,
          29.69
        ]
      }
    },
    {
      "type": "Feature",
      "id": "iem-lsr-HGX-71",
      "properties": {
        "report_id": "iem-lsr-HGX-71",
        "report_type": "FLASH FLOOD",
        "event_category": "flooding",
        "valid_utc": "202605232300",
        "standard_time_display": "2026-05-23 17:00 CST",
        "wfo": "HGX",
        "county_or_zone": "Harris",
        "city": "4 SSW Aldine",
        "state": "TX",
        "magnitude": null,
        "magnitude_units": null,
        "source": "Storm Chaser",
        "event_narrative": "A storm chaser shared a video on social media showing water over the North Freeway frontage Road at West Rocky Creek Road. In the video_ one vehicle appears to be stalled out_ though others can be se"
      },
      "geometry": {
        "type": "Point",
        "coordinates": [
          -95.4,
          29.86
        ]
      }
    },
    {
      "type": "Feature",
      "id": "iem-lsr-HGX-72",
      "properties": {
        "report_id": "iem-lsr-HGX-72",
        "report_type": "FLASH FLOOD",
        "event_category": "flooding",
        "valid_utc": "202605240032",
        "standard_time_display": "2026-05-23 18:32 CST",
        "wfo": "HGX",
        "county_or_zone": "Brazos",
        "city": "2 NW College Station",
        "state": "TX",
        "magnitude": null,
        "magnitude_units": null,
        "source": "Law Enforcement",
        "event_narrative": "Sheriffs Department reported numerous reports of flooded roadways with most reports near Texas Ave and Villa Maria Rd."
      },
      "geometry": {
        "type": "Point",
        "coordinates": [
          -96.35,
          30.64
        ]
      }
    },
    {
      "type": "Feature",
      "id": "iem-lsr-HGX-73",
      "properties": {
        "report_id": "iem-lsr-HGX-73",
        "report_type": "FLOOD",
        "event_category": "flooding",
        "valid_utc": "202605240106",
        "standard_time_display": "2026-05-23 19:06 CST",
        "wfo": "HGX",
        "county_or_zone": "Brazos",
        "city": "2 ENE College Station",
        "state": "TX",
        "magnitude": null,
        "magnitude_units": null,
        "source": "Broadcast Media",
        "event_narrative": "A news broadcaster shared a video on social media_ taken near Harvey Road. The video showed high flows and water overtopping the banks of Carters Creek."
      },
      "geometry": {
        "type": "Point",
        "coordinates": [
          -96.3,
          30.64
        ]
      }
    },
    {
      "type": "Feature",
      "id": "iem-lsr-HGX-74",
      "properties": {
        "report_id": "iem-lsr-HGX-74",
        "report_type": "MARINE TSTM WIND",
        "event_category": "marine",
        "valid_utc": "202605270706",
        "standard_time_display": "2026-05-27 01:06 CST",
        "wfo": "HGX",
        "county_or_zone": "GMZ330",
        "city": "20 SSW Palacios",
        "state": "TX",
        "magnitude": 40.0,
        "magnitude_units": null,
        "source": "Buoy",
        "event_narrative": "Buoy station PCNT2 at Port OConnor measured a 40 mph wind gust."
      },
      "geometry": {
        "type": "Point",
        "coordinates": [
          -96.39,
          28.45
        ]
      }
    },
    {
      "type": "Feature",
      "id": "iem-lsr-HGX-75",
      "properties": {
        "report_id": "iem-lsr-HGX-75",
        "report_type": "TSTM WND DMG",
        "event_category": "thunderstorm_wind",
        "valid_utc": "202605270742",
        "standard_time_display": "2026-05-27 01:42 CST",
        "wfo": "HGX",
        "county_or_zone": "Harris",
        "city": "4 S Spring",
        "state": "TX",
        "magnitude": null,
        "magnitude_units": null,
        "source": "Broadcast Media",
        "event_narrative": "Trees down in the Inverness Forest neighborhood. One down on a car_ another on a house."
      },
      "geometry": {
        "type": "Point",
        "coordinates": [
          -95.41,
          30.03
        ]
      }
    },
    {
      "type": "Feature",
      "id": "iem-lsr-HGX-76",
      "properties": {
        "report_id": "iem-lsr-HGX-76",
        "report_type": "MARINE TSTM WIND",
        "event_category": "marine",
        "valid_utc": "202605270746",
        "standard_time_display": "2026-05-27 01:46 CST",
        "wfo": "HGX",
        "county_or_zone": "GMZ350",
        "city": "18 ESE Palacios",
        "state": "TX",
        "magnitude": 42.0,
        "magnitude_units": null,
        "source": "Mesonet",
        "event_narrative": "Mesonet station XMGB near Matagorda Bay measured a 37 knot wind gust."
      },
      "geometry": {
        "type": "Point",
        "coordinates": [
          -95.98,
          28.59
        ]
      }
    },
    {
      "type": "Feature",
      "id": "iem-lsr-HGX-77",
      "properties": {
        "report_id": "iem-lsr-HGX-77",
        "report_type": "MARINE TSTM WIND",
        "event_category": "marine",
        "valid_utc": "202605270805",
        "standard_time_display": "2026-05-27 02:05 CST",
        "wfo": "HGX",
        "county_or_zone": "Brazoria",
        "city": "1 ESE Freeport",
        "state": "TX",
        "magnitude": 39.0,
        "magnitude_units": null,
        "source": "Mesonet",
        "event_narrative": "Mesonet station EW9755 Freeport."
      },
      "geometry": {
        "type": "Point",
        "coordinates": [
          -95.35,
          28.94
        ]
      }
    },
    {
      "type": "Feature",
      "id": "iem-lsr-HGX-78",
      "properties": {
        "report_id": "iem-lsr-HGX-78",
        "report_type": "MARINE TSTM WIND",
        "event_category": "marine",
        "valid_utc": "202605270809",
        "standard_time_display": "2026-05-27 02:09 CST",
        "wfo": "HGX",
        "county_or_zone": "Brazoria",
        "city": "1 WSW Freeport",
        "state": "TX",
        "magnitude": 48.0,
        "magnitude_units": null,
        "source": "Mesonet",
        "event_narrative": "Mesonet station FRPT2 Sh 36 At Brazos."
      },
      "geometry": {
        "type": "Point",
        "coordinates": [
          -95.38,
          28.95
        ]
      }
    },
    {
      "type": "Feature",
      "id": "iem-lsr-HGX-79",
      "properties": {
        "report_id": "iem-lsr-HGX-79",
        "report_type": "MARINE TSTM WIND",
        "event_category": "marine",
        "valid_utc": "202605270812",
        "standard_time_display": "2026-05-27 02:12 CST",
        "wfo": "HGX",
        "county_or_zone": "Brazoria",
        "city": "1 ESE Freeport",
        "state": "TX",
        "magnitude": 39.0,
        "magnitude_units": null,
        "source": "Mesonet",
        "event_narrative": "Mesonet station EW9755 Freeport."
      },
      "geometry": {
        "type": "Point",
        "coordinates": [
          -95.35,
          28.94
        ]
      }
    },
    {
      "type": "Feature",
      "id": "iem-lsr-HGX-80",
      "properties": {
        "report_id": "iem-lsr-HGX-80",
        "report_type": "MARINE TSTM WIND",
        "event_category": "marine",
        "valid_utc": "202605270818",
        "standard_time_display": "2026-05-27 02:18 CST",
        "wfo": "HGX",
        "county_or_zone": "GMZ335",
        "city": "12 SW Jamaica Beach",
        "state": "TX",
        "magnitude": 41.0,
        "magnitude_units": null,
        "source": "Mesonet",
        "event_narrative": "Mesonet station LUIT2 11 SW Jamaica Beach."
      },
      "geometry": {
        "type": "Point",
        "coordinates": [
          -95.12,
          29.08
        ]
      }
    },
    {
      "type": "Feature",
      "id": "iem-lsr-HGX-81",
      "properties": {
        "report_id": "iem-lsr-HGX-81",
        "report_type": "MARINE TSTM WIND",
        "event_category": "marine",
        "valid_utc": "202605270829",
        "standard_time_display": "2026-05-27 02:29 CST",
        "wfo": "HGX",
        "county_or_zone": "GMZ335",
        "city": "4 NNE San Leon",
        "state": "TX",
        "magnitude": 45.0,
        "magnitude_units": null,
        "source": "Mesonet",
        "event_narrative": "Mesonet station XGAL Galveston Bay."
      },
      "geometry": {
        "type": "Point",
        "coordinates": [
          -94.91,
          29.54
        ]
      }
    },
    {
      "type": "Feature",
      "id": "iem-lsr-HGX-82",
      "properties": {
        "report_id": "iem-lsr-HGX-82",
        "report_type": "MARINE TSTM WIND",
        "event_category": "marine",
        "valid_utc": "202605270830",
        "standard_time_display": "2026-05-27 02:30 CST",
        "wfo": "HGX",
        "county_or_zone": "Harris",
        "city": "Morgan's Point",
        "state": "TX",
        "magnitude": 40.0,
        "magnitude_units": null,
        "source": "Mesonet",
        "event_narrative": "Mesonet station 9221D Morgan's Point."
      },
      "geometry": {
        "type": "Point",
        "coordinates": [
          -95.01,
          29.68
        ]
      }
    },
    {
      "type": "Feature",
      "id": "iem-lsr-HGX-83",
      "properties": {
        "report_id": "iem-lsr-HGX-83",
        "report_type": "MARINE TSTM WIND",
        "event_category": "marine",
        "valid_utc": "202605270830",
        "standard_time_display": "2026-05-27 02:30 CST",
        "wfo": "HGX",
        "county_or_zone": "Brazoria",
        "city": "11 NE Surfside Beach",
        "state": "TX",
        "magnitude": 45.0,
        "magnitude_units": null,
        "source": "Mesonet",
        "event_narrative": "Mesonet station 093CE 33 San Luis Pass South."
      },
      "geometry": {
        "type": "Point",
        "coordinates": [
          -95.14,
          29.06
        ]
      }
    },
    {
      "type": "Feature",
      "id": "iem-lsr-HGX-84",
      "properties": {
        "report_id": "iem-lsr-HGX-84",
        "report_type": "MARINE TSTM WIND",
        "event_category": "marine",
        "valid_utc": "202605270835",
        "standard_time_display": "2026-05-27 02:35 CST",
        "wfo": "HGX",
        "county_or_zone": "Galveston",
        "city": "4 ENE Texas City",
        "state": "TX",
        "magnitude": 50.0,
        "magnitude_units": null,
        "source": "Mesonet",
        "event_narrative": "Mesonet station XLEV Levee."
      },
      "geometry": {
        "type": "Point",
        "coordinates": [
          -94.89,
          29.42
        ]
      }
    },
    {
      "type": "Feature",
      "id": "iem-lsr-HGX-85",
      "properties": {
        "report_id": "iem-lsr-HGX-85",
        "report_type": "MARINE TSTM WIND",
        "event_category": "marine",
        "valid_utc": "202605270838",
        "standard_time_display": "2026-05-27 02:38 CST",
        "wfo": "HGX",
        "county_or_zone": "Galveston",
        "city": "3 NNE Galveston",
        "state": "TX",
        "magnitude": 47.0,
        "magnitude_units": null,
        "source": "ASOS",
        "event_narrative": "ASOS station KGLS Galveston."
      },
      "geometry": {
        "type": "Point",
        "coordinates": [
          -94.87,
          29.27
        ]
      }
    },
    {
      "type": "Feature",
      "id": "iem-lsr-HGX-86",
      "properties": {
        "report_id": "iem-lsr-HGX-86",
        "report_type": "MARINE TSTM WIND",
        "event_category": "marine",
        "valid_utc": "202605270840",
        "standard_time_display": "2026-05-27 02:40 CST",
        "wfo": "HGX",
        "county_or_zone": "Galveston",
        "city": "4 ENE Texas City",
        "state": "TX",
        "magnitude": 40.0,
        "magnitude_units": null,
        "source": "Mesonet",
        "event_narrative": "Mesonet station XLEV Levee measured a 35 knot wind gust."
      },
      "geometry": {
        "type": "Point",
        "coordinates": [
          -94.89,
          29.42
        ]
      }
    },
    {
      "type": "Feature",
      "id": "iem-lsr-HGX-87",
      "properties": {
        "report_id": "iem-lsr-HGX-87",
        "report_type": "MARINE TSTM WIND",
        "event_category": "marine",
        "valid_utc": "202605270840",
        "standard_time_display": "2026-05-27 02:40 CST",
        "wfo": "HGX",
        "county_or_zone": "Galveston",
        "city": "1 SSW Jamaica Beach",
        "state": "TX",
        "magnitude": 41.0,
        "magnitude_units": null,
        "source": "Mesonet",
        "event_narrative": "Mesonet station 095CE 35 Jamaica Beach."
      },
      "geometry": {
        "type": "Point",
        "coordinates": [
          -94.99,
          29.18
        ]
      }
    },
    {
      "type": "Feature",
      "id": "iem-lsr-HGX-88",
      "properties": {
        "report_id": "iem-lsr-HGX-88",
        "report_type": "MARINE TSTM WIND",
        "event_category": "marine",
        "valid_utc": "202605270841",
        "standard_time_display": "2026-05-27 02:41 CST",
        "wfo": "HGX",
        "county_or_zone": "GMZ335",
        "city": "4 ESE Bayou Vista",
        "state": "TX",
        "magnitude": 45.0,
        "magnitude_units": null,
        "source": "Mesonet",
        "event_narrative": "Mesonet station GVCT2 Galveston Causeway."
      },
      "geometry": {
        "type": "Point",
        "coordinates": [
          -94.89,
          29.3
        ]
      }
    },
    {
      "type": "Feature",
      "id": "iem-lsr-HGX-89",
      "properties": {
        "report_id": "iem-lsr-HGX-89",
        "report_type": "MARINE TSTM WIND",
        "event_category": "marine",
        "valid_utc": "202605270842",
        "standard_time_display": "2026-05-27 02:42 CST",
        "wfo": "HGX",
        "county_or_zone": "GMZ355",
        "city": "3 ENE Galveston",
        "state": "TX",
        "magnitude": 48.0,
        "magnitude_units": null,
        "source": "Mesonet",
        "event_narrative": "Mesonet station XGPR Galveston Fishing Pier measured a 42 knot wind gust."
      },
      "geometry": {
        "type": "Point",
        "coordinates": [
          -94.85,
          29.25
        ]
      }
    },
    {
      "type": "Feature",
      "id": "iem-lsr-HGX-90",
      "properties": {
        "report_id": "iem-lsr-HGX-90",
        "report_type": "MARINE TSTM WIND",
        "event_category": "marine",
        "valid_utc": "202605270900",
        "standard_time_display": "2026-05-27 03:00 CST",
        "wfo": "HGX",
        "county_or_zone": "GMZ355",
        "city": "13 E Bayou Vista",
        "state": "TX",
        "magnitude": 41.0,
        "magnitude_units": null,
        "source": "Buoy",
        "event_narrative": "Buoy station GNJT2 Galveston Bay Entrance_ North Jetty_ T."
      },
      "geometry": {
        "type": "Point",
        "coordinates": [
          -94.72,
          29.36
        ]
      }
    },
    {
      "type": "Feature",
      "id": "iem-lsr-HGX-91",
      "properties": {
        "report_id": "iem-lsr-HGX-91",
        "report_type": "MARINE TSTM WIND",
        "event_category": "marine",
        "valid_utc": "202605270903",
        "standard_time_display": "2026-05-27 03:03 CST",
        "wfo": "HGX",
        "county_or_zone": "Galveston",
        "city": "15 WSW High Island",
        "state": "TX",
        "magnitude": 42.0,
        "magnitude_units": null,
        "source": "Mesonet",
        "event_narrative": "Mesonet station XCRB Crab Lake."
      },
      "geometry": {
        "type": "Point",
        "coordinates": [
          -94.62,
          29.47
        ]
      }
    },
    {
      "type": "Feature",
      "id": "iem-lsr-HGX-92",
      "properties": {
        "report_id": "iem-lsr-HGX-92",
        "report_type": "MARINE TSTM WIND",
        "event_category": "marine",
        "valid_utc": "202605270920",
        "standard_time_display": "2026-05-27 03:20 CST",
        "wfo": "HGX",
        "county_or_zone": "GMZ355",
        "city": "22 ESE Galveston",
        "state": "TX",
        "magnitude": 58.0,
        "magnitude_units": null,
        "source": "AWOS",
        "event_narrative": "AWOS station KGVW 21 ESE Galveston."
      },
      "geometry": {
        "type": "Point",
        "coordinates": [
          -94.55,
          29.13
        ]
      }
    }
  ]
}