{
  "type": "FeatureCollection",
  "metadata": {
    "schema_version": "0.2.4",
    "year": 2026,
    "month": 5,
    "wfo": "RIW",
    "start_utc": "2026-05-01T00:00:00Z",
    "end_utc": "2026-06-01T00:00:00Z",
    "generated_utc": "2026-06-22T14:53:13Z",
    "mode": "storm_data_prep",
    "public_release_status": "public-source-derived",
    "time_note": "Storm Data entry times should be reviewed in local Standard Time (ST), not daylight time. Candidate reports include standard_time_display.",
    "tornado_track_policy": "Tornado tracks must come from DAT. NCEI begin/end coordinates are not used as a tornado track substitute.",
    "source": "https://mesonet.agron.iastate.edu/cgi-bin/request/gis/lsr.py?wfo=RIW&sts=2026-05-01T00%3A00%3A00Z&ets=2026-06-01T00%3A00%3A00Z&fmt=csv"
  },
  "features": [
    {
      "type": "Feature",
      "id": "iem-lsr-RIW-1",
      "properties": {
        "report_id": "iem-lsr-RIW-1",
        "report_type": "LANDSPOUT",
        "event_category": "other",
        "valid_utc": "202605091811",
        "standard_time_display": "2026-05-09 11:11 MST",
        "wfo": "RIW",
        "county_or_zone": "Washakie",
        "city": "6 NNW Ten Sleep",
        "state": "WY",
        "magnitude": null,
        "magnitude_units": null,
        "source": "Cocorahs",
        "event_narrative": "Video of rope landspout over open country north of Ten Sleep."
      },
      "geometry": {
        "type": "Point",
        "coordinates": [
          -107.48,
          44.12
        ]
      }
    },
    {
      "type": "Feature",
      "id": "iem-lsr-RIW-2",
      "properties": {
        "report_id": "iem-lsr-RIW-2",
        "report_type": "NON-TSTM WND GST",
        "event_category": "thunderstorm_wind",
        "valid_utc": "202605120006",
        "standard_time_display": "2026-05-11 17:06 MST",
        "wfo": "RIW",
        "county_or_zone": "Natrona",
        "city": "14 N Bar Nunn",
        "state": "WY",
        "magnitude": 62.0,
        "magnitude_units": null,
        "source": "Mesonet",
        "event_narrative": "Mesonet station KTMH I-25 Twenty Mile Hill (DOT). Wind gust from a virga shower."
      },
      "geometry": {
        "type": "Point",
        "coordinates": [
          -106.34,
          43.12
        ]
      }
    },
    {
      "type": "Feature",
      "id": "iem-lsr-RIW-3",
      "properties": {
        "report_id": "iem-lsr-RIW-3",
        "report_type": "NON-TSTM WND GST",
        "event_category": "thunderstorm_wind",
        "valid_utc": "202605131935",
        "standard_time_display": "2026-05-13 12:35 MST",
        "wfo": "RIW",
        "county_or_zone": "Fremont",
        "city": "2 WNW Dubois",
        "state": "WY",
        "magnitude": 62.0,
        "magnitude_units": null,
        "source": "AWOS",
        "event_narrative": "AWOS station KDUB Dubois Airport (AWOS)."
      },
      "geometry": {
        "type": "Point",
        "coordinates": [
          -109.68,
          43.55
        ]
      }
    },
    {
      "type": "Feature",
      "id": "iem-lsr-RIW-4",
      "properties": {
        "report_id": "iem-lsr-RIW-4",
        "report_type": "NON-TSTM WND GST",
        "event_category": "thunderstorm_wind",
        "valid_utc": "202605131952",
        "standard_time_display": "2026-05-13 12:52 MST",
        "wfo": "RIW",
        "county_or_zone": "Sweetwater",
        "city": "9 W Red Desert",
        "state": "WY",
        "magnitude": 62.0,
        "magnitude_units": null,
        "source": "Mesonet",
        "event_narrative": "Mesonet station WY13 I-80 Tipton (DOT)."
      },
      "geometry": {
        "type": "Point",
        "coordinates": [
          -108.3,
          41.63
        ]
      }
    },
    {
      "type": "Feature",
      "id": "iem-lsr-RIW-5",
      "properties": {
        "report_id": "iem-lsr-RIW-5",
        "report_type": "TSTM WND GST",
        "event_category": "thunderstorm_wind",
        "valid_utc": "202605132046",
        "standard_time_display": "2026-05-13 13:46 MST",
        "wfo": "RIW",
        "county_or_zone": "Park",
        "city": "8 N Meeteetse",
        "state": "WY",
        "magnitude": 59.0,
        "magnitude_units": null,
        "source": "Mesonet",
        "event_narrative": "Mesonet station KMTR WY120 Meeteetse Rim (DOT)."
      },
      "geometry": {
        "type": "Point",
        "coordinates": [
          -108.87,
          44.27
        ]
      }
    },
    {
      "type": "Feature",
      "id": "iem-lsr-RIW-6",
      "properties": {
        "report_id": "iem-lsr-RIW-6",
        "report_type": "NON-TSTM WND GST",
        "event_category": "thunderstorm_wind",
        "valid_utc": "202605132152",
        "standard_time_display": "2026-05-13 14:52 MST",
        "wfo": "RIW",
        "county_or_zone": "Natrona",
        "city": "Natrona",
        "state": "WY",
        "magnitude": 65.0,
        "magnitude_units": null,
        "source": "Mesonet",
        "event_narrative": "Mesonet station WY45 US20 Natrona (DOT)."
      },
      "geometry": {
        "type": "Point",
        "coordinates": [
          -106.8,
          43.03
        ]
      }
    },
    {
      "type": "Feature",
      "id": "iem-lsr-RIW-7",
      "properties": {
        "report_id": "iem-lsr-RIW-7",
        "report_type": "NON-TSTM WND GST",
        "event_category": "thunderstorm_wind",
        "valid_utc": "202605132208",
        "standard_time_display": "2026-05-13 15:08 MST",
        "wfo": "RIW",
        "county_or_zone": "Sweetwater",
        "city": "8 SE Reliance",
        "state": "WY",
        "magnitude": 61.0,
        "magnitude_units": null,
        "source": "ASOS",
        "event_narrative": "ASOS station KRKS Rock Springs Airport (ASOS)."
      },
      "geometry": {
        "type": "Point",
        "coordinates": [
          -109.07,
          41.6
        ]
      }
    },
    {
      "type": "Feature",
      "id": "iem-lsr-RIW-8",
      "properties": {
        "report_id": "iem-lsr-RIW-8",
        "report_type": "NON-TSTM WND GST",
        "event_category": "thunderstorm_wind",
        "valid_utc": "202605132217",
        "standard_time_display": "2026-05-13 15:17 MST",
        "wfo": "RIW",
        "county_or_zone": "Natrona",
        "city": "2 SE Hiland",
        "state": "WY",
        "magnitude": 60.0,
        "magnitude_units": null,
        "source": "Mesonet",
        "event_narrative": "Mesonet station KHLD US20 Hiland (DOT)."
      },
      "geometry": {
        "type": "Point",
        "coordinates": [
          -107.32,
          43.09
        ]
      }
    },
    {
      "type": "Feature",
      "id": "iem-lsr-RIW-9",
      "properties": {
        "report_id": "iem-lsr-RIW-9",
        "report_type": "NON-TSTM WND GST",
        "event_category": "thunderstorm_wind",
        "valid_utc": "202605132217",
        "standard_time_display": "2026-05-13 15:17 MST",
        "wfo": "RIW",
        "county_or_zone": "Sublette",
        "city": "2 N Marbleton",
        "state": "WY",
        "magnitude": 62.0,
        "magnitude_units": null,
        "source": "ASOS",
        "event_narrative": "ASOS station KBPI Big Piney Airport (ASOS)."
      },
      "geometry": {
        "type": "Point",
        "coordinates": [
          -110.1,
          42.58
        ]
      }
    },
    {
      "type": "Feature",
      "id": "iem-lsr-RIW-10",
      "properties": {
        "report_id": "iem-lsr-RIW-10",
        "report_type": "NON-TSTM WND GST",
        "event_category": "thunderstorm_wind",
        "valid_utc": "202605132230",
        "standard_time_display": "2026-05-13 15:30 MST",
        "wfo": "RIW",
        "county_or_zone": "Natrona",
        "city": "17 SSW Midwest",
        "state": "WY",
        "magnitude": 61.0,
        "magnitude_units": null,
        "source": "Mesonet",
        "event_narrative": "Mesonet station PC576 Horse Ranch Creek (PC)."
      },
      "geometry": {
        "type": "Point",
        "coordinates": [
          -106.34,
          43.18
        ]
      }
    },
    {
      "type": "Feature",
      "id": "iem-lsr-RIW-11",
      "properties": {
        "report_id": "iem-lsr-RIW-11",
        "report_type": "NON-TSTM WND GST",
        "event_category": "thunderstorm_wind",
        "valid_utc": "202605132240",
        "standard_time_display": "2026-05-13 15:40 MST",
        "wfo": "RIW",
        "county_or_zone": "Sublette",
        "city": "12 W Daniel",
        "state": "WY",
        "magnitude": 63.0,
        "magnitude_units": null,
        "source": "Mesonet",
        "event_narrative": "Mesonet station PC452 Cottonwood Merna (PC)."
      },
      "geometry": {
        "type": "Point",
        "coordinates": [
          -110.3,
          42.86
        ]
      }
    },
    {
      "type": "Feature",
      "id": "iem-lsr-RIW-12",
      "properties": {
        "report_id": "iem-lsr-RIW-12",
        "report_type": "NON-TSTM WND GST",
        "event_category": "thunderstorm_wind",
        "valid_utc": "202605132242",
        "standard_time_display": "2026-05-13 15:42 MST",
        "wfo": "RIW",
        "county_or_zone": "Natrona",
        "city": "2 SSE Casper",
        "state": "WY",
        "magnitude": 62.0,
        "magnitude_units": null,
        "source": "Mesonet",
        "event_narrative": "Mesonet station WY47 WY258 Outer Drive (DOT)."
      },
      "geometry": {
        "type": "Point",
        "coordinates": [
          -106.31,
          42.81
        ]
      }
    },
    {
      "type": "Feature",
      "id": "iem-lsr-RIW-13",
      "properties": {
        "report_id": "iem-lsr-RIW-13",
        "report_type": "NON-TSTM WND GST",
        "event_category": "thunderstorm_wind",
        "valid_utc": "202605132250",
        "standard_time_display": "2026-05-13 15:50 MST",
        "wfo": "RIW",
        "county_or_zone": "Fremont",
        "city": "15 SW South Pass City",
        "state": "WY",
        "magnitude": 66.0,
        "magnitude_units": null,
        "source": "Mesonet",
        "event_narrative": "Mesonet station PC283 Dickinson (PC)."
      },
      "geometry": {
        "type": "Point",
        "coordinates": [
          -109.03,
          42.35
        ]
      }
    },
    {
      "type": "Feature",
      "id": "iem-lsr-RIW-14",
      "properties": {
        "report_id": "iem-lsr-RIW-14",
        "report_type": "NON-TSTM WND GST",
        "event_category": "thunderstorm_wind",
        "valid_utc": "202605132320",
        "standard_time_display": "2026-05-13 16:20 MST",
        "wfo": "RIW",
        "county_or_zone": "Fremont",
        "city": "3 NE Lander",
        "state": "WY",
        "magnitude": 58.0,
        "magnitude_units": null,
        "source": "Mesonet",
        "event_narrative": "Mesonet station PC259 Wyopo (PC)."
      },
      "geometry": {
        "type": "Point",
        "coordinates": [
          -108.68,
          42.85
        ]
      }
    },
    {
      "type": "Feature",
      "id": "iem-lsr-RIW-15",
      "properties": {
        "report_id": "iem-lsr-RIW-15",
        "report_type": "NON-TSTM WND GST",
        "event_category": "thunderstorm_wind",
        "valid_utc": "202605132322",
        "standard_time_display": "2026-05-13 16:22 MST",
        "wfo": "RIW",
        "county_or_zone": "Fremont",
        "city": "10 NE Atlantic City",
        "state": "WY",
        "magnitude": 86.0,
        "magnitude_units": null,
        "source": "Mesonet",
        "event_narrative": "Mesonet station KREC WY28 Red Canyon (DOT)."
      },
      "geometry": {
        "type": "Point",
        "coordinates": [
          -108.61,
          42.62
        ]
      }
    },
    {
      "type": "Feature",
      "id": "iem-lsr-RIW-16",
      "properties": {
        "report_id": "iem-lsr-RIW-16",
        "report_type": "NON-TSTM WND GST",
        "event_category": "thunderstorm_wind",
        "valid_utc": "202605132326",
        "standard_time_display": "2026-05-13 16:26 MST",
        "wfo": "RIW",
        "county_or_zone": "Fremont",
        "city": "1 SSW Lander",
        "state": "WY",
        "magnitude": 64.0,
        "magnitude_units": null,
        "source": "ASOS",
        "event_narrative": "ASOS station KLND Lander Airport (ASOS)."
      },
      "geometry": {
        "type": "Point",
        "coordinates": [
          -108.73,
          42.82
        ]
      }
    },
    {
      "type": "Feature",
      "id": "iem-lsr-RIW-17",
      "properties": {
        "report_id": "iem-lsr-RIW-17",
        "report_type": "TSTM WND GST",
        "event_category": "thunderstorm_wind",
        "valid_utc": "202605132338",
        "standard_time_display": "2026-05-13 16:38 MST",
        "wfo": "RIW",
        "county_or_zone": "Teton",
        "city": "3 SSW Moose",
        "state": "WY",
        "magnitude": 59.0,
        "magnitude_units": null,
        "source": "AWOS",
        "event_narrative": "AWOS station KJAC Jackson Airport (AWOS)."
      },
      "geometry": {
        "type": "Point",
        "coordinates": [
          -110.73,
          43.61
        ]
      }
    },
    {
      "type": "Feature",
      "id": "iem-lsr-RIW-18",
      "properties": {
        "report_id": "iem-lsr-RIW-18",
        "report_type": "NON-TSTM WND GST",
        "event_category": "thunderstorm_wind",
        "valid_utc": "202605132350",
        "standard_time_display": "2026-05-13 16:50 MST",
        "wfo": "RIW",
        "county_or_zone": "Fremont",
        "city": "8 WSW South Pass City",
        "state": "WY",
        "magnitude": 62.0,
        "magnitude_units": null,
        "source": "Mesonet",
        "event_narrative": "Mesonet station ANDW4 Anderson Ridge."
      },
      "geometry": {
        "type": "Point",
        "coordinates": [
          -108.95,
          42.44
        ]
      }
    },
    {
      "type": "Feature",
      "id": "iem-lsr-RIW-19",
      "properties": {
        "report_id": "iem-lsr-RIW-19",
        "report_type": "NON-TSTM WND GST",
        "event_category": "thunderstorm_wind",
        "valid_utc": "202605132351",
        "standard_time_display": "2026-05-13 16:51 MST",
        "wfo": "RIW",
        "county_or_zone": "Fremont",
        "city": "5 NW Riverton",
        "state": "WY",
        "magnitude": 59.0,
        "magnitude_units": null,
        "source": "ASOS",
        "event_narrative": "ASOS station KRIW Riverton Airport (ASOS)."
      },
      "geometry": {
        "type": "Point",
        "coordinates": [
          -108.47,
          43.07
        ]
      }
    },
    {
      "type": "Feature",
      "id": "iem-lsr-RIW-20",
      "properties": {
        "report_id": "iem-lsr-RIW-20",
        "report_type": "NON-TSTM WND GST",
        "event_category": "thunderstorm_wind",
        "valid_utc": "202605140015",
        "standard_time_display": "2026-05-13 17:15 MST",
        "wfo": "RIW",
        "county_or_zone": "Hot Springs",
        "city": "13 S Thermopolis",
        "state": "WY",
        "magnitude": 63.0,
        "magnitude_units": null,
        "source": "AWOS",
        "event_narrative": "AWOS station KTBX Boysen Peak (AWOS)."
      },
      "geometry": {
        "type": "Point",
        "coordinates": [
          -108.23,
          43.47
        ]
      }
    },
    {
      "type": "Feature",
      "id": "iem-lsr-RIW-21",
      "properties": {
        "report_id": "iem-lsr-RIW-21",
        "report_type": "NON-TSTM WND GST",
        "event_category": "thunderstorm_wind",
        "valid_utc": "202605181130",
        "standard_time_display": "2026-05-18 04:30 MST",
        "wfo": "RIW",
        "county_or_zone": "Sweetwater",
        "city": "8 SE Reliance",
        "state": "WY",
        "magnitude": 66.0,
        "magnitude_units": null,
        "source": "ASOS",
        "event_narrative": "ASOS station KRKS Rock Springs Airport (ASOS)."
      },
      "geometry": {
        "type": "Point",
        "coordinates": [
          -109.07,
          41.6
        ]
      }
    },
    {
      "type": "Feature",
      "id": "iem-lsr-RIW-22",
      "properties": {
        "report_id": "iem-lsr-RIW-22",
        "report_type": "SNOW",
        "event_category": "winter",
        "valid_utc": "202605191736",
        "standard_time_display": "2026-05-19 10:36 MST",
        "wfo": "RIW",
        "county_or_zone": "Teton",
        "city": "1 NNE Jackson",
        "state": "WY",
        "magnitude": 0.0,
        "magnitude_units": null,
        "source": "CO-OP Observer",
        "event_narrative": null
      },
      "geometry": {
        "type": "Point",
        "coordinates": [
          -110.76,
          43.48
        ]
      }
    },
    {
      "type": "Feature",
      "id": "iem-lsr-RIW-23",
      "properties": {
        "report_id": "iem-lsr-RIW-23",
        "report_type": "SNOW",
        "event_category": "winter",
        "valid_utc": "202605191736",
        "standard_time_display": "2026-05-19 10:36 MST",
        "wfo": "RIW",
        "county_or_zone": "Fremont",
        "city": "2 W Riverton",
        "state": "WY",
        "magnitude": 0.1,
        "magnitude_units": null,
        "source": "Cocorahs",
        "event_narrative": null
      },
      "geometry": {
        "type": "Point",
        "coordinates": [
          -108.42,
          43.03
        ]
      }
    },
    {
      "type": "Feature",
      "id": "iem-lsr-RIW-24",
      "properties": {
        "report_id": "iem-lsr-RIW-24",
        "report_type": "SNOW",
        "event_category": "winter",
        "valid_utc": "202605191736",
        "standard_time_display": "2026-05-19 10:36 MST",
        "wfo": "RIW",
        "county_or_zone": "Teton",
        "city": "3 SSW Wilson",
        "state": "WY",
        "magnitude": 0.2,
        "magnitude_units": null,
        "source": "Cocorahs",
        "event_narrative": null
      },
      "geometry": {
        "type": "Point",
        "coordinates": [
          -110.9,
          43.47
        ]
      }
    },
    {
      "type": "Feature",
      "id": "iem-lsr-RIW-25",
      "properties": {
        "report_id": "iem-lsr-RIW-25",
        "report_type": "SNOW",
        "event_category": "winter",
        "valid_utc": "202605191736",
        "standard_time_display": "2026-05-19 10:36 MST",
        "wfo": "RIW",
        "county_or_zone": "Lincoln",
        "city": "Afton",
        "state": "WY",
        "magnitude": 0.2,
        "magnitude_units": null,
        "source": "Cocorahs",
        "event_narrative": null
      },
      "geometry": {
        "type": "Point",
        "coordinates": [
          -110.93,
          42.72
        ]
      }
    },
    {
      "type": "Feature",
      "id": "iem-lsr-RIW-26",
      "properties": {
        "report_id": "iem-lsr-RIW-26",
        "report_type": "SNOW",
        "event_category": "winter",
        "valid_utc": "202605191736",
        "standard_time_display": "2026-05-19 10:36 MST",
        "wfo": "RIW",
        "county_or_zone": "Fremont",
        "city": "6 WNW Riverton",
        "state": "WY",
        "magnitude": 0.3,
        "magnitude_units": null,
        "source": "Official NWS Obs",
        "event_narrative": null
      },
      "geometry": {
        "type": "Point",
        "coordinates": [
          -108.48,
          43.07
        ]
      }
    },
    {
      "type": "Feature",
      "id": "iem-lsr-RIW-27",
      "properties": {
        "report_id": "iem-lsr-RIW-27",
        "report_type": "SNOW",
        "event_category": "winter",
        "valid_utc": "202605191736",
        "standard_time_display": "2026-05-19 10:36 MST",
        "wfo": "RIW",
        "county_or_zone": "Teton",
        "city": "Kelly",
        "state": "WY",
        "magnitude": 0.5,
        "magnitude_units": null,
        "source": "Cocorahs",
        "event_narrative": null
      },
      "geometry": {
        "type": "Point",
        "coordinates": [
          -110.63,
          43.62
        ]
      }
    },
    {
      "type": "Feature",
      "id": "iem-lsr-RIW-28",
      "properties": {
        "report_id": "iem-lsr-RIW-28",
        "report_type": "SNOW",
        "event_category": "winter",
        "valid_utc": "202605191736",
        "standard_time_display": "2026-05-19 10:36 MST",
        "wfo": "RIW",
        "county_or_zone": "Johnson",
        "city": "3 SSW Mayoworth",
        "state": "WY",
        "magnitude": 0.8,
        "magnitude_units": null,
        "source": "Cocorahs",
        "event_narrative": null
      },
      "geometry": {
        "type": "Point",
        "coordinates": [
          -106.82,
          43.8
        ]
      }
    },
    {
      "type": "Feature",
      "id": "iem-lsr-RIW-29",
      "properties": {
        "report_id": "iem-lsr-RIW-29",
        "report_type": "SNOW",
        "event_category": "winter",
        "valid_utc": "202605191736",
        "standard_time_display": "2026-05-19 10:36 MST",
        "wfo": "RIW",
        "county_or_zone": "Sublette",
        "city": "3 W Boulder",
        "state": "WY",
        "magnitude": 1.0,
        "magnitude_units": null,
        "source": "CO-OP Observer",
        "event_narrative": null
      },
      "geometry": {
        "type": "Point",
        "coordinates": [
          -109.69,
          42.72
        ]
      }
    },
    {
      "type": "Feature",
      "id": "iem-lsr-RIW-30",
      "properties": {
        "report_id": "iem-lsr-RIW-30",
        "report_type": "SNOW",
        "event_category": "winter",
        "valid_utc": "202605191736",
        "standard_time_display": "2026-05-19 10:36 MST",
        "wfo": "RIW",
        "county_or_zone": "Lincoln",
        "city": "4 NNE Thayne",
        "state": "WY",
        "magnitude": 1.0,
        "magnitude_units": null,
        "source": "Cocorahs",
        "event_narrative": null
      },
      "geometry": {
        "type": "Point",
        "coordinates": [
          -110.96,
          42.97
        ]
      }
    },
    {
      "type": "Feature",
      "id": "iem-lsr-RIW-31",
      "properties": {
        "report_id": "iem-lsr-RIW-31",
        "report_type": "SNOW",
        "event_category": "winter",
        "valid_utc": "202605191736",
        "standard_time_display": "2026-05-19 10:36 MST",
        "wfo": "RIW",
        "county_or_zone": "Sublette",
        "city": "1 NNW Pinedale",
        "state": "WY",
        "magnitude": 1.2,
        "magnitude_units": null,
        "source": "Cocorahs",
        "event_narrative": null
      },
      "geometry": {
        "type": "Point",
        "coordinates": [
          -109.87,
          42.88
        ]
      }
    },
    {
      "type": "Feature",
      "id": "iem-lsr-RIW-32",
      "properties": {
        "report_id": "iem-lsr-RIW-32",
        "report_type": "SNOW",
        "event_category": "winter",
        "valid_utc": "202605191736",
        "standard_time_display": "2026-05-19 10:36 MST",
        "wfo": "RIW",
        "county_or_zone": "Lincoln",
        "city": "1 SE Thayne",
        "state": "WY",
        "magnitude": 1.3,
        "magnitude_units": null,
        "source": "Cocorahs",
        "event_narrative": null
      },
      "geometry": {
        "type": "Point",
        "coordinates": [
          -110.98,
          42.9
        ]
      }
    },
    {
      "type": "Feature",
      "id": "iem-lsr-RIW-33",
      "properties": {
        "report_id": "iem-lsr-RIW-33",
        "report_type": "SNOW",
        "event_category": "winter",
        "valid_utc": "202605191736",
        "standard_time_display": "2026-05-19 10:36 MST",
        "wfo": "RIW",
        "county_or_zone": "Sublette",
        "city": "5 SE Pinedale",
        "state": "WY",
        "magnitude": 1.5,
        "magnitude_units": null,
        "source": "Cocorahs",
        "event_narrative": null
      },
      "geometry": {
        "type": "Point",
        "coordinates": [
          -109.79,
          42.82
        ]
      }
    },
    {
      "type": "Feature",
      "id": "iem-lsr-RIW-34",
      "properties": {
        "report_id": "iem-lsr-RIW-34",
        "report_type": "SNOW",
        "event_category": "winter",
        "valid_utc": "202605191736",
        "standard_time_display": "2026-05-19 10:36 MST",
        "wfo": "RIW",
        "county_or_zone": "Sweetwater",
        "city": "2 SSE Green River",
        "state": "WY",
        "magnitude": 1.6,
        "magnitude_units": null,
        "source": "Cocorahs",
        "event_narrative": null
      },
      "geometry": {
        "type": "Point",
        "coordinates": [
          -109.45,
          41.49
        ]
      }
    },
    {
      "type": "Feature",
      "id": "iem-lsr-RIW-35",
      "properties": {
        "report_id": "iem-lsr-RIW-35",
        "report_type": "SNOW",
        "event_category": "winter",
        "valid_utc": "202605191736",
        "standard_time_display": "2026-05-19 10:36 MST",
        "wfo": "RIW",
        "county_or_zone": "Lincoln",
        "city": "3 N Etna",
        "state": "WY",
        "magnitude": 1.6,
        "magnitude_units": null,
        "source": "Cocorahs",
        "event_narrative": null
      },
      "geometry": {
        "type": "Point",
        "coordinates": [
          -111.0,
          43.08
        ]
      }
    },
    {
      "type": "Feature",
      "id": "iem-lsr-RIW-36",
      "properties": {
        "report_id": "iem-lsr-RIW-36",
        "report_type": "SNOW",
        "event_category": "winter",
        "valid_utc": "202605191736",
        "standard_time_display": "2026-05-19 10:36 MST",
        "wfo": "RIW",
        "county_or_zone": "Johnson",
        "city": "8 NNE Mayoworth",
        "state": "WY",
        "magnitude": 1.8,
        "magnitude_units": null,
        "source": "Cocorahs",
        "event_narrative": null
      },
      "geometry": {
        "type": "Point",
        "coordinates": [
          -106.75,
          43.94
        ]
      }
    },
    {
      "type": "Feature",
      "id": "iem-lsr-RIW-37",
      "properties": {
        "report_id": "iem-lsr-RIW-37",
        "report_type": "SNOW",
        "event_category": "winter",
        "valid_utc": "202605191736",
        "standard_time_display": "2026-05-19 10:36 MST",
        "wfo": "RIW",
        "county_or_zone": "Lincoln",
        "city": "Afton",
        "state": "WY",
        "magnitude": 1.8,
        "magnitude_units": null,
        "source": "CO-OP Observer",
        "event_narrative": null
      },
      "geometry": {
        "type": "Point",
        "coordinates": [
          -110.93,
          42.73
        ]
      }
    },
    {
      "type": "Feature",
      "id": "iem-lsr-RIW-38",
      "properties": {
        "report_id": "iem-lsr-RIW-38",
        "report_type": "SNOW",
        "event_category": "winter",
        "valid_utc": "202605191736",
        "standard_time_display": "2026-05-19 10:36 MST",
        "wfo": "RIW",
        "county_or_zone": "Sweetwater",
        "city": "1 SSW Green River",
        "state": "WY",
        "magnitude": 2.5,
        "magnitude_units": null,
        "source": "Cocorahs",
        "event_narrative": null
      },
      "geometry": {
        "type": "Point",
        "coordinates": [
          -109.48,
          41.51
        ]
      }
    },
    {
      "type": "Feature",
      "id": "iem-lsr-RIW-39",
      "properties": {
        "report_id": "iem-lsr-RIW-39",
        "report_type": "SNOW",
        "event_category": "winter",
        "valid_utc": "202605191736",
        "standard_time_display": "2026-05-19 10:36 MST",
        "wfo": "RIW",
        "county_or_zone": "Natrona",
        "city": "4 NW Mills",
        "state": "WY",
        "magnitude": 2.5,
        "magnitude_units": null,
        "source": "Official NWS Obs",
        "event_narrative": null
      },
      "geometry": {
        "type": "Point",
        "coordinates": [
          -106.43,
          42.88
        ]
      }
    },
    {
      "type": "Feature",
      "id": "iem-lsr-RIW-40",
      "properties": {
        "report_id": "iem-lsr-RIW-40",
        "report_type": "SNOW",
        "event_category": "winter",
        "valid_utc": "202605191736",
        "standard_time_display": "2026-05-19 10:36 MST",
        "wfo": "RIW",
        "county_or_zone": "Hot Springs",
        "city": "18 ESE Lucerne",
        "state": "WY",
        "magnitude": 2.7,
        "magnitude_units": null,
        "source": "Cocorahs",
        "event_narrative": null
      },
      "geometry": {
        "type": "Point",
        "coordinates": [
          -107.84,
          43.62
        ]
      }
    },
    {
      "type": "Feature",
      "id": "iem-lsr-RIW-41",
      "properties": {
        "report_id": "iem-lsr-RIW-41",
        "report_type": "SNOW",
        "event_category": "winter",
        "valid_utc": "202605191736",
        "standard_time_display": "2026-05-19 10:36 MST",
        "wfo": "RIW",
        "county_or_zone": "Fremont",
        "city": "15 W Fort Washakie",
        "state": "WY",
        "magnitude": 3.0,
        "magnitude_units": null,
        "source": "Mesonet",
        "event_narrative": null
      },
      "geometry": {
        "type": "Point",
        "coordinates": [
          -109.17,
          43.03
        ]
      }
    },
    {
      "type": "Feature",
      "id": "iem-lsr-RIW-42",
      "properties": {
        "report_id": "iem-lsr-RIW-42",
        "report_type": "SNOW",
        "event_category": "winter",
        "valid_utc": "202605191736",
        "standard_time_display": "2026-05-19 10:36 MST",
        "wfo": "RIW",
        "county_or_zone": "Fremont",
        "city": "1 WNW Dubois",
        "state": "WY",
        "magnitude": 3.0,
        "magnitude_units": null,
        "source": "CO-OP Observer",
        "event_narrative": null
      },
      "geometry": {
        "type": "Point",
        "coordinates": [
          -109.66,
          43.54
        ]
      }
    },
    {
      "type": "Feature",
      "id": "iem-lsr-RIW-43",
      "properties": {
        "report_id": "iem-lsr-RIW-43",
        "report_type": "SNOW",
        "event_category": "winter",
        "valid_utc": "202605191736",
        "standard_time_display": "2026-05-19 10:36 MST",
        "wfo": "RIW",
        "county_or_zone": "Natrona",
        "city": "5 W Mills",
        "state": "WY",
        "magnitude": 3.0,
        "magnitude_units": null,
        "source": "Cocorahs",
        "event_narrative": null
      },
      "geometry": {
        "type": "Point",
        "coordinates": [
          -106.48,
          42.85
        ]
      }
    },
    {
      "type": "Feature",
      "id": "iem-lsr-RIW-44",
      "properties": {
        "report_id": "iem-lsr-RIW-44",
        "report_type": "SNOW",
        "event_category": "winter",
        "valid_utc": "202605191736",
        "standard_time_display": "2026-05-19 10:36 MST",
        "wfo": "RIW",
        "county_or_zone": "Park",
        "city": "Pahaska",
        "state": "WY",
        "magnitude": 3.0,
        "magnitude_units": null,
        "source": "CO-OP Observer",
        "event_narrative": null
      },
      "geometry": {
        "type": "Point",
        "coordinates": [
          -109.96,
          44.5
        ]
      }
    },
    {
      "type": "Feature",
      "id": "iem-lsr-RIW-45",
      "properties": {
        "report_id": "iem-lsr-RIW-45",
        "report_type": "SNOW",
        "event_category": "winter",
        "valid_utc": "202605191736",
        "standard_time_display": "2026-05-19 10:36 MST",
        "wfo": "RIW",
        "county_or_zone": "Sweetwater",
        "city": "1 NNW Green River",
        "state": "WY",
        "magnitude": 3.5,
        "magnitude_units": null,
        "source": "CO-OP Observer",
        "event_narrative": null
      },
      "geometry": {
        "type": "Point",
        "coordinates": [
          -109.48,
          41.53
        ]
      }
    },
    {
      "type": "Feature",
      "id": "iem-lsr-RIW-46",
      "properties": {
        "report_id": "iem-lsr-RIW-46",
        "report_type": "SNOW",
        "event_category": "winter",
        "valid_utc": "202605191736",
        "standard_time_display": "2026-05-19 10:36 MST",
        "wfo": "RIW",
        "county_or_zone": "Fremont",
        "city": "2 NNW Lander",
        "state": "WY",
        "magnitude": 5.0,
        "magnitude_units": null,
        "source": "Cocorahs",
        "event_narrative": null
      },
      "geometry": {
        "type": "Point",
        "coordinates": [
          -108.74,
          42.85
        ]
      }
    },
    {
      "type": "Feature",
      "id": "iem-lsr-RIW-47",
      "properties": {
        "report_id": "iem-lsr-RIW-47",
        "report_type": "SNOW",
        "event_category": "winter",
        "valid_utc": "202605191736",
        "standard_time_display": "2026-05-19 10:36 MST",
        "wfo": "RIW",
        "county_or_zone": "Fremont",
        "city": "6 WSW Dubois",
        "state": "WY",
        "magnitude": 5.0,
        "magnitude_units": null,
        "source": "Mesonet",
        "event_narrative": null
      },
      "geometry": {
        "type": "Point",
        "coordinates": [
          -109.75,
          43.5
        ]
      }
    },
    {
      "type": "Feature",
      "id": "iem-lsr-RIW-48",
      "properties": {
        "report_id": "iem-lsr-RIW-48",
        "report_type": "SNOW",
        "event_category": "winter",
        "valid_utc": "202605191736",
        "standard_time_display": "2026-05-19 10:36 MST",
        "wfo": "RIW",
        "county_or_zone": "Natrona",
        "city": "1 E Casper",
        "state": "WY",
        "magnitude": 6.1,
        "magnitude_units": null,
        "source": "Cocorahs",
        "event_narrative": null
      },
      "geometry": {
        "type": "Point",
        "coordinates": [
          -106.31,
          42.83
        ]
      }
    },
    {
      "type": "Feature",
      "id": "iem-lsr-RIW-49",
      "properties": {
        "report_id": "iem-lsr-RIW-49",
        "report_type": "SNOW",
        "event_category": "winter",
        "valid_utc": "202605191736",
        "standard_time_display": "2026-05-19 10:36 MST",
        "wfo": "RIW",
        "county_or_zone": "Fremont",
        "city": "7 WNW Lander",
        "state": "WY",
        "magnitude": 6.3,
        "magnitude_units": null,
        "source": "Cocorahs",
        "event_narrative": null
      },
      "geometry": {
        "type": "Point",
        "coordinates": [
          -108.87,
          42.86
        ]
      }
    },
    {
      "type": "Feature",
      "id": "iem-lsr-RIW-50",
      "properties": {
        "report_id": "iem-lsr-RIW-50",
        "report_type": "SNOW",
        "event_category": "winter",
        "valid_utc": "202605191736",
        "standard_time_display": "2026-05-19 10:36 MST",
        "wfo": "RIW",
        "county_or_zone": "Natrona",
        "city": "1 WSW Casper",
        "state": "WY",
        "magnitude": 7.0,
        "magnitude_units": null,
        "source": "Cocorahs",
        "event_narrative": null
      },
      "geometry": {
        "type": "Point",
        "coordinates": [
          -106.34,
          42.83
        ]
      }
    },
    {
      "type": "Feature",
      "id": "iem-lsr-RIW-51",
      "properties": {
        "report_id": "iem-lsr-RIW-51",
        "report_type": "SNOW",
        "event_category": "winter",
        "valid_utc": "202605191736",
        "standard_time_display": "2026-05-19 10:36 MST",
        "wfo": "RIW",
        "county_or_zone": "Fremont",
        "city": "4 WSW Lander",
        "state": "WY",
        "magnitude": 7.0,
        "magnitude_units": null,
        "source": "Cocorahs",
        "event_narrative": null
      },
      "geometry": {
        "type": "Point",
        "coordinates": [
          -108.81,
          42.82
        ]
      }
    },
    {
      "type": "Feature",
      "id": "iem-lsr-RIW-52",
      "properties": {
        "report_id": "iem-lsr-RIW-52",
        "report_type": "SNOW",
        "event_category": "winter",
        "valid_utc": "202605191736",
        "standard_time_display": "2026-05-19 10:36 MST",
        "wfo": "RIW",
        "county_or_zone": "Fremont",
        "city": "14 SW Fort Washakie",
        "state": "WY",
        "magnitude": 8.0,
        "magnitude_units": null,
        "source": "Mesonet",
        "event_narrative": null
      },
      "geometry": {
        "type": "Point",
        "coordinates": [
          -109.09,
          42.87
        ]
      }
    },
    {
      "type": "Feature",
      "id": "iem-lsr-RIW-53",
      "properties": {
        "report_id": "iem-lsr-RIW-53",
        "report_type": "SNOW",
        "event_category": "winter",
        "valid_utc": "202605191736",
        "standard_time_display": "2026-05-19 10:36 MST",
        "wfo": "RIW",
        "county_or_zone": "Fremont",
        "city": "2 SSE Lander",
        "state": "WY",
        "magnitude": 8.8,
        "magnitude_units": null,
        "source": "Official NWS Obs",
        "event_narrative": null
      },
      "geometry": {
        "type": "Point",
        "coordinates": [
          -108.72,
          42.8
        ]
      }
    },
    {
      "type": "Feature",
      "id": "iem-lsr-RIW-54",
      "properties": {
        "report_id": "iem-lsr-RIW-54",
        "report_type": "SNOW",
        "event_category": "winter",
        "valid_utc": "202605191736",
        "standard_time_display": "2026-05-19 10:36 MST",
        "wfo": "RIW",
        "county_or_zone": "Fremont",
        "city": "11 WSW Burris",
        "state": "WY",
        "magnitude": 11.0,
        "magnitude_units": null,
        "source": "Mesonet",
        "event_narrative": null
      },
      "geometry": {
        "type": "Point",
        "coordinates": [
          -109.45,
          43.28
        ]
      }
    },
    {
      "type": "Feature",
      "id": "iem-lsr-RIW-55",
      "properties": {
        "report_id": "iem-lsr-RIW-55",
        "report_type": "SNOW",
        "event_category": "winter",
        "valid_utc": "202605191736",
        "standard_time_display": "2026-05-19 10:36 MST",
        "wfo": "RIW",
        "county_or_zone": "Fremont",
        "city": "9 S Lander",
        "state": "WY",
        "magnitude": 11.4,
        "magnitude_units": null,
        "source": "Cocorahs",
        "event_narrative": null
      },
      "geometry": {
        "type": "Point",
        "coordinates": [
          -108.71,
          42.7
        ]
      }
    },
    {
      "type": "Feature",
      "id": "iem-lsr-RIW-56",
      "properties": {
        "report_id": "iem-lsr-RIW-56",
        "report_type": "SNOW",
        "event_category": "winter",
        "valid_utc": "202605191736",
        "standard_time_display": "2026-05-19 10:36 MST",
        "wfo": "RIW",
        "county_or_zone": "Fremont",
        "city": "10 NNW South Pass City",
        "state": "WY",
        "magnitude": 12.0,
        "magnitude_units": null,
        "source": "Mesonet",
        "event_narrative": null
      },
      "geometry": {
        "type": "Point",
        "coordinates": [
          -108.9,
          42.59
        ]
      }
    },
    {
      "type": "Feature",
      "id": "iem-lsr-RIW-57",
      "properties": {
        "report_id": "iem-lsr-RIW-57",
        "report_type": "SNOW",
        "event_category": "winter",
        "valid_utc": "202605191736",
        "standard_time_display": "2026-05-19 10:36 MST",
        "wfo": "RIW",
        "county_or_zone": "Fremont",
        "city": "6 SW Lander",
        "state": "WY",
        "magnitude": 13.8,
        "magnitude_units": null,
        "source": "Cocorahs",
        "event_narrative": null
      },
      "geometry": {
        "type": "Point",
        "coordinates": [
          -108.79,
          42.76
        ]
      }
    },
    {
      "type": "Feature",
      "id": "iem-lsr-RIW-58",
      "properties": {
        "report_id": "iem-lsr-RIW-58",
        "report_type": "SNOW",
        "event_category": "winter",
        "valid_utc": "202605191736",
        "standard_time_display": "2026-05-19 10:36 MST",
        "wfo": "RIW",
        "county_or_zone": "Fremont",
        "city": "13 SW Lander",
        "state": "WY",
        "magnitude": 14.0,
        "magnitude_units": null,
        "source": "Mesonet",
        "event_narrative": null
      },
      "geometry": {
        "type": "Point",
        "coordinates": [
          -108.9,
          42.7
        ]
      }
    },
    {
      "type": "Feature",
      "id": "iem-lsr-RIW-59",
      "properties": {
        "report_id": "iem-lsr-RIW-59",
        "report_type": "SNOW",
        "event_category": "winter",
        "valid_utc": "202605191736",
        "standard_time_display": "2026-05-19 10:36 MST",
        "wfo": "RIW",
        "county_or_zone": "Fremont",
        "city": "5 SW Lander",
        "state": "WY",
        "magnitude": 16.0,
        "magnitude_units": null,
        "source": "Cocorahs",
        "event_narrative": null
      },
      "geometry": {
        "type": "Point",
        "coordinates": [
          -108.79,
          42.77
        ]
      }
    },
    {
      "type": "Feature",
      "id": "iem-lsr-RIW-60",
      "properties": {
        "report_id": "iem-lsr-RIW-60",
        "report_type": "SNOW",
        "event_category": "winter",
        "valid_utc": "202605191736",
        "standard_time_display": "2026-05-19 10:36 MST",
        "wfo": "RIW",
        "county_or_zone": "Natrona",
        "city": "22 SE Casper",
        "state": "WY",
        "magnitude": 18.0,
        "magnitude_units": null,
        "source": "Mesonet",
        "event_narrative": null
      },
      "geometry": {
        "type": "Point",
        "coordinates": [
          -106.09,
          42.57
        ]
      }
    },
    {
      "type": "Feature",
      "id": "iem-lsr-RIW-61",
      "properties": {
        "report_id": "iem-lsr-RIW-61",
        "report_type": "SNOW",
        "event_category": "winter",
        "valid_utc": "202605191736",
        "standard_time_display": "2026-05-19 10:36 MST",
        "wfo": "RIW",
        "county_or_zone": "Natrona",
        "city": "7 S Casper",
        "state": "WY",
        "magnitude": 22.0,
        "magnitude_units": null,
        "source": "Mesonet",
        "event_narrative": null
      },
      "geometry": {
        "type": "Point",
        "coordinates": [
          -106.32,
          42.73
        ]
      }
    },
    {
      "type": "Feature",
      "id": "iem-lsr-RIW-62",
      "properties": {
        "report_id": "iem-lsr-RIW-62",
        "report_type": "TSTM WND GST",
        "event_category": "thunderstorm_wind",
        "valid_utc": "202605241920",
        "standard_time_display": "2026-05-24 12:20 MST",
        "wfo": "RIW",
        "county_or_zone": "Park",
        "city": "11 S Ralston",
        "state": "WY",
        "magnitude": 56.0,
        "magnitude_units": null,
        "source": "Mesonet",
        "event_narrative": "Mesonet station PC628 Mccullough Peaks (PC)."
      },
      "geometry": {
        "type": "Point",
        "coordinates": [
          -108.83,
          44.57
        ]
      }
    },
    {
      "type": "Feature",
      "id": "iem-lsr-RIW-63",
      "properties": {
        "report_id": "iem-lsr-RIW-63",
        "report_type": "TSTM WND GST",
        "event_category": "thunderstorm_wind",
        "valid_utc": "202605241942",
        "standard_time_display": "2026-05-24 12:42 MST",
        "wfo": "RIW",
        "county_or_zone": "Natrona",
        "city": "2 NE Mills",
        "state": "WY",
        "magnitude": 58.0,
        "magnitude_units": null,
        "source": "Mesonet",
        "event_narrative": "Mesonet station WY50 I-25 F Street (DOT)."
      },
      "geometry": {
        "type": "Point",
        "coordinates": [
          -106.34,
          42.87
        ]
      }
    },
    {
      "type": "Feature",
      "id": "iem-lsr-RIW-64",
      "properties": {
        "report_id": "iem-lsr-RIW-64",
        "report_type": "TSTM WND GST",
        "event_category": "thunderstorm_wind",
        "valid_utc": "202605242000",
        "standard_time_display": "2026-05-24 13:00 MST",
        "wfo": "RIW",
        "county_or_zone": "Lincoln",
        "city": "15 E Smoot",
        "state": "WY",
        "magnitude": 66.0,
        "magnitude_units": null,
        "source": "Mesonet",
        "event_narrative": "Mesonet station MCOBT Mount Coffin (BTAC)."
      },
      "geometry": {
        "type": "Point",
        "coordinates": [
          -110.64,
          42.64
        ]
      }
    },
    {
      "type": "Feature",
      "id": "iem-lsr-RIW-65",
      "properties": {
        "report_id": "iem-lsr-RIW-65",
        "report_type": "TSTM WND GST",
        "event_category": "thunderstorm_wind",
        "valid_utc": "202605242254",
        "standard_time_display": "2026-05-24 15:54 MST",
        "wfo": "RIW",
        "county_or_zone": "Sweetwater",
        "city": "8 SE Reliance",
        "state": "WY",
        "magnitude": 59.0,
        "magnitude_units": null,
        "source": "ASOS",
        "event_narrative": "ASOS station KRKS Rock Springs Airport (ASOS)."
      },
      "geometry": {
        "type": "Point",
        "coordinates": [
          -109.07,
          41.6
        ]
      }
    },
    {
      "type": "Feature",
      "id": "iem-lsr-RIW-66",
      "properties": {
        "report_id": "iem-lsr-RIW-66",
        "report_type": "TSTM WND GST",
        "event_category": "thunderstorm_wind",
        "valid_utc": "202605251800",
        "standard_time_display": "2026-05-25 11:00 MST",
        "wfo": "RIW",
        "county_or_zone": "SUBLETTE",
        "city": "21 W BIG PINEY",
        "state": "WY",
        "magnitude": 68.0,
        "magnitude_units": null,
        "source": "MESONET",
        "event_narrative": "MESONET STATION BPYW4 SNIDER BASIN. TIME ESTIMATED."
      },
      "geometry": {
        "type": "Point",
        "coordinates": [
          -110.53,
          42.49
        ]
      }
    },
    {
      "type": "Feature",
      "id": "iem-lsr-RIW-67",
      "properties": {
        "report_id": "iem-lsr-RIW-67",
        "report_type": "TSTM WND GST",
        "event_category": "thunderstorm_wind",
        "valid_utc": "202605292142",
        "standard_time_display": "2026-05-29 14:42 MST",
        "wfo": "RIW",
        "county_or_zone": "Natrona",
        "city": "14 N Bar Nunn",
        "state": "WY",
        "magnitude": 56.0,
        "magnitude_units": null,
        "source": "Mesonet",
        "event_narrative": "Mesonet station KTMH I-25 Twenty Mile Hill (DOT)."
      },
      "geometry": {
        "type": "Point",
        "coordinates": [
          -106.34,
          43.12
        ]
      }
    }
  ]
}