{
  "type": "FeatureCollection",
  "metadata": {
    "schema_version": "0.2.4",
    "year": 2026,
    "month": 5,
    "wfo": "PBZ",
    "start_utc": "2026-05-01T00:00:00Z",
    "end_utc": "2026-06-01T00:00:00Z",
    "generated_utc": "2026-06-26T11:51:52Z",
    "mode": "storm_data_prep",
    "public_release_status": "public-source-derived",
    "time_note": "Storm Data entry times should be reviewed in local Standard Time (ST), not daylight time. Candidate reports include standard_time_display.",
    "tornado_track_policy": "Tornado tracks must come from DAT. NCEI begin/end coordinates are not used as a tornado track substitute.",
    "source": "https://mesonet.agron.iastate.edu/cgi-bin/request/gis/lsr.py?wfo=PBZ&sts=2026-05-01T00%3A00%3A00Z&ets=2026-06-01T00%3A00%3A00Z&fmt=csv"
  },
  "features": [
    {
      "type": "Feature",
      "id": "iem-lsr-PBZ-1",
      "properties": {
        "report_id": "iem-lsr-PBZ-1",
        "report_type": "TSTM WND DMG",
        "event_category": "thunderstorm_wind",
        "valid_utc": "202605060031",
        "standard_time_display": "2026-05-05 19:31 EST",
        "wfo": "PBZ",
        "county_or_zone": "Columbiana",
        "city": "4 S Columbiana",
        "state": "OH",
        "magnitude": null,
        "magnitude_units": null,
        "source": "911 Call Center",
        "event_narrative": "Power pole and lines down at a residence on Route 558. Time estimated from radar."
      },
      "geometry": {
        "type": "Point",
        "coordinates": [
          -80.69,
          40.83
        ]
      }
    },
    {
      "type": "Feature",
      "id": "iem-lsr-PBZ-2",
      "properties": {
        "report_id": "iem-lsr-PBZ-2",
        "report_type": "TSTM WND DMG",
        "event_category": "thunderstorm_wind",
        "valid_utc": "202605060112",
        "standard_time_display": "2026-05-05 20:12 EST",
        "wfo": "PBZ",
        "county_or_zone": "Lawrence",
        "city": "3 NE New Castle Northwe",
        "state": "PA",
        "magnitude": null,
        "magnitude_units": null,
        "source": "911 Call Center",
        "event_narrative": "Report of a tree down fully covering the road. Time estimated based on radar."
      },
      "geometry": {
        "type": "Point",
        "coordinates": [
          -80.32,
          41.06
        ]
      }
    },
    {
      "type": "Feature",
      "id": "iem-lsr-PBZ-3",
      "properties": {
        "report_id": "iem-lsr-PBZ-3",
        "report_type": "TSTM WND DMG",
        "event_category": "thunderstorm_wind",
        "valid_utc": "202605100001",
        "standard_time_display": "2026-05-09 19:01 EST",
        "wfo": "PBZ",
        "county_or_zone": "Mercer",
        "city": "1 SSW Wheatland",
        "state": "PA",
        "magnitude": null,
        "magnitude_units": null,
        "source": "911 Call Center",
        "event_narrative": "Tree down."
      },
      "geometry": {
        "type": "Point",
        "coordinates": [
          -80.51,
          41.18
        ]
      }
    },
    {
      "type": "Feature",
      "id": "iem-lsr-PBZ-4",
      "properties": {
        "report_id": "iem-lsr-PBZ-4",
        "report_type": "TSTM WND DMG",
        "event_category": "thunderstorm_wind",
        "valid_utc": "202605100002",
        "standard_time_display": "2026-05-09 19:02 EST",
        "wfo": "PBZ",
        "county_or_zone": "Mercer",
        "city": "Farrell",
        "state": "PA",
        "magnitude": null,
        "magnitude_units": null,
        "source": "911 Call Center",
        "event_narrative": "Wires down."
      },
      "geometry": {
        "type": "Point",
        "coordinates": [
          -80.5,
          41.21
        ]
      }
    },
    {
      "type": "Feature",
      "id": "iem-lsr-PBZ-5",
      "properties": {
        "report_id": "iem-lsr-PBZ-5",
        "report_type": "HAIL",
        "event_category": "hail",
        "valid_utc": "202605131750",
        "standard_time_display": "2026-05-13 12:50 EST",
        "wfo": "PBZ",
        "county_or_zone": "Venango",
        "city": "1 NE Franklin",
        "state": "PA",
        "magnitude": 1.0,
        "magnitude_units": null,
        "source": "Public",
        "event_narrative": null
      },
      "geometry": {
        "type": "Point",
        "coordinates": [
          -79.83,
          41.4
        ]
      }
    },
    {
      "type": "Feature",
      "id": "iem-lsr-PBZ-6",
      "properties": {
        "report_id": "iem-lsr-PBZ-6",
        "report_type": "HAIL",
        "event_category": "hail",
        "valid_utc": "202605131814",
        "standard_time_display": "2026-05-13 13:14 EST",
        "wfo": "PBZ",
        "county_or_zone": "Venango",
        "city": "4 NW Fryburg",
        "state": "PA",
        "magnitude": 1.0,
        "magnitude_units": null,
        "source": "Public",
        "event_narrative": null
      },
      "geometry": {
        "type": "Point",
        "coordinates": [
          -79.51,
          41.39
        ]
      }
    },
    {
      "type": "Feature",
      "id": "iem-lsr-PBZ-7",
      "properties": {
        "report_id": "iem-lsr-PBZ-7",
        "report_type": "HAIL",
        "event_category": "hail",
        "valid_utc": "202605131822",
        "standard_time_display": "2026-05-13 13:22 EST",
        "wfo": "PBZ",
        "county_or_zone": "Clarion",
        "city": "Clarion",
        "state": "PA",
        "magnitude": 1.0,
        "magnitude_units": null,
        "source": "Public",
        "event_narrative": null
      },
      "geometry": {
        "type": "Point",
        "coordinates": [
          -79.39,
          41.21
        ]
      }
    },
    {
      "type": "Feature",
      "id": "iem-lsr-PBZ-8",
      "properties": {
        "report_id": "iem-lsr-PBZ-8",
        "report_type": "TSTM WND DMG",
        "event_category": "thunderstorm_wind",
        "valid_utc": "202605131910",
        "standard_time_display": "2026-05-13 14:10 EST",
        "wfo": "PBZ",
        "county_or_zone": "Wetzel",
        "city": "4 NNE Pine Grove",
        "state": "WV",
        "magnitude": null,
        "magnitude_units": null,
        "source": "Public",
        "event_narrative": "A tree was reported blown over."
      },
      "geometry": {
        "type": "Point",
        "coordinates": [
          -80.65,
          39.62
        ]
      }
    },
    {
      "type": "Feature",
      "id": "iem-lsr-PBZ-9",
      "properties": {
        "report_id": "iem-lsr-PBZ-9",
        "report_type": "HAIL",
        "event_category": "hail",
        "valid_utc": "202605131915",
        "standard_time_display": "2026-05-13 14:15 EST",
        "wfo": "PBZ",
        "county_or_zone": "Washington",
        "city": "1 W Finleyville",
        "state": "PA",
        "magnitude": 1.0,
        "magnitude_units": null,
        "source": "Trained Spotter",
        "event_narrative": "The hail lasted for 5 minutes."
      },
      "geometry": {
        "type": "Point",
        "coordinates": [
          -80.02,
          40.25
        ]
      }
    },
    {
      "type": "Feature",
      "id": "iem-lsr-PBZ-10",
      "properties": {
        "report_id": "iem-lsr-PBZ-10",
        "report_type": "HAIL",
        "event_category": "hail",
        "valid_utc": "202605131951",
        "standard_time_display": "2026-05-13 14:51 EST",
        "wfo": "PBZ",
        "county_or_zone": "Westmoreland",
        "city": "West Newton",
        "state": "PA",
        "magnitude": 1.0,
        "magnitude_units": null,
        "source": "Public",
        "event_narrative": null
      },
      "geometry": {
        "type": "Point",
        "coordinates": [
          -79.77,
          40.21
        ]
      }
    },
    {
      "type": "Feature",
      "id": "iem-lsr-PBZ-11",
      "properties": {
        "report_id": "iem-lsr-PBZ-11",
        "report_type": "HAIL",
        "event_category": "hail",
        "valid_utc": "202605131955",
        "standard_time_display": "2026-05-13 14:55 EST",
        "wfo": "PBZ",
        "county_or_zone": "Westmoreland",
        "city": "2 ENE West Newton",
        "state": "PA",
        "magnitude": 1.0,
        "magnitude_units": null,
        "source": "Public",
        "event_narrative": null
      },
      "geometry": {
        "type": "Point",
        "coordinates": [
          -79.73,
          40.23
        ]
      }
    },
    {
      "type": "Feature",
      "id": "iem-lsr-PBZ-12",
      "properties": {
        "report_id": "iem-lsr-PBZ-12",
        "report_type": "TSTM WND DMG",
        "event_category": "thunderstorm_wind",
        "valid_utc": "202605132005",
        "standard_time_display": "2026-05-13 15:05 EST",
        "wfo": "PBZ",
        "county_or_zone": "Marion",
        "city": "3 ESE Rivesville",
        "state": "WV",
        "magnitude": null,
        "magnitude_units": null,
        "source": "Public",
        "event_narrative": "Tree down Catawba Road."
      },
      "geometry": {
        "type": "Point",
        "coordinates": [
          -80.07,
          39.52
        ]
      }
    },
    {
      "type": "Feature",
      "id": "iem-lsr-PBZ-13",
      "properties": {
        "report_id": "iem-lsr-PBZ-13",
        "report_type": "TSTM WND DMG",
        "event_category": "thunderstorm_wind",
        "valid_utc": "202605132012",
        "standard_time_display": "2026-05-13 15:12 EST",
        "wfo": "PBZ",
        "county_or_zone": "Marion",
        "city": "2 SSE Rivesville",
        "state": "WV",
        "magnitude": null,
        "magnitude_units": null,
        "source": "Amateur Radio",
        "event_narrative": "Multiple trees down on Pricketts Fort Road."
      },
      "geometry": {
        "type": "Point",
        "coordinates": [
          -80.1,
          39.51
        ]
      }
    },
    {
      "type": "Feature",
      "id": "iem-lsr-PBZ-14",
      "properties": {
        "report_id": "iem-lsr-PBZ-14",
        "report_type": "HAIL",
        "event_category": "hail",
        "valid_utc": "202605132015",
        "standard_time_display": "2026-05-13 15:15 EST",
        "wfo": "PBZ",
        "county_or_zone": "Monongalia",
        "city": "6 S Westover",
        "state": "WV",
        "magnitude": 1.0,
        "magnitude_units": null,
        "source": "Public",
        "event_narrative": "Report from mPING: Quarter (1.00 in.)."
      },
      "geometry": {
        "type": "Point",
        "coordinates": [
          -79.99,
          39.54
        ]
      }
    },
    {
      "type": "Feature",
      "id": "iem-lsr-PBZ-15",
      "properties": {
        "report_id": "iem-lsr-PBZ-15",
        "report_type": "TSTM WND DMG",
        "event_category": "thunderstorm_wind",
        "valid_utc": "202605132018",
        "standard_time_display": "2026-05-13 15:18 EST",
        "wfo": "PBZ",
        "county_or_zone": "Monongalia",
        "city": "3 SSE Westover",
        "state": "WV",
        "magnitude": null,
        "magnitude_units": null,
        "source": "Amateur Radio",
        "event_narrative": "Trees down on Smithtown Road near 119."
      },
      "geometry": {
        "type": "Point",
        "coordinates": [
          -79.96,
          39.59
        ]
      }
    },
    {
      "type": "Feature",
      "id": "iem-lsr-PBZ-16",
      "properties": {
        "report_id": "iem-lsr-PBZ-16",
        "report_type": "TSTM WND DMG",
        "event_category": "thunderstorm_wind",
        "valid_utc": "202605132018",
        "standard_time_display": "2026-05-13 15:18 EST",
        "wfo": "PBZ",
        "county_or_zone": "Marion",
        "city": "7 ESE Rivesville",
        "state": "WV",
        "magnitude": null,
        "magnitude_units": null,
        "source": "Public",
        "event_narrative": "Tree down on Squirrel Run Road."
      },
      "geometry": {
        "type": "Point",
        "coordinates": [
          -80.0,
          39.47
        ]
      }
    },
    {
      "type": "Feature",
      "id": "iem-lsr-PBZ-17",
      "properties": {
        "report_id": "iem-lsr-PBZ-17",
        "report_type": "HAIL",
        "event_category": "hail",
        "valid_utc": "202605132030",
        "standard_time_display": "2026-05-13 15:30 EST",
        "wfo": "PBZ",
        "county_or_zone": "Westmoreland",
        "city": "4 NE Donegal",
        "state": "PA",
        "magnitude": 1.0,
        "magnitude_units": null,
        "source": "Public",
        "event_narrative": "Time estimated via radar."
      },
      "geometry": {
        "type": "Point",
        "coordinates": [
          -79.33,
          40.15
        ]
      }
    },
    {
      "type": "Feature",
      "id": "iem-lsr-PBZ-18",
      "properties": {
        "report_id": "iem-lsr-PBZ-18",
        "report_type": "TORNADO",
        "event_category": "tornado",
        "valid_utc": "202605132031",
        "standard_time_display": "2026-05-13 15:31 EST",
        "wfo": "PBZ",
        "county_or_zone": "Preston",
        "city": "3 E Reedsville",
        "state": "WV",
        "magnitude": null,
        "magnitude_units": null,
        "source": "Emergency Mngr",
        "event_narrative": "At 4:31pm on May_ 13th_ a strong thunderstorm moved across Preston County and produced one tornado_ as confirmed by video footage along Wagner Lane. There was confirmation of a touchdown. Based on ha"
      },
      "geometry": {
        "type": "Point",
        "coordinates": [
          -79.74,
          39.51
        ]
      }
    },
    {
      "type": "Feature",
      "id": "iem-lsr-PBZ-19",
      "properties": {
        "report_id": "iem-lsr-PBZ-19",
        "report_type": "TSTM WND DMG",
        "event_category": "thunderstorm_wind",
        "valid_utc": "202605132032",
        "standard_time_display": "2026-05-13 15:32 EST",
        "wfo": "PBZ",
        "county_or_zone": "Preston",
        "city": "3 E Reedsville",
        "state": "WV",
        "magnitude": null,
        "magnitude_units": null,
        "source": "Amateur Radio",
        "event_narrative": "Complete metal roof uplift of Smokin Jacks Bar & Grill."
      },
      "geometry": {
        "type": "Point",
        "coordinates": [
          -79.75,
          39.51
        ]
      }
    },
    {
      "type": "Feature",
      "id": "iem-lsr-PBZ-20",
      "properties": {
        "report_id": "iem-lsr-PBZ-20",
        "report_type": "TSTM WND DMG",
        "event_category": "thunderstorm_wind",
        "valid_utc": "202605132032",
        "standard_time_display": "2026-05-13 15:32 EST",
        "wfo": "PBZ",
        "county_or_zone": "Preston",
        "city": "3 E Reedsville",
        "state": "WV",
        "magnitude": null,
        "magnitude_units": null,
        "source": "Emergency Mngr",
        "event_narrative": "Trees uprooted on the west side of Moran Road."
      },
      "geometry": {
        "type": "Point",
        "coordinates": [
          -79.75,
          39.5
        ]
      }
    },
    {
      "type": "Feature",
      "id": "iem-lsr-PBZ-21",
      "properties": {
        "report_id": "iem-lsr-PBZ-21",
        "report_type": "HAIL",
        "event_category": "hail",
        "valid_utc": "202605132039",
        "standard_time_display": "2026-05-13 15:39 EST",
        "wfo": "PBZ",
        "county_or_zone": "Monongalia",
        "city": "3 S Morgantown",
        "state": "WV",
        "magnitude": 1.0,
        "magnitude_units": null,
        "source": "Public",
        "event_narrative": null
      },
      "geometry": {
        "type": "Point",
        "coordinates": [
          -79.95,
          39.59
        ]
      }
    },
    {
      "type": "Feature",
      "id": "iem-lsr-PBZ-22",
      "properties": {
        "report_id": "iem-lsr-PBZ-22",
        "report_type": "TSTM WND DMG",
        "event_category": "thunderstorm_wind",
        "valid_utc": "202605132045",
        "standard_time_display": "2026-05-13 15:45 EST",
        "wfo": "PBZ",
        "county_or_zone": "Preston",
        "city": "Tunnelton",
        "state": "WV",
        "magnitude": null,
        "magnitude_units": null,
        "source": "Public",
        "event_narrative": "Large tree uprooted."
      },
      "geometry": {
        "type": "Point",
        "coordinates": [
          -79.75,
          39.39
        ]
      }
    },
    {
      "type": "Feature",
      "id": "iem-lsr-PBZ-23",
      "properties": {
        "report_id": "iem-lsr-PBZ-23",
        "report_type": "LIGHTNING",
        "event_category": "other",
        "valid_utc": "202605161436",
        "standard_time_display": "2026-05-16 09:36 EST",
        "wfo": "PBZ",
        "county_or_zone": "Muskingum",
        "city": "5 NW Fultonham",
        "state": "OH",
        "magnitude": null,
        "magnitude_units": null,
        "source": "Emergency Mngr",
        "event_narrative": "*** 1 FATAL *** Corrects previous lightning report from 5 NW Fultonham. Male on Gard Lane struck by lightning while mowing grass."
      },
      "geometry": {
        "type": "Point",
        "coordinates": [
          -82.2,
          39.92
        ]
      }
    },
    {
      "type": "Feature",
      "id": "iem-lsr-PBZ-24",
      "properties": {
        "report_id": "iem-lsr-PBZ-24",
        "report_type": "LIGHTNING",
        "event_category": "other",
        "valid_utc": "202605161436",
        "standard_time_display": "2026-05-16 09:36 EST",
        "wfo": "PBZ",
        "county_or_zone": "Muskingum",
        "city": "5 NW Fultonham",
        "state": "OH",
        "magnitude": null,
        "magnitude_units": null,
        "source": "Emergency Mngr",
        "event_narrative": "*** 1 INJ *** Male on Gard Lane struck by lightning while mowing grass."
      },
      "geometry": {
        "type": "Point",
        "coordinates": [
          -82.2,
          39.92
        ]
      }
    },
    {
      "type": "Feature",
      "id": "iem-lsr-PBZ-25",
      "properties": {
        "report_id": "iem-lsr-PBZ-25",
        "report_type": "LIGHTNING",
        "event_category": "other",
        "valid_utc": "202605161436",
        "standard_time_display": "2026-05-16 09:36 EST",
        "wfo": "PBZ",
        "county_or_zone": "Muskingum",
        "city": "5 NW Fultonham",
        "state": "OH",
        "magnitude": null,
        "magnitude_units": null,
        "source": "Emergency Mngr",
        "event_narrative": "Corrects previous lightning report from 5 NW Fultonham. Male on Gard Lane struck by lightning while mowing grass."
      },
      "geometry": {
        "type": "Point",
        "coordinates": [
          -82.2,
          39.92
        ]
      }
    },
    {
      "type": "Feature",
      "id": "iem-lsr-PBZ-26",
      "properties": {
        "report_id": "iem-lsr-PBZ-26",
        "report_type": "TSTM WND DMG",
        "event_category": "thunderstorm_wind",
        "valid_utc": "202605190308",
        "standard_time_display": "2026-05-18 22:08 EST",
        "wfo": "PBZ",
        "county_or_zone": "Tucker",
        "city": "1 SSW Canaan Hgts",
        "state": "WV",
        "magnitude": null,
        "magnitude_units": null,
        "source": "Public",
        "event_narrative": "Tree down near the intersection of Appalachian Highway and Northridge Road. Time estimated from radar."
      },
      "geometry": {
        "type": "Point",
        "coordinates": [
          -79.44,
          39.08
        ]
      }
    },
    {
      "type": "Feature",
      "id": "iem-lsr-PBZ-27",
      "properties": {
        "report_id": "iem-lsr-PBZ-27",
        "report_type": "TSTM WND GST",
        "event_category": "thunderstorm_wind",
        "valid_utc": "202605200217",
        "standard_time_display": "2026-05-19 21:17 EST",
        "wfo": "PBZ",
        "county_or_zone": "Muskingum",
        "city": "3 E Pleasant Grove",
        "state": "OH",
        "magnitude": 46.0,
        "magnitude_units": null,
        "source": "ASOS",
        "event_narrative": "ASOS station KZZV Zanesville Airport."
      },
      "geometry": {
        "type": "Point",
        "coordinates": [
          -81.9,
          39.95
        ]
      }
    },
    {
      "type": "Feature",
      "id": "iem-lsr-PBZ-28",
      "properties": {
        "report_id": "iem-lsr-PBZ-28",
        "report_type": "FLASH FLOOD",
        "event_category": "flooding",
        "valid_utc": "202605242130",
        "standard_time_display": "2026-05-24 16:30 EST",
        "wfo": "PBZ",
        "county_or_zone": "Muskingum",
        "city": "1 SW Philo",
        "state": "OH",
        "magnitude": null,
        "magnitude_units": null,
        "source": "Public",
        "event_narrative": "Irish Ridge Rd closed due to flooding."
      },
      "geometry": {
        "type": "Point",
        "coordinates": [
          -81.92,
          39.85
        ]
      }
    },
    {
      "type": "Feature",
      "id": "iem-lsr-PBZ-29",
      "properties": {
        "report_id": "iem-lsr-PBZ-29",
        "report_type": "FLASH FLOOD",
        "event_category": "flooding",
        "valid_utc": "202605242130",
        "standard_time_display": "2026-05-24 16:30 EST",
        "wfo": "PBZ",
        "county_or_zone": "Muskingum",
        "city": "4 S Philo",
        "state": "OH",
        "magnitude": null,
        "magnitude_units": null,
        "source": "Public",
        "event_narrative": "Old River Rd closed due to flooding."
      },
      "geometry": {
        "type": "Point",
        "coordinates": [
          -81.9,
          39.8
        ]
      }
    },
    {
      "type": "Feature",
      "id": "iem-lsr-PBZ-30",
      "properties": {
        "report_id": "iem-lsr-PBZ-30",
        "report_type": "FLASH FLOOD",
        "event_category": "flooding",
        "valid_utc": "202605242130",
        "standard_time_display": "2026-05-24 16:30 EST",
        "wfo": "PBZ",
        "county_or_zone": "Muskingum",
        "city": "5 SSE Philo",
        "state": "OH",
        "magnitude": null,
        "magnitude_units": null,
        "source": "Law Enforcement",
        "event_narrative": "Rockville Road flooded outside of Blue Rock."
      },
      "geometry": {
        "type": "Point",
        "coordinates": [
          -81.88,
          39.79
        ]
      }
    },
    {
      "type": "Feature",
      "id": "iem-lsr-PBZ-31",
      "properties": {
        "report_id": "iem-lsr-PBZ-31",
        "report_type": "FLASH FLOOD",
        "event_category": "flooding",
        "valid_utc": "202605242300",
        "standard_time_display": "2026-05-24 18:00 EST",
        "wfo": "PBZ",
        "county_or_zone": "Hancock",
        "city": "1 NW Weirton",
        "state": "WV",
        "magnitude": null,
        "magnitude_units": null,
        "source": "Public",
        "event_narrative": "Report from mPING: Street/road flooding along Weir Ave."
      },
      "geometry": {
        "type": "Point",
        "coordinates": [
          -80.59,
          40.41
        ]
      }
    },
    {
      "type": "Feature",
      "id": "iem-lsr-PBZ-32",
      "properties": {
        "report_id": "iem-lsr-PBZ-32",
        "report_type": "FLASH FLOOD",
        "event_category": "flooding",
        "valid_utc": "202605242300",
        "standard_time_display": "2026-05-24 18:00 EST",
        "wfo": "PBZ",
        "county_or_zone": "Harrison",
        "city": "3 SSW Jewett",
        "state": "OH",
        "magnitude": null,
        "magnitude_units": null,
        "source": "Law Enforcement",
        "event_narrative": "Sheriffs Office reported Cadiz-Jewett Road was closed due to high water."
      },
      "geometry": {
        "type": "Point",
        "coordinates": [
          -81.04,
          40.33
        ]
      }
    },
    {
      "type": "Feature",
      "id": "iem-lsr-PBZ-33",
      "properties": {
        "report_id": "iem-lsr-PBZ-33",
        "report_type": "FLASH FLOOD",
        "event_category": "flooding",
        "valid_utc": "202605242300",
        "standard_time_display": "2026-05-24 18:00 EST",
        "wfo": "PBZ",
        "county_or_zone": "Muskingum",
        "city": "4 ESE Roseville",
        "state": "OH",
        "magnitude": null,
        "magnitude_units": null,
        "source": "Public",
        "event_narrative": "Goose Run/Brush Creek overflowing banks and causing deep water over Goosecreek Rd. Flooding ongoing."
      },
      "geometry": {
        "type": "Point",
        "coordinates": [
          -82.0,
          39.79
        ]
      }
    },
    {
      "type": "Feature",
      "id": "iem-lsr-PBZ-34",
      "properties": {
        "report_id": "iem-lsr-PBZ-34",
        "report_type": "FLASH FLOOD",
        "event_category": "flooding",
        "valid_utc": "202605242318",
        "standard_time_display": "2026-05-24 18:18 EST",
        "wfo": "PBZ",
        "county_or_zone": "Muskingum",
        "city": "4 E Roseville",
        "state": "OH",
        "magnitude": null,
        "magnitude_units": null,
        "source": "Public",
        "event_narrative": "Neighborhood at Columbus St and N Main St underwater from flooding. Photos provided by media."
      },
      "geometry": {
        "type": "Point",
        "coordinates": [
          -82.0,
          39.81
        ]
      }
    },
    {
      "type": "Feature",
      "id": "iem-lsr-PBZ-35",
      "properties": {
        "report_id": "iem-lsr-PBZ-35",
        "report_type": "FLASH FLOOD",
        "event_category": "flooding",
        "valid_utc": "202605242330",
        "standard_time_display": "2026-05-24 18:30 EST",
        "wfo": "PBZ",
        "county_or_zone": "Lawrence",
        "city": "Enon Valley",
        "state": "PA",
        "magnitude": null,
        "magnitude_units": null,
        "source": "Public",
        "event_narrative": "Creek in Enon Valley out of banks and flooding town_ especially around Cass and State Streets. Flooding ongoing. Video provided."
      },
      "geometry": {
        "type": "Point",
        "coordinates": [
          -80.46,
          40.86
        ]
      }
    },
    {
      "type": "Feature",
      "id": "iem-lsr-PBZ-36",
      "properties": {
        "report_id": "iem-lsr-PBZ-36",
        "report_type": "FLOOD",
        "event_category": "flooding",
        "valid_utc": "202605242340",
        "standard_time_display": "2026-05-24 18:40 EST",
        "wfo": "PBZ",
        "county_or_zone": "Beaver",
        "city": "3 NE Middleton",
        "state": "PA",
        "magnitude": null,
        "magnitude_units": null,
        "source": "Public",
        "event_narrative": "Report from mPING: Coalbank Run out of banks and flooding Valley Road."
      },
      "geometry": {
        "type": "Point",
        "coordinates": [
          -80.49,
          40.81
        ]
      }
    },
    {
      "type": "Feature",
      "id": "iem-lsr-PBZ-37",
      "properties": {
        "report_id": "iem-lsr-PBZ-37",
        "report_type": "FLASH FLOOD",
        "event_category": "flooding",
        "valid_utc": "202605242345",
        "standard_time_display": "2026-05-24 18:45 EST",
        "wfo": "PBZ",
        "county_or_zone": "Lawrence",
        "city": "Enon Valley",
        "state": "PA",
        "magnitude": null,
        "magnitude_units": null,
        "source": "911 Call Center",
        "event_narrative": "Reported flooding in Enon Valley ongoing as of time of report."
      },
      "geometry": {
        "type": "Point",
        "coordinates": [
          -80.46,
          40.85
        ]
      }
    },
    {
      "type": "Feature",
      "id": "iem-lsr-PBZ-38",
      "properties": {
        "report_id": "iem-lsr-PBZ-38",
        "report_type": "FLASH FLOOD",
        "event_category": "flooding",
        "valid_utc": "202605250130",
        "standard_time_display": "2026-05-24 20:30 EST",
        "wfo": "PBZ",
        "county_or_zone": "Allegheny",
        "city": "2 SSE Franklin Park",
        "state": "PA",
        "magnitude": null,
        "magnitude_units": null,
        "source": "911 Call Center",
        "event_narrative": "Flooded home along Aurora Drive. Nearby rain gauge measurement of 1.85 inches falling in less than three hours."
      },
      "geometry": {
        "type": "Point",
        "coordinates": [
          -80.08,
          40.57
        ]
      }
    },
    {
      "type": "Feature",
      "id": "iem-lsr-PBZ-39",
      "properties": {
        "report_id": "iem-lsr-PBZ-39",
        "report_type": "FLASH FLOOD",
        "event_category": "flooding",
        "valid_utc": "202605270949",
        "standard_time_display": "2026-05-27 04:49 EST",
        "wfo": "PBZ",
        "county_or_zone": "Marion",
        "city": "3 ESE Monongah",
        "state": "WV",
        "magnitude": null,
        "magnitude_units": null,
        "source": "911 Call Center",
        "event_narrative": "Roadway flooding along Pleasant Valley Rd. Street is being marked off and closed."
      },
      "geometry": {
        "type": "Point",
        "coordinates": [
          -80.17,
          39.44
        ]
      }
    },
    {
      "type": "Feature",
      "id": "iem-lsr-PBZ-40",
      "properties": {
        "report_id": "iem-lsr-PBZ-40",
        "report_type": "FLOOD",
        "event_category": "flooding",
        "valid_utc": "202605271012",
        "standard_time_display": "2026-05-27 05:12 EST",
        "wfo": "PBZ",
        "county_or_zone": "Marion",
        "city": "3 ESE Fairmont",
        "state": "WV",
        "magnitude": null,
        "magnitude_units": null,
        "source": "911 Call Center",
        "event_narrative": "Intersection of Hopewell and Ranch roads closed due to flooding."
      },
      "geometry": {
        "type": "Point",
        "coordinates": [
          -80.09,
          39.47
        ]
      }
    },
    {
      "type": "Feature",
      "id": "iem-lsr-PBZ-41",
      "properties": {
        "report_id": "iem-lsr-PBZ-41",
        "report_type": "FLASH FLOOD",
        "event_category": "flooding",
        "valid_utc": "202605271012",
        "standard_time_display": "2026-05-27 05:12 EST",
        "wfo": "PBZ",
        "county_or_zone": "Marion",
        "city": "3 ESE Fairmont",
        "state": "WV",
        "magnitude": null,
        "magnitude_units": null,
        "source": "911 Call Center",
        "event_narrative": "Corrects previous flood report from 3 ESE Fairmont. Intersection of Hopewell and Ranch roads closed due to flooding."
      },
      "geometry": {
        "type": "Point",
        "coordinates": [
          -80.09,
          39.47
        ]
      }
    },
    {
      "type": "Feature",
      "id": "iem-lsr-PBZ-42",
      "properties": {
        "report_id": "iem-lsr-PBZ-42",
        "report_type": "FLASH FLOOD",
        "event_category": "flooding",
        "valid_utc": "202605271019",
        "standard_time_display": "2026-05-27 05:19 EST",
        "wfo": "PBZ",
        "county_or_zone": "Marion",
        "city": "1 ESE Fairmont",
        "state": "WV",
        "magnitude": null,
        "magnitude_units": null,
        "source": "911 Call Center",
        "event_narrative": "Roadway flooding along East Grafton Pike_ roadway to be blocked and closed."
      },
      "geometry": {
        "type": "Point",
        "coordinates": [
          -80.12,
          39.48
        ]
      }
    },
    {
      "type": "Feature",
      "id": "iem-lsr-PBZ-43",
      "properties": {
        "report_id": "iem-lsr-PBZ-43",
        "report_type": "LANDSLIDE",
        "event_category": "other",
        "valid_utc": "202605271035",
        "standard_time_display": "2026-05-27 05:35 EST",
        "wfo": "PBZ",
        "county_or_zone": "Marion",
        "city": "4 S Fairmont",
        "state": "WV",
        "magnitude": null,
        "magnitude_units": null,
        "source": "911 Call Center",
        "event_narrative": "Rock slide on Colfax Road near Tiger Trail."
      },
      "geometry": {
        "type": "Point",
        "coordinates": [
          -80.15,
          39.43
        ]
      }
    },
    {
      "type": "Feature",
      "id": "iem-lsr-PBZ-44",
      "properties": {
        "report_id": "iem-lsr-PBZ-44",
        "report_type": "FLASH FLOOD",
        "event_category": "flooding",
        "valid_utc": "202605271036",
        "standard_time_display": "2026-05-27 05:36 EST",
        "wfo": "PBZ",
        "county_or_zone": "Marion",
        "city": "2 SSE Fairmont",
        "state": "WV",
        "magnitude": null,
        "magnitude_units": null,
        "source": "911 Call Center",
        "event_narrative": "Roadway flooding noted along Pinch Gut Hollow Rd. Roadway is completely impassable."
      },
      "geometry": {
        "type": "Point",
        "coordinates": [
          -80.13,
          39.45
        ]
      }
    },
    {
      "type": "Feature",
      "id": "iem-lsr-PBZ-45",
      "properties": {
        "report_id": "iem-lsr-PBZ-45",
        "report_type": "FLASH FLOOD",
        "event_category": "flooding",
        "valid_utc": "202605271421",
        "standard_time_display": "2026-05-27 09:21 EST",
        "wfo": "PBZ",
        "county_or_zone": "Tucker",
        "city": "3 W Parsons",
        "state": "WV",
        "magnitude": null,
        "magnitude_units": null,
        "source": "911 Call Center",
        "event_narrative": "High water along US 219 has closed the roadway in both directions."
      },
      "geometry": {
        "type": "Point",
        "coordinates": [
          -79.73,
          39.09
        ]
      }
    },
    {
      "type": "Feature",
      "id": "iem-lsr-PBZ-46",
      "properties": {
        "report_id": "iem-lsr-PBZ-46",
        "report_type": "FLASH FLOOD",
        "event_category": "flooding",
        "valid_utc": "202605271425",
        "standard_time_display": "2026-05-27 09:25 EST",
        "wfo": "PBZ",
        "county_or_zone": "Tucker",
        "city": "Parsons",
        "state": "WV",
        "magnitude": null,
        "magnitude_units": null,
        "source": "Dept of Highways",
        "event_narrative": "High water reported on Seneca Trail near CR-219/20. NB/SB lanes were closed."
      },
      "geometry": {
        "type": "Point",
        "coordinates": [
          -79.68,
          39.1
        ]
      }
    },
    {
      "type": "Feature",
      "id": "iem-lsr-PBZ-47",
      "properties": {
        "report_id": "iem-lsr-PBZ-47",
        "report_type": "TSTM WND DMG",
        "event_category": "thunderstorm_wind",
        "valid_utc": "202605271918",
        "standard_time_display": "2026-05-27 14:18 EST",
        "wfo": "PBZ",
        "county_or_zone": "Wetzel",
        "city": "1 ESE Jacksonburg",
        "state": "WV",
        "magnitude": null,
        "magnitude_units": null,
        "source": "Emergency Mngr",
        "event_narrative": "Tree down on lines near Richwood Run Rd. Timing based on radar."
      },
      "geometry": {
        "type": "Point",
        "coordinates": [
          -80.64,
          39.53
        ]
      }
    },
    {
      "type": "Feature",
      "id": "iem-lsr-PBZ-48",
      "properties": {
        "report_id": "iem-lsr-PBZ-48",
        "report_type": "TSTM WND DMG",
        "event_category": "thunderstorm_wind",
        "valid_utc": "202605271927",
        "standard_time_display": "2026-05-27 14:27 EST",
        "wfo": "PBZ",
        "county_or_zone": "Wetzel",
        "city": "2 ESE Jacksonburg",
        "state": "WV",
        "magnitude": null,
        "magnitude_units": null,
        "source": "911 Call Center",
        "event_narrative": "Power line down on Shortline Hwy."
      },
      "geometry": {
        "type": "Point",
        "coordinates": [
          -80.61,
          39.52
        ]
      }
    },
    {
      "type": "Feature",
      "id": "iem-lsr-PBZ-49",
      "properties": {
        "report_id": "iem-lsr-PBZ-49",
        "report_type": "TSTM WND DMG",
        "event_category": "thunderstorm_wind",
        "valid_utc": "202605271927",
        "standard_time_display": "2026-05-27 14:27 EST",
        "wfo": "PBZ",
        "county_or_zone": "Wetzel",
        "city": "Smithfield",
        "state": "WV",
        "magnitude": null,
        "magnitude_units": null,
        "source": "911 Call Center",
        "event_narrative": "Tree blocking Mannington Road."
      },
      "geometry": {
        "type": "Point",
        "coordinates": [
          -80.56,
          39.5
        ]
      }
    },
    {
      "type": "Feature",
      "id": "iem-lsr-PBZ-50",
      "properties": {
        "report_id": "iem-lsr-PBZ-50",
        "report_type": "TSTM WND DMG",
        "event_category": "thunderstorm_wind",
        "valid_utc": "202605271929",
        "standard_time_display": "2026-05-27 14:29 EST",
        "wfo": "PBZ",
        "county_or_zone": "Wetzel",
        "city": "1 ESE Jacksonburg",
        "state": "WV",
        "magnitude": null,
        "magnitude_units": null,
        "source": "911 Call Center",
        "event_narrative": "TREE DOWN NEAR BATES RUN RD_ BLOCKING BOTH LANES OF TRAFFIC_ VERY HARD TO SEE DUE TO WEATHER CONDITIONS_ THERE ARE BUSSES BEING BLOCKED BY THE TREE AS WELL (lat:39.526712_lon:-80.630586)."
      },
      "geometry": {
        "type": "Point",
        "coordinates": [
          -80.63,
          39.53
        ]
      }
    },
    {
      "type": "Feature",
      "id": "iem-lsr-PBZ-51",
      "properties": {
        "report_id": "iem-lsr-PBZ-51",
        "report_type": "TSTM WND DMG",
        "event_category": "thunderstorm_wind",
        "valid_utc": "202605272115",
        "standard_time_display": "2026-05-27 16:15 EST",
        "wfo": "PBZ",
        "county_or_zone": "Tucker",
        "city": "Thomas",
        "state": "WV",
        "magnitude": null,
        "magnitude_units": null,
        "source": "Emergency Mngr",
        "event_narrative": "Trees down along Route 219."
      },
      "geometry": {
        "type": "Point",
        "coordinates": [
          -79.5,
          39.15
        ]
      }
    },
    {
      "type": "Feature",
      "id": "iem-lsr-PBZ-52",
      "properties": {
        "report_id": "iem-lsr-PBZ-52",
        "report_type": "FLASH FLOOD",
        "event_category": "flooding",
        "valid_utc": "202605272145",
        "standard_time_display": "2026-05-27 16:45 EST",
        "wfo": "PBZ",
        "county_or_zone": "Tucker",
        "city": "2 E Hendricks",
        "state": "WV",
        "magnitude": null,
        "magnitude_units": null,
        "source": "Emergency Mngr",
        "event_narrative": "A number of roads in the county flooded."
      },
      "geometry": {
        "type": "Point",
        "coordinates": [
          -79.59,
          39.08
        ]
      }
    },
    {
      "type": "Feature",
      "id": "iem-lsr-PBZ-53",
      "properties": {
        "report_id": "iem-lsr-PBZ-53",
        "report_type": "FLASH FLOOD",
        "event_category": "flooding",
        "valid_utc": "202605272230",
        "standard_time_display": "2026-05-27 17:30 EST",
        "wfo": "PBZ",
        "county_or_zone": "Tucker",
        "city": "1 E Parsons",
        "state": "WV",
        "magnitude": null,
        "magnitude_units": null,
        "source": "Emergency Mngr",
        "event_narrative": "U.S. 219 closed due to flooding."
      },
      "geometry": {
        "type": "Point",
        "coordinates": [
          -79.66,
          39.09
        ]
      }
    },
    {
      "type": "Feature",
      "id": "iem-lsr-PBZ-54",
      "properties": {
        "report_id": "iem-lsr-PBZ-54",
        "report_type": "FLASH FLOOD",
        "event_category": "flooding",
        "valid_utc": "202605272230",
        "standard_time_display": "2026-05-27 17:30 EST",
        "wfo": "PBZ",
        "county_or_zone": "Tucker",
        "city": "Hendricks",
        "state": "WV",
        "magnitude": null,
        "magnitude_units": null,
        "source": "Emergency Mngr",
        "event_narrative": "Water getting into the basements of some buildings."
      },
      "geometry": {
        "type": "Point",
        "coordinates": [
          -79.63,
          39.07
        ]
      }
    },
    {
      "type": "Feature",
      "id": "iem-lsr-PBZ-55",
      "properties": {
        "report_id": "iem-lsr-PBZ-55",
        "report_type": "FLASH FLOOD",
        "event_category": "flooding",
        "valid_utc": "202605272230",
        "standard_time_display": "2026-05-27 17:30 EST",
        "wfo": "PBZ",
        "county_or_zone": "Tucker",
        "city": "Parsons",
        "state": "WV",
        "magnitude": null,
        "magnitude_units": null,
        "source": "Emergency Mngr",
        "event_narrative": "Water getting into basements of some buildings."
      },
      "geometry": {
        "type": "Point",
        "coordinates": [
          -79.68,
          39.1
        ]
      }
    },
    {
      "type": "Feature",
      "id": "iem-lsr-PBZ-56",
      "properties": {
        "report_id": "iem-lsr-PBZ-56",
        "report_type": "FLOOD",
        "event_category": "flooding",
        "valid_utc": "202605280105",
        "standard_time_display": "2026-05-27 20:05 EST",
        "wfo": "PBZ",
        "county_or_zone": "Tucker",
        "city": "3 W Parsons",
        "state": "WV",
        "magnitude": null,
        "magnitude_units": null,
        "source": "Emergency Mngr",
        "event_narrative": "Rte 219 remains closed due to flooding."
      },
      "geometry": {
        "type": "Point",
        "coordinates": [
          -79.73,
          39.09
        ]
      }
    }
  ]
}