{
  "type": "FeatureCollection",
  "metadata": {
    "schema_version": "0.2.4",
    "year": 2026,
    "month": 9,
    "wfo": "PIH",
    "start_utc": "2026-09-01T00:00:00Z",
    "end_utc": "2026-10-01T00:00:00Z",
    "generated_utc": "2026-09-09T13:42:33Z",
    "mode": "storm_data_prep",
    "public_release_status": "public-source-derived",
    "time_note": "Storm Data entry times should be reviewed in local Standard Time (ST), not daylight time. Candidate reports include standard_time_display.",
    "tornado_track_policy": "Tornado tracks must come from DAT. NCEI begin/end coordinates are not used as a tornado track substitute.",
    "source": "https://mesonet.agron.iastate.edu/cgi-bin/request/gis/lsr.py?wfo=PIH&sts=2026-09-01T00%3A00%3A00Z&ets=2026-10-01T00%3A00%3A00Z&fmt=csv"
  },
  "features": [
    {
      "type": "Feature",
      "id": "iem-lsr-PIH-1",
      "properties": {
        "report_id": "iem-lsr-PIH-1",
        "report_type": "TSTM WND GST",
        "event_category": "thunderstorm_wind",
        "valid_utc": "202609012320",
        "standard_time_display": "2026-09-01 15:20 PST",
        "wfo": "PIH",
        "county_or_zone": "Lincoln",
        "city": "1 ENE Richfield",
        "state": "ID",
        "magnitude": 47.0,
        "magnitude_units": null,
        "source": "Mesonet",
        "event_narrative": "Mesonet station SORIC Richfield."
      },
      "geometry": {
        "type": "Point",
        "coordinates": [
          -114.13,
          43.06
        ]
      }
    },
    {
      "type": "Feature",
      "id": "iem-lsr-PIH-2",
      "properties": {
        "report_id": "iem-lsr-PIH-2",
        "report_type": "TSTM WND GST",
        "event_category": "thunderstorm_wind",
        "valid_utc": "202609020044",
        "standard_time_display": "2026-09-01 16:44 PST",
        "wfo": "PIH",
        "county_or_zone": "Lincoln",
        "city": "5 N Owinza",
        "state": "ID",
        "magnitude": 52.0,
        "magnitude_units": null,
        "source": "Mesonet",
        "event_narrative": "Mesonet station ROCI1 5 N Owinza."
      },
      "geometry": {
        "type": "Point",
        "coordinates": [
          -114.06,
          42.97
        ]
      }
    },
    {
      "type": "Feature",
      "id": "iem-lsr-PIH-3",
      "properties": {
        "report_id": "iem-lsr-PIH-3",
        "report_type": "TSTM WND GST",
        "event_category": "thunderstorm_wind",
        "valid_utc": "202609020044",
        "standard_time_display": "2026-09-01 16:44 PST",
        "wfo": "PIH",
        "county_or_zone": "Blaine",
        "city": "6 S Sun Valley",
        "state": "ID",
        "magnitude": 52.0,
        "magnitude_units": null,
        "source": "Mesonet",
        "event_narrative": "Mesonet station OHOI1 Ohio Gulch."
      },
      "geometry": {
        "type": "Point",
        "coordinates": [
          -114.32,
          43.6
        ]
      }
    },
    {
      "type": "Feature",
      "id": "iem-lsr-PIH-4",
      "properties": {
        "report_id": "iem-lsr-PIH-4",
        "report_type": "TSTM WND GST",
        "event_category": "thunderstorm_wind",
        "valid_utc": "202609020045",
        "standard_time_display": "2026-09-01 17:45 MST",
        "wfo": "PIH",
        "county_or_zone": "Butte",
        "city": "5 WSW Craters of Moon",
        "state": "ID",
        "magnitude": 55.0,
        "magnitude_units": null,
        "source": "Mesonet",
        "event_narrative": "Mesonet station 3021 D6 Tom Cat Summit US-20."
      },
      "geometry": {
        "type": "Point",
        "coordinates": [
          -113.63,
          43.41
        ]
      }
    },
    {
      "type": "Feature",
      "id": "iem-lsr-PIH-5",
      "properties": {
        "report_id": "iem-lsr-PIH-5",
        "report_type": "TSTM WND GST",
        "event_category": "thunderstorm_wind",
        "valid_utc": "202609020105",
        "standard_time_display": "2026-09-01 18:05 MST",
        "wfo": "PIH",
        "county_or_zone": "Butte",
        "city": "1 NNW Craters of Moon",
        "state": "ID",
        "magnitude": 65.0,
        "magnitude_units": null,
        "source": "Mesonet",
        "event_narrative": "Mesonet station SOCRA Craters Of The Moon."
      },
      "geometry": {
        "type": "Point",
        "coordinates": [
          -113.54,
          43.43
        ]
      }
    },
    {
      "type": "Feature",
      "id": "iem-lsr-PIH-6",
      "properties": {
        "report_id": "iem-lsr-PIH-6",
        "report_type": "TSTM WND GST",
        "event_category": "thunderstorm_wind",
        "valid_utc": "202609020125",
        "standard_time_display": "2026-09-01 18:25 MST",
        "wfo": "PIH",
        "county_or_zone": "Bonneville",
        "city": "11 W Osgood",
        "state": "ID",
        "magnitude": 49.0,
        "magnitude_units": null,
        "source": "Mesonet",
        "event_narrative": "Mesonet station SOKET Kettle Butte."
      },
      "geometry": {
        "type": "Point",
        "coordinates": [
          -112.33,
          43.55
        ]
      }
    },
    {
      "type": "Feature",
      "id": "iem-lsr-PIH-7",
      "properties": {
        "report_id": "iem-lsr-PIH-7",
        "report_type": "TSTM WND GST",
        "event_category": "thunderstorm_wind",
        "valid_utc": "202609020140",
        "standard_time_display": "2026-09-01 18:40 MST",
        "wfo": "PIH",
        "county_or_zone": "Butte",
        "city": "1 SSE Arco",
        "state": "ID",
        "magnitude": 51.0,
        "magnitude_units": null,
        "source": "Mesonet",
        "event_narrative": "Mesonet station ARCSO Arco."
      },
      "geometry": {
        "type": "Point",
        "coordinates": [
          -113.3,
          43.62
        ]
      }
    },
    {
      "type": "Feature",
      "id": "iem-lsr-PIH-8",
      "properties": {
        "report_id": "iem-lsr-PIH-8",
        "report_type": "TSTM WND GST",
        "event_category": "thunderstorm_wind",
        "valid_utc": "202609020145",
        "standard_time_display": "2026-09-01 18:45 MST",
        "wfo": "PIH",
        "county_or_zone": "Custer",
        "city": "8 NNW Dickey",
        "state": "ID",
        "magnitude": 48.0,
        "magnitude_units": null,
        "source": "Mesonet",
        "event_narrative": "Mesonet station 3025 D6 Willow Creek Summit US-93."
      },
      "geometry": {
        "type": "Point",
        "coordinates": [
          -113.98,
          44.23
        ]
      }
    },
    {
      "type": "Feature",
      "id": "iem-lsr-PIH-9",
      "properties": {
        "report_id": "iem-lsr-PIH-9",
        "report_type": "TSTM WND GST",
        "event_category": "thunderstorm_wind",
        "valid_utc": "202609020147",
        "standard_time_display": "2026-09-01 18:47 MST",
        "wfo": "PIH",
        "county_or_zone": "Butte",
        "city": "5 W Arco",
        "state": "ID",
        "magnitude": 47.0,
        "magnitude_units": null,
        "source": "Mesonet",
        "event_narrative": "Mesonet station ACRI1 5 W Arco."
      },
      "geometry": {
        "type": "Point",
        "coordinates": [
          -113.39,
          43.62
        ]
      }
    },
    {
      "type": "Feature",
      "id": "iem-lsr-PIH-10",
      "properties": {
        "report_id": "iem-lsr-PIH-10",
        "report_type": "TSTM WND GST",
        "event_category": "thunderstorm_wind",
        "valid_utc": "202609070130",
        "standard_time_display": "2026-09-06 18:30 MST",
        "wfo": "PIH",
        "county_or_zone": "Cassia",
        "city": "9 SSE Sublett",
        "state": "ID",
        "magnitude": 47.0,
        "magnitude_units": null,
        "source": "Mesonet",
        "event_narrative": "Mesonet station 3255 D4 Sweetzer Summit I-84."
      },
      "geometry": {
        "type": "Point",
        "coordinates": [
          -113.05,
          42.21
        ]
      }
    },
    {
      "type": "Feature",
      "id": "iem-lsr-PIH-11",
      "properties": {
        "report_id": "iem-lsr-PIH-11",
        "report_type": "TSTM WND GST",
        "event_category": "thunderstorm_wind",
        "valid_utc": "202609070200",
        "standard_time_display": "2026-09-06 19:00 MST",
        "wfo": "PIH",
        "county_or_zone": "Bannock",
        "city": "4 W Lava Hot Springs",
        "state": "ID",
        "magnitude": 46.0,
        "magnitude_units": null,
        "source": "Mesonet",
        "event_narrative": "Mesonet station 8434 D5 Topaz US-30."
      },
      "geometry": {
        "type": "Point",
        "coordinates": [
          -112.09,
          42.62
        ]
      }
    },
    {
      "type": "Feature",
      "id": "iem-lsr-PIH-12",
      "properties": {
        "report_id": "iem-lsr-PIH-12",
        "report_type": "TSTM WND GST",
        "event_category": "thunderstorm_wind",
        "valid_utc": "202609070200",
        "standard_time_display": "2026-09-06 19:00 MST",
        "wfo": "PIH",
        "county_or_zone": "Bannock",
        "city": "2 NNW Arimo",
        "state": "ID",
        "magnitude": 52.0,
        "magnitude_units": null,
        "source": "Mesonet",
        "event_narrative": "Mesonet station ITDC6 D5 Marsh Valley I-15."
      },
      "geometry": {
        "type": "Point",
        "coordinates": [
          -112.19,
          42.58
        ]
      }
    },
    {
      "type": "Feature",
      "id": "iem-lsr-PIH-13",
      "properties": {
        "report_id": "iem-lsr-PIH-13",
        "report_type": "TSTM WND GST",
        "event_category": "thunderstorm_wind",
        "valid_utc": "202609070215",
        "standard_time_display": "2026-09-06 19:15 MST",
        "wfo": "PIH",
        "county_or_zone": "Caribou",
        "city": "5 SSW Henry",
        "state": "ID",
        "magnitude": 45.0,
        "magnitude_units": null,
        "source": "Mesonet",
        "event_narrative": "Mesonet station ITDE1 D5 Blackfoot River Bridge ID-34."
      },
      "geometry": {
        "type": "Point",
        "coordinates": [
          -111.55,
          42.83
        ]
      }
    },
    {
      "type": "Feature",
      "id": "iem-lsr-PIH-14",
      "properties": {
        "report_id": "iem-lsr-PIH-14",
        "report_type": "TSTM WND GST",
        "event_category": "thunderstorm_wind",
        "valid_utc": "202609070215",
        "standard_time_display": "2026-09-06 19:15 MST",
        "wfo": "PIH",
        "county_or_zone": "Bannock",
        "city": "1 NW Mccammon",
        "state": "ID",
        "magnitude": 51.0,
        "magnitude_units": null,
        "source": "Mesonet",
        "event_narrative": "Mesonet station 5647 D5 McCammon Interchange I-15."
      },
      "geometry": {
        "type": "Point",
        "coordinates": [
          -112.21,
          42.66
        ]
      }
    },
    {
      "type": "Feature",
      "id": "iem-lsr-PIH-15",
      "properties": {
        "report_id": "iem-lsr-PIH-15",
        "report_type": "TSTM WND GST",
        "event_category": "thunderstorm_wind",
        "valid_utc": "202609070220",
        "standard_time_display": "2026-09-06 19:20 MST",
        "wfo": "PIH",
        "county_or_zone": "Caribou",
        "city": "3 WNW Chesterfield",
        "state": "ID",
        "magnitude": 45.0,
        "magnitude_units": null,
        "source": "Mesonet",
        "event_narrative": "Mesonet station PC364 Chesterfield Reservoir."
      },
      "geometry": {
        "type": "Point",
        "coordinates": [
          -111.93,
          42.88
        ]
      }
    },
    {
      "type": "Feature",
      "id": "iem-lsr-PIH-16",
      "properties": {
        "report_id": "iem-lsr-PIH-16",
        "report_type": "TSTM WND GST",
        "event_category": "thunderstorm_wind",
        "valid_utc": "202609070220",
        "standard_time_display": "2026-09-06 19:20 MST",
        "wfo": "PIH",
        "county_or_zone": "Bear Lake",
        "city": "3 WSW Lindsayville",
        "state": "ID",
        "magnitude": 45.0,
        "magnitude_units": null,
        "source": "Mesonet",
        "event_narrative": "Mesonet station PC215 Bartlett Lake."
      },
      "geometry": {
        "type": "Point",
        "coordinates": [
          -111.48,
          42.4
        ]
      }
    },
    {
      "type": "Feature",
      "id": "iem-lsr-PIH-17",
      "properties": {
        "report_id": "iem-lsr-PIH-17",
        "report_type": "TSTM WND GST",
        "event_category": "thunderstorm_wind",
        "valid_utc": "202609070220",
        "standard_time_display": "2026-09-06 19:20 MST",
        "wfo": "PIH",
        "county_or_zone": "Bannock",
        "city": "3 E Mccammon",
        "state": "ID",
        "magnitude": 54.0,
        "magnitude_units": null,
        "source": "Mesonet",
        "event_narrative": "Mesonet station PC548 Mccammon East."
      },
      "geometry": {
        "type": "Point",
        "coordinates": [
          -112.14,
          42.64
        ]
      }
    },
    {
      "type": "Feature",
      "id": "iem-lsr-PIH-18",
      "properties": {
        "report_id": "iem-lsr-PIH-18",
        "report_type": "TSTM WND GST",
        "event_category": "thunderstorm_wind",
        "valid_utc": "202609070230",
        "standard_time_display": "2026-09-06 19:30 MST",
        "wfo": "PIH",
        "county_or_zone": "Bear Lake",
        "city": "1 SSE Bloomington",
        "state": "ID",
        "magnitude": 49.0,
        "magnitude_units": null,
        "source": "Mesonet",
        "event_narrative": "Mesonet station ITDD6 D5 Bloomington US-89."
      },
      "geometry": {
        "type": "Point",
        "coordinates": [
          -111.4,
          42.18
        ]
      }
    },
    {
      "type": "Feature",
      "id": "iem-lsr-PIH-19",
      "properties": {
        "report_id": "iem-lsr-PIH-19",
        "report_type": "TSTM WND GST",
        "event_category": "thunderstorm_wind",
        "valid_utc": "202609070235",
        "standard_time_display": "2026-09-06 19:35 MST",
        "wfo": "PIH",
        "county_or_zone": "Bear Lake",
        "city": "3 SE Ovid",
        "state": "ID",
        "magnitude": 53.0,
        "magnitude_units": null,
        "source": "AWOS",
        "event_narrative": "AWOS station K1U7 Bear Lake County Airport."
      },
      "geometry": {
        "type": "Point",
        "coordinates": [
          -111.34,
          42.25
        ]
      }
    },
    {
      "type": "Feature",
      "id": "iem-lsr-PIH-20",
      "properties": {
        "report_id": "iem-lsr-PIH-20",
        "report_type": "TSTM WND GST",
        "event_category": "thunderstorm_wind",
        "valid_utc": "202609070239",
        "standard_time_display": "2026-09-06 19:39 MST",
        "wfo": "PIH",
        "county_or_zone": "Bannock",
        "city": "5 SSE Inkom",
        "state": "ID",
        "magnitude": 45.0,
        "magnitude_units": null,
        "source": "Mesonet",
        "event_narrative": "Mesonet station UR459 Inkom2."
      },
      "geometry": {
        "type": "Point",
        "coordinates": [
          -112.21,
          42.74
        ]
      }
    },
    {
      "type": "Feature",
      "id": "iem-lsr-PIH-21",
      "properties": {
        "report_id": "iem-lsr-PIH-21",
        "report_type": "TSTM WND GST",
        "event_category": "thunderstorm_wind",
        "valid_utc": "202609070245",
        "standard_time_display": "2026-09-06 19:45 MST",
        "wfo": "PIH",
        "county_or_zone": "Bannock",
        "city": "2 E Fort Hall",
        "state": "ID",
        "magnitude": 47.0,
        "magnitude_units": null,
        "source": "Mesonet",
        "event_narrative": "Mesonet station SOFOR Fort Hall."
      },
      "geometry": {
        "type": "Point",
        "coordinates": [
          -112.41,
          43.02
        ]
      }
    },
    {
      "type": "Feature",
      "id": "iem-lsr-PIH-22",
      "properties": {
        "report_id": "iem-lsr-PIH-22",
        "report_type": "TSTM WND GST",
        "event_category": "thunderstorm_wind",
        "valid_utc": "202609070245",
        "standard_time_display": "2026-09-06 19:45 MST",
        "wfo": "PIH",
        "county_or_zone": "Bingham",
        "city": "2 ENE Fort Hall",
        "state": "ID",
        "magnitude": 50.0,
        "magnitude_units": null,
        "source": "Mesonet",
        "event_narrative": "Mesonet station 8436 D5 Fort Hall I-15."
      },
      "geometry": {
        "type": "Point",
        "coordinates": [
          -112.41,
          43.03
        ]
      }
    },
    {
      "type": "Feature",
      "id": "iem-lsr-PIH-23",
      "properties": {
        "report_id": "iem-lsr-PIH-23",
        "report_type": "TSTM WND GST",
        "event_category": "thunderstorm_wind",
        "valid_utc": "202609070250",
        "standard_time_display": "2026-09-06 19:50 MST",
        "wfo": "PIH",
        "county_or_zone": "Bear Lake",
        "city": "4 E Montpelier",
        "state": "ID",
        "magnitude": 45.0,
        "magnitude_units": null,
        "source": "Mesonet",
        "event_narrative": "Mesonet station PC506 Sheep Creek Hills."
      },
      "geometry": {
        "type": "Point",
        "coordinates": [
          -111.22,
          42.32
        ]
      }
    },
    {
      "type": "Feature",
      "id": "iem-lsr-PIH-24",
      "properties": {
        "report_id": "iem-lsr-PIH-24",
        "report_type": "TSTM WND GST",
        "event_category": "thunderstorm_wind",
        "valid_utc": "202609070300",
        "standard_time_display": "2026-09-06 20:00 MST",
        "wfo": "PIH",
        "county_or_zone": "Bear Lake",
        "city": "4 WSW Geneva",
        "state": "ID",
        "magnitude": 45.0,
        "magnitude_units": null,
        "source": "Mesonet",
        "event_narrative": "Mesonet station ITDE2 D5 Geneva Summit US-89."
      },
      "geometry": {
        "type": "Point",
        "coordinates": [
          -111.14,
          42.33
        ]
      }
    },
    {
      "type": "Feature",
      "id": "iem-lsr-PIH-25",
      "properties": {
        "report_id": "iem-lsr-PIH-25",
        "report_type": "TSTM WND GST",
        "event_category": "thunderstorm_wind",
        "valid_utc": "202609070330",
        "standard_time_display": "2026-09-06 20:30 MST",
        "wfo": "PIH",
        "county_or_zone": "Bingham",
        "city": "4 SSE Bone",
        "state": "ID",
        "magnitude": 49.0,
        "magnitude_units": null,
        "source": "Mesonet",
        "event_narrative": "Mesonet station PC622 Long Valley Rd."
      },
      "geometry": {
        "type": "Point",
        "coordinates": [
          -111.78,
          43.27
        ]
      }
    }
  ]
}