{
  "type": "FeatureCollection",
  "metadata": {
    "schema_version": "0.2.4",
    "year": 2026,
    "month": 6,
    "wfo": "FFC",
    "start_utc": "2026-06-01T00:00:00Z",
    "end_utc": "2026-07-01T00:00:00Z",
    "generated_utc": "2026-06-16T14:26:37Z",
    "mode": "storm_data_prep",
    "public_release_status": "public-source-derived",
    "time_note": "Storm Data entry times should be reviewed in local Standard Time (ST), not daylight time. Candidate reports include standard_time_display.",
    "tornado_track_policy": "Tornado tracks must come from DAT. NCEI begin/end coordinates are not used as a tornado track substitute.",
    "source": "https://mesonet.agron.iastate.edu/cgi-bin/request/gis/lsr.py?wfo=FFC&sts=2026-06-01T00%3A00%3A00Z&ets=2026-07-01T00%3A00%3A00Z&fmt=csv"
  },
  "features": [
    {
      "type": "Feature",
      "id": "iem-lsr-FFC-1",
      "properties": {
        "report_id": "iem-lsr-FFC-1",
        "report_type": "TSTM WND DMG",
        "event_category": "thunderstorm_wind",
        "valid_utc": "202606012140",
        "standard_time_display": "2026-06-01 15:40 CST",
        "wfo": "FFC",
        "county_or_zone": "Troup",
        "city": "3 E Abbottsford",
        "state": "GA",
        "magnitude": null,
        "magnitude_units": null,
        "source": "Emergency Mngr",
        "event_narrative": "Corrects previous tstm wnd dmg report from 3 E Abbottsford. Emergency manager reports tree down on a vehicle and a home along North Lake Drive. No injuries reported."
      },
      "geometry": {
        "type": "Point",
        "coordinates": [
          -85.13,
          33.05
        ]
      }
    },
    {
      "type": "Feature",
      "id": "iem-lsr-FFC-2",
      "properties": {
        "report_id": "iem-lsr-FFC-2",
        "report_type": "TSTM WND DMG",
        "event_category": "thunderstorm_wind",
        "valid_utc": "202606012140",
        "standard_time_display": "2026-06-01 15:40 CST",
        "wfo": "FFC",
        "county_or_zone": "Troup",
        "city": "3 E Abbottsford",
        "state": "GA",
        "magnitude": null,
        "magnitude_units": null,
        "source": "Emergency Mngr",
        "event_narrative": "Emergency manager reports tree down on a vehicle along North Lake Drive. No injuries reported."
      },
      "geometry": {
        "type": "Point",
        "coordinates": [
          -85.13,
          33.05
        ]
      }
    },
    {
      "type": "Feature",
      "id": "iem-lsr-FFC-3",
      "properties": {
        "report_id": "iem-lsr-FFC-3",
        "report_type": "TSTM WND DMG",
        "event_category": "thunderstorm_wind",
        "valid_utc": "202606012142",
        "standard_time_display": "2026-06-01 15:42 CST",
        "wfo": "FFC",
        "county_or_zone": "Troup",
        "city": "3 W Lagrange",
        "state": "GA",
        "magnitude": null,
        "magnitude_units": null,
        "source": "Emergency Mngr",
        "event_narrative": "Emergency manager reports 40+ trees down across county from West Point Lake to LaGrange and points southward."
      },
      "geometry": {
        "type": "Point",
        "coordinates": [
          -85.08,
          33.03
        ]
      }
    },
    {
      "type": "Feature",
      "id": "iem-lsr-FFC-4",
      "properties": {
        "report_id": "iem-lsr-FFC-4",
        "report_type": "TSTM WND DMG",
        "event_category": "thunderstorm_wind",
        "valid_utc": "202606012142",
        "standard_time_display": "2026-06-01 15:42 CST",
        "wfo": "FFC",
        "county_or_zone": "Troup",
        "city": "4 NNE Cannonville",
        "state": "GA",
        "magnitude": null,
        "magnitude_units": null,
        "source": "Emergency Mngr",
        "event_narrative": "Tree damage near West Point Road and Bradfield Drive with numerous large branches and few a trees down. Power lines were knocked down by falling tree which landed on a vehicle. No injuries were repor"
      },
      "geometry": {
        "type": "Point",
        "coordinates": [
          -85.09,
          33.02
        ]
      }
    },
    {
      "type": "Feature",
      "id": "iem-lsr-FFC-5",
      "properties": {
        "report_id": "iem-lsr-FFC-5",
        "report_type": "TSTM WND DMG",
        "event_category": "thunderstorm_wind",
        "valid_utc": "202606012144",
        "standard_time_display": "2026-06-01 15:44 CST",
        "wfo": "FFC",
        "county_or_zone": "Troup",
        "city": "1 SW Lagrange",
        "state": "GA",
        "magnitude": null,
        "magnitude_units": null,
        "source": "Emergency Mngr",
        "event_narrative": "*** 1 INJ *** Emergency manager reports tree down on a home along First Avenue resulting in significant damage. Minor injuries to one occupant."
      },
      "geometry": {
        "type": "Point",
        "coordinates": [
          -85.05,
          33.02
        ]
      }
    },
    {
      "type": "Feature",
      "id": "iem-lsr-FFC-6",
      "properties": {
        "report_id": "iem-lsr-FFC-6",
        "report_type": "TSTM WND DMG",
        "event_category": "thunderstorm_wind",
        "valid_utc": "202606012145",
        "standard_time_display": "2026-06-01 15:45 CST",
        "wfo": "FFC",
        "county_or_zone": "Troup",
        "city": "4 N Cannonville",
        "state": "GA",
        "magnitude": null,
        "magnitude_units": null,
        "source": "Emergency Mngr",
        "event_narrative": "Emergency manager reports a tree down on a home along Teaver Road. No injuries reported."
      },
      "geometry": {
        "type": "Point",
        "coordinates": [
          -85.1,
          33.02
        ]
      }
    },
    {
      "type": "Feature",
      "id": "iem-lsr-FFC-7",
      "properties": {
        "report_id": "iem-lsr-FFC-7",
        "report_type": "HAIL",
        "event_category": "hail",
        "valid_utc": "202606012148",
        "standard_time_display": "2026-06-01 15:48 CST",
        "wfo": "FFC",
        "county_or_zone": "Troup",
        "city": "Cannonville",
        "state": "GA",
        "magnitude": 0.75,
        "magnitude_units": null,
        "source": "Broadcast Media",
        "event_narrative": "Dime sized hail reported by local media along Robert Taylor Road."
      },
      "geometry": {
        "type": "Point",
        "coordinates": [
          -85.11,
          32.96
        ]
      }
    },
    {
      "type": "Feature",
      "id": "iem-lsr-FFC-8",
      "properties": {
        "report_id": "iem-lsr-FFC-8",
        "report_type": "TSTM WND DMG",
        "event_category": "thunderstorm_wind",
        "valid_utc": "202606012149",
        "standard_time_display": "2026-06-01 15:49 CST",
        "wfo": "FFC",
        "county_or_zone": "Troup",
        "city": "1 SW Lagrange",
        "state": "GA",
        "magnitude": null,
        "magnitude_units": null,
        "source": "Emergency Mngr",
        "event_narrative": "Emergency manager reports tree down on a home along Park Avenue. No injuries reported."
      },
      "geometry": {
        "type": "Point",
        "coordinates": [
          -85.04,
          33.03
        ]
      }
    },
    {
      "type": "Feature",
      "id": "iem-lsr-FFC-9",
      "properties": {
        "report_id": "iem-lsr-FFC-9",
        "report_type": "TSTM WND DMG",
        "event_category": "thunderstorm_wind",
        "valid_utc": "202606012210",
        "standard_time_display": "2026-06-01 17:10 EST",
        "wfo": "FFC",
        "county_or_zone": "Harris",
        "city": "3 ESE Jones Crossroads",
        "state": "GA",
        "magnitude": null,
        "magnitude_units": null,
        "source": "Public",
        "event_narrative": "Public reports tree down along Interstate 185 near mile marker 33."
      },
      "geometry": {
        "type": "Point",
        "coordinates": [
          -84.99,
          32.85
        ]
      }
    },
    {
      "type": "Feature",
      "id": "iem-lsr-FFC-10",
      "properties": {
        "report_id": "iem-lsr-FFC-10",
        "report_type": "TSTM WND DMG",
        "event_category": "thunderstorm_wind",
        "valid_utc": "202606012210",
        "standard_time_display": "2026-06-01 17:10 EST",
        "wfo": "FFC",
        "county_or_zone": "Troup",
        "city": "4 E Baughs Crossroads",
        "state": "GA",
        "magnitude": null,
        "magnitude_units": null,
        "source": "Emergency Mngr",
        "event_narrative": "Emergency manager reports tree down near the intersection of Oak Grove Road and South Thompson Road."
      },
      "geometry": {
        "type": "Point",
        "coordinates": [
          -84.96,
          32.91
        ]
      }
    },
    {
      "type": "Feature",
      "id": "iem-lsr-FFC-11",
      "properties": {
        "report_id": "iem-lsr-FFC-11",
        "report_type": "TSTM WND DMG",
        "event_category": "thunderstorm_wind",
        "valid_utc": "202606012218",
        "standard_time_display": "2026-06-01 17:18 EST",
        "wfo": "FFC",
        "county_or_zone": "Harris",
        "city": "2 WSW Hamilton",
        "state": "GA",
        "magnitude": null,
        "magnitude_units": null,
        "source": "Broadcast Media",
        "event_narrative": "Numerous trees down near GA HWY 116 and Lower Blue Springs Rd. One tree fell into a roof."
      },
      "geometry": {
        "type": "Point",
        "coordinates": [
          -84.9,
          32.75
        ]
      }
    },
    {
      "type": "Feature",
      "id": "iem-lsr-FFC-12",
      "properties": {
        "report_id": "iem-lsr-FFC-12",
        "report_type": "TSTM WND DMG",
        "event_category": "thunderstorm_wind",
        "valid_utc": "202606012218",
        "standard_time_display": "2026-06-01 17:18 EST",
        "wfo": "FFC",
        "county_or_zone": "Harris",
        "city": "Hamilton",
        "state": "GA",
        "magnitude": null,
        "magnitude_units": null,
        "source": "Utility Company",
        "event_narrative": "GA Power shows several thousand customers across the county without power from south of Pine Mountain to Hamilton and surrounding communities."
      },
      "geometry": {
        "type": "Point",
        "coordinates": [
          -84.88,
          32.76
        ]
      }
    },
    {
      "type": "Feature",
      "id": "iem-lsr-FFC-13",
      "properties": {
        "report_id": "iem-lsr-FFC-13",
        "report_type": "TSTM WND DMG",
        "event_category": "thunderstorm_wind",
        "valid_utc": "202606012220",
        "standard_time_display": "2026-06-01 17:20 EST",
        "wfo": "FFC",
        "county_or_zone": "Harris",
        "city": "2 WNW Pine Mountain Val",
        "state": "GA",
        "magnitude": null,
        "magnitude_units": null,
        "source": "Public",
        "event_narrative": "Public reports a large tree down along Highway 27."
      },
      "geometry": {
        "type": "Point",
        "coordinates": [
          -84.86,
          32.81
        ]
      }
    },
    {
      "type": "Feature",
      "id": "iem-lsr-FFC-14",
      "properties": {
        "report_id": "iem-lsr-FFC-14",
        "report_type": "TSTM WND DMG",
        "event_category": "thunderstorm_wind",
        "valid_utc": "202606012242",
        "standard_time_display": "2026-06-01 17:42 EST",
        "wfo": "FFC",
        "county_or_zone": "Muscogee",
        "city": "1 SW Midland",
        "state": "GA",
        "magnitude": null,
        "magnitude_units": null,
        "source": "Utility Company",
        "event_narrative": "GA Power reports several customers without power in and around the Midland community."
      },
      "geometry": {
        "type": "Point",
        "coordinates": [
          -84.83,
          32.56
        ]
      }
    },
    {
      "type": "Feature",
      "id": "iem-lsr-FFC-15",
      "properties": {
        "report_id": "iem-lsr-FFC-15",
        "report_type": "TSTM WND DMG",
        "event_category": "thunderstorm_wind",
        "valid_utc": "202606012320",
        "standard_time_display": "2026-06-01 18:20 EST",
        "wfo": "FFC",
        "county_or_zone": "Stewart",
        "city": "1 SSW Richland",
        "state": "GA",
        "magnitude": null,
        "magnitude_units": null,
        "source": "Public",
        "event_narrative": "Public reports tree down near the intersection of Highway 520 and Wall Street."
      },
      "geometry": {
        "type": "Point",
        "coordinates": [
          -84.67,
          32.07
        ]
      }
    },
    {
      "type": "Feature",
      "id": "iem-lsr-FFC-16",
      "properties": {
        "report_id": "iem-lsr-FFC-16",
        "report_type": "FLASH FLOOD",
        "event_category": "flooding",
        "valid_utc": "202606090045",
        "standard_time_display": "2026-06-08 18:45 CST",
        "wfo": "FFC",
        "county_or_zone": "Chattooga",
        "city": "1 NE Summerville",
        "state": "GA",
        "magnitude": null,
        "magnitude_units": null,
        "source": "Public",
        "event_narrative": "Public reports an inundated road near 6th Avenue."
      },
      "geometry": {
        "type": "Point",
        "coordinates": [
          -85.34,
          34.49
        ]
      }
    },
    {
      "type": "Feature",
      "id": "iem-lsr-FFC-17",
      "properties": {
        "report_id": "iem-lsr-FFC-17",
        "report_type": "FLASH FLOOD",
        "event_category": "flooding",
        "valid_utc": "202606090050",
        "standard_time_display": "2026-06-08 18:50 CST",
        "wfo": "FFC",
        "county_or_zone": "Chattooga",
        "city": "1 NE Summerville",
        "state": "GA",
        "magnitude": null,
        "magnitude_units": null,
        "source": "Public",
        "event_narrative": "Video of inundated roadway near the intersection of Highland Avenue and Stockdale Road."
      },
      "geometry": {
        "type": "Point",
        "coordinates": [
          -85.34,
          34.49
        ]
      }
    },
    {
      "type": "Feature",
      "id": "iem-lsr-FFC-18",
      "properties": {
        "report_id": "iem-lsr-FFC-18",
        "report_type": "FLASH FLOOD",
        "event_category": "flooding",
        "valid_utc": "202606090055",
        "standard_time_display": "2026-06-08 18:55 CST",
        "wfo": "FFC",
        "county_or_zone": "Chattooga",
        "city": "2 S Trion",
        "state": "GA",
        "magnitude": null,
        "magnitude_units": null,
        "source": "Public",
        "event_narrative": "Public reports inundated road near the intersection of McMillan Street and Rena Street."
      },
      "geometry": {
        "type": "Point",
        "coordinates": [
          -85.32,
          34.52
        ]
      }
    },
    {
      "type": "Feature",
      "id": "iem-lsr-FFC-19",
      "properties": {
        "report_id": "iem-lsr-FFC-19",
        "report_type": "FLASH FLOOD",
        "event_category": "flooding",
        "valid_utc": "202606090100",
        "standard_time_display": "2026-06-08 19:00 CST",
        "wfo": "FFC",
        "county_or_zone": "Chattooga",
        "city": "2 SSE Trion",
        "state": "GA",
        "magnitude": null,
        "magnitude_units": null,
        "source": "Public",
        "event_narrative": "Public reports roadway covered with flowing flood waters along Penn Bridge Road."
      },
      "geometry": {
        "type": "Point",
        "coordinates": [
          -85.3,
          34.51
        ]
      }
    },
    {
      "type": "Feature",
      "id": "iem-lsr-FFC-20",
      "properties": {
        "report_id": "iem-lsr-FFC-20",
        "report_type": "FLASH FLOOD",
        "event_category": "flooding",
        "valid_utc": "202606100111",
        "standard_time_display": "2026-06-09 19:11 CST",
        "wfo": "FFC",
        "county_or_zone": "Polk",
        "city": "1 NNW Cedartown",
        "state": "GA",
        "magnitude": null,
        "magnitude_units": null,
        "source": "Emergency Mngr",
        "event_narrative": "Emergency Manager reports flash flooding in Cedartown near West Fairmont at Cave Spring Road. Picture shared showed water covering lawn and roadway."
      },
      "geometry": {
        "type": "Point",
        "coordinates": [
          -85.26,
          34.02
        ]
      }
    },
    {
      "type": "Feature",
      "id": "iem-lsr-FFC-21",
      "properties": {
        "report_id": "iem-lsr-FFC-21",
        "report_type": "FLASH FLOOD",
        "event_category": "flooding",
        "valid_utc": "202606100121",
        "standard_time_display": "2026-06-09 19:21 CST",
        "wfo": "FFC",
        "county_or_zone": "Polk",
        "city": "5 NNE Cedartown",
        "state": "GA",
        "magnitude": null,
        "magnitude_units": null,
        "source": "Emergency Mngr",
        "event_narrative": "Emergency Manager reports flooding at Lake Creek Rd at Drummond Rd and Denton Rd at Hwy 27."
      },
      "geometry": {
        "type": "Point",
        "coordinates": [
          -85.22,
          34.07
        ]
      }
    },
    {
      "type": "Feature",
      "id": "iem-lsr-FFC-22",
      "properties": {
        "report_id": "iem-lsr-FFC-22",
        "report_type": "FLASH FLOOD",
        "event_category": "flooding",
        "valid_utc": "202606100131",
        "standard_time_display": "2026-06-09 19:31 CST",
        "wfo": "FFC",
        "county_or_zone": "Polk",
        "city": "Cedartown",
        "state": "GA",
        "magnitude": null,
        "magnitude_units": null,
        "source": "Emergency Mngr",
        "event_narrative": "Emergency Manager reports a stalled car due to flash flooding on East Queen St in Cedartown."
      },
      "geometry": {
        "type": "Point",
        "coordinates": [
          -85.25,
          34.02
        ]
      }
    },
    {
      "type": "Feature",
      "id": "iem-lsr-FFC-23",
      "properties": {
        "report_id": "iem-lsr-FFC-23",
        "report_type": "TSTM WND GST",
        "event_category": "thunderstorm_wind",
        "valid_utc": "202606141720",
        "standard_time_display": "2026-06-14 12:20 EST",
        "wfo": "FFC",
        "county_or_zone": "Fayette",
        "city": "4 NNW Senoia",
        "state": "GA",
        "magnitude": 45.0,
        "magnitude_units": null,
        "source": "ASOS",
        "event_narrative": "ASOS station KFFC Peachtree City."
      },
      "geometry": {
        "type": "Point",
        "coordinates": [
          -84.57,
          33.35
        ]
      }
    },
    {
      "type": "Feature",
      "id": "iem-lsr-FFC-24",
      "properties": {
        "report_id": "iem-lsr-FFC-24",
        "report_type": "TSTM WND DMG",
        "event_category": "thunderstorm_wind",
        "valid_utc": "202606141724",
        "standard_time_display": "2026-06-14 12:24 EST",
        "wfo": "FFC",
        "county_or_zone": "Walton",
        "city": "2 SW Windsor",
        "state": "GA",
        "magnitude": null,
        "magnitude_units": null,
        "source": "Emergency Mngr",
        "event_narrative": "This is delayed report. Trees down partially blocking Hwy 81."
      },
      "geometry": {
        "type": "Point",
        "coordinates": [
          -83.87,
          33.86
        ]
      }
    },
    {
      "type": "Feature",
      "id": "iem-lsr-FFC-25",
      "properties": {
        "report_id": "iem-lsr-FFC-25",
        "report_type": "TSTM WND DMG",
        "event_category": "thunderstorm_wind",
        "valid_utc": "202606141736",
        "standard_time_display": "2026-06-14 12:36 EST",
        "wfo": "FFC",
        "county_or_zone": "Walton",
        "city": "1 W Campton",
        "state": "GA",
        "magnitude": null,
        "magnitude_units": null,
        "source": "Emergency Mngr",
        "event_narrative": "This is a delayed report. Tree reported down on powerlines off Fannie Thompson Road."
      },
      "geometry": {
        "type": "Point",
        "coordinates": [
          -83.74,
          33.87
        ]
      }
    },
    {
      "type": "Feature",
      "id": "iem-lsr-FFC-26",
      "properties": {
        "report_id": "iem-lsr-FFC-26",
        "report_type": "TSTM WND DMG",
        "event_category": "thunderstorm_wind",
        "valid_utc": "202606141740",
        "standard_time_display": "2026-06-14 12:40 EST",
        "wfo": "FFC",
        "county_or_zone": "Walton",
        "city": "1 ESE Between",
        "state": "GA",
        "magnitude": null,
        "magnitude_units": null,
        "source": "Emergency Mngr",
        "event_narrative": "This is a delayed report. Trees down on powerlines off Tipperary Cir."
      },
      "geometry": {
        "type": "Point",
        "coordinates": [
          -83.79,
          33.81
        ]
      }
    },
    {
      "type": "Feature",
      "id": "iem-lsr-FFC-27",
      "properties": {
        "report_id": "iem-lsr-FFC-27",
        "report_type": "TSTM WND DMG",
        "event_category": "thunderstorm_wind",
        "valid_utc": "202606141741",
        "standard_time_display": "2026-06-14 12:41 EST",
        "wfo": "FFC",
        "county_or_zone": "Walton",
        "city": "3 WNW Monroe",
        "state": "GA",
        "magnitude": null,
        "magnitude_units": null,
        "source": "Emergency Mngr",
        "event_narrative": "This is a delayed report. Trees down on powerlines off Cedar Ridge Road."
      },
      "geometry": {
        "type": "Point",
        "coordinates": [
          -83.76,
          33.81
        ]
      }
    },
    {
      "type": "Feature",
      "id": "iem-lsr-FFC-28",
      "properties": {
        "report_id": "iem-lsr-FFC-28",
        "report_type": "TSTM WND DMG",
        "event_category": "thunderstorm_wind",
        "valid_utc": "202606141742",
        "standard_time_display": "2026-06-14 12:42 EST",
        "wfo": "FFC",
        "county_or_zone": "Walton",
        "city": "1 W Gratis",
        "state": "GA",
        "magnitude": null,
        "magnitude_units": null,
        "source": "Emergency Mngr",
        "event_narrative": "This is a delayed report. Downed trees blocking part of Broach Spur Road."
      },
      "geometry": {
        "type": "Point",
        "coordinates": [
          -83.69,
          33.88
        ]
      }
    },
    {
      "type": "Feature",
      "id": "iem-lsr-FFC-29",
      "properties": {
        "report_id": "iem-lsr-FFC-29",
        "report_type": "TSTM WND DMG",
        "event_category": "thunderstorm_wind",
        "valid_utc": "202606141745",
        "standard_time_display": "2026-06-14 12:45 EST",
        "wfo": "FFC",
        "county_or_zone": "Walton",
        "city": "2 WSW Mount Vernon",
        "state": "GA",
        "magnitude": null,
        "magnitude_units": null,
        "source": "Emergency Mngr",
        "event_narrative": "This is a delayed report. Tree reported down off Hwy 78 and Edmondson Road."
      },
      "geometry": {
        "type": "Point",
        "coordinates": [
          -83.67,
          33.82
        ]
      }
    },
    {
      "type": "Feature",
      "id": "iem-lsr-FFC-30",
      "properties": {
        "report_id": "iem-lsr-FFC-30",
        "report_type": "TSTM WND DMG",
        "event_category": "thunderstorm_wind",
        "valid_utc": "202606141750",
        "standard_time_display": "2026-06-14 12:50 EST",
        "wfo": "FFC",
        "county_or_zone": "Walton",
        "city": "3 SE Jersey",
        "state": "GA",
        "magnitude": null,
        "magnitude_units": null,
        "source": "Emergency Mngr",
        "event_narrative": "This is a delayed report. Tree down across HD Atha Road and County Line Rd."
      },
      "geometry": {
        "type": "Point",
        "coordinates": [
          -83.76,
          33.69
        ]
      }
    },
    {
      "type": "Feature",
      "id": "iem-lsr-FFC-31",
      "properties": {
        "report_id": "iem-lsr-FFC-31",
        "report_type": "TSTM WND DMG",
        "event_category": "thunderstorm_wind",
        "valid_utc": "202606141757",
        "standard_time_display": "2026-06-14 12:57 EST",
        "wfo": "FFC",
        "county_or_zone": "Walton",
        "city": "3 W North High Shoals",
        "state": "GA",
        "magnitude": null,
        "magnitude_units": null,
        "source": "Emergency Mngr",
        "event_narrative": "This is a delayed report. Trees down on powerlines off Emmett Harper Road and Jones Woods Road."
      },
      "geometry": {
        "type": "Point",
        "coordinates": [
          -83.55,
          33.82
        ]
      }
    },
    {
      "type": "Feature",
      "id": "iem-lsr-FFC-32",
      "properties": {
        "report_id": "iem-lsr-FFC-32",
        "report_type": "TSTM WND DMG",
        "event_category": "thunderstorm_wind",
        "valid_utc": "202606141758",
        "standard_time_display": "2026-06-14 12:58 EST",
        "wfo": "FFC",
        "county_or_zone": "Walton",
        "city": "3 E Good Hope",
        "state": "GA",
        "magnitude": null,
        "magnitude_units": null,
        "source": "Emergency Mngr",
        "event_narrative": "This is a delayed report. Trees down on powerlines off Hwy 186."
      },
      "geometry": {
        "type": "Point",
        "coordinates": [
          -83.56,
          33.79
        ]
      }
    },
    {
      "type": "Feature",
      "id": "iem-lsr-FFC-33",
      "properties": {
        "report_id": "iem-lsr-FFC-33",
        "report_type": "TSTM WND GST",
        "event_category": "thunderstorm_wind",
        "valid_utc": "202606141800",
        "standard_time_display": "2026-06-14 13:00 EST",
        "wfo": "FFC",
        "county_or_zone": "Oconee",
        "city": "2 WSW Eastville",
        "state": "GA",
        "magnitude": 50.0,
        "magnitude_units": null,
        "source": "Mesonet",
        "event_narrative": "Mesonet station UGA29 Watkinsville-Uga."
      },
      "geometry": {
        "type": "Point",
        "coordinates": [
          -83.54,
          33.87
        ]
      }
    },
    {
      "type": "Feature",
      "id": "iem-lsr-FFC-34",
      "properties": {
        "report_id": "iem-lsr-FFC-34",
        "report_type": "TSTM WND GST",
        "event_category": "thunderstorm_wind",
        "valid_utc": "202606141801",
        "standard_time_display": "2026-06-14 13:01 EST",
        "wfo": "FFC",
        "county_or_zone": "Oconee",
        "city": "2 SE Bogart",
        "state": "GA",
        "magnitude": 41.0,
        "magnitude_units": null,
        "source": "Mesonet",
        "event_narrative": "Mesonet station GA357 Us-78 At Monroe Hwy."
      },
      "geometry": {
        "type": "Point",
        "coordinates": [
          -83.51,
          33.92
        ]
      }
    },
    {
      "type": "Feature",
      "id": "iem-lsr-FFC-35",
      "properties": {
        "report_id": "iem-lsr-FFC-35",
        "report_type": "TSTM WND GST",
        "event_category": "thunderstorm_wind",
        "valid_utc": "202606141828",
        "standard_time_display": "2026-06-14 13:28 EST",
        "wfo": "FFC",
        "county_or_zone": "Bibb",
        "city": "1 S Middle Georgia Regi",
        "state": "GA",
        "magnitude": 51.0,
        "magnitude_units": null,
        "source": "ASOS",
        "event_narrative": "ASOS station KMCN Macon."
      },
      "geometry": {
        "type": "Point",
        "coordinates": [
          -83.65,
          32.68
        ]
      }
    },
    {
      "type": "Feature",
      "id": "iem-lsr-FFC-36",
      "properties": {
        "report_id": "iem-lsr-FFC-36",
        "report_type": "TSTM WND GST",
        "event_category": "thunderstorm_wind",
        "valid_utc": "202606141832",
        "standard_time_display": "2026-06-14 13:32 EST",
        "wfo": "FFC",
        "county_or_zone": "Houston",
        "city": "1 SE Robins Air Force B",
        "state": "GA",
        "magnitude": 46.0,
        "magnitude_units": null,
        "source": "AWOS",
        "event_narrative": "AWOS station KWRB Warner Robins AFB."
      },
      "geometry": {
        "type": "Point",
        "coordinates": [
          -83.58,
          32.62
        ]
      }
    },
    {
      "type": "Feature",
      "id": "iem-lsr-FFC-37",
      "properties": {
        "report_id": "iem-lsr-FFC-37",
        "report_type": "TSTM WND GST",
        "event_category": "thunderstorm_wind",
        "valid_utc": "202606141902",
        "standard_time_display": "2026-06-14 14:02 EST",
        "wfo": "FFC",
        "county_or_zone": "Oconee",
        "city": "2 NNW Watkinsville",
        "state": "GA",
        "magnitude": 41.0,
        "magnitude_units": null,
        "source": "Mesonet",
        "event_narrative": "Mesonet station AFRG1 Watkinsville."
      },
      "geometry": {
        "type": "Point",
        "coordinates": [
          -83.42,
          33.89
        ]
      }
    },
    {
      "type": "Feature",
      "id": "iem-lsr-FFC-38",
      "properties": {
        "report_id": "iem-lsr-FFC-38",
        "report_type": "TSTM WND GST",
        "event_category": "thunderstorm_wind",
        "valid_utc": "202606141903",
        "standard_time_display": "2026-06-14 14:03 EST",
        "wfo": "FFC",
        "county_or_zone": "Jefferson",
        "city": "2 SE Louisville",
        "state": "GA",
        "magnitude": 40.0,
        "magnitude_units": null,
        "source": "Mesonet",
        "event_narrative": "Mesonet station LOUG1 Louisville."
      },
      "geometry": {
        "type": "Point",
        "coordinates": [
          -82.38,
          32.99
        ]
      }
    },
    {
      "type": "Feature",
      "id": "iem-lsr-FFC-39",
      "properties": {
        "report_id": "iem-lsr-FFC-39",
        "report_type": "TSTM WND GST",
        "event_category": "thunderstorm_wind",
        "valid_utc": "202606141958",
        "standard_time_display": "2026-06-14 14:58 EST",
        "wfo": "FFC",
        "county_or_zone": "Bleckley",
        "city": "4 NNW Roddy",
        "state": "GA",
        "magnitude": 40.0,
        "magnitude_units": null,
        "source": "Mesonet",
        "event_narrative": "Mesonet station TT666 Cochran."
      },
      "geometry": {
        "type": "Point",
        "coordinates": [
          -83.28,
          32.4
        ]
      }
    },
    {
      "type": "Feature",
      "id": "iem-lsr-FFC-40",
      "properties": {
        "report_id": "iem-lsr-FFC-40",
        "report_type": "TSTM WND DMG",
        "event_category": "thunderstorm_wind",
        "valid_utc": "202606142038",
        "standard_time_display": "2026-06-14 14:38 CST",
        "wfo": "FFC",
        "county_or_zone": "Catoosa",
        "city": "2 WSW Boynton",
        "state": "GA",
        "magnitude": null,
        "magnitude_units": null,
        "source": "Emergency Mngr",
        "event_narrative": "Tree downed over the roadway."
      },
      "geometry": {
        "type": "Point",
        "coordinates": [
          -85.21,
          34.91
        ]
      }
    },
    {
      "type": "Feature",
      "id": "iem-lsr-FFC-41",
      "properties": {
        "report_id": "iem-lsr-FFC-41",
        "report_type": "TSTM WND GST",
        "event_category": "thunderstorm_wind",
        "valid_utc": "202606142115",
        "standard_time_display": "2026-06-14 16:15 EST",
        "wfo": "FFC",
        "county_or_zone": "Toombs",
        "city": "2 SSW Santa Claus",
        "state": "GA",
        "magnitude": 40.0,
        "magnitude_units": null,
        "source": "Mesonet",
        "event_narrative": "Mesonet station UGA58 Vidalia."
      },
      "geometry": {
        "type": "Point",
        "coordinates": [
          -82.35,
          32.14
        ]
      }
    },
    {
      "type": "Feature",
      "id": "iem-lsr-FFC-42",
      "properties": {
        "report_id": "iem-lsr-FFC-42",
        "report_type": "TSTM WND DMG",
        "event_category": "thunderstorm_wind",
        "valid_utc": "202606142128",
        "standard_time_display": "2026-06-14 15:28 CST",
        "wfo": "FFC",
        "county_or_zone": "Catoosa",
        "city": "1 SE Lakeview",
        "state": "GA",
        "magnitude": null,
        "magnitude_units": null,
        "source": "Emergency Mngr",
        "event_narrative": "Tree downed over roadway. Time estimated from radar."
      },
      "geometry": {
        "type": "Point",
        "coordinates": [
          -85.25,
          34.97
        ]
      }
    },
    {
      "type": "Feature",
      "id": "iem-lsr-FFC-43",
      "properties": {
        "report_id": "iem-lsr-FFC-43",
        "report_type": "TSTM WND DMG",
        "event_category": "thunderstorm_wind",
        "valid_utc": "202606142130",
        "standard_time_display": "2026-06-14 15:30 CST",
        "wfo": "FFC",
        "county_or_zone": "Walker",
        "city": "Chickamauga",
        "state": "GA",
        "magnitude": null,
        "magnitude_units": null,
        "source": "Public",
        "event_narrative": "Several reports of trees downed in the town of Chickamauga. Time estimated from radar."
      },
      "geometry": {
        "type": "Point",
        "coordinates": [
          -85.29,
          34.87
        ]
      }
    },
    {
      "type": "Feature",
      "id": "iem-lsr-FFC-44",
      "properties": {
        "report_id": "iem-lsr-FFC-44",
        "report_type": "TSTM WND DMG",
        "event_category": "thunderstorm_wind",
        "valid_utc": "202606142138",
        "standard_time_display": "2026-06-14 15:38 CST",
        "wfo": "FFC",
        "county_or_zone": "Catoosa",
        "city": "2 WSW Boynton",
        "state": "GA",
        "magnitude": null,
        "magnitude_units": null,
        "source": "Emergency Mngr",
        "event_narrative": "Corrects time on previous tstm wnd dmg report from 2 WSW Boynton. Tree downed over the roadway."
      },
      "geometry": {
        "type": "Point",
        "coordinates": [
          -85.21,
          34.91
        ]
      }
    },
    {
      "type": "Feature",
      "id": "iem-lsr-FFC-45",
      "properties": {
        "report_id": "iem-lsr-FFC-45",
        "report_type": "TSTM WND DMG",
        "event_category": "thunderstorm_wind",
        "valid_utc": "202606142140",
        "standard_time_display": "2026-06-14 15:40 CST",
        "wfo": "FFC",
        "county_or_zone": "Catoosa",
        "city": "Ringgold",
        "state": "GA",
        "magnitude": null,
        "magnitude_units": null,
        "source": "Emergency Mngr",
        "event_narrative": "Several reports of trees downed in and near the town of Ringgold."
      },
      "geometry": {
        "type": "Point",
        "coordinates": [
          -85.11,
          34.92
        ]
      }
    },
    {
      "type": "Feature",
      "id": "iem-lsr-FFC-46",
      "properties": {
        "report_id": "iem-lsr-FFC-46",
        "report_type": "TSTM WND GST",
        "event_category": "thunderstorm_wind",
        "valid_utc": "202606142143",
        "standard_time_display": "2026-06-14 15:43 CST",
        "wfo": "FFC",
        "county_or_zone": "Catoosa",
        "city": "2 E Boynton",
        "state": "GA",
        "magnitude": 40.0,
        "magnitude_units": null,
        "source": "Mesonet",
        "event_narrative": "Mesonet station GA318 I-75 At Sr 2."
      },
      "geometry": {
        "type": "Point",
        "coordinates": [
          -85.15,
          34.93
        ]
      }
    },
    {
      "type": "Feature",
      "id": "iem-lsr-FFC-47",
      "properties": {
        "report_id": "iem-lsr-FFC-47",
        "report_type": "TSTM WND DMG",
        "event_category": "thunderstorm_wind",
        "valid_utc": "202606142206",
        "standard_time_display": "2026-06-14 17:06 EST",
        "wfo": "FFC",
        "county_or_zone": "Murray",
        "city": "1 NW Chatsworth",
        "state": "GA",
        "magnitude": null,
        "magnitude_units": null,
        "source": "Emergency Mngr",
        "event_narrative": "Tree downed_ time estimated from radar."
      },
      "geometry": {
        "type": "Point",
        "coordinates": [
          -84.78,
          34.77
        ]
      }
    },
    {
      "type": "Feature",
      "id": "iem-lsr-FFC-48",
      "properties": {
        "report_id": "iem-lsr-FFC-48",
        "report_type": "TSTM WND DMG",
        "event_category": "thunderstorm_wind",
        "valid_utc": "202606142210",
        "standard_time_display": "2026-06-14 17:10 EST",
        "wfo": "FFC",
        "county_or_zone": "Murray",
        "city": "2 SSE Ramhurst",
        "state": "GA",
        "magnitude": null,
        "magnitude_units": null,
        "source": "Public",
        "event_narrative": "Tree downed_ time estimated from radar."
      },
      "geometry": {
        "type": "Point",
        "coordinates": [
          -84.72,
          34.66
        ]
      }
    },
    {
      "type": "Feature",
      "id": "iem-lsr-FFC-49",
      "properties": {
        "report_id": "iem-lsr-FFC-49",
        "report_type": "TSTM WND GST",
        "event_category": "thunderstorm_wind",
        "valid_utc": "202606142230",
        "standard_time_display": "2026-06-14 17:30 EST",
        "wfo": "FFC",
        "county_or_zone": "Fannin",
        "city": "2 NW Blue Ridge",
        "state": "GA",
        "magnitude": 49.0,
        "magnitude_units": null,
        "source": "Mesonet",
        "event_narrative": "Mesonet station UGA50 Blue Ridge."
      },
      "geometry": {
        "type": "Point",
        "coordinates": [
          -84.34,
          34.89
        ]
      }
    },
    {
      "type": "Feature",
      "id": "iem-lsr-FFC-50",
      "properties": {
        "report_id": "iem-lsr-FFC-50",
        "report_type": "TSTM WND GST",
        "event_category": "thunderstorm_wind",
        "valid_utc": "202606142234",
        "standard_time_display": "2026-06-14 17:34 EST",
        "wfo": "FFC",
        "county_or_zone": "Fannin",
        "city": "1 N Blue Ridge",
        "state": "GA",
        "magnitude": 41.0,
        "magnitude_units": null,
        "source": "Mesonet",
        "event_narrative": "Mesonet station GA321 Sr515 At Sr5 Blue Ridge Dr."
      },
      "geometry": {
        "type": "Point",
        "coordinates": [
          -84.32,
          34.87
        ]
      }
    },
    {
      "type": "Feature",
      "id": "iem-lsr-FFC-51",
      "properties": {
        "report_id": "iem-lsr-FFC-51",
        "report_type": "TSTM WND GST",
        "event_category": "thunderstorm_wind",
        "valid_utc": "202606142240",
        "standard_time_display": "2026-06-14 17:40 EST",
        "wfo": "FFC",
        "county_or_zone": "Fulton",
        "city": "3 S Mountain Park",
        "state": "GA",
        "magnitude": 50.0,
        "magnitude_units": null,
        "source": "Mesonet",
        "event_narrative": "Mesonet station FW9021 Roswell."
      },
      "geometry": {
        "type": "Point",
        "coordinates": [
          -84.41,
          34.04
        ]
      }
    },
    {
      "type": "Feature",
      "id": "iem-lsr-FFC-52",
      "properties": {
        "report_id": "iem-lsr-FFC-52",
        "report_type": "TSTM WND DMG",
        "event_category": "thunderstorm_wind",
        "valid_utc": "202606142245",
        "standard_time_display": "2026-06-14 17:45 EST",
        "wfo": "FFC",
        "county_or_zone": "Fannin",
        "city": "1 N Blue Ridge",
        "state": "GA",
        "magnitude": null,
        "magnitude_units": null,
        "source": "Public",
        "event_narrative": "Public reports tree down along Highway 5 near the intersection with Old Post Road."
      },
      "geometry": {
        "type": "Point",
        "coordinates": [
          -84.33,
          34.88
        ]
      }
    },
    {
      "type": "Feature",
      "id": "iem-lsr-FFC-53",
      "properties": {
        "report_id": "iem-lsr-FFC-53",
        "report_type": "TSTM WND DMG",
        "event_category": "thunderstorm_wind",
        "valid_utc": "202606142252",
        "standard_time_display": "2026-06-14 17:52 EST",
        "wfo": "FFC",
        "county_or_zone": "Union",
        "city": "3 SW Blairsville",
        "state": "GA",
        "magnitude": null,
        "magnitude_units": null,
        "source": "Public",
        "event_narrative": "Public reported around 7 trees were blown down off of Deyton Road."
      },
      "geometry": {
        "type": "Point",
        "coordinates": [
          -83.98,
          34.85
        ]
      }
    },
    {
      "type": "Feature",
      "id": "iem-lsr-FFC-54",
      "properties": {
        "report_id": "iem-lsr-FFC-54",
        "report_type": "TSTM WND GST",
        "event_category": "thunderstorm_wind",
        "valid_utc": "202606142255",
        "standard_time_display": "2026-06-14 17:55 EST",
        "wfo": "FFC",
        "county_or_zone": "Union",
        "city": "3 SW Blairsville",
        "state": "GA",
        "magnitude": 40.0,
        "magnitude_units": null,
        "source": "AWOS",
        "event_narrative": "AWOS station KDZJ Blairsville."
      },
      "geometry": {
        "type": "Point",
        "coordinates": [
          -84.0,
          34.85
        ]
      }
    },
    {
      "type": "Feature",
      "id": "iem-lsr-FFC-55",
      "properties": {
        "report_id": "iem-lsr-FFC-55",
        "report_type": "TSTM WND GST",
        "event_category": "thunderstorm_wind",
        "valid_utc": "202606142304",
        "standard_time_display": "2026-06-14 18:04 EST",
        "wfo": "FFC",
        "county_or_zone": "Union",
        "city": "Blairsville",
        "state": "GA",
        "magnitude": 41.0,
        "magnitude_units": null,
        "source": "Mesonet",
        "event_narrative": "Mesonet station GA322 Us 76 At Sr11 Us19."
      },
      "geometry": {
        "type": "Point",
        "coordinates": [
          -83.97,
          34.87
        ]
      }
    },
    {
      "type": "Feature",
      "id": "iem-lsr-FFC-56",
      "properties": {
        "report_id": "iem-lsr-FFC-56",
        "report_type": "TSTM WND DMG",
        "event_category": "thunderstorm_wind",
        "valid_utc": "202606142306",
        "standard_time_display": "2026-06-14 18:06 EST",
        "wfo": "FFC",
        "county_or_zone": "Gwinnett",
        "city": "2 SSE Duluth",
        "state": "GA",
        "magnitude": null,
        "magnitude_units": null,
        "source": "Emergency Mngr",
        "event_narrative": "This is a delayed report. Trees and powerlines down on Cardinal Lake Circle."
      },
      "geometry": {
        "type": "Point",
        "coordinates": [
          -84.13,
          33.98
        ]
      }
    },
    {
      "type": "Feature",
      "id": "iem-lsr-FFC-57",
      "properties": {
        "report_id": "iem-lsr-FFC-57",
        "report_type": "TSTM WND DMG",
        "event_category": "thunderstorm_wind",
        "valid_utc": "202606142308",
        "standard_time_display": "2026-06-14 18:08 EST",
        "wfo": "FFC",
        "county_or_zone": "Gwinnett",
        "city": "1 SE Suwanee",
        "state": "GA",
        "magnitude": null,
        "magnitude_units": null,
        "source": "Emergency Mngr",
        "event_narrative": "This is a delayed report. Multiple trees reported down on Smithdown road_ Satellite Blvd_ and Lawrenceville Suwanee Road."
      },
      "geometry": {
        "type": "Point",
        "coordinates": [
          -84.06,
          34.05
        ]
      }
    },
    {
      "type": "Feature",
      "id": "iem-lsr-FFC-58",
      "properties": {
        "report_id": "iem-lsr-FFC-58",
        "report_type": "TSTM WND DMG",
        "event_category": "thunderstorm_wind",
        "valid_utc": "202606142309",
        "standard_time_display": "2026-06-14 18:09 EST",
        "wfo": "FFC",
        "county_or_zone": "Gwinnett",
        "city": "3 W Hog Mountain",
        "state": "GA",
        "magnitude": null,
        "magnitude_units": null,
        "source": "Emergency Mngr",
        "event_narrative": "This is a delayed report. Trees down on powerlines."
      },
      "geometry": {
        "type": "Point",
        "coordinates": [
          -83.98,
          34.05
        ]
      }
    },
    {
      "type": "Feature",
      "id": "iem-lsr-FFC-59",
      "properties": {
        "report_id": "iem-lsr-FFC-59",
        "report_type": "TSTM WND DMG",
        "event_category": "thunderstorm_wind",
        "valid_utc": "202606142310",
        "standard_time_display": "2026-06-14 18:10 EST",
        "wfo": "FFC",
        "county_or_zone": "Gwinnett",
        "city": "2 W Hog Mountain",
        "state": "GA",
        "magnitude": null,
        "magnitude_units": null,
        "source": "Emergency Mngr",
        "event_narrative": "This is a delayed report. Tree down on house."
      },
      "geometry": {
        "type": "Point",
        "coordinates": [
          -83.96,
          34.05
        ]
      }
    },
    {
      "type": "Feature",
      "id": "iem-lsr-FFC-60",
      "properties": {
        "report_id": "iem-lsr-FFC-60",
        "report_type": "TSTM WND DMG",
        "event_category": "thunderstorm_wind",
        "valid_utc": "202606142316",
        "standard_time_display": "2026-06-14 18:16 EST",
        "wfo": "FFC",
        "county_or_zone": "Gwinnett",
        "city": "3 NNW Snellville",
        "state": "GA",
        "magnitude": null,
        "magnitude_units": null,
        "source": "Emergency Mngr",
        "event_narrative": "This is a delayed report. Trees down on Flowers Crossing."
      },
      "geometry": {
        "type": "Point",
        "coordinates": [
          -84.03,
          33.9
        ]
      }
    },
    {
      "type": "Feature",
      "id": "iem-lsr-FFC-61",
      "properties": {
        "report_id": "iem-lsr-FFC-61",
        "report_type": "TSTM WND DMG",
        "event_category": "thunderstorm_wind",
        "valid_utc": "202606142322",
        "standard_time_display": "2026-06-14 17:22 CST",
        "wfo": "FFC",
        "county_or_zone": "Polk",
        "city": "2 WSW Braswell",
        "state": "GA",
        "magnitude": null,
        "magnitude_units": null,
        "source": "Emergency Mngr",
        "event_narrative": "Tree downed on Coots Lake Road. Time estimated from radar."
      },
      "geometry": {
        "type": "Point",
        "coordinates": [
          -85.0,
          33.98
        ]
      }
    },
    {
      "type": "Feature",
      "id": "iem-lsr-FFC-62",
      "properties": {
        "report_id": "iem-lsr-FFC-62",
        "report_type": "TSTM WND DMG",
        "event_category": "thunderstorm_wind",
        "valid_utc": "202606142330",
        "standard_time_display": "2026-06-14 18:30 EST",
        "wfo": "FFC",
        "county_or_zone": "Jackson",
        "city": "Jefferson",
        "state": "GA",
        "magnitude": null,
        "magnitude_units": null,
        "source": "Emergency Mngr",
        "event_narrative": "power pole downed. Time estimated from radar."
      },
      "geometry": {
        "type": "Point",
        "coordinates": [
          -83.57,
          34.12
        ]
      }
    },
    {
      "type": "Feature",
      "id": "iem-lsr-FFC-63",
      "properties": {
        "report_id": "iem-lsr-FFC-63",
        "report_type": "TSTM WND GST",
        "event_category": "thunderstorm_wind",
        "valid_utc": "202606150008",
        "standard_time_display": "2026-06-14 18:08 CST",
        "wfo": "FFC",
        "county_or_zone": "Haralson",
        "city": "4 SSE Tallapoosa",
        "state": "GA",
        "magnitude": 44.0,
        "magnitude_units": null,
        "source": "Mesonet",
        "event_narrative": "Mesonet station GA343 I-20 At Sr 100."
      },
      "geometry": {
        "type": "Point",
        "coordinates": [
          -85.26,
          33.68
        ]
      }
    },
    {
      "type": "Feature",
      "id": "iem-lsr-FFC-64",
      "properties": {
        "report_id": "iem-lsr-FFC-64",
        "report_type": "TSTM WND DMG",
        "event_category": "thunderstorm_wind",
        "valid_utc": "202606150010",
        "standard_time_display": "2026-06-14 19:10 EST",
        "wfo": "FFC",
        "county_or_zone": "Fulton",
        "city": "2 NW Atlantic Station",
        "state": "GA",
        "magnitude": null,
        "magnitude_units": null,
        "source": "Amateur Radio",
        "event_narrative": "Mulitple trees down on I-75 near Collier Road."
      },
      "geometry": {
        "type": "Point",
        "coordinates": [
          -84.42,
          33.81
        ]
      }
    },
    {
      "type": "Feature",
      "id": "iem-lsr-FFC-65",
      "properties": {
        "report_id": "iem-lsr-FFC-65",
        "report_type": "TSTM WND DMG",
        "event_category": "thunderstorm_wind",
        "valid_utc": "202606150020",
        "standard_time_display": "2026-06-14 19:20 EST",
        "wfo": "FFC",
        "county_or_zone": "Gwinnett",
        "city": "1 WNW Mechanicsville",
        "state": "GA",
        "magnitude": null,
        "magnitude_units": null,
        "source": "Emergency Mngr",
        "event_narrative": "This is a delayed report. Trees down on powerlines near Winters Chapel Road."
      },
      "geometry": {
        "type": "Point",
        "coordinates": [
          -84.27,
          33.94
        ]
      }
    },
    {
      "type": "Feature",
      "id": "iem-lsr-FFC-66",
      "properties": {
        "report_id": "iem-lsr-FFC-66",
        "report_type": "TSTM WND DMG",
        "event_category": "thunderstorm_wind",
        "valid_utc": "202606150021",
        "standard_time_display": "2026-06-14 19:21 EST",
        "wfo": "FFC",
        "county_or_zone": "Gwinnett",
        "city": "Mechanicsville",
        "state": "GA",
        "magnitude": null,
        "magnitude_units": null,
        "source": "Emergency Mngr",
        "event_narrative": "This is a delayed report. Trees down on a house near Manning Street."
      },
      "geometry": {
        "type": "Point",
        "coordinates": [
          -84.24,
          33.92
        ]
      }
    },
    {
      "type": "Feature",
      "id": "iem-lsr-FFC-67",
      "properties": {
        "report_id": "iem-lsr-FFC-67",
        "report_type": "TSTM WND DMG",
        "event_category": "thunderstorm_wind",
        "valid_utc": "202606150033",
        "standard_time_display": "2026-06-14 19:33 EST",
        "wfo": "FFC",
        "county_or_zone": "Gwinnett",
        "city": "2 S Centerville",
        "state": "GA",
        "magnitude": null,
        "magnitude_units": null,
        "source": "Emergency Mngr",
        "event_narrative": "This is a delayed report. Trees and power lines down on Telida Trail."
      },
      "geometry": {
        "type": "Point",
        "coordinates": [
          -84.04,
          33.78
        ]
      }
    },
    {
      "type": "Feature",
      "id": "iem-lsr-FFC-68",
      "properties": {
        "report_id": "iem-lsr-FFC-68",
        "report_type": "TSTM WND DMG",
        "event_category": "thunderstorm_wind",
        "valid_utc": "202606150035",
        "standard_time_display": "2026-06-14 19:35 EST",
        "wfo": "FFC",
        "county_or_zone": "Gwinnett",
        "city": "1 NNW Centerville",
        "state": "GA",
        "magnitude": null,
        "magnitude_units": null,
        "source": "Emergency Mngr",
        "event_narrative": "This is a delayed report. Trees down over Arden Way and Bethany Church Road."
      },
      "geometry": {
        "type": "Point",
        "coordinates": [
          -84.05,
          33.82
        ]
      }
    },
    {
      "type": "Feature",
      "id": "iem-lsr-FFC-69",
      "properties": {
        "report_id": "iem-lsr-FFC-69",
        "report_type": "TSTM WND DMG",
        "event_category": "thunderstorm_wind",
        "valid_utc": "202606150035",
        "standard_time_display": "2026-06-14 19:35 EST",
        "wfo": "FFC",
        "county_or_zone": "Gwinnett",
        "city": "Snellville",
        "state": "GA",
        "magnitude": null,
        "magnitude_units": null,
        "source": "Emergency Mngr",
        "event_narrative": "This is a delayed report. Powerlines down due to storms on New London Place."
      },
      "geometry": {
        "type": "Point",
        "coordinates": [
          -84.03,
          33.86
        ]
      }
    },
    {
      "type": "Feature",
      "id": "iem-lsr-FFC-70",
      "properties": {
        "report_id": "iem-lsr-FFC-70",
        "report_type": "TSTM WND DMG",
        "event_category": "thunderstorm_wind",
        "valid_utc": "202606150036",
        "standard_time_display": "2026-06-14 19:36 EST",
        "wfo": "FFC",
        "county_or_zone": "Gwinnett",
        "city": "2 NNE Centerville",
        "state": "GA",
        "magnitude": null,
        "magnitude_units": null,
        "source": "Emergency Mngr",
        "event_narrative": "This is delayed report. Trees down near Springdale Road and Bouldercreek Road."
      },
      "geometry": {
        "type": "Point",
        "coordinates": [
          -84.03,
          33.83
        ]
      }
    }
  ]
}