{
  "type": "FeatureCollection",
  "metadata": {
    "schema_version": "0.2.4",
    "year": 2026,
    "month": 9,
    "wfo": "GID",
    "start_utc": "2026-09-01T00:00:00Z",
    "end_utc": "2026-10-01T00:00:00Z",
    "generated_utc": "2026-09-13T13:47:50Z",
    "mode": "storm_data_prep",
    "public_release_status": "public-source-derived",
    "time_note": "Storm Data entry times should be reviewed in local Standard Time (ST), not daylight time. Candidate reports include standard_time_display.",
    "tornado_track_policy": "Tornado tracks must come from DAT. NCEI begin/end coordinates are not used as a tornado track substitute.",
    "source": "https://mesonet.agron.iastate.edu/cgi-bin/request/gis/lsr.py?wfo=GID&sts=2026-09-01T00%3A00%3A00Z&ets=2026-10-01T00%3A00%3A00Z&fmt=csv"
  },
  "features": [
    {
      "type": "Feature",
      "id": "iem-lsr-GID-1",
      "properties": {
        "report_id": "iem-lsr-GID-1",
        "report_type": "HAIL",
        "event_category": "hail",
        "valid_utc": "202609120530",
        "standard_time_display": "2026-09-11 23:30 CST",
        "wfo": "GID",
        "county_or_zone": "Adams",
        "city": "2 W Hastings",
        "state": "NE",
        "magnitude": 0.8,
        "magnitude_units": null,
        "source": "CoCoRaHS",
        "event_narrative": null
      },
      "geometry": {
        "type": "Point",
        "coordinates": [
          -98.43,
          40.6
        ]
      }
    },
    {
      "type": "Feature",
      "id": "iem-lsr-GID-2",
      "properties": {
        "report_id": "iem-lsr-GID-2",
        "report_type": "HAIL",
        "event_category": "hail",
        "valid_utc": "202609120538",
        "standard_time_display": "2026-09-11 23:38 CST",
        "wfo": "GID",
        "county_or_zone": "Adams",
        "city": "1 SE Hastings",
        "state": "NE",
        "magnitude": 0.8,
        "magnitude_units": null,
        "source": "Public",
        "event_narrative": "Report of pea to nickel size hail in SE Hastings from Facebook. Time estimated from radar."
      },
      "geometry": {
        "type": "Point",
        "coordinates": [
          -98.37,
          40.58
        ]
      }
    },
    {
      "type": "Feature",
      "id": "iem-lsr-GID-3",
      "properties": {
        "report_id": "iem-lsr-GID-3",
        "report_type": "HAIL",
        "event_category": "hail",
        "valid_utc": "202609121350",
        "standard_time_display": "2026-09-12 07:50 CST",
        "wfo": "GID",
        "county_or_zone": "Clay",
        "city": "Clay Center",
        "state": "NE",
        "magnitude": 0.7,
        "magnitude_units": null,
        "source": "Emergency Manager",
        "event_narrative": "Report of pea to dime size hail in Clay Center from Emergency Manager."
      },
      "geometry": {
        "type": "Point",
        "coordinates": [
          -98.05,
          40.52
        ]
      }
    },
    {
      "type": "Feature",
      "id": "iem-lsr-GID-4",
      "properties": {
        "report_id": "iem-lsr-GID-4",
        "report_type": "HAIL",
        "event_category": "hail",
        "valid_utc": "202609121400",
        "standard_time_display": "2026-09-12 08:00 CST",
        "wfo": "GID",
        "county_or_zone": "Clay",
        "city": "5 E Clay Center",
        "state": "NE",
        "magnitude": 0.7,
        "magnitude_units": null,
        "source": "Co-Op Observer",
        "event_narrative": "Pea to dime size hail."
      },
      "geometry": {
        "type": "Point",
        "coordinates": [
          -97.96,
          40.5
        ]
      }
    },
    {
      "type": "Feature",
      "id": "iem-lsr-GID-5",
      "properties": {
        "report_id": "iem-lsr-GID-5",
        "report_type": "HAIL",
        "event_category": "hail",
        "valid_utc": "202609121415",
        "standard_time_display": "2026-09-12 08:15 CST",
        "wfo": "GID",
        "county_or_zone": "Fillmore",
        "city": "Geneva",
        "state": "NE",
        "magnitude": 0.8,
        "magnitude_units": null,
        "source": "Public",
        "event_narrative": "Report of nickel size hail in Geneva. From X. Time estimated from radar."
      },
      "geometry": {
        "type": "Point",
        "coordinates": [
          -97.61,
          40.53
        ]
      }
    },
    {
      "type": "Feature",
      "id": "iem-lsr-GID-6",
      "properties": {
        "report_id": "iem-lsr-GID-6",
        "report_type": "HAIL",
        "event_category": "hail",
        "valid_utc": "202609121651",
        "standard_time_display": "2026-09-12 10:51 CST",
        "wfo": "GID",
        "county_or_zone": "Phelps",
        "city": "Holdrege",
        "state": "NE",
        "magnitude": 1.0,
        "magnitude_units": null,
        "source": "Public",
        "event_narrative": "Picture from Facebook. Time estimated from radar."
      },
      "geometry": {
        "type": "Point",
        "coordinates": [
          -99.37,
          40.44
        ]
      }
    },
    {
      "type": "Feature",
      "id": "iem-lsr-GID-7",
      "properties": {
        "report_id": "iem-lsr-GID-7",
        "report_type": "HAIL",
        "event_category": "hail",
        "valid_utc": "202609121652",
        "standard_time_display": "2026-09-12 10:52 CST",
        "wfo": "GID",
        "county_or_zone": "Phelps",
        "city": "1 NE Holdrege",
        "state": "NE",
        "magnitude": 1.0,
        "magnitude_units": null,
        "source": "Public",
        "event_narrative": "Picture from X. Time estimated from radar."
      },
      "geometry": {
        "type": "Point",
        "coordinates": [
          -99.36,
          40.45
        ]
      }
    },
    {
      "type": "Feature",
      "id": "iem-lsr-GID-8",
      "properties": {
        "report_id": "iem-lsr-GID-8",
        "report_type": "HAIL",
        "event_category": "hail",
        "valid_utc": "202609121652",
        "standard_time_display": "2026-09-12 10:52 CST",
        "wfo": "GID",
        "county_or_zone": "Phelps",
        "city": "Holdrege",
        "state": "NE",
        "magnitude": 1.25,
        "magnitude_units": null,
        "source": "Public",
        "event_narrative": "Video from X. Estimated largest hailstone was the size of a walnut. Exact time estimated from radar."
      },
      "geometry": {
        "type": "Point",
        "coordinates": [
          -99.38,
          40.44
        ]
      }
    },
    {
      "type": "Feature",
      "id": "iem-lsr-GID-9",
      "properties": {
        "report_id": "iem-lsr-GID-9",
        "report_type": "HAIL",
        "event_category": "hail",
        "valid_utc": "202609122012",
        "standard_time_display": "2026-09-12 14:12 CST",
        "wfo": "GID",
        "county_or_zone": "Jewell",
        "city": "Randall",
        "state": "KS",
        "magnitude": 1.75,
        "magnitude_units": null,
        "source": "Trained Spotter",
        "event_narrative": null
      },
      "geometry": {
        "type": "Point",
        "coordinates": [
          -98.04,
          39.64
        ]
      }
    }
  ]
}