{
  "type": "FeatureCollection",
  "metadata": {
    "schema_version": "0.2.4",
    "year": 2026,
    "month": 4,
    "wfo": "AMA",
    "start_utc": "2026-04-01T00:00:00Z",
    "end_utc": "2026-05-01T00:00:00Z",
    "generated_utc": "2026-06-24T11:57:00Z",
    "mode": "storm_data_prep",
    "public_release_status": "public-source-derived",
    "time_note": "Storm Data entry times should be reviewed in local Standard Time (ST), not daylight time. Candidate reports include standard_time_display.",
    "tornado_track_policy": "Tornado tracks must come from DAT. NCEI begin/end coordinates are not used as a tornado track substitute.",
    "source": "https://mesonet.agron.iastate.edu/cgi-bin/request/gis/lsr.py?wfo=AMA&sts=2026-04-01T00%3A00%3A00Z&ets=2026-05-01T00%3A00%3A00Z&fmt=csv"
  },
  "features": [
    {
      "type": "Feature",
      "id": "iem-lsr-AMA-1",
      "properties": {
        "report_id": "iem-lsr-AMA-1",
        "report_type": "TSTM WND GST",
        "event_category": "thunderstorm_wind",
        "valid_utc": "202604092333",
        "standard_time_display": "2026-04-09 17:33 CST",
        "wfo": "AMA",
        "county_or_zone": "Potter",
        "city": "10 ESE Valley de Oro",
        "state": "TX",
        "magnitude": 59.0,
        "magnitude_units": null,
        "source": "Mesonet",
        "event_narrative": "Wind gust of 59 mph recorded at Mesonet station 82 Amarillo 15NNW."
      },
      "geometry": {
        "type": "Point",
        "coordinates": [
          -101.93,
          35.42
        ]
      }
    },
    {
      "type": "Feature",
      "id": "iem-lsr-AMA-2",
      "properties": {
        "report_id": "iem-lsr-AMA-2",
        "report_type": "TSTM WND GST",
        "event_category": "thunderstorm_wind",
        "valid_utc": "202604100109",
        "standard_time_display": "2026-04-09 19:09 CST",
        "wfo": "AMA",
        "county_or_zone": "Hutchinson",
        "city": "7 E Borger",
        "state": "TX",
        "magnitude": 58.0,
        "magnitude_units": null,
        "source": "Mesonet",
        "event_narrative": "Wind gust of 58 mph measured at Mesonet station 7 miles east of Borger_ TX."
      },
      "geometry": {
        "type": "Point",
        "coordinates": [
          -101.28,
          35.67
        ]
      }
    },
    {
      "type": "Feature",
      "id": "iem-lsr-AMA-3",
      "properties": {
        "report_id": "iem-lsr-AMA-3",
        "report_type": "TSTM WND GST",
        "event_category": "thunderstorm_wind",
        "valid_utc": "202604100109",
        "standard_time_display": "2026-04-09 19:09 CST",
        "wfo": "AMA",
        "county_or_zone": "Hutchinson",
        "city": "7 E Borger",
        "state": "TX",
        "magnitude": 65.0,
        "magnitude_units": null,
        "source": "Mesonet",
        "event_narrative": "Wind gust of 58 mph measured at Mesonet station 7 miles east of Borger_ TX (8:09 PM). Strongest wind gust occurred at 8:29 PM_ at 65 mph."
      },
      "geometry": {
        "type": "Point",
        "coordinates": [
          -101.28,
          35.67
        ]
      }
    },
    {
      "type": "Feature",
      "id": "iem-lsr-AMA-4",
      "properties": {
        "report_id": "iem-lsr-AMA-4",
        "report_type": "TSTM WND GST",
        "event_category": "thunderstorm_wind",
        "valid_utc": "202604100121",
        "standard_time_display": "2026-04-09 19:21 CST",
        "wfo": "AMA",
        "county_or_zone": "Texas",
        "city": "1 WSW Guymon",
        "state": "OK",
        "magnitude": 66.0,
        "magnitude_units": null,
        "source": "ASOS",
        "event_narrative": "Wind gust of 66 mph recorded at the Guymon Airport ASOS station."
      },
      "geometry": {
        "type": "Point",
        "coordinates": [
          -101.51,
          36.68
        ]
      }
    },
    {
      "type": "Feature",
      "id": "iem-lsr-AMA-5",
      "properties": {
        "report_id": "iem-lsr-AMA-5",
        "report_type": "NON-TSTM WND GST",
        "event_category": "thunderstorm_wind",
        "valid_utc": "202604100630",
        "standard_time_display": "2026-04-10 00:30 CST",
        "wfo": "AMA",
        "county_or_zone": "Hemphill",
        "city": "6 E Canadian",
        "state": "TX",
        "magnitude": 61.0,
        "magnitude_units": null,
        "source": "Mesonet",
        "event_narrative": "A shower collapsed over the mesonet site and produced a severe wind gust. Though the shower was formerly a thunderstorm no convective activity was present during the wind gust event."
      },
      "geometry": {
        "type": "Point",
        "coordinates": [
          -100.28,
          35.92
        ]
      }
    },
    {
      "type": "Feature",
      "id": "iem-lsr-AMA-6",
      "properties": {
        "report_id": "iem-lsr-AMA-6",
        "report_type": "HAIL",
        "event_category": "hail",
        "valid_utc": "202604102040",
        "standard_time_display": "2026-04-10 13:40 MST",
        "wfo": "AMA",
        "county_or_zone": "Dallam",
        "city": "1 NNE Dalhart",
        "state": "TX",
        "magnitude": 0.75,
        "magnitude_units": null,
        "source": "Public",
        "event_narrative": "Penny sized hail accumulating. Picture confirmation received from the Corral RV Park in Dalhart_ TX."
      },
      "geometry": {
        "type": "Point",
        "coordinates": [
          -102.51,
          36.07
        ]
      }
    },
    {
      "type": "Feature",
      "id": "iem-lsr-AMA-7",
      "properties": {
        "report_id": "iem-lsr-AMA-7",
        "report_type": "HAIL",
        "event_category": "hail",
        "valid_utc": "202604102046",
        "standard_time_display": "2026-04-10 13:46 MST",
        "wfo": "AMA",
        "county_or_zone": "Dallam",
        "city": "2 NNE Dalhart",
        "state": "TX",
        "magnitude": 0.75,
        "magnitude_units": null,
        "source": "Public",
        "event_narrative": "Confirmation of penny sized hail from the Hilmar Cheese Company_ INC in Dalhart."
      },
      "geometry": {
        "type": "Point",
        "coordinates": [
          -102.5,
          36.09
        ]
      }
    },
    {
      "type": "Feature",
      "id": "iem-lsr-AMA-8",
      "properties": {
        "report_id": "iem-lsr-AMA-8",
        "report_type": "HAIL",
        "event_category": "hail",
        "valid_utc": "202604102048",
        "standard_time_display": "2026-04-10 13:48 MST",
        "wfo": "AMA",
        "county_or_zone": "Dallam",
        "city": "3 NE Dalhart",
        "state": "TX",
        "magnitude": 1.0,
        "magnitude_units": null,
        "source": "Public",
        "event_narrative": "Quarter sized hail falling on highway 54 NE of Dalhart. Public confirmation."
      },
      "geometry": {
        "type": "Point",
        "coordinates": [
          -102.48,
          36.09
        ]
      }
    },
    {
      "type": "Feature",
      "id": "iem-lsr-AMA-9",
      "properties": {
        "report_id": "iem-lsr-AMA-9",
        "report_type": "HAIL",
        "event_category": "hail",
        "valid_utc": "202604102110",
        "standard_time_display": "2026-04-10 14:10 MST",
        "wfo": "AMA",
        "county_or_zone": "Hartley",
        "city": "3 SE Dalhart",
        "state": "TX",
        "magnitude": 0.75,
        "magnitude_units": null,
        "source": "Public",
        "event_narrative": "Penny sized hail reported reported by public_ confirmed with video."
      },
      "geometry": {
        "type": "Point",
        "coordinates": [
          -102.48,
          36.03
        ]
      }
    },
    {
      "type": "Feature",
      "id": "iem-lsr-AMA-10",
      "properties": {
        "report_id": "iem-lsr-AMA-10",
        "report_type": "TSTM WND GST",
        "event_category": "thunderstorm_wind",
        "valid_utc": "202604120207",
        "standard_time_display": "2026-04-11 20:07 CST",
        "wfo": "AMA",
        "county_or_zone": "Texas",
        "city": "1 WSW Guymon",
        "state": "OK",
        "magnitude": 59.0,
        "magnitude_units": null,
        "source": "ASOS",
        "event_narrative": "Wind gust of 59 mph measured at the ASOS station KGUY Guymon (ASOS)."
      },
      "geometry": {
        "type": "Point",
        "coordinates": [
          -101.5,
          36.68
        ]
      }
    },
    {
      "type": "Feature",
      "id": "iem-lsr-AMA-11",
      "properties": {
        "report_id": "iem-lsr-AMA-11",
        "report_type": "NON-TSTM WND GST",
        "event_category": "thunderstorm_wind",
        "valid_utc": "202604180144",
        "standard_time_display": "2026-04-17 18:44 MST",
        "wfo": "AMA",
        "county_or_zone": "Hartley",
        "city": "3 SW Dalhart",
        "state": "TX",
        "magnitude": 69.0,
        "magnitude_units": null,
        "source": "ASOS",
        "event_narrative": null
      },
      "geometry": {
        "type": "Point",
        "coordinates": [
          -102.55,
          36.02
        ]
      }
    },
    {
      "type": "Feature",
      "id": "iem-lsr-AMA-12",
      "properties": {
        "report_id": "iem-lsr-AMA-12",
        "report_type": "NON-TSTM WND GST",
        "event_category": "thunderstorm_wind",
        "valid_utc": "202604180204",
        "standard_time_display": "2026-04-17 19:04 MST",
        "wfo": "AMA",
        "county_or_zone": "Deaf Smith",
        "city": "2 WNW Hereford",
        "state": "TX",
        "magnitude": 61.0,
        "magnitude_units": null,
        "source": "Mesonet",
        "event_narrative": "Second consecutive 61 mph gust measured a minute later at 9:05 PM as well."
      },
      "geometry": {
        "type": "Point",
        "coordinates": [
          -102.42,
          34.83
        ]
      }
    },
    {
      "type": "Feature",
      "id": "iem-lsr-AMA-13",
      "properties": {
        "report_id": "iem-lsr-AMA-13",
        "report_type": "NON-TSTM WND GST",
        "event_category": "thunderstorm_wind",
        "valid_utc": "202604180353",
        "standard_time_display": "2026-04-17 21:53 CST",
        "wfo": "AMA",
        "county_or_zone": "Collingsworth",
        "city": "6 SE Wellington",
        "state": "TX",
        "magnitude": 61.0,
        "magnitude_units": null,
        "source": "Mesonet",
        "event_narrative": "measured at the Wellington 6SE mesonet."
      },
      "geometry": {
        "type": "Point",
        "coordinates": [
          -100.16,
          34.79
        ]
      }
    }
  ]
}